{
  "type": "FeatureCollection",
  "features": [
    {
      "type": "Feature",
      "id": 212133,
      "geometry": {
        "type": "Point",
        "coordinates": [
          -101.715568399673,
          32.1559612002749
        ]
      },
      "properties": {
        "OBJECTID": 212133,
        "CROSSING": "796363S",
        "EFFDATE": 1758499200000,
        "REASON": "14",
        "StateCode": "48",
        "CountyCode": "48317",
        "STCYFIPS": "48317",
        "CITYCD": "483176580",
        "RAILROAD": "UP",
        "RRDIV": "TEXOMA",
        "RRSUBDIV": "TOYAH SUB",
        "HIGHWAY": "NA",
        "STREET": "Private",
        "TTSTN": "679770",
        "MILEPOST": "0529.500",
        "TYPEXING": "Private",
        "POSXING": "At Grade",
        "PRVCAT": "14",
        "INIT": "1",
        "LATITUDE": 32.1559612,
        "LONGITUD": -101.7155684,
        "LLSOURCE": "1",
        "WHISTBAN": "0",
        "RRCONT": "4025443721",
        "POLCONT": "8008488715",
        "INV_LINK": "https://safetydata.fra.dot.gov/OfficeofSafety/PublicSite/Crossing/Crossing.aspx?phasetype=C&rpttype=I&txtcrossingnum=796363S",
        "ACC_LINK": "https://safetydata.fra.dot.gov/OfficeofSafety/PublicSite/Crossing/Crossing.aspx?phasetype=C&rpttype=A&txtcrossingnum=796363S",
        "TTSTNNAM": "",
        "XPURPOSE": "1",
        "OPERATINGR": "UP",
        "OPERATIN_1": "Primary",
        "DAYTHRU": 11,
        "NGHTTHRU": 10,
        "MAINTRK": 1,
        "SIDINGTRK": 0,
        "YARDTRK": 0,
        "TRANSITTRK": 0,
        "INDUSTRYTR": 0,
        "OTHRTRK": 0,
        "WDCODE": "",
        "REVISIONDA": "1975/01/01 00:00:00",
        "LASTUPDATE": "9/22/2025",
        "AADT": "1",
        "AADTYEAR": "1970",
        "STATENAME": "TEXAS",
        "STATEAB": "TX",
        "COUNTYNAME": "MARTIN",
        "CITYNAME": "STANTON",
        "LATDD": 32.1559612,
        "LONGDD": -101.7155684,
        "gridlyProductionCertified": true,
        "gridlyClassification": "PUBLIC_ROADWAY",
        "gridlyDisplayName": "Private",
        "gridlyId": "FRA-796363S"
      }
    },
    {
      "type": "Feature",
      "id": 212159,
      "geometry": {
        "type": "Point",
        "coordinates": [
          -101.70075349989,
          32.1613628002656
        ]
      },
      "properties": {
        "OBJECTID": 212159,
        "CROSSING": "796364Y",
        "EFFDATE": 1758499200000,
        "REASON": "14",
        "StateCode": "48",
        "CountyCode": "48317",
        "STCYFIPS": "48317",
        "CITYCD": "483176580",
        "RAILROAD": "UP",
        "RRDIV": "TEXOMA",
        "RRSUBDIV": "TOYAH SUB",
        "HIGHWAY": "NA",
        "STREET": "PRIVATE",
        "TTSTN": "679770",
        "MILEPOST": "0528.560",
        "TYPEXING": "Private",
        "POSXING": "At Grade",
        "PRVCAT": "14",
        "INIT": "1",
        "LATITUDE": 32.1613628,
        "LONGITUD": -101.7007535,
        "LLSOURCE": "1",
        "WHISTBAN": "0",
        "RRCONT": "4025443721",
        "POLCONT": "8008488715",
        "INV_LINK": "https://safetydata.fra.dot.gov/OfficeofSafety/PublicSite/Crossing/Crossing.aspx?phasetype=C&rpttype=I&txtcrossingnum=796364Y",
        "ACC_LINK": "https://safetydata.fra.dot.gov/OfficeofSafety/PublicSite/Crossing/Crossing.aspx?phasetype=C&rpttype=A&txtcrossingnum=796364Y",
        "TTSTNNAM": "",
        "XPURPOSE": "1",
        "OPERATINGR": "UP",
        "OPERATIN_1": "Primary",
        "DAYTHRU": 11,
        "NGHTTHRU": 10,
        "MAINTRK": 1,
        "SIDINGTRK": 0,
        "YARDTRK": 0,
        "TRANSITTRK": 0,
        "INDUSTRYTR": 0,
        "OTHRTRK": 0,
        "WDCODE": "",
        "REVISIONDA": "1975/01/01 00:00:00",
        "LASTUPDATE": "9/22/2025",
        "AADT": "1",
        "AADTYEAR": "1970",
        "STATENAME": "TEXAS",
        "STATEAB": "TX",
        "COUNTYNAME": "MARTIN",
        "CITYNAME": "STANTON",
        "LATDD": 32.1613628,
        "LONGDD": -101.7007535,
        "gridlyProductionCertified": true,
        "gridlyClassification": "PUBLIC_ROADWAY",
        "gridlyDisplayName": "PRIVATE",
        "gridlyId": "FRA-796364Y"
      }
    },
    {
      "type": "Feature",
      "id": 213063,
      "geometry": {
        "type": "Point",
        "coordinates": [
          -101.865297799989,
          32.1012367998832
        ]
      },
      "properties": {
        "OBJECTID": 213063,
        "CROSSING": "796351X",
        "EFFDATE": 1764806400000,
        "REASON": "14",
        "StateCode": "48",
        "CountyCode": "48317",
        "STCYFIPS": "48317",
        "CITYCD": "483176580",
        "RAILROAD": "UP",
        "RRDIV": "TEXOMA",
        "RRSUBDIV": "TOYAH SUB",
        "HIGHWAY": "FM0829",
        "STREET": "FM0829",
        "TTSTN": "679770",
        "MILEPOST": "0539.076",
        "TYPEXING": "Public",
        "POSXING": "RR Under",
        "PRVCAT": "14",
        "INIT": "2",
        "LATITUDE": 32.1012368,
        "LONGITUD": -101.8652978,
        "LLSOURCE": "1",
        "WHISTBAN": "0",
        "RRCONT": "4025443721",
        "POLCONT": "8008488715",
        "INV_LINK": "https://safetydata.fra.dot.gov/OfficeofSafety/PublicSite/Crossing/Crossing.aspx?phasetype=C&rpttype=I&txtcrossingnum=796351X",
        "ACC_LINK": "https://safetydata.fra.dot.gov/OfficeofSafety/PublicSite/Crossing/Crossing.aspx?phasetype=C&rpttype=A&txtcrossingnum=796351X",
        "TTSTNNAM": "",
        "XPURPOSE": "1",
        "OPERATINGR": "UP",
        "OPERATIN_1": "Primary",
        "DAYTHRU": 0,
        "NGHTTHRU": 0,
        "MAINTRK": 1,
        "SIDINGTRK": 0,
        "YARDTRK": 0,
        "TRANSITTRK": 0,
        "INDUSTRYTR": 0,
        "OTHRTRK": 0,
        "WDCODE": "",
        "REVISIONDA": "1975/01/01 00:00:00",
        "LASTUPDATE": "12/4/2025",
        "AADT": "2104",
        "AADTYEAR": "2024",
        "STATENAME": "TEXAS",
        "STATEAB": "TX",
        "COUNTYNAME": "MARTIN",
        "CITYNAME": "STANTON",
        "LATDD": 32.1012368,
        "LONGDD": -101.8652978,
        "gridlyProductionCertified": true,
        "gridlyClassification": "PUBLIC_ROADWAY",
        "gridlyDisplayName": "FM0829",
        "gridlyId": "FRA-796351X"
      }
    },
    {
      "type": "Feature",
      "id": 213928,
      "geometry": {
        "type": "Point",
        "coordinates": [
          -101.824986599606,
          32.1160113999958
        ]
      },
      "properties": {
        "OBJECTID": 213928,
        "CROSSING": "796352E",
        "EFFDATE": 1767830400000,
        "REASON": "14",
        "StateCode": "48",
        "CountyCode": "48317",
        "STCYFIPS": "48317",
        "CITYCD": "483176580",
        "RAILROAD": "UP",
        "RRDIV": "TEXOMA",
        "RRSUBDIV": "TOYAH SUB",
        "HIGHWAY": "IH0020",
        "STREET": "Ih0020 FRONTAGE ",
        "TTSTN": "679770",
        "MILEPOST": "0536.480",
        "TYPEXING": "Public",
        "POSXING": "At Grade",
        "PRVCAT": "14",
        "INIT": "2",
        "LATITUDE": 32.1160114,
        "LONGITUD": -101.8249866,
        "LLSOURCE": "1",
        "WHISTBAN": "0",
        "RRCONT": "4025443721",
        "POLCONT": "8008488715",
        "INV_LINK": "https://safetydata.fra.dot.gov/OfficeofSafety/PublicSite/Crossing/Crossing.aspx?phasetype=C&rpttype=I&txtcrossingnum=796352E",
        "ACC_LINK": "https://safetydata.fra.dot.gov/OfficeofSafety/PublicSite/Crossing/Crossing.aspx?phasetype=C&rpttype=A&txtcrossingnum=796352E",
        "TTSTNNAM": "",
        "XPURPOSE": "1",
        "OPERATINGR": "UP",
        "OPERATIN_1": "Primary",
        "DAYTHRU": 11,
        "NGHTTHRU": 10,
        "MAINTRK": 1,
        "SIDINGTRK": 0,
        "YARDTRK": 0,
        "TRANSITTRK": 0,
        "INDUSTRYTR": 0,
        "OTHRTRK": 0,
        "WDCODE": "All other Gates",
        "REVISIONDA": "1975/01/01 00:00:00",
        "LASTUPDATE": "1/8/2026",
        "AADT": "1603",
        "AADTYEAR": "2022",
        "STATENAME": "TEXAS",
        "STATEAB": "TX",
        "COUNTYNAME": "MARTIN",
        "CITYNAME": "STANTON",
        "LATDD": 32.1160114,
        "LONGDD": -101.8249866,
        "gridlyProductionCertified": true,
        "gridlyClassification": "PUBLIC_ROADWAY",
        "gridlyDisplayName": "Ih0020 FRONTAGE",
        "gridlyId": "FRA-796352E"
      }
    },
    {
      "type": "Feature",
      "id": 213929,
      "geometry": {
        "type": "Point",
        "coordinates": [
          -101.81743400038,
          32.1187400000901
        ]
      },
      "properties": {
        "OBJECTID": 213929,
        "CROSSING": "796353L",
        "EFFDATE": 1767830400000,
        "REASON": "14",
        "StateCode": "48",
        "CountyCode": "48317",
        "STCYFIPS": "48317",
        "CITYCD": "483176580",
        "RAILROAD": "UP",
        "RRDIV": "TEXOMA",
        "RRSUBDIV": "TOYAH SUB",
        "HIGHWAY": "cr3301",
        "STREET": "County Road 3301",
        "TTSTN": "679770",
        "MILEPOST": "0536.010",
        "TYPEXING": "Public",
        "POSXING": "At Grade",
        "PRVCAT": "14",
        "INIT": "2",
        "LATITUDE": 32.11874,
        "LONGITUD": -101.817434,
        "LLSOURCE": "1",
        "WHISTBAN": "0",
        "RRCONT": "4025443721",
        "POLCONT": "8008488715",
        "INV_LINK": "https://safetydata.fra.dot.gov/OfficeofSafety/PublicSite/Crossing/Crossing.aspx?phasetype=C&rpttype=I&txtcrossingnum=796353L",
        "ACC_LINK": "https://safetydata.fra.dot.gov/OfficeofSafety/PublicSite/Crossing/Crossing.aspx?phasetype=C&rpttype=A&txtcrossingnum=796353L",
        "TTSTNNAM": "",
        "XPURPOSE": "1",
        "OPERATINGR": "UP",
        "OPERATIN_1": "Primary",
        "DAYTHRU": 11,
        "NGHTTHRU": 10,
        "MAINTRK": 1,
        "SIDINGTRK": 0,
        "YARDTRK": 0,
        "TRANSITTRK": 0,
        "INDUSTRYTR": 0,
        "OTHRTRK": 0,
        "WDCODE": "All other Gates",
        "REVISIONDA": "1975/01/01 00:00:00",
        "LASTUPDATE": "1/8/2026",
        "AADT": "28",
        "AADTYEAR": "2022",
        "STATENAME": "TEXAS",
        "STATEAB": "TX",
        "COUNTYNAME": "MARTIN",
        "CITYNAME": "STANTON",
        "LATDD": 32.11874,
        "LONGDD": -101.817434,
        "gridlyProductionCertified": true,
        "gridlyClassification": "PUBLIC_ROADWAY",
        "gridlyDisplayName": "County Road 3301",
        "gridlyId": "FRA-796353L"
      }
    },
    {
      "type": "Feature",
      "id": 213930,
      "geometry": {
        "type": "Point",
        "coordinates": [
          -101.810809400368,
          32.1211434996727
        ]
      },
      "properties": {
        "OBJECTID": 213930,
        "CROSSING": "796355A",
        "EFFDATE": 1767830400000,
        "REASON": "14",
        "StateCode": "48",
        "CountyCode": "48317",
        "STCYFIPS": "48317",
        "CITYCD": "483176580",
        "RAILROAD": "UP",
        "RRDIV": "TEXOMA",
        "RRSUBDIV": "TOYAH SUB",
        "HIGHWAY": "cr3351",
        "STREET": "County Road 3351",
        "TTSTN": "679770",
        "MILEPOST": "0535.590",
        "TYPEXING": "Public",
        "POSXING": "At Grade",
        "PRVCAT": "14",
        "INIT": "2",
        "LATITUDE": 32.1211435,
        "LONGITUD": -101.8108094,
        "LLSOURCE": "1",
        "WHISTBAN": "0",
        "RRCONT": "4025443721",
        "POLCONT": "8008488715",
        "INV_LINK": "https://safetydata.fra.dot.gov/OfficeofSafety/PublicSite/Crossing/Crossing.aspx?phasetype=C&rpttype=I&txtcrossingnum=796355A",
        "ACC_LINK": "https://safetydata.fra.dot.gov/OfficeofSafety/PublicSite/Crossing/Crossing.aspx?phasetype=C&rpttype=A&txtcrossingnum=796355A",
        "TTSTNNAM": "",
        "XPURPOSE": "1",
        "OPERATINGR": "UP",
        "OPERATIN_1": "Primary",
        "DAYTHRU": 11,
        "NGHTTHRU": 10,
        "MAINTRK": 1,
        "SIDINGTRK": 0,
        "YARDTRK": 0,
        "TRANSITTRK": 0,
        "INDUSTRYTR": 0,
        "OTHRTRK": 0,
        "WDCODE": "All other Gates",
        "REVISIONDA": "1975/01/01 00:00:00",
        "LASTUPDATE": "1/8/2026",
        "AADT": "119",
        "AADTYEAR": "2022",
        "STATENAME": "TEXAS",
        "STATEAB": "TX",
        "COUNTYNAME": "MARTIN",
        "CITYNAME": "STANTON",
        "LATDD": 32.1211435,
        "LONGDD": -101.8108094,
        "gridlyProductionCertified": true,
        "gridlyClassification": "PUBLIC_ROADWAY",
        "gridlyDisplayName": "County Road 3351",
        "gridlyId": "FRA-796355A"
      }
    },
    {
      "type": "Feature",
      "id": 213931,
      "geometry": {
        "type": "Point",
        "coordinates": [
          -101.801474000138,
          32.1245783996597
        ]
      },
      "properties": {
        "OBJECTID": 213931,
        "CROSSING": "796356G",
        "EFFDATE": 1767830400000,
        "REASON": "14",
        "StateCode": "48",
        "CountyCode": "48317",
        "STCYFIPS": "48317",
        "CITYCD": "483176580",
        "RAILROAD": "UP",
        "RRDIV": "TEXOMA",
        "RRSUBDIV": "TOYAH SUB",
        "HIGHWAY": "sh0137",
        "STREET": "SH0137 / MUSTANG DRIVE",
        "TTSTN": "679770",
        "MILEPOST": "0534.990",
        "TYPEXING": "Public",
        "POSXING": "At Grade",
        "PRVCAT": "14",
        "INIT": "2",
        "LATITUDE": 32.1245784,
        "LONGITUD": -101.801474,
        "LLSOURCE": "1",
        "WHISTBAN": "0",
        "RRCONT": "4025443721",
        "POLCONT": "8008488715",
        "INV_LINK": "https://safetydata.fra.dot.gov/OfficeofSafety/PublicSite/Crossing/Crossing.aspx?phasetype=C&rpttype=I&txtcrossingnum=796356G",
        "ACC_LINK": "https://safetydata.fra.dot.gov/OfficeofSafety/PublicSite/Crossing/Crossing.aspx?phasetype=C&rpttype=A&txtcrossingnum=796356G",
        "TTSTNNAM": "",
        "XPURPOSE": "1",
        "OPERATINGR": "UP",
        "OPERATIN_1": "Primary",
        "DAYTHRU": 11,
        "NGHTTHRU": 10,
        "MAINTRK": 1,
        "SIDINGTRK": 0,
        "YARDTRK": 0,
        "TRANSITTRK": 0,
        "INDUSTRYTR": 0,
        "OTHRTRK": 0,
        "WDCODE": "All other Gates",
        "REVISIONDA": "1975/01/01 00:00:00",
        "LASTUPDATE": "1/8/2026",
        "AADT": "3018",
        "AADTYEAR": "2022",
        "STATENAME": "TEXAS",
        "STATEAB": "TX",
        "COUNTYNAME": "MARTIN",
        "CITYNAME": "STANTON",
        "LATDD": 32.1245784,
        "LONGDD": -101.801474,
        "gridlyProductionCertified": true,
        "gridlyClassification": "PUBLIC_ROADWAY",
        "gridlyDisplayName": "SH0137 / MUSTANG DRIVE",
        "gridlyId": "FRA-796356G"
      }
    },
    {
      "type": "Feature",
      "id": 213932,
      "geometry": {
        "type": "Point",
        "coordinates": [
          -101.788357899897,
          32.1293643998288
        ]
      },
      "properties": {
        "OBJECTID": 213932,
        "CROSSING": "796360W",
        "EFFDATE": 1767830400000,
        "REASON": "14",
        "StateCode": "48",
        "CountyCode": "48317",
        "STCYFIPS": "48317",
        "CITYCD": "483176580",
        "RAILROAD": "UP",
        "RRDIV": "TEXOMA",
        "RRSUBDIV": "TOYAH SUB",
        "HIGHWAY": "lS0000",
        "STREET": "SAINT MARY STREET",
        "TTSTN": "679770",
        "MILEPOST": "0534.170",
        "TYPEXING": "Public",
        "POSXING": "At Grade",
        "PRVCAT": "14",
        "INIT": "2",
        "LATITUDE": 32.1293644,
        "LONGITUD": -101.7883579,
        "LLSOURCE": "1",
        "WHISTBAN": "0",
        "RRCONT": "4025443721",
        "POLCONT": "8008488715",
        "INV_LINK": "https://safetydata.fra.dot.gov/OfficeofSafety/PublicSite/Crossing/Crossing.aspx?phasetype=C&rpttype=I&txtcrossingnum=796360W",
        "ACC_LINK": "https://safetydata.fra.dot.gov/OfficeofSafety/PublicSite/Crossing/Crossing.aspx?phasetype=C&rpttype=A&txtcrossingnum=796360W",
        "TTSTNNAM": "",
        "XPURPOSE": "1",
        "OPERATINGR": "UP",
        "OPERATIN_1": "Primary",
        "DAYTHRU": 11,
        "NGHTTHRU": 10,
        "MAINTRK": 1,
        "SIDINGTRK": 0,
        "YARDTRK": 0,
        "TRANSITTRK": 0,
        "INDUSTRYTR": 0,
        "OTHRTRK": 1,
        "WDCODE": "All other Gates",
        "REVISIONDA": "1975/01/01 00:00:00",
        "LASTUPDATE": "1/8/2026",
        "AADT": "883",
        "AADTYEAR": "2022",
        "STATENAME": "TEXAS",
        "STATEAB": "TX",
        "COUNTYNAME": "MARTIN",
        "CITYNAME": "STANTON",
        "LATDD": 32.1293644,
        "LONGDD": -101.7883579,
        "gridlyProductionCertified": true,
        "gridlyClassification": "PUBLIC_ROADWAY",
        "gridlyDisplayName": "SAINT MARY STREET",
        "gridlyId": "FRA-796360W"
      }
    },
    {
      "type": "Feature",
      "id": 213933,
      "geometry": {
        "type": "Point",
        "coordinates": [
          -101.769893700273,
          32.136091999863
        ]
      },
      "properties": {
        "OBJECTID": 213933,
        "CROSSING": "796362K",
        "EFFDATE": 1767830400000,
        "REASON": "14",
        "StateCode": "48",
        "CountyCode": "48317",
        "STCYFIPS": "48317",
        "CITYCD": "483176580",
        "RAILROAD": "UP",
        "RRDIV": "TEXOMA",
        "RRSUBDIV": "TOYAH SUB",
        "HIGHWAY": "cr3601",
        "STREET": "county road 3601",
        "TTSTN": "679770",
        "MILEPOST": "0532.990",
        "TYPEXING": "Public",
        "POSXING": "At Grade",
        "PRVCAT": "14",
        "INIT": "2",
        "LATITUDE": 32.136092,
        "LONGITUD": -101.7698937,
        "LLSOURCE": "1",
        "WHISTBAN": "0",
        "RRCONT": "4025443721",
        "POLCONT": "8008488715",
        "INV_LINK": "https://safetydata.fra.dot.gov/OfficeofSafety/PublicSite/Crossing/Crossing.aspx?phasetype=C&rpttype=I&txtcrossingnum=796362K",
        "ACC_LINK": "https://safetydata.fra.dot.gov/OfficeofSafety/PublicSite/Crossing/Crossing.aspx?phasetype=C&rpttype=A&txtcrossingnum=796362K",
        "TTSTNNAM": "",
        "XPURPOSE": "1",
        "OPERATINGR": "UP",
        "OPERATIN_1": "Primary",
        "DAYTHRU": 11,
        "NGHTTHRU": 10,
        "MAINTRK": 1,
        "SIDINGTRK": 1,
        "YARDTRK": 0,
        "TRANSITTRK": 0,
        "INDUSTRYTR": 0,
        "OTHRTRK": 1,
        "WDCODE": "All other Gates",
        "REVISIONDA": "1975/01/01 00:00:00",
        "LASTUPDATE": "1/8/2026",
        "AADT": "674",
        "AADTYEAR": "2022",
        "STATENAME": "TEXAS",
        "STATEAB": "TX",
        "COUNTYNAME": "MARTIN",
        "CITYNAME": "STANTON",
        "LATDD": 32.136092,
        "LONGDD": -101.7698937,
        "gridlyProductionCertified": true,
        "gridlyClassification": "PUBLIC_ROADWAY",
        "gridlyDisplayName": "county road 3601",
        "gridlyId": "FRA-796362K"
      }
    },
    {
      "type": "Feature",
      "id": 213934,
      "geometry": {
        "type": "Point",
        "coordinates": [
          -101.789335300164,
          32.1289825002766
        ]
      },
      "properties": {
        "OBJECTID": 213934,
        "CROSSING": "796359C",
        "EFFDATE": 1767830400000,
        "REASON": "14",
        "StateCode": "48",
        "CountyCode": "48317",
        "STCYFIPS": "48317",
        "CITYCD": "483176580",
        "RAILROAD": "UP",
        "RRDIV": "TEXOMA",
        "RRSUBDIV": "TOYAH SUB",
        "HIGHWAY": "lS0000",
        "STREET": "SAINT PETER STREET",
        "TTSTN": "679770",
        "MILEPOST": "0534.230",
        "TYPEXING": "Public",
        "POSXING": "At Grade",
        "PRVCAT": "14",
        "INIT": "2",
        "LATITUDE": 32.1289825,
        "LONGITUD": -101.7893353,
        "LLSOURCE": "1",
        "WHISTBAN": "0",
        "RRCONT": "4025443721",
        "POLCONT": "8008488715",
        "INV_LINK": "https://safetydata.fra.dot.gov/OfficeofSafety/PublicSite/Crossing/Crossing.aspx?phasetype=C&rpttype=I&txtcrossingnum=796359C",
        "ACC_LINK": "https://safetydata.fra.dot.gov/OfficeofSafety/PublicSite/Crossing/Crossing.aspx?phasetype=C&rpttype=A&txtcrossingnum=796359C",
        "TTSTNNAM": "",
        "XPURPOSE": "1",
        "OPERATINGR": "UP",
        "OPERATIN_1": "Primary",
        "DAYTHRU": 11,
        "NGHTTHRU": 10,
        "MAINTRK": 1,
        "SIDINGTRK": 0,
        "YARDTRK": 0,
        "TRANSITTRK": 0,
        "INDUSTRYTR": 0,
        "OTHRTRK": 1,
        "WDCODE": "All other Gates",
        "REVISIONDA": "1975/01/01 00:00:00",
        "LASTUPDATE": "1/8/2026",
        "AADT": "342",
        "AADTYEAR": "2022",
        "STATENAME": "TEXAS",
        "STATEAB": "TX",
        "COUNTYNAME": "MARTIN",
        "CITYNAME": "STANTON",
        "LATDD": 32.1289825,
        "LONGDD": -101.7893353,
        "gridlyProductionCertified": true,
        "gridlyClassification": "PUBLIC_ROADWAY",
        "gridlyDisplayName": "SAINT PETER STREET",
        "gridlyId": "FRA-796359C"
      }
    },
    {
      "type": "Feature",
      "id": 213935,
      "geometry": {
        "type": "Point",
        "coordinates": [
          -101.793257899853,
          32.1275618997265
        ]
      },
      "properties": {
        "OBJECTID": 213935,
        "CROSSING": "796358V",
        "EFFDATE": 1767830400000,
        "REASON": "14",
        "StateCode": "48",
        "CountyCode": "48317",
        "STCYFIPS": "48317",
        "CITYCD": "483176580",
        "RAILROAD": "UP",
        "RRDIV": "TEXOMA",
        "RRSUBDIV": "TOYAH SUB",
        "HIGHWAY": "lS0000",
        "STREET": "SAINT BONIFACE STREET",
        "TTSTN": "679770",
        "MILEPOST": "0534.470",
        "TYPEXING": "Public",
        "POSXING": "At Grade",
        "PRVCAT": "14",
        "INIT": "2",
        "LATITUDE": 32.1275619,
        "LONGITUD": -101.7932579,
        "LLSOURCE": "1",
        "WHISTBAN": "0",
        "RRCONT": "4025443721",
        "POLCONT": "8008488715",
        "INV_LINK": "https://safetydata.fra.dot.gov/OfficeofSafety/PublicSite/Crossing/Crossing.aspx?phasetype=C&rpttype=I&txtcrossingnum=796358V",
        "ACC_LINK": "https://safetydata.fra.dot.gov/OfficeofSafety/PublicSite/Crossing/Crossing.aspx?phasetype=C&rpttype=A&txtcrossingnum=796358V",
        "TTSTNNAM": "",
        "XPURPOSE": "1",
        "OPERATINGR": "UP",
        "OPERATIN_1": "Primary",
        "DAYTHRU": 11,
        "NGHTTHRU": 10,
        "MAINTRK": 1,
        "SIDINGTRK": 0,
        "YARDTRK": 1,
        "TRANSITTRK": 0,
        "INDUSTRYTR": 0,
        "OTHRTRK": 1,
        "WDCODE": "All other Gates",
        "REVISIONDA": "1975/01/01 00:00:00",
        "LASTUPDATE": "1/8/2026",
        "AADT": "616",
        "AADTYEAR": "2022",
        "STATENAME": "TEXAS",
        "STATEAB": "TX",
        "COUNTYNAME": "MARTIN",
        "CITYNAME": "STANTON",
        "LATDD": 32.1275619,
        "LONGDD": -101.7932579,
        "gridlyProductionCertified": true,
        "gridlyClassification": "PUBLIC_ROADWAY",
        "gridlyDisplayName": "SAINT BONIFACE STREET",
        "gridlyId": "FRA-796358V"
      }
    },
    {
      "type": "Feature",
      "id": 213936,
      "geometry": {
        "type": "Point",
        "coordinates": [
          -101.784465900419,
          32.1307619999069
        ]
      },
      "properties": {
        "OBJECTID": 213936,
        "CROSSING": "796361D",
        "EFFDATE": 1767830400000,
        "REASON": "14",
        "StateCode": "48",
        "CountyCode": "48317",
        "STCYFIPS": "48317",
        "CITYCD": "483176580",
        "RAILROAD": "UP",
        "RRDIV": "TEXOMA",
        "RRSUBDIV": "TOYAH SUB",
        "HIGHWAY": "lS0000",
        "STREET": "BEAUGARD STREET",
        "TTSTN": "679770",
        "MILEPOST": "0533.910",
        "TYPEXING": "Public",
        "POSXING": "At Grade",
        "PRVCAT": "14",
        "INIT": "2",
        "LATITUDE": 32.130762,
        "LONGITUD": -101.7844659,
        "LLSOURCE": "1",
        "WHISTBAN": "0",
        "RRCONT": "4025443721",
        "POLCONT": "8008488715",
        "INV_LINK": "https://safetydata.fra.dot.gov/OfficeofSafety/PublicSite/Crossing/Crossing.aspx?phasetype=C&rpttype=I&txtcrossingnum=796361D",
        "ACC_LINK": "https://safetydata.fra.dot.gov/OfficeofSafety/PublicSite/Crossing/Crossing.aspx?phasetype=C&rpttype=A&txtcrossingnum=796361D",
        "TTSTNNAM": "",
        "XPURPOSE": "1",
        "OPERATINGR": "UP",
        "OPERATIN_1": "Primary",
        "DAYTHRU": 11,
        "NGHTTHRU": 10,
        "MAINTRK": 1,
        "SIDINGTRK": 1,
        "YARDTRK": 0,
        "TRANSITTRK": 0,
        "INDUSTRYTR": 0,
        "OTHRTRK": 1,
        "WDCODE": "All other Gates",
        "REVISIONDA": "1975/01/01 00:00:00",
        "LASTUPDATE": "1/8/2026",
        "AADT": "16",
        "AADTYEAR": "2022",
        "STATENAME": "TEXAS",
        "STATEAB": "TX",
        "COUNTYNAME": "MARTIN",
        "CITYNAME": "STANTON",
        "LATDD": 32.130762,
        "LONGDD": -101.7844659,
        "gridlyProductionCertified": true,
        "gridlyClassification": "PUBLIC_ROADWAY",
        "gridlyDisplayName": "BEAUGARD STREET",
        "gridlyId": "FRA-796361D"
      }
    }
  ]
}
