{
  "type": "FeatureCollection",
  "features": [
    {
      "type": "Feature",
      "id": 200979,
      "geometry": {
        "type": "Point",
        "coordinates": [
          -100.719687999844,
          32.6118740003748
        ]
      },
      "properties": {
        "OBJECTID": 200979,
        "CROSSING": "018695S",
        "EFFDATE": 1372032000000,
        "REASON": "14",
        "StateCode": "48",
        "CountyCode": "48353",
        "STCYFIPS": "48353",
        "CITYCD": "483536720",
        "RAILROAD": "TXOR",
        "RRDIV": "CENTRAL",
        "RRSUBDIV": "SAYARD",
        "HIGHWAY": "NONE",
        "STREET": "NONE",
        "TTSTN": "678924",
        "MILEPOST": "0643.93",
        "TYPEXING": "Private",
        "POSXING": "At Grade",
        "PRVCAT": "14",
        "INIT": "1",
        "LATITUDE": 32.611874,
        "LONGITUD": -100.719688,
        "LLSOURCE": "",
        "WHISTBAN": "0",
        "RRCONT": "8173521549",
        "POLCONT": "8008325452",
        "INV_LINK": "https://safetydata.fra.dot.gov/OfficeofSafety/PublicSite/Crossing/Crossing.aspx?phasetype=C&rpttype=I&txtcrossingnum=018695S",
        "ACC_LINK": "https://safetydata.fra.dot.gov/OfficeofSafety/PublicSite/Crossing/Crossing.aspx?phasetype=C&rpttype=A&txtcrossingnum=018695S",
        "TTSTNNAM": "SHAUFLER",
        "XPURPOSE": "1",
        "OPERATINGR": "TXOR",
        "OPERATIN_1": "Primary",
        "DAYTHRU": 0,
        "NGHTTHRU": 0,
        "MAINTRK": 0,
        "SIDINGTRK": 0,
        "YARDTRK": 0,
        "TRANSITTRK": 0,
        "INDUSTRYTR": 0,
        "OTHRTRK": 0,
        "WDCODE": "No signs or signals",
        "REVISIONDA": "1991/01/01 00:00:00",
        "LASTUPDATE": "6/24/2013",
        "AADT": "",
        "AADTYEAR": "1984",
        "STATENAME": "TEXAS",
        "STATEAB": "TX",
        "COUNTYNAME": "NOLAN",
        "CITYNAME": "SWEETWATER",
        "LATDD": 32.611874,
        "LONGDD": -100.719688,
        "gridlyProductionCertified": true,
        "gridlyClassification": "PUBLIC_ROADWAY",
        "gridlyDisplayName": "NONE",
        "gridlyId": "FRA-018695S"
      }
    },
    {
      "type": "Feature",
      "id": 202700,
      "geometry": {
        "type": "Point",
        "coordinates": [
          -100.664120000422,
          32.5797990002062
        ]
      },
      "properties": {
        "OBJECTID": 202700,
        "CROSSING": "015116V",
        "EFFDATE": 1702339200000,
        "REASON": "20",
        "StateCode": "48",
        "CountyCode": "48415",
        "STCYFIPS": "48415",
        "CITYCD": "483536720",
        "RAILROAD": "BNSF",
        "RRDIV": "RED RIVER",
        "RRSUBDIV": "SLATON",
        "HIGHWAY": "FM 1613",
        "STREET": "FM RD 1613",
        "TTSTN": "679175",
        "MILEPOST": "0775.318",
        "TYPEXING": "Public",
        "POSXING": "At Grade",
        "PRVCAT": "20",
        "INIT": "1",
        "LATITUDE": 32.579799,
        "LONGITUD": -100.66412,
        "LLSOURCE": "1",
        "WHISTBAN": "0",
        "RRCONT": "8173521549",
        "POLCONT": "8008325452",
        "INV_LINK": "https://safetydata.fra.dot.gov/OfficeofSafety/PublicSite/Crossing/Crossing.aspx?phasetype=C&rpttype=I&txtcrossingnum=015116V",
        "ACC_LINK": "https://safetydata.fra.dot.gov/OfficeofSafety/PublicSite/Crossing/Crossing.aspx?phasetype=C&rpttype=A&txtcrossingnum=015116V",
        "TTSTNNAM": "PYRON",
        "XPURPOSE": "1",
        "OPERATINGR": "BNSF",
        "OPERATIN_1": "Primary",
        "DAYTHRU": 5,
        "NGHTTHRU": 5,
        "MAINTRK": 1,
        "SIDINGTRK": 1,
        "YARDTRK": 0,
        "TRANSITTRK": 0,
        "INDUSTRYTR": 0,
        "OTHRTRK": 1,
        "WDCODE": "All other Gates",
        "REVISIONDA": "1996/01/01 00:00:00",
        "LASTUPDATE": "12/12/2023",
        "AADT": "41",
        "AADTYEAR": "2019",
        "STATENAME": "TEXAS",
        "STATEAB": "TX",
        "COUNTYNAME": "SCURRY",
        "CITYNAME": "SWEETWATER",
        "LATDD": 32.579799,
        "LONGDD": -100.66412,
        "gridlyProductionCertified": true,
        "gridlyClassification": "PUBLIC_ROADWAY",
        "gridlyDisplayName": "FM RD 1613",
        "gridlyId": "FRA-015116V"
      }
    },
    {
      "type": "Feature",
      "id": 203556,
      "geometry": {
        "type": "Point",
        "coordinates": [
          -101.080211999855,
          32.9448123000761
        ]
      },
      "properties": {
        "OBJECTID": 203556,
        "CROSSING": "015038R",
        "EFFDATE": 1734393600000,
        "REASON": "14",
        "StateCode": "48",
        "CountyCode": "48415",
        "STCYFIPS": "48415",
        "CITYCD": "484156440",
        "RAILROAD": "BNSF",
        "RRDIV": "RED RIVER",
        "RRSUBDIV": "SLATON",
        "HIGHWAY": "Not Yet Reported by State",
        "STREET": "PRIVATE",
        "TTSTN": "679132",
        "MILEPOST": "0739.120",
        "TYPEXING": "Private",
        "POSXING": "At Grade",
        "PRVCAT": "14",
        "INIT": "1",
        "LATITUDE": 32.9448123,
        "LONGITUD": -101.080212,
        "LLSOURCE": "1",
        "WHISTBAN": "0",
        "RRCONT": "8173521549",
        "POLCONT": "8008325452",
        "INV_LINK": "https://safetydata.fra.dot.gov/OfficeofSafety/PublicSite/Crossing/Crossing.aspx?phasetype=C&rpttype=I&txtcrossingnum=015038R",
        "ACC_LINK": "https://safetydata.fra.dot.gov/OfficeofSafety/PublicSite/Crossing/Crossing.aspx?phasetype=C&rpttype=A&txtcrossingnum=015038R",
        "TTSTNNAM": "FULLERVILLE",
        "XPURPOSE": "1",
        "OPERATINGR": "BNSF",
        "OPERATIN_1": "Primary",
        "DAYTHRU": 3,
        "NGHTTHRU": 3,
        "MAINTRK": 1,
        "SIDINGTRK": 0,
        "YARDTRK": 0,
        "TRANSITTRK": 0,
        "INDUSTRYTR": 0,
        "OTHRTRK": 0,
        "WDCODE": "",
        "REVISIONDA": "1996/01/01 00:00:00",
        "LASTUPDATE": "12/17/2024",
        "AADT": "",
        "AADTYEAR": "1970",
        "STATENAME": "TEXAS",
        "STATEAB": "TX",
        "COUNTYNAME": "SCURRY",
        "CITYNAME": "SNYDER",
        "LATDD": 32.9448123,
        "LONGDD": -101.080212,
        "gridlyProductionCertified": true,
        "gridlyClassification": "PUBLIC_ROADWAY",
        "gridlyDisplayName": "PRIVATE",
        "gridlyId": "FRA-015038R"
      }
    },
    {
      "type": "Feature",
      "id": 203557,
      "geometry": {
        "type": "Point",
        "coordinates": [
          -101.05439300015,
          32.8885905996764
        ]
      },
      "properties": {
        "OBJECTID": 203557,
        "CROSSING": "015041Y",
        "EFFDATE": 1734393600000,
        "REASON": "14",
        "StateCode": "48",
        "CountyCode": "48415",
        "STCYFIPS": "48415",
        "CITYCD": "484156440",
        "RAILROAD": "BNSF",
        "RRDIV": "RED RIVER",
        "RRSUBDIV": "SLATON",
        "HIGHWAY": "FM 0612",
        "STREET": "FM RD 612",
        "TTSTN": "679132",
        "MILEPOST": "0743.350",
        "TYPEXING": "Public",
        "POSXING": "At Grade",
        "PRVCAT": "14",
        "INIT": "1",
        "LATITUDE": 32.8885906,
        "LONGITUD": -101.054393,
        "LLSOURCE": "1",
        "WHISTBAN": "0",
        "RRCONT": "8173521549",
        "POLCONT": "8008325452",
        "INV_LINK": "https://safetydata.fra.dot.gov/OfficeofSafety/PublicSite/Crossing/Crossing.aspx?phasetype=C&rpttype=I&txtcrossingnum=015041Y",
        "ACC_LINK": "https://safetydata.fra.dot.gov/OfficeofSafety/PublicSite/Crossing/Crossing.aspx?phasetype=C&rpttype=A&txtcrossingnum=015041Y",
        "TTSTNNAM": "FULLERVILLE",
        "XPURPOSE": "1",
        "OPERATINGR": "BNSF",
        "OPERATIN_1": "Primary",
        "DAYTHRU": 3,
        "NGHTTHRU": 3,
        "MAINTRK": 1,
        "SIDINGTRK": 0,
        "YARDTRK": 0,
        "TRANSITTRK": 0,
        "INDUSTRYTR": 0,
        "OTHRTRK": 0,
        "WDCODE": "All other Gates",
        "REVISIONDA": "1996/01/01 00:00:00",
        "LASTUPDATE": "12/17/2024",
        "AADT": "177",
        "AADTYEAR": "2019",
        "STATENAME": "TEXAS",
        "STATEAB": "TX",
        "COUNTYNAME": "SCURRY",
        "CITYNAME": "SNYDER",
        "LATDD": 32.8885906,
        "LONGDD": -101.054393,
        "gridlyProductionCertified": true,
        "gridlyClassification": "PUBLIC_ROADWAY",
        "gridlyDisplayName": "FM RD 612",
        "gridlyId": "FRA-015041Y"
      }
    },
    {
      "type": "Feature",
      "id": 203558,
      "geometry": {
        "type": "Point",
        "coordinates": [
          -101.042261999636,
          32.8728784002794
        ]
      },
      "properties": {
        "OBJECTID": 203558,
        "CROSSING": "015042F",
        "EFFDATE": 1734393600000,
        "REASON": "14",
        "StateCode": "48",
        "CountyCode": "48415",
        "STCYFIPS": "48415",
        "CITYCD": "484156440",
        "RAILROAD": "BNSF",
        "RRDIV": "RED RIVER",
        "RRSUBDIV": "SLATON",
        "HIGHWAY": "CO 2134",
        "STREET": "CO RD",
        "TTSTN": "679138",
        "MILEPOST": "0744.710",
        "TYPEXING": "Public",
        "POSXING": "At Grade",
        "PRVCAT": "14",
        "INIT": "1",
        "LATITUDE": 32.8728784,
        "LONGITUD": -101.042262,
        "LLSOURCE": "1",
        "WHISTBAN": "0",
        "RRCONT": "8173521549",
        "POLCONT": "8008325452",
        "INV_LINK": "https://safetydata.fra.dot.gov/OfficeofSafety/PublicSite/Crossing/Crossing.aspx?phasetype=C&rpttype=I&txtcrossingnum=015042F",
        "ACC_LINK": "https://safetydata.fra.dot.gov/OfficeofSafety/PublicSite/Crossing/Crossing.aspx?phasetype=C&rpttype=A&txtcrossingnum=015042F",
        "TTSTNNAM": "DERMOTT",
        "XPURPOSE": "1",
        "OPERATINGR": "BNSF",
        "OPERATIN_1": "Primary",
        "DAYTHRU": 3,
        "NGHTTHRU": 3,
        "MAINTRK": 1,
        "SIDINGTRK": 0,
        "YARDTRK": 0,
        "TRANSITTRK": 0,
        "INDUSTRYTR": 0,
        "OTHRTRK": 0,
        "WDCODE": "Crossbucks",
        "REVISIONDA": "1996/01/01 00:00:00",
        "LASTUPDATE": "12/17/2024",
        "AADT": "90",
        "AADTYEAR": "2019",
        "STATENAME": "TEXAS",
        "STATEAB": "TX",
        "COUNTYNAME": "SCURRY",
        "CITYNAME": "SNYDER",
        "LATDD": 32.8728784,
        "LONGDD": -101.042262,
        "gridlyProductionCertified": true,
        "gridlyClassification": "PUBLIC_ROADWAY",
        "gridlyDisplayName": "CO RD",
        "gridlyId": "FRA-015042F"
      }
    },
    {
      "type": "Feature",
      "id": 203559,
      "geometry": {
        "type": "Point",
        "coordinates": [
          -101.02153600023,
          32.8578057999292
        ]
      },
      "properties": {
        "OBJECTID": 203559,
        "CROSSING": "015044U",
        "EFFDATE": 1734393600000,
        "REASON": "14",
        "StateCode": "48",
        "CountyCode": "48415",
        "STCYFIPS": "48415",
        "CITYCD": "484156440",
        "RAILROAD": "BNSF",
        "RRDIV": "RED RIVER",
        "RRSUBDIV": "SLATON",
        "HIGHWAY": "CO 2126",
        "STREET": "CO RD",
        "TTSTN": "679138",
        "MILEPOST": "0746.303",
        "TYPEXING": "Public",
        "POSXING": "At Grade",
        "PRVCAT": "14",
        "INIT": "1",
        "LATITUDE": 32.8578058,
        "LONGITUD": -101.021536,
        "LLSOURCE": "1",
        "WHISTBAN": "0",
        "RRCONT": "8173521549",
        "POLCONT": "8008325452",
        "INV_LINK": "https://safetydata.fra.dot.gov/OfficeofSafety/PublicSite/Crossing/Crossing.aspx?phasetype=C&rpttype=I&txtcrossingnum=015044U",
        "ACC_LINK": "https://safetydata.fra.dot.gov/OfficeofSafety/PublicSite/Crossing/Crossing.aspx?phasetype=C&rpttype=A&txtcrossingnum=015044U",
        "TTSTNNAM": "DERMOTT",
        "XPURPOSE": "1",
        "OPERATINGR": "BNSF",
        "OPERATIN_1": "Primary",
        "DAYTHRU": 3,
        "NGHTTHRU": 3,
        "MAINTRK": 1,
        "SIDINGTRK": 0,
        "YARDTRK": 0,
        "TRANSITTRK": 0,
        "INDUSTRYTR": 0,
        "OTHRTRK": 0,
        "WDCODE": "All other Gates",
        "REVISIONDA": "1996/01/01 00:00:00",
        "LASTUPDATE": "12/17/2024",
        "AADT": "92",
        "AADTYEAR": "2019",
        "STATENAME": "TEXAS",
        "STATEAB": "TX",
        "COUNTYNAME": "SCURRY",
        "CITYNAME": "SNYDER",
        "LATDD": 32.8578058,
        "LONGDD": -101.021536,
        "gridlyProductionCertified": true,
        "gridlyClassification": "PUBLIC_ROADWAY",
        "gridlyDisplayName": "CO RD",
        "gridlyId": "FRA-015044U"
      }
    },
    {
      "type": "Feature",
      "id": 203560,
      "geometry": {
        "type": "Point",
        "coordinates": [
          -100.993544000107,
          32.8374239996965
        ]
      },
      "properties": {
        "OBJECTID": 203560,
        "CROSSING": "015047P",
        "EFFDATE": 1734393600000,
        "REASON": "14",
        "StateCode": "48",
        "CountyCode": "48415",
        "STCYFIPS": "48415",
        "CITYCD": "484156440",
        "RAILROAD": "BNSF",
        "RRDIV": "RED RIVER",
        "RRSUBDIV": "SLATON",
        "HIGHWAY": "CO 0253",
        "STREET": "CO RD",
        "TTSTN": "679138",
        "MILEPOST": "0748.460",
        "TYPEXING": "Public",
        "POSXING": "At Grade",
        "PRVCAT": "14",
        "INIT": "1",
        "LATITUDE": 32.837424,
        "LONGITUD": -100.993544,
        "LLSOURCE": "1",
        "WHISTBAN": "0",
        "RRCONT": "8173521549",
        "POLCONT": "8008325452",
        "INV_LINK": "https://safetydata.fra.dot.gov/OfficeofSafety/PublicSite/Crossing/Crossing.aspx?phasetype=C&rpttype=I&txtcrossingnum=015047P",
        "ACC_LINK": "https://safetydata.fra.dot.gov/OfficeofSafety/PublicSite/Crossing/Crossing.aspx?phasetype=C&rpttype=A&txtcrossingnum=015047P",
        "TTSTNNAM": "DERMOTT",
        "XPURPOSE": "1",
        "OPERATINGR": "BNSF",
        "OPERATIN_1": "Primary",
        "DAYTHRU": 3,
        "NGHTTHRU": 3,
        "MAINTRK": 1,
        "SIDINGTRK": 0,
        "YARDTRK": 0,
        "TRANSITTRK": 0,
        "INDUSTRYTR": 0,
        "OTHRTRK": 0,
        "WDCODE": "Flashing lights",
        "REVISIONDA": "1996/01/01 00:00:00",
        "LASTUPDATE": "12/17/2024",
        "AADT": "151",
        "AADTYEAR": "2019",
        "STATENAME": "TEXAS",
        "STATEAB": "TX",
        "COUNTYNAME": "SCURRY",
        "CITYNAME": "SNYDER",
        "LATDD": 32.837424,
        "LONGDD": -100.993544,
        "gridlyProductionCertified": true,
        "gridlyClassification": "PUBLIC_ROADWAY",
        "gridlyDisplayName": "CO RD",
        "gridlyId": "FRA-015047P"
      }
    },
    {
      "type": "Feature",
      "id": 203561,
      "geometry": {
        "type": "Point",
        "coordinates": [
          -100.968686999951,
          32.8029013002729
        ]
      },
      "properties": {
        "OBJECTID": 203561,
        "CROSSING": "015049D",
        "EFFDATE": 1734393600000,
        "REASON": "14",
        "StateCode": "48",
        "CountyCode": "48415",
        "STCYFIPS": "48415",
        "CITYCD": "484156440",
        "RAILROAD": "BNSF",
        "RRDIV": "RED RIVER",
        "RRSUBDIV": "SLATON",
        "HIGHWAY": "CO 0000",
        "STREET": "PRIVATE",
        "TTSTN": "679138",
        "MILEPOST": "0751.270",
        "TYPEXING": "Private",
        "POSXING": "At Grade",
        "PRVCAT": "14",
        "INIT": "1",
        "LATITUDE": 32.8029013,
        "LONGITUD": -100.968687,
        "LLSOURCE": "1",
        "WHISTBAN": "0",
        "RRCONT": "8173521549",
        "POLCONT": "8008325452",
        "INV_LINK": "https://safetydata.fra.dot.gov/OfficeofSafety/PublicSite/Crossing/Crossing.aspx?phasetype=C&rpttype=I&txtcrossingnum=015049D",
        "ACC_LINK": "https://safetydata.fra.dot.gov/OfficeofSafety/PublicSite/Crossing/Crossing.aspx?phasetype=C&rpttype=A&txtcrossingnum=015049D",
        "TTSTNNAM": "DERMOTT",
        "XPURPOSE": "1",
        "OPERATINGR": "BNSF",
        "OPERATIN_1": "Primary",
        "DAYTHRU": 3,
        "NGHTTHRU": 3,
        "MAINTRK": 1,
        "SIDINGTRK": 0,
        "YARDTRK": 0,
        "TRANSITTRK": 0,
        "INDUSTRYTR": 0,
        "OTHRTRK": 0,
        "WDCODE": "",
        "REVISIONDA": "1996/01/01 00:00:00",
        "LASTUPDATE": "12/17/2024",
        "AADT": "000015",
        "AADTYEAR": "1991",
        "STATENAME": "TEXAS",
        "STATEAB": "TX",
        "COUNTYNAME": "SCURRY",
        "CITYNAME": "SNYDER",
        "LATDD": 32.8029013,
        "LONGDD": -100.968687,
        "gridlyProductionCertified": true,
        "gridlyClassification": "PUBLIC_ROADWAY",
        "gridlyDisplayName": "PRIVATE",
        "gridlyId": "FRA-015049D"
      }
    },
    {
      "type": "Feature",
      "id": 203562,
      "geometry": {
        "type": "Point",
        "coordinates": [
          -100.960554999943,
          32.7913865001187
        ]
      },
      "properties": {
        "OBJECTID": 203562,
        "CROSSING": "015050X",
        "EFFDATE": 1734393600000,
        "REASON": "14",
        "StateCode": "48",
        "CountyCode": "48415",
        "STCYFIPS": "48415",
        "CITYCD": "484156440",
        "RAILROAD": "BNSF",
        "RRDIV": "RED RIVER",
        "RRSUBDIV": "SLATON",
        "HIGHWAY": "FM 1611",
        "STREET": "FM RD 1611",
        "TTSTN": "679157",
        "MILEPOST": "0752.196",
        "TYPEXING": "Public",
        "POSXING": "At Grade",
        "PRVCAT": "14",
        "INIT": "1",
        "LATITUDE": 32.7913865,
        "LONGITUD": -100.960555,
        "LLSOURCE": "1",
        "WHISTBAN": "0",
        "RRCONT": "8173521549",
        "POLCONT": "8008325452",
        "INV_LINK": "https://safetydata.fra.dot.gov/OfficeofSafety/PublicSite/Crossing/Crossing.aspx?phasetype=C&rpttype=I&txtcrossingnum=015050X",
        "ACC_LINK": "https://safetydata.fra.dot.gov/OfficeofSafety/PublicSite/Crossing/Crossing.aspx?phasetype=C&rpttype=A&txtcrossingnum=015050X",
        "TTSTNNAM": "SNYDER",
        "XPURPOSE": "1",
        "OPERATINGR": "BNSF",
        "OPERATIN_1": "Primary",
        "DAYTHRU": 3,
        "NGHTTHRU": 3,
        "MAINTRK": 1,
        "SIDINGTRK": 0,
        "YARDTRK": 0,
        "TRANSITTRK": 0,
        "INDUSTRYTR": 0,
        "OTHRTRK": 0,
        "WDCODE": "All other Gates",
        "REVISIONDA": "1996/01/01 00:00:00",
        "LASTUPDATE": "12/17/2024",
        "AADT": "1076",
        "AADTYEAR": "2019",
        "STATENAME": "TEXAS",
        "STATEAB": "TX",
        "COUNTYNAME": "SCURRY",
        "CITYNAME": "SNYDER",
        "LATDD": 32.7913865,
        "LONGDD": -100.960555,
        "gridlyProductionCertified": true,
        "gridlyClassification": "PUBLIC_ROADWAY",
        "gridlyDisplayName": "FM RD 1611",
        "gridlyId": "FRA-015050X"
      }
    },
    {
      "type": "Feature",
      "id": 203563,
      "geometry": {
        "type": "Point",
        "coordinates": [
          -100.956118999595,
          32.7863120999865
        ]
      },
      "properties": {
        "OBJECTID": 203563,
        "CROSSING": "015086F",
        "EFFDATE": 1734393600000,
        "REASON": "14",
        "StateCode": "48",
        "CountyCode": "48415",
        "STCYFIPS": "48415",
        "CITYCD": "484156440",
        "RAILROAD": "BNSF",
        "RRDIV": "RED RIVER",
        "RRSUBDIV": "SLATON",
        "HIGHWAY": "BU0084G",
        "STREET": "SPUR 401",
        "TTSTN": "679157",
        "MILEPOST": "0752.630",
        "TYPEXING": "Public",
        "POSXING": "RR Over",
        "PRVCAT": "14",
        "INIT": "1",
        "LATITUDE": 32.7863121,
        "LONGITUD": -100.956119,
        "LLSOURCE": "1",
        "WHISTBAN": "0",
        "RRCONT": "8173521549",
        "POLCONT": "8008325452",
        "INV_LINK": "https://safetydata.fra.dot.gov/OfficeofSafety/PublicSite/Crossing/Crossing.aspx?phasetype=C&rpttype=I&txtcrossingnum=015086F",
        "ACC_LINK": "https://safetydata.fra.dot.gov/OfficeofSafety/PublicSite/Crossing/Crossing.aspx?phasetype=C&rpttype=A&txtcrossingnum=015086F",
        "TTSTNNAM": "SNYDER",
        "XPURPOSE": "1",
        "OPERATINGR": "BNSF",
        "OPERATIN_1": "Primary",
        "DAYTHRU": 3,
        "NGHTTHRU": 3,
        "MAINTRK": 1,
        "SIDINGTRK": 0,
        "YARDTRK": 0,
        "TRANSITTRK": 0,
        "INDUSTRYTR": 0,
        "OTHRTRK": 0,
        "WDCODE": "",
        "REVISIONDA": "1996/01/01 00:00:00",
        "LASTUPDATE": "12/17/2024",
        "AADT": "000250",
        "AADTYEAR": "2010",
        "STATENAME": "TEXAS",
        "STATEAB": "TX",
        "COUNTYNAME": "SCURRY",
        "CITYNAME": "SNYDER",
        "LATDD": 32.7863121,
        "LONGDD": -100.956119,
        "gridlyProductionCertified": true,
        "gridlyClassification": "PUBLIC_ROADWAY",
        "gridlyDisplayName": "SPUR 401",
        "gridlyId": "FRA-015086F"
      }
    },
    {
      "type": "Feature",
      "id": 203564,
      "geometry": {
        "type": "Point",
        "coordinates": [
          -100.944728999596,
          32.7730535996318
        ]
      },
      "properties": {
        "OBJECTID": 203564,
        "CROSSING": "015087M",
        "EFFDATE": 1734393600000,
        "REASON": "14",
        "StateCode": "48",
        "CountyCode": "48415",
        "STCYFIPS": "48415",
        "CITYCD": "484156440",
        "RAILROAD": "BNSF",
        "RRDIV": "RED RIVER",
        "RRSUBDIV": "SLATON",
        "HIGHWAY": "CO 0227",
        "STREET": "CO RD",
        "TTSTN": "679157",
        "MILEPOST": "0753.760",
        "TYPEXING": "Public",
        "POSXING": "At Grade",
        "PRVCAT": "14",
        "INIT": "1",
        "LATITUDE": 32.7730536,
        "LONGITUD": -100.944729,
        "LLSOURCE": "1",
        "WHISTBAN": "0",
        "RRCONT": "8173521549",
        "POLCONT": "8008325452",
        "INV_LINK": "https://safetydata.fra.dot.gov/OfficeofSafety/PublicSite/Crossing/Crossing.aspx?phasetype=C&rpttype=I&txtcrossingnum=015087M",
        "ACC_LINK": "https://safetydata.fra.dot.gov/OfficeofSafety/PublicSite/Crossing/Crossing.aspx?phasetype=C&rpttype=A&txtcrossingnum=015087M",
        "TTSTNNAM": "SNYDER",
        "XPURPOSE": "1",
        "OPERATINGR": "BNSF",
        "OPERATIN_1": "Primary",
        "DAYTHRU": 3,
        "NGHTTHRU": 3,
        "MAINTRK": 1,
        "SIDINGTRK": 0,
        "YARDTRK": 0,
        "TRANSITTRK": 0,
        "INDUSTRYTR": 0,
        "OTHRTRK": 0,
        "WDCODE": "Crossbucks",
        "REVISIONDA": "1996/01/01 00:00:00",
        "LASTUPDATE": "12/17/2024",
        "AADT": "90",
        "AADTYEAR": "2019",
        "STATENAME": "TEXAS",
        "STATEAB": "TX",
        "COUNTYNAME": "SCURRY",
        "CITYNAME": "SNYDER",
        "LATDD": 32.7730536,
        "LONGDD": -100.944729,
        "gridlyProductionCertified": true,
        "gridlyClassification": "PUBLIC_ROADWAY",
        "gridlyDisplayName": "CO RD",
        "gridlyId": "FRA-015087M"
      }
    },
    {
      "type": "Feature",
      "id": 203565,
      "geometry": {
        "type": "Point",
        "coordinates": [
          -100.928693999909,
          32.7483484996302
        ]
      },
      "properties": {
        "OBJECTID": 203565,
        "CROSSING": "015088U",
        "EFFDATE": 1734393600000,
        "REASON": "14",
        "StateCode": "48",
        "CountyCode": "48415",
        "STCYFIPS": "48415",
        "CITYCD": "484156440",
        "RAILROAD": "BNSF",
        "RRDIV": "RED RIVER",
        "RRSUBDIV": "SLATON",
        "HIGHWAY": "ST 0000",
        "STREET": "HUFFMAN AVE",
        "TTSTN": "679157",
        "MILEPOST": "0755.718",
        "TYPEXING": "Public",
        "POSXING": "At Grade",
        "PRVCAT": "14",
        "INIT": "1",
        "LATITUDE": 32.7483485,
        "LONGITUD": -100.928694,
        "LLSOURCE": "1",
        "WHISTBAN": "0",
        "RRCONT": "8173521549",
        "POLCONT": "8008325452",
        "INV_LINK": "https://safetydata.fra.dot.gov/OfficeofSafety/PublicSite/Crossing/Crossing.aspx?phasetype=C&rpttype=I&txtcrossingnum=015088U",
        "ACC_LINK": "https://safetydata.fra.dot.gov/OfficeofSafety/PublicSite/Crossing/Crossing.aspx?phasetype=C&rpttype=A&txtcrossingnum=015088U",
        "TTSTNNAM": "SNYDER",
        "XPURPOSE": "1",
        "OPERATINGR": "BNSF",
        "OPERATIN_1": "Primary",
        "DAYTHRU": 3,
        "NGHTTHRU": 3,
        "MAINTRK": 1,
        "SIDINGTRK": 0,
        "YARDTRK": 0,
        "TRANSITTRK": 0,
        "INDUSTRYTR": 0,
        "OTHRTRK": 0,
        "WDCODE": "All other Gates",
        "REVISIONDA": "1996/01/01 00:00:00",
        "LASTUPDATE": "12/17/2024",
        "AADT": "1524",
        "AADTYEAR": "2019",
        "STATENAME": "TEXAS",
        "STATEAB": "TX",
        "COUNTYNAME": "SCURRY",
        "CITYNAME": "SNYDER",
        "LATDD": 32.7483485,
        "LONGDD": -100.928694,
        "gridlyProductionCertified": true,
        "gridlyClassification": "PUBLIC_ROADWAY",
        "gridlyDisplayName": "HUFFMAN AVE",
        "gridlyId": "FRA-015088U"
      }
    },
    {
      "type": "Feature",
      "id": 203566,
      "geometry": {
        "type": "Point",
        "coordinates": [
          -100.918144999984,
          32.7322708000891
        ]
      },
      "properties": {
        "OBJECTID": 203566,
        "CROSSING": "015090V",
        "EFFDATE": 1734393600000,
        "REASON": "14",
        "StateCode": "48",
        "CountyCode": "48415",
        "STCYFIPS": "48415",
        "CITYCD": "484156440",
        "RAILROAD": "BNSF",
        "RRDIV": "RED RIVER",
        "RRSUBDIV": "SLATON",
        "HIGHWAY": "TX 208",
        "STREET": "STATE HWY",
        "TTSTN": "679157",
        "MILEPOST": "0756.976",
        "TYPEXING": "Public",
        "POSXING": "At Grade",
        "PRVCAT": "14",
        "INIT": "1",
        "LATITUDE": 32.7322708,
        "LONGITUD": -100.918145,
        "LLSOURCE": "1",
        "WHISTBAN": "0",
        "RRCONT": "8173521549",
        "POLCONT": "8008325452",
        "INV_LINK": "https://safetydata.fra.dot.gov/OfficeofSafety/PublicSite/Crossing/Crossing.aspx?phasetype=C&rpttype=I&txtcrossingnum=015090V",
        "ACC_LINK": "https://safetydata.fra.dot.gov/OfficeofSafety/PublicSite/Crossing/Crossing.aspx?phasetype=C&rpttype=A&txtcrossingnum=015090V",
        "TTSTNNAM": "SNYDER",
        "XPURPOSE": "1",
        "OPERATINGR": "BNSF",
        "OPERATIN_1": "Primary",
        "DAYTHRU": 4,
        "NGHTTHRU": 3,
        "MAINTRK": 1,
        "SIDINGTRK": 1,
        "YARDTRK": 0,
        "TRANSITTRK": 0,
        "INDUSTRYTR": 0,
        "OTHRTRK": 1,
        "WDCODE": "All other Gates",
        "REVISIONDA": "1996/01/01 00:00:00",
        "LASTUPDATE": "12/17/2024",
        "AADT": "4230",
        "AADTYEAR": "2019",
        "STATENAME": "TEXAS",
        "STATEAB": "TX",
        "COUNTYNAME": "SCURRY",
        "CITYNAME": "SNYDER",
        "LATDD": 32.7322708,
        "LONGDD": -100.918145,
        "gridlyProductionCertified": true,
        "gridlyClassification": "PUBLIC_ROADWAY",
        "gridlyDisplayName": "STATE HWY",
        "gridlyId": "FRA-015090V"
      }
    },
    {
      "type": "Feature",
      "id": 203567,
      "geometry": {
        "type": "Point",
        "coordinates": [
          -100.91693300019,
          32.7312211000327
        ]
      },
      "properties": {
        "OBJECTID": 203567,
        "CROSSING": "015091C",
        "EFFDATE": 1734393600000,
        "REASON": "14",
        "StateCode": "48",
        "CountyCode": "48415",
        "STCYFIPS": "48415",
        "CITYCD": "484156440",
        "RAILROAD": "BNSF",
        "RRDIV": "RED RIVER",
        "RRSUBDIV": "SLATON",
        "HIGHWAY": "ST 0000",
        "STREET": "AVE R",
        "TTSTN": "679157",
        "MILEPOST": "0757.078",
        "TYPEXING": "Public",
        "POSXING": "At Grade",
        "PRVCAT": "14",
        "INIT": "1",
        "LATITUDE": 32.7312211,
        "LONGITUD": -100.916933,
        "LLSOURCE": "1",
        "WHISTBAN": "0",
        "RRCONT": "8173521549",
        "POLCONT": "8008325452",
        "INV_LINK": "https://safetydata.fra.dot.gov/OfficeofSafety/PublicSite/Crossing/Crossing.aspx?phasetype=C&rpttype=I&txtcrossingnum=015091C",
        "ACC_LINK": "https://safetydata.fra.dot.gov/OfficeofSafety/PublicSite/Crossing/Crossing.aspx?phasetype=C&rpttype=A&txtcrossingnum=015091C",
        "TTSTNNAM": "SNYDER",
        "XPURPOSE": "1",
        "OPERATINGR": "BNSF",
        "OPERATIN_1": "Primary",
        "DAYTHRU": 4,
        "NGHTTHRU": 3,
        "MAINTRK": 1,
        "SIDINGTRK": 1,
        "YARDTRK": 0,
        "TRANSITTRK": 0,
        "INDUSTRYTR": 0,
        "OTHRTRK": 1,
        "WDCODE": "All other Gates",
        "REVISIONDA": "1996/01/01 00:00:00",
        "LASTUPDATE": "12/17/2024",
        "AADT": "351",
        "AADTYEAR": "2014",
        "STATENAME": "TEXAS",
        "STATEAB": "TX",
        "COUNTYNAME": "SCURRY",
        "CITYNAME": "SNYDER",
        "LATDD": 32.7312211,
        "LONGDD": -100.916933,
        "gridlyProductionCertified": true,
        "gridlyClassification": "PUBLIC_ROADWAY",
        "gridlyDisplayName": "AVE R",
        "gridlyId": "FRA-015091C"
      }
    },
    {
      "type": "Feature",
      "id": 203568,
      "geometry": {
        "type": "Point",
        "coordinates": [
          -100.914409000142,
          32.7290354001838
        ]
      },
      "properties": {
        "OBJECTID": 203568,
        "CROSSING": "015092J",
        "EFFDATE": 1734393600000,
        "REASON": "14",
        "StateCode": "48",
        "CountyCode": "48415",
        "STCYFIPS": "48415",
        "CITYCD": "484156440",
        "RAILROAD": "BNSF",
        "RRDIV": "RED RIVER",
        "RRSUBDIV": "SLATON",
        "HIGHWAY": "Not Yet Reported by State",
        "STREET": "13TH ST",
        "TTSTN": "679157",
        "MILEPOST": "0757.290",
        "TYPEXING": "Public",
        "POSXING": "RR Over",
        "PRVCAT": "14",
        "INIT": "1",
        "LATITUDE": 32.7290354,
        "LONGITUD": -100.914409,
        "LLSOURCE": "1",
        "WHISTBAN": "0",
        "RRCONT": "8173521549",
        "POLCONT": "8008325452",
        "INV_LINK": "https://safetydata.fra.dot.gov/OfficeofSafety/PublicSite/Crossing/Crossing.aspx?phasetype=C&rpttype=I&txtcrossingnum=015092J",
        "ACC_LINK": "https://safetydata.fra.dot.gov/OfficeofSafety/PublicSite/Crossing/Crossing.aspx?phasetype=C&rpttype=A&txtcrossingnum=015092J",
        "TTSTNNAM": "SNYDER",
        "XPURPOSE": "1",
        "OPERATINGR": "BNSF",
        "OPERATIN_1": "Primary",
        "DAYTHRU": 3,
        "NGHTTHRU": 3,
        "MAINTRK": 1,
        "SIDINGTRK": 0,
        "YARDTRK": 0,
        "TRANSITTRK": 0,
        "INDUSTRYTR": 0,
        "OTHRTRK": 0,
        "WDCODE": "",
        "REVISIONDA": "1996/01/01 00:00:00",
        "LASTUPDATE": "12/17/2024",
        "AADT": "",
        "AADTYEAR": "1970",
        "STATENAME": "TEXAS",
        "STATEAB": "TX",
        "COUNTYNAME": "SCURRY",
        "CITYNAME": "SNYDER",
        "LATDD": 32.7290354,
        "LONGDD": -100.914409,
        "gridlyProductionCertified": true,
        "gridlyClassification": "PUBLIC_ROADWAY",
        "gridlyDisplayName": "13TH ST",
        "gridlyId": "FRA-015092J"
      }
    },
    {
      "type": "Feature",
      "id": 203569,
      "geometry": {
        "type": "Point",
        "coordinates": [
          -100.90981100031,
          32.7250588997916
        ]
      },
      "properties": {
        "OBJECTID": 203569,
        "CROSSING": "015093R",
        "EFFDATE": 1734393600000,
        "REASON": "14",
        "StateCode": "48",
        "CountyCode": "48415",
        "STCYFIPS": "48415",
        "CITYCD": "484156440",
        "RAILROAD": "BNSF",
        "RRDIV": "RED RIVER",
        "RRSUBDIV": "SLATON",
        "HIGHWAY": "ST 0000",
        "STREET": "17TH ST",
        "TTSTN": "679157",
        "MILEPOST": "0757.676",
        "TYPEXING": "Public",
        "POSXING": "At Grade",
        "PRVCAT": "14",
        "INIT": "1",
        "LATITUDE": 32.7250589,
        "LONGITUD": -100.909811,
        "LLSOURCE": "1",
        "WHISTBAN": "0",
        "RRCONT": "8173521549",
        "POLCONT": "8008325452",
        "INV_LINK": "https://safetydata.fra.dot.gov/OfficeofSafety/PublicSite/Crossing/Crossing.aspx?phasetype=C&rpttype=I&txtcrossingnum=015093R",
        "ACC_LINK": "https://safetydata.fra.dot.gov/OfficeofSafety/PublicSite/Crossing/Crossing.aspx?phasetype=C&rpttype=A&txtcrossingnum=015093R",
        "TTSTNNAM": "SNYDER",
        "XPURPOSE": "1",
        "OPERATINGR": "BNSF",
        "OPERATIN_1": "Primary",
        "DAYTHRU": 3,
        "NGHTTHRU": 3,
        "MAINTRK": 1,
        "SIDINGTRK": 0,
        "YARDTRK": 0,
        "TRANSITTRK": 0,
        "INDUSTRYTR": 0,
        "OTHRTRK": 0,
        "WDCODE": "All other Gates",
        "REVISIONDA": "1996/01/01 00:00:00",
        "LASTUPDATE": "12/17/2024",
        "AADT": "367",
        "AADTYEAR": "2019",
        "STATENAME": "TEXAS",
        "STATEAB": "TX",
        "COUNTYNAME": "SCURRY",
        "CITYNAME": "SNYDER",
        "LATDD": 32.7250589,
        "LONGDD": -100.909811,
        "gridlyProductionCertified": true,
        "gridlyClassification": "PUBLIC_ROADWAY",
        "gridlyDisplayName": "17TH ST",
        "gridlyId": "FRA-015093R"
      }
    },
    {
      "type": "Feature",
      "id": 203570,
      "geometry": {
        "type": "Point",
        "coordinates": [
          -100.906342000432,
          32.72205460004
        ]
      },
      "properties": {
        "OBJECTID": 203570,
        "CROSSING": "015094X",
        "EFFDATE": 1734393600000,
        "REASON": "14",
        "StateCode": "48",
        "CountyCode": "48415",
        "STCYFIPS": "48415",
        "CITYCD": "484156440",
        "RAILROAD": "BNSF",
        "RRDIV": "RED RIVER",
        "RRSUBDIV": "SLATON",
        "HIGHWAY": "ST 0000",
        "STREET": "AVE I",
        "TTSTN": "679157",
        "MILEPOST": "0757.968",
        "TYPEXING": "Public",
        "POSXING": "At Grade",
        "PRVCAT": "14",
        "INIT": "1",
        "LATITUDE": 32.7220546,
        "LONGITUD": -100.906342,
        "LLSOURCE": "1",
        "WHISTBAN": "0",
        "RRCONT": "8173521549",
        "POLCONT": "8008325452",
        "INV_LINK": "https://safetydata.fra.dot.gov/OfficeofSafety/PublicSite/Crossing/Crossing.aspx?phasetype=C&rpttype=I&txtcrossingnum=015094X",
        "ACC_LINK": "https://safetydata.fra.dot.gov/OfficeofSafety/PublicSite/Crossing/Crossing.aspx?phasetype=C&rpttype=A&txtcrossingnum=015094X",
        "TTSTNNAM": "SNYDER",
        "XPURPOSE": "1",
        "OPERATINGR": "BNSF",
        "OPERATIN_1": "Primary",
        "DAYTHRU": 3,
        "NGHTTHRU": 3,
        "MAINTRK": 1,
        "SIDINGTRK": 0,
        "YARDTRK": 0,
        "TRANSITTRK": 0,
        "INDUSTRYTR": 0,
        "OTHRTRK": 0,
        "WDCODE": "All other Gates",
        "REVISIONDA": "1996/01/01 00:00:00",
        "LASTUPDATE": "12/17/2024",
        "AADT": "313",
        "AADTYEAR": "2019",
        "STATENAME": "TEXAS",
        "STATEAB": "TX",
        "COUNTYNAME": "SCURRY",
        "CITYNAME": "SNYDER",
        "LATDD": 32.7220546,
        "LONGDD": -100.906342,
        "gridlyProductionCertified": true,
        "gridlyClassification": "PUBLIC_ROADWAY",
        "gridlyDisplayName": "AVE I",
        "gridlyId": "FRA-015094X"
      }
    },
    {
      "type": "Feature",
      "id": 203571,
      "geometry": {
        "type": "Point",
        "coordinates": [
          -100.901920000327,
          32.7182262999382
        ]
      },
      "properties": {
        "OBJECTID": 203571,
        "CROSSING": "015095E",
        "EFFDATE": 1734393600000,
        "REASON": "14",
        "StateCode": "48",
        "CountyCode": "48415",
        "STCYFIPS": "48415",
        "CITYCD": "484156440",
        "RAILROAD": "BNSF",
        "RRDIV": "RED RIVER",
        "RRSUBDIV": "SLATON",
        "HIGHWAY": "ST 0000",
        "STREET": "AVE E",
        "TTSTN": "679157",
        "MILEPOST": "0758.348",
        "TYPEXING": "Public",
        "POSXING": "At Grade",
        "PRVCAT": "14",
        "INIT": "1",
        "LATITUDE": 32.7182263,
        "LONGITUD": -100.90192,
        "LLSOURCE": "1",
        "WHISTBAN": "0",
        "RRCONT": "8173521549",
        "POLCONT": "8008325452",
        "INV_LINK": "https://safetydata.fra.dot.gov/OfficeofSafety/PublicSite/Crossing/Crossing.aspx?phasetype=C&rpttype=I&txtcrossingnum=015095E",
        "ACC_LINK": "https://safetydata.fra.dot.gov/OfficeofSafety/PublicSite/Crossing/Crossing.aspx?phasetype=C&rpttype=A&txtcrossingnum=015095E",
        "TTSTNNAM": "SNYDER",
        "XPURPOSE": "1",
        "OPERATINGR": "BNSF",
        "OPERATIN_1": "Primary",
        "DAYTHRU": 3,
        "NGHTTHRU": 3,
        "MAINTRK": 1,
        "SIDINGTRK": 0,
        "YARDTRK": 0,
        "TRANSITTRK": 0,
        "INDUSTRYTR": 0,
        "OTHRTRK": 0,
        "WDCODE": "All other Gates",
        "REVISIONDA": "1996/01/01 00:00:00",
        "LASTUPDATE": "12/17/2024",
        "AADT": "003310",
        "AADTYEAR": "2010",
        "STATENAME": "TEXAS",
        "STATEAB": "TX",
        "COUNTYNAME": "SCURRY",
        "CITYNAME": "SNYDER",
        "LATDD": 32.7182263,
        "LONGDD": -100.90192,
        "gridlyProductionCertified": true,
        "gridlyClassification": "PUBLIC_ROADWAY",
        "gridlyDisplayName": "AVE E",
        "gridlyId": "FRA-015095E"
      }
    },
    {
      "type": "Feature",
      "id": 203572,
      "geometry": {
        "type": "Point",
        "coordinates": [
          -100.900793999847,
          32.7172625000501
        ]
      },
      "properties": {
        "OBJECTID": 203572,
        "CROSSING": "015096L",
        "EFFDATE": 1734393600000,
        "REASON": "14",
        "StateCode": "48",
        "CountyCode": "48415",
        "STCYFIPS": "48415",
        "CITYCD": "484156440",
        "RAILROAD": "BNSF",
        "RRDIV": "RED RIVER",
        "RRSUBDIV": "SLATON",
        "HIGHWAY": "ST 0000",
        "STREET": "25TH ST",
        "TTSTN": "679157",
        "MILEPOST": "0758.444",
        "TYPEXING": "Public",
        "POSXING": "At Grade",
        "PRVCAT": "14",
        "INIT": "1",
        "LATITUDE": 32.7172625,
        "LONGITUD": -100.900794,
        "LLSOURCE": "1",
        "WHISTBAN": "0",
        "RRCONT": "8173521549",
        "POLCONT": "8008325452",
        "INV_LINK": "https://safetydata.fra.dot.gov/OfficeofSafety/PublicSite/Crossing/Crossing.aspx?phasetype=C&rpttype=I&txtcrossingnum=015096L",
        "ACC_LINK": "https://safetydata.fra.dot.gov/OfficeofSafety/PublicSite/Crossing/Crossing.aspx?phasetype=C&rpttype=A&txtcrossingnum=015096L",
        "TTSTNNAM": "SNYDER",
        "XPURPOSE": "1",
        "OPERATINGR": "BNSF",
        "OPERATIN_1": "Primary",
        "DAYTHRU": 3,
        "NGHTTHRU": 3,
        "MAINTRK": 1,
        "SIDINGTRK": 0,
        "YARDTRK": 0,
        "TRANSITTRK": 0,
        "INDUSTRYTR": 0,
        "OTHRTRK": 0,
        "WDCODE": "All other Gates",
        "REVISIONDA": "1996/01/01 00:00:00",
        "LASTUPDATE": "12/17/2024",
        "AADT": "174",
        "AADTYEAR": "2019",
        "STATENAME": "TEXAS",
        "STATEAB": "TX",
        "COUNTYNAME": "SCURRY",
        "CITYNAME": "SNYDER",
        "LATDD": 32.7172625,
        "LONGDD": -100.900794,
        "gridlyProductionCertified": true,
        "gridlyClassification": "PUBLIC_ROADWAY",
        "gridlyDisplayName": "25TH ST",
        "gridlyId": "FRA-015096L"
      }
    },
    {
      "type": "Feature",
      "id": 203573,
      "geometry": {
        "type": "Point",
        "coordinates": [
          -100.899452000356,
          32.7162662997643
        ]
      },
      "properties": {
        "OBJECTID": 203573,
        "CROSSING": "015097T",
        "EFFDATE": 1734393600000,
        "REASON": "14",
        "StateCode": "48",
        "CountyCode": "48415",
        "STCYFIPS": "48415",
        "CITYCD": "484156440",
        "RAILROAD": "BNSF",
        "RRDIV": "RED RIVER",
        "RRSUBDIV": "SLATON",
        "HIGHWAY": "ST 0000",
        "STREET": "26TH ST",
        "TTSTN": "679157",
        "MILEPOST": "0758.551",
        "TYPEXING": "Public",
        "POSXING": "At Grade",
        "PRVCAT": "14",
        "INIT": "1",
        "LATITUDE": 32.7162663,
        "LONGITUD": -100.899452,
        "LLSOURCE": "1",
        "WHISTBAN": "0",
        "RRCONT": "8173521549",
        "POLCONT": "8008325452",
        "INV_LINK": "https://safetydata.fra.dot.gov/OfficeofSafety/PublicSite/Crossing/Crossing.aspx?phasetype=C&rpttype=I&txtcrossingnum=015097T",
        "ACC_LINK": "https://safetydata.fra.dot.gov/OfficeofSafety/PublicSite/Crossing/Crossing.aspx?phasetype=C&rpttype=A&txtcrossingnum=015097T",
        "TTSTNNAM": "SNYDER",
        "XPURPOSE": "1",
        "OPERATINGR": "BNSF",
        "OPERATIN_1": "Primary",
        "DAYTHRU": 3,
        "NGHTTHRU": 3,
        "MAINTRK": 1,
        "SIDINGTRK": 0,
        "YARDTRK": 0,
        "TRANSITTRK": 0,
        "INDUSTRYTR": 0,
        "OTHRTRK": 0,
        "WDCODE": "All other Gates",
        "REVISIONDA": "1996/01/01 00:00:00",
        "LASTUPDATE": "12/17/2024",
        "AADT": "190",
        "AADTYEAR": "2007",
        "STATENAME": "TEXAS",
        "STATEAB": "TX",
        "COUNTYNAME": "SCURRY",
        "CITYNAME": "SNYDER",
        "LATDD": 32.7162663,
        "LONGDD": -100.899452,
        "gridlyProductionCertified": true,
        "gridlyClassification": "PUBLIC_ROADWAY",
        "gridlyDisplayName": "26TH ST",
        "gridlyId": "FRA-015097T"
      }
    },
    {
      "type": "Feature",
      "id": 203574,
      "geometry": {
        "type": "Point",
        "coordinates": [
          -100.895770000043,
          32.7142592996271
        ]
      },
      "properties": {
        "OBJECTID": 203574,
        "CROSSING": "015098A",
        "EFFDATE": 1734393600000,
        "REASON": "14",
        "StateCode": "48",
        "CountyCode": "48415",
        "STCYFIPS": "48415",
        "CITYCD": "484156440",
        "RAILROAD": "BNSF",
        "RRDIV": "RED RIVER",
        "RRSUBDIV": "SLATON",
        "HIGHWAY": "ST 0000",
        "STREET": "AVE B",
        "TTSTN": "679157",
        "MILEPOST": "0758.815",
        "TYPEXING": "Public",
        "POSXING": "At Grade",
        "PRVCAT": "14",
        "INIT": "1",
        "LATITUDE": 32.7142593,
        "LONGITUD": -100.89577,
        "LLSOURCE": "1",
        "WHISTBAN": "0",
        "RRCONT": "8173521549",
        "POLCONT": "8008325452",
        "INV_LINK": "https://safetydata.fra.dot.gov/OfficeofSafety/PublicSite/Crossing/Crossing.aspx?phasetype=C&rpttype=I&txtcrossingnum=015098A",
        "ACC_LINK": "https://safetydata.fra.dot.gov/OfficeofSafety/PublicSite/Crossing/Crossing.aspx?phasetype=C&rpttype=A&txtcrossingnum=015098A",
        "TTSTNNAM": "SNYDER",
        "XPURPOSE": "1",
        "OPERATINGR": "BNSF",
        "OPERATIN_1": "Primary",
        "DAYTHRU": 3,
        "NGHTTHRU": 3,
        "MAINTRK": 1,
        "SIDINGTRK": 0,
        "YARDTRK": 0,
        "TRANSITTRK": 0,
        "INDUSTRYTR": 0,
        "OTHRTRK": 0,
        "WDCODE": "All other Gates",
        "REVISIONDA": "1996/01/01 00:00:00",
        "LASTUPDATE": "12/17/2024",
        "AADT": "001356",
        "AADTYEAR": "1998",
        "STATENAME": "TEXAS",
        "STATEAB": "TX",
        "COUNTYNAME": "SCURRY",
        "CITYNAME": "SNYDER",
        "LATDD": 32.7142593,
        "LONGDD": -100.89577,
        "gridlyProductionCertified": true,
        "gridlyClassification": "PUBLIC_ROADWAY",
        "gridlyDisplayName": "AVE B",
        "gridlyId": "FRA-015098A"
      }
    },
    {
      "type": "Feature",
      "id": 203575,
      "geometry": {
        "type": "Point",
        "coordinates": [
          -100.873785999913,
          32.7033861000153
        ]
      },
      "properties": {
        "OBJECTID": 203575,
        "CROSSING": "015099G",
        "EFFDATE": 1734393600000,
        "REASON": "14",
        "StateCode": "48",
        "CountyCode": "48415",
        "STCYFIPS": "48415",
        "CITYCD": "484156440",
        "RAILROAD": "BNSF",
        "RRDIV": "RED RIVER",
        "RRSUBDIV": "SLATON",
        "HIGHWAY": "US 180",
        "STREET": "US HWY",
        "TTSTN": "679157",
        "MILEPOST": "0760.270",
        "TYPEXING": "Public",
        "POSXING": "RR Under",
        "PRVCAT": "14",
        "INIT": "1",
        "LATITUDE": 32.7033861,
        "LONGITUD": -100.873786,
        "LLSOURCE": "1",
        "WHISTBAN": "0",
        "RRCONT": "8173521549",
        "POLCONT": "8008325452",
        "INV_LINK": "https://safetydata.fra.dot.gov/OfficeofSafety/PublicSite/Crossing/Crossing.aspx?phasetype=C&rpttype=I&txtcrossingnum=015099G",
        "ACC_LINK": "https://safetydata.fra.dot.gov/OfficeofSafety/PublicSite/Crossing/Crossing.aspx?phasetype=C&rpttype=A&txtcrossingnum=015099G",
        "TTSTNNAM": "SNYDER",
        "XPURPOSE": "1",
        "OPERATINGR": "BNSF",
        "OPERATIN_1": "Primary",
        "DAYTHRU": 3,
        "NGHTTHRU": 3,
        "MAINTRK": 1,
        "SIDINGTRK": 0,
        "YARDTRK": 0,
        "TRANSITTRK": 0,
        "INDUSTRYTR": 0,
        "OTHRTRK": 0,
        "WDCODE": "",
        "REVISIONDA": "1996/01/01 00:00:00",
        "LASTUPDATE": "12/17/2024",
        "AADT": "002500",
        "AADTYEAR": "2010",
        "STATENAME": "TEXAS",
        "STATEAB": "TX",
        "COUNTYNAME": "SCURRY",
        "CITYNAME": "SNYDER",
        "LATDD": 32.7033861,
        "LONGDD": -100.873786,
        "gridlyProductionCertified": true,
        "gridlyClassification": "PUBLIC_ROADWAY",
        "gridlyDisplayName": "US HWY",
        "gridlyId": "FRA-015099G"
      }
    },
    {
      "type": "Feature",
      "id": 203576,
      "geometry": {
        "type": "Point",
        "coordinates": [
          -100.864044999552,
          32.6985630000864
        ]
      },
      "properties": {
        "OBJECTID": 203576,
        "CROSSING": "015100Y",
        "EFFDATE": 1734393600000,
        "REASON": "14",
        "StateCode": "48",
        "CountyCode": "48415",
        "STCYFIPS": "48415",
        "CITYCD": "484156440",
        "RAILROAD": "BNSF",
        "RRDIV": "RED RIVER",
        "RRSUBDIV": "SLATON",
        "HIGHWAY": "US 84",
        "STREET": "US HWY",
        "TTSTN": "679157",
        "MILEPOST": "0760.920",
        "TYPEXING": "Public",
        "POSXING": "RR Under",
        "PRVCAT": "14",
        "INIT": "1",
        "LATITUDE": 32.698563,
        "LONGITUD": -100.864045,
        "LLSOURCE": "1",
        "WHISTBAN": "0",
        "RRCONT": "8173521549",
        "POLCONT": "8008325452",
        "INV_LINK": "https://safetydata.fra.dot.gov/OfficeofSafety/PublicSite/Crossing/Crossing.aspx?phasetype=C&rpttype=I&txtcrossingnum=015100Y",
        "ACC_LINK": "https://safetydata.fra.dot.gov/OfficeofSafety/PublicSite/Crossing/Crossing.aspx?phasetype=C&rpttype=A&txtcrossingnum=015100Y",
        "TTSTNNAM": "SNYDER",
        "XPURPOSE": "1",
        "OPERATINGR": "BNSF",
        "OPERATIN_1": "Primary",
        "DAYTHRU": 3,
        "NGHTTHRU": 3,
        "MAINTRK": 1,
        "SIDINGTRK": 0,
        "YARDTRK": 0,
        "TRANSITTRK": 0,
        "INDUSTRYTR": 0,
        "OTHRTRK": 0,
        "WDCODE": "",
        "REVISIONDA": "1996/01/01 00:00:00",
        "LASTUPDATE": "12/17/2024",
        "AADT": "007400",
        "AADTYEAR": "2011",
        "STATENAME": "TEXAS",
        "STATEAB": "TX",
        "COUNTYNAME": "SCURRY",
        "CITYNAME": "SNYDER",
        "LATDD": 32.698563,
        "LONGDD": -100.864045,
        "gridlyProductionCertified": true,
        "gridlyClassification": "PUBLIC_ROADWAY",
        "gridlyDisplayName": "US HWY",
        "gridlyId": "FRA-015100Y"
      }
    },
    {
      "type": "Feature",
      "id": 203577,
      "geometry": {
        "type": "Point",
        "coordinates": [
          -100.83323200018,
          32.6847640003552
        ]
      },
      "properties": {
        "OBJECTID": 203577,
        "CROSSING": "015101F",
        "EFFDATE": 1734393600000,
        "REASON": "14",
        "StateCode": "48",
        "CountyCode": "48415",
        "STCYFIPS": "48415",
        "CITYCD": "484156440",
        "RAILROAD": "BNSF",
        "RRDIV": "RED RIVER",
        "RRSUBDIV": "SLATON",
        "HIGHWAY": "CO 0461",
        "STREET": "CO RD 461",
        "TTSTN": "679157",
        "MILEPOST": "0762.970",
        "TYPEXING": "Public",
        "POSXING": "At Grade",
        "PRVCAT": "14",
        "INIT": "1",
        "LATITUDE": 32.684764,
        "LONGITUD": -100.833232,
        "LLSOURCE": "1",
        "WHISTBAN": "0",
        "RRCONT": "8173521549",
        "POLCONT": "8008325452",
        "INV_LINK": "https://safetydata.fra.dot.gov/OfficeofSafety/PublicSite/Crossing/Crossing.aspx?phasetype=C&rpttype=I&txtcrossingnum=015101F",
        "ACC_LINK": "https://safetydata.fra.dot.gov/OfficeofSafety/PublicSite/Crossing/Crossing.aspx?phasetype=C&rpttype=A&txtcrossingnum=015101F",
        "TTSTNNAM": "SNYDER",
        "XPURPOSE": "1",
        "OPERATINGR": "BNSF",
        "OPERATIN_1": "Primary",
        "DAYTHRU": 3,
        "NGHTTHRU": 3,
        "MAINTRK": 1,
        "SIDINGTRK": 0,
        "YARDTRK": 0,
        "TRANSITTRK": 0,
        "INDUSTRYTR": 0,
        "OTHRTRK": 0,
        "WDCODE": "All other Gates",
        "REVISIONDA": "1996/01/01 00:00:00",
        "LASTUPDATE": "12/17/2024",
        "AADT": "101",
        "AADTYEAR": "2019",
        "STATENAME": "TEXAS",
        "STATEAB": "TX",
        "COUNTYNAME": "SCURRY",
        "CITYNAME": "SNYDER",
        "LATDD": 32.684764,
        "LONGDD": -100.833232,
        "gridlyProductionCertified": true,
        "gridlyClassification": "PUBLIC_ROADWAY",
        "gridlyDisplayName": "CO RD 461",
        "gridlyId": "FRA-015101F"
      }
    },
    {
      "type": "Feature",
      "id": 203578,
      "geometry": {
        "type": "Point",
        "coordinates": [
          -100.785655000301,
          32.6599881003457
        ]
      },
      "properties": {
        "OBJECTID": 203578,
        "CROSSING": "015103U",
        "EFFDATE": 1734393600000,
        "REASON": "14",
        "StateCode": "48",
        "CountyCode": "48415",
        "STCYFIPS": "48415",
        "CITYCD": "484156440",
        "RAILROAD": "BNSF",
        "RRDIV": "RED RIVER",
        "RRSUBDIV": "SLATON",
        "HIGHWAY": "CO 0481",
        "STREET": "CO RD",
        "TTSTN": "679157",
        "MILEPOST": "0766.290",
        "TYPEXING": "Public",
        "POSXING": "At Grade",
        "PRVCAT": "14",
        "INIT": "1",
        "LATITUDE": 32.6599881,
        "LONGITUD": -100.785655,
        "LLSOURCE": "1",
        "WHISTBAN": "0",
        "RRCONT": "8173521549",
        "POLCONT": "8008325452",
        "INV_LINK": "https://safetydata.fra.dot.gov/OfficeofSafety/PublicSite/Crossing/Crossing.aspx?phasetype=C&rpttype=I&txtcrossingnum=015103U",
        "ACC_LINK": "https://safetydata.fra.dot.gov/OfficeofSafety/PublicSite/Crossing/Crossing.aspx?phasetype=C&rpttype=A&txtcrossingnum=015103U",
        "TTSTNNAM": "SNYDER",
        "XPURPOSE": "1",
        "OPERATINGR": "BNSF",
        "OPERATIN_1": "Primary",
        "DAYTHRU": 3,
        "NGHTTHRU": 3,
        "MAINTRK": 1,
        "SIDINGTRK": 0,
        "YARDTRK": 0,
        "TRANSITTRK": 0,
        "INDUSTRYTR": 0,
        "OTHRTRK": 0,
        "WDCODE": "Crossbucks",
        "REVISIONDA": "1996/01/01 00:00:00",
        "LASTUPDATE": "12/17/2024",
        "AADT": "13",
        "AADTYEAR": "2019",
        "STATENAME": "TEXAS",
        "STATEAB": "TX",
        "COUNTYNAME": "SCURRY",
        "CITYNAME": "SNYDER",
        "LATDD": 32.6599881,
        "LONGDD": -100.785655,
        "gridlyProductionCertified": true,
        "gridlyClassification": "PUBLIC_ROADWAY",
        "gridlyDisplayName": "CO RD",
        "gridlyId": "FRA-015103U"
      }
    },
    {
      "type": "Feature",
      "id": 203579,
      "geometry": {
        "type": "Point",
        "coordinates": [
          -100.77763799992,
          32.6541231997773
        ]
      },
      "properties": {
        "OBJECTID": 203579,
        "CROSSING": "015104B",
        "EFFDATE": 1734393600000,
        "REASON": "14",
        "StateCode": "48",
        "CountyCode": "48415",
        "STCYFIPS": "48415",
        "CITYCD": "484156440",
        "RAILROAD": "BNSF",
        "RRDIV": "RED RIVER",
        "RRSUBDIV": "SLATON",
        "HIGHWAY": "CO 4104",
        "STREET": "CO RD",
        "TTSTN": "679157",
        "MILEPOST": "0766.920",
        "TYPEXING": "Public",
        "POSXING": "At Grade",
        "PRVCAT": "14",
        "INIT": "1",
        "LATITUDE": 32.6541232,
        "LONGITUD": -100.777638,
        "LLSOURCE": "1",
        "WHISTBAN": "0",
        "RRCONT": "8173521549",
        "POLCONT": "8008325452",
        "INV_LINK": "https://safetydata.fra.dot.gov/OfficeofSafety/PublicSite/Crossing/Crossing.aspx?phasetype=C&rpttype=I&txtcrossingnum=015104B",
        "ACC_LINK": "https://safetydata.fra.dot.gov/OfficeofSafety/PublicSite/Crossing/Crossing.aspx?phasetype=C&rpttype=A&txtcrossingnum=015104B",
        "TTSTNNAM": "SNYDER",
        "XPURPOSE": "1",
        "OPERATINGR": "BNSF",
        "OPERATIN_1": "Primary",
        "DAYTHRU": 3,
        "NGHTTHRU": 3,
        "MAINTRK": 1,
        "SIDINGTRK": 0,
        "YARDTRK": 0,
        "TRANSITTRK": 0,
        "INDUSTRYTR": 0,
        "OTHRTRK": 0,
        "WDCODE": "Crossbucks",
        "REVISIONDA": "1996/01/01 00:00:00",
        "LASTUPDATE": "12/17/2024",
        "AADT": "16",
        "AADTYEAR": "2019",
        "STATENAME": "TEXAS",
        "STATEAB": "TX",
        "COUNTYNAME": "SCURRY",
        "CITYNAME": "SNYDER",
        "LATDD": 32.6541232,
        "LONGDD": -100.777638,
        "gridlyProductionCertified": true,
        "gridlyClassification": "PUBLIC_ROADWAY",
        "gridlyDisplayName": "CO RD",
        "gridlyId": "FRA-015104B"
      }
    },
    {
      "type": "Feature",
      "id": 203580,
      "geometry": {
        "type": "Point",
        "coordinates": [
          -100.764847999806,
          32.6447688002926
        ]
      },
      "properties": {
        "OBJECTID": 203580,
        "CROSSING": "015105H",
        "EFFDATE": 1734393600000,
        "REASON": "14",
        "StateCode": "48",
        "CountyCode": "48415",
        "STCYFIPS": "48415",
        "CITYCD": "484156440",
        "RAILROAD": "BNSF",
        "RRDIV": "RED RIVER",
        "RRSUBDIV": "SLATON",
        "HIGHWAY": "FM 644",
        "STREET": "FM RD 644",
        "TTSTN": "679157",
        "MILEPOST": "0767.890",
        "TYPEXING": "Public",
        "POSXING": "At Grade",
        "PRVCAT": "14",
        "INIT": "1",
        "LATITUDE": 32.6447688,
        "LONGITUD": -100.764848,
        "LLSOURCE": "1",
        "WHISTBAN": "0",
        "RRCONT": "8173521549",
        "POLCONT": "8008325452",
        "INV_LINK": "https://safetydata.fra.dot.gov/OfficeofSafety/PublicSite/Crossing/Crossing.aspx?phasetype=C&rpttype=I&txtcrossingnum=015105H",
        "ACC_LINK": "https://safetydata.fra.dot.gov/OfficeofSafety/PublicSite/Crossing/Crossing.aspx?phasetype=C&rpttype=A&txtcrossingnum=015105H",
        "TTSTNNAM": "SNYDER",
        "XPURPOSE": "1",
        "OPERATINGR": "BNSF",
        "OPERATIN_1": "Primary",
        "DAYTHRU": 3,
        "NGHTTHRU": 3,
        "MAINTRK": 1,
        "SIDINGTRK": 0,
        "YARDTRK": 0,
        "TRANSITTRK": 0,
        "INDUSTRYTR": 0,
        "OTHRTRK": 0,
        "WDCODE": "All other Gates",
        "REVISIONDA": "1996/01/01 00:00:00",
        "LASTUPDATE": "12/17/2024",
        "AADT": "235",
        "AADTYEAR": "2019",
        "STATENAME": "TEXAS",
        "STATEAB": "TX",
        "COUNTYNAME": "SCURRY",
        "CITYNAME": "SNYDER",
        "LATDD": 32.6447688,
        "LONGDD": -100.764848,
        "gridlyProductionCertified": true,
        "gridlyClassification": "PUBLIC_ROADWAY",
        "gridlyDisplayName": "FM RD 644",
        "gridlyId": "FRA-015105H"
      }
    },
    {
      "type": "Feature",
      "id": 203581,
      "geometry": {
        "type": "Point",
        "coordinates": [
          -100.75792299957,
          32.6397100002606
        ]
      },
      "properties": {
        "OBJECTID": 203581,
        "CROSSING": "015106P",
        "EFFDATE": 1734393600000,
        "REASON": "14",
        "StateCode": "48",
        "CountyCode": "48415",
        "STCYFIPS": "48415",
        "CITYCD": "484156440",
        "RAILROAD": "BNSF",
        "RRDIV": "RED RIVER",
        "RRSUBDIV": "SLATON",
        "HIGHWAY": "CR 4122",
        "STREET": "REED ST",
        "TTSTN": "679157",
        "MILEPOST": "0768.420",
        "TYPEXING": "Public",
        "POSXING": "At Grade",
        "PRVCAT": "14",
        "INIT": "1",
        "LATITUDE": 32.63971,
        "LONGITUD": -100.757923,
        "LLSOURCE": "1",
        "WHISTBAN": "0",
        "RRCONT": "8173521549",
        "POLCONT": "8008325452",
        "INV_LINK": "https://safetydata.fra.dot.gov/OfficeofSafety/PublicSite/Crossing/Crossing.aspx?phasetype=C&rpttype=I&txtcrossingnum=015106P",
        "ACC_LINK": "https://safetydata.fra.dot.gov/OfficeofSafety/PublicSite/Crossing/Crossing.aspx?phasetype=C&rpttype=A&txtcrossingnum=015106P",
        "TTSTNNAM": "SNYDER",
        "XPURPOSE": "1",
        "OPERATINGR": "BNSF",
        "OPERATIN_1": "Primary",
        "DAYTHRU": 3,
        "NGHTTHRU": 3,
        "MAINTRK": 1,
        "SIDINGTRK": 1,
        "YARDTRK": 0,
        "TRANSITTRK": 0,
        "INDUSTRYTR": 0,
        "OTHRTRK": 1,
        "WDCODE": "All other Gates",
        "REVISIONDA": "1996/01/01 00:00:00",
        "LASTUPDATE": "12/17/2024",
        "AADT": "91",
        "AADTYEAR": "2019",
        "STATENAME": "TEXAS",
        "STATEAB": "TX",
        "COUNTYNAME": "SCURRY",
        "CITYNAME": "SNYDER",
        "LATDD": 32.63971,
        "LONGDD": -100.757923,
        "gridlyProductionCertified": true,
        "gridlyClassification": "PUBLIC_ROADWAY",
        "gridlyDisplayName": "REED ST",
        "gridlyId": "FRA-015106P"
      }
    },
    {
      "type": "Feature",
      "id": 203582,
      "geometry": {
        "type": "Point",
        "coordinates": [
          -100.752831999818,
          32.6359875998351
        ]
      },
      "properties": {
        "OBJECTID": 203582,
        "CROSSING": "015107W",
        "EFFDATE": 1734393600000,
        "REASON": "14",
        "StateCode": "48",
        "CountyCode": "48415",
        "STCYFIPS": "48415",
        "CITYCD": "484156440",
        "RAILROAD": "BNSF",
        "RRDIV": "RED RIVER",
        "RRSUBDIV": "SLATON",
        "HIGHWAY": "CR 4114",
        "STREET": "LOWE ST",
        "TTSTN": "679157",
        "MILEPOST": "0768.810",
        "TYPEXING": "Public",
        "POSXING": "At Grade",
        "PRVCAT": "14",
        "INIT": "1",
        "LATITUDE": 32.6359876,
        "LONGITUD": -100.752832,
        "LLSOURCE": "1",
        "WHISTBAN": "0",
        "RRCONT": "8173521549",
        "POLCONT": "8008325452",
        "INV_LINK": "https://safetydata.fra.dot.gov/OfficeofSafety/PublicSite/Crossing/Crossing.aspx?phasetype=C&rpttype=I&txtcrossingnum=015107W",
        "ACC_LINK": "https://safetydata.fra.dot.gov/OfficeofSafety/PublicSite/Crossing/Crossing.aspx?phasetype=C&rpttype=A&txtcrossingnum=015107W",
        "TTSTNNAM": "SNYDER",
        "XPURPOSE": "1",
        "OPERATINGR": "BNSF",
        "OPERATIN_1": "Primary",
        "DAYTHRU": 3,
        "NGHTTHRU": 3,
        "MAINTRK": 1,
        "SIDINGTRK": 1,
        "YARDTRK": 0,
        "TRANSITTRK": 0,
        "INDUSTRYTR": 0,
        "OTHRTRK": 1,
        "WDCODE": "All other Gates",
        "REVISIONDA": "1996/01/01 00:00:00",
        "LASTUPDATE": "12/17/2024",
        "AADT": "90",
        "AADTYEAR": "2019",
        "STATENAME": "TEXAS",
        "STATEAB": "TX",
        "COUNTYNAME": "SCURRY",
        "CITYNAME": "SNYDER",
        "LATDD": 32.6359876,
        "LONGDD": -100.752832,
        "gridlyProductionCertified": true,
        "gridlyClassification": "PUBLIC_ROADWAY",
        "gridlyDisplayName": "LOWE ST",
        "gridlyId": "FRA-015107W"
      }
    },
    {
      "type": "Feature",
      "id": 203583,
      "geometry": {
        "type": "Point",
        "coordinates": [
          -100.745197999753,
          32.6304067001191
        ]
      },
      "properties": {
        "OBJECTID": 203583,
        "CROSSING": "015108D",
        "EFFDATE": 1734393600000,
        "REASON": "14",
        "StateCode": "48",
        "CountyCode": "48415",
        "STCYFIPS": "48415",
        "CITYCD": "484156440",
        "RAILROAD": "BNSF",
        "RRDIV": "RED RIVER",
        "RRSUBDIV": "SLATON",
        "HIGHWAY": "CO 4124",
        "STREET": "CO RD 4125",
        "TTSTN": "679157",
        "MILEPOST": "0769.390",
        "TYPEXING": "Public",
        "POSXING": "At Grade",
        "PRVCAT": "14",
        "INIT": "1",
        "LATITUDE": 32.6304067,
        "LONGITUD": -100.745198,
        "LLSOURCE": "1",
        "WHISTBAN": "0",
        "RRCONT": "8173521549",
        "POLCONT": "8008325452",
        "INV_LINK": "https://safetydata.fra.dot.gov/OfficeofSafety/PublicSite/Crossing/Crossing.aspx?phasetype=C&rpttype=I&txtcrossingnum=015108D",
        "ACC_LINK": "https://safetydata.fra.dot.gov/OfficeofSafety/PublicSite/Crossing/Crossing.aspx?phasetype=C&rpttype=A&txtcrossingnum=015108D",
        "TTSTNNAM": "SNYDER",
        "XPURPOSE": "1",
        "OPERATINGR": "BNSF",
        "OPERATIN_1": "Primary",
        "DAYTHRU": 3,
        "NGHTTHRU": 3,
        "MAINTRK": 1,
        "SIDINGTRK": 0,
        "YARDTRK": 0,
        "TRANSITTRK": 0,
        "INDUSTRYTR": 0,
        "OTHRTRK": 0,
        "WDCODE": "Crossbucks",
        "REVISIONDA": "1996/01/01 00:00:00",
        "LASTUPDATE": "12/17/2024",
        "AADT": "33",
        "AADTYEAR": "2019",
        "STATENAME": "TEXAS",
        "STATEAB": "TX",
        "COUNTYNAME": "SCURRY",
        "CITYNAME": "SNYDER",
        "LATDD": 32.6304067,
        "LONGDD": -100.745198,
        "gridlyProductionCertified": true,
        "gridlyClassification": "PUBLIC_ROADWAY",
        "gridlyDisplayName": "CO RD 4125",
        "gridlyId": "FRA-015108D"
      }
    },
    {
      "type": "Feature",
      "id": 203584,
      "geometry": {
        "type": "Point",
        "coordinates": [
          -100.728882999684,
          32.6184738000716
        ]
      },
      "properties": {
        "OBJECTID": 203584,
        "CROSSING": "015109K",
        "EFFDATE": 1734393600000,
        "REASON": "14",
        "StateCode": "48",
        "CountyCode": "48415",
        "STCYFIPS": "48415",
        "CITYCD": "484156440",
        "RAILROAD": "BNSF",
        "RRDIV": "RED RIVER",
        "RRSUBDIV": "SLATON",
        "HIGHWAY": "CO 4134",
        "STREET": "CO RD",
        "TTSTN": "679157",
        "MILEPOST": "0770.620",
        "TYPEXING": "Public",
        "POSXING": "At Grade",
        "PRVCAT": "14",
        "INIT": "1",
        "LATITUDE": 32.6184738,
        "LONGITUD": -100.728883,
        "LLSOURCE": "1",
        "WHISTBAN": "0",
        "RRCONT": "8173521549",
        "POLCONT": "8008325452",
        "INV_LINK": "https://safetydata.fra.dot.gov/OfficeofSafety/PublicSite/Crossing/Crossing.aspx?phasetype=C&rpttype=I&txtcrossingnum=015109K",
        "ACC_LINK": "https://safetydata.fra.dot.gov/OfficeofSafety/PublicSite/Crossing/Crossing.aspx?phasetype=C&rpttype=A&txtcrossingnum=015109K",
        "TTSTNNAM": "SNYDER",
        "XPURPOSE": "1",
        "OPERATINGR": "BNSF",
        "OPERATIN_1": "Primary",
        "DAYTHRU": 3,
        "NGHTTHRU": 3,
        "MAINTRK": 1,
        "SIDINGTRK": 0,
        "YARDTRK": 0,
        "TRANSITTRK": 0,
        "INDUSTRYTR": 0,
        "OTHRTRK": 0,
        "WDCODE": "Crossbucks",
        "REVISIONDA": "1996/01/01 00:00:00",
        "LASTUPDATE": "12/17/2024",
        "AADT": "28",
        "AADTYEAR": "2019",
        "STATENAME": "TEXAS",
        "STATEAB": "TX",
        "COUNTYNAME": "SCURRY",
        "CITYNAME": "SNYDER",
        "LATDD": 32.6184738,
        "LONGDD": -100.728883,
        "gridlyProductionCertified": true,
        "gridlyClassification": "PUBLIC_ROADWAY",
        "gridlyDisplayName": "CO RD",
        "gridlyId": "FRA-015109K"
      }
    },
    {
      "type": "Feature",
      "id": 203585,
      "geometry": {
        "type": "Point",
        "coordinates": [
          -100.712740999867,
          32.6066597999723
        ]
      },
      "properties": {
        "OBJECTID": 203585,
        "CROSSING": "015110E",
        "EFFDATE": 1734393600000,
        "REASON": "14",
        "StateCode": "48",
        "CountyCode": "48415",
        "STCYFIPS": "48415",
        "CITYCD": "484156440",
        "RAILROAD": "BNSF",
        "RRDIV": "RED RIVER",
        "RRSUBDIV": "SLATON",
        "HIGHWAY": "CO 4144",
        "STREET": "CO RD",
        "TTSTN": "679175",
        "MILEPOST": "0771.900",
        "TYPEXING": "Public",
        "POSXING": "At Grade",
        "PRVCAT": "14",
        "INIT": "1",
        "LATITUDE": 32.6066598,
        "LONGITUD": -100.712741,
        "LLSOURCE": "1",
        "WHISTBAN": "0",
        "RRCONT": "8173521549",
        "POLCONT": "8008325452",
        "INV_LINK": "https://safetydata.fra.dot.gov/OfficeofSafety/PublicSite/Crossing/Crossing.aspx?phasetype=C&rpttype=I&txtcrossingnum=015110E",
        "ACC_LINK": "https://safetydata.fra.dot.gov/OfficeofSafety/PublicSite/Crossing/Crossing.aspx?phasetype=C&rpttype=A&txtcrossingnum=015110E",
        "TTSTNNAM": "PYRON",
        "XPURPOSE": "1",
        "OPERATINGR": "BNSF",
        "OPERATIN_1": "Primary",
        "DAYTHRU": 3,
        "NGHTTHRU": 3,
        "MAINTRK": 1,
        "SIDINGTRK": 0,
        "YARDTRK": 0,
        "TRANSITTRK": 0,
        "INDUSTRYTR": 0,
        "OTHRTRK": 0,
        "WDCODE": "Crossbucks",
        "REVISIONDA": "1996/01/01 00:00:00",
        "LASTUPDATE": "12/17/2024",
        "AADT": "1",
        "AADTYEAR": "2019",
        "STATENAME": "TEXAS",
        "STATEAB": "TX",
        "COUNTYNAME": "SCURRY",
        "CITYNAME": "SNYDER",
        "LATDD": 32.6066598,
        "LONGDD": -100.712741,
        "gridlyProductionCertified": true,
        "gridlyClassification": "PUBLIC_ROADWAY",
        "gridlyDisplayName": "CO RD",
        "gridlyId": "FRA-015110E"
      }
    },
    {
      "type": "Feature",
      "id": 203586,
      "geometry": {
        "type": "Point",
        "coordinates": [
          -100.695695000227,
          32.5951377000321
        ]
      },
      "properties": {
        "OBJECTID": 203586,
        "CROSSING": "015112T",
        "EFFDATE": 1734393600000,
        "REASON": "14",
        "StateCode": "48",
        "CountyCode": "48415",
        "STCYFIPS": "48415",
        "CITYCD": "484156440",
        "RAILROAD": "BNSF",
        "RRDIV": "RED RIVER",
        "RRSUBDIV": "SLATON",
        "HIGHWAY": "FM 1606",
        "STREET": "FM RD 1606",
        "TTSTN": "679175",
        "MILEPOST": "0773.180",
        "TYPEXING": "Public",
        "POSXING": "At Grade",
        "PRVCAT": "14",
        "INIT": "1",
        "LATITUDE": 32.5951377,
        "LONGITUD": -100.695695,
        "LLSOURCE": "1",
        "WHISTBAN": "0",
        "RRCONT": "8173521549",
        "POLCONT": "8008325452",
        "INV_LINK": "https://safetydata.fra.dot.gov/OfficeofSafety/PublicSite/Crossing/Crossing.aspx?phasetype=C&rpttype=I&txtcrossingnum=015112T",
        "ACC_LINK": "https://safetydata.fra.dot.gov/OfficeofSafety/PublicSite/Crossing/Crossing.aspx?phasetype=C&rpttype=A&txtcrossingnum=015112T",
        "TTSTNNAM": "PYRON",
        "XPURPOSE": "1",
        "OPERATINGR": "BNSF",
        "OPERATIN_1": "Primary",
        "DAYTHRU": 3,
        "NGHTTHRU": 3,
        "MAINTRK": 1,
        "SIDINGTRK": 0,
        "YARDTRK": 0,
        "TRANSITTRK": 0,
        "INDUSTRYTR": 0,
        "OTHRTRK": 0,
        "WDCODE": "All other Gates",
        "REVISIONDA": "1996/01/01 00:00:00",
        "LASTUPDATE": "12/17/2024",
        "AADT": "165",
        "AADTYEAR": "2019",
        "STATENAME": "TEXAS",
        "STATEAB": "TX",
        "COUNTYNAME": "SCURRY",
        "CITYNAME": "SNYDER",
        "LATDD": 32.5951377,
        "LONGDD": -100.695695,
        "gridlyProductionCertified": true,
        "gridlyClassification": "PUBLIC_ROADWAY",
        "gridlyDisplayName": "FM RD 1606",
        "gridlyId": "FRA-015112T"
      }
    },
    {
      "type": "Feature",
      "id": 203588,
      "geometry": {
        "type": "Point",
        "coordinates": [
          -100.699088999762,
          32.5968306997686
        ]
      },
      "properties": {
        "OBJECTID": 203588,
        "CROSSING": "015113A",
        "EFFDATE": 1734393600000,
        "REASON": "14",
        "StateCode": "48",
        "CountyCode": "48415",
        "STCYFIPS": "48415",
        "CITYCD": "484156440",
        "RAILROAD": "BNSF",
        "RRDIV": "RED RIVER",
        "RRSUBDIV": "SLATON",
        "HIGHWAY": "Not Yet Reported by State",
        "STREET": "PRIVATE",
        "TTSTN": "679175",
        "MILEPOST": "0772.909",
        "TYPEXING": "Private",
        "POSXING": "RR Over",
        "PRVCAT": "14",
        "INIT": "1",
        "LATITUDE": 32.5968307,
        "LONGITUD": -100.699089,
        "LLSOURCE": "1",
        "WHISTBAN": "0",
        "RRCONT": "8173521549",
        "POLCONT": "8008325452",
        "INV_LINK": "https://safetydata.fra.dot.gov/OfficeofSafety/PublicSite/Crossing/Crossing.aspx?phasetype=C&rpttype=I&txtcrossingnum=015113A",
        "ACC_LINK": "https://safetydata.fra.dot.gov/OfficeofSafety/PublicSite/Crossing/Crossing.aspx?phasetype=C&rpttype=A&txtcrossingnum=015113A",
        "TTSTNNAM": "PYRON",
        "XPURPOSE": "1",
        "OPERATINGR": "BNSF",
        "OPERATIN_1": "Primary",
        "DAYTHRU": 3,
        "NGHTTHRU": 3,
        "MAINTRK": 1,
        "SIDINGTRK": 0,
        "YARDTRK": 0,
        "TRANSITTRK": 0,
        "INDUSTRYTR": 0,
        "OTHRTRK": 0,
        "WDCODE": "",
        "REVISIONDA": "1996/01/01 00:00:00",
        "LASTUPDATE": "12/17/2024",
        "AADT": "",
        "AADTYEAR": "1970",
        "STATENAME": "TEXAS",
        "STATEAB": "TX",
        "COUNTYNAME": "SCURRY",
        "CITYNAME": "SNYDER",
        "LATDD": 32.5968307,
        "LONGDD": -100.699089,
        "gridlyProductionCertified": true,
        "gridlyClassification": "PUBLIC_ROADWAY",
        "gridlyDisplayName": "PRIVATE",
        "gridlyId": "FRA-015113A"
      }
    },
    {
      "type": "Feature",
      "id": 203606,
      "geometry": {
        "type": "Point",
        "coordinates": [
          -100.673547999891,
          32.5843747003478
        ]
      },
      "properties": {
        "OBJECTID": 203606,
        "CROSSING": "015115N",
        "EFFDATE": 1734393600000,
        "REASON": "14",
        "StateCode": "48",
        "CountyCode": "48415",
        "STCYFIPS": "48415",
        "CITYCD": "484156440",
        "RAILROAD": "BNSF",
        "RRDIV": "RED RIVER",
        "RRSUBDIV": "SLATON",
        "HIGHWAY": "CO 5000",
        "STREET": "CO RD",
        "TTSTN": "679175",
        "MILEPOST": "0774.670",
        "TYPEXING": "Public",
        "POSXING": "At Grade",
        "PRVCAT": "14",
        "INIT": "1",
        "LATITUDE": 32.5843747,
        "LONGITUD": -100.673548,
        "LLSOURCE": "1",
        "WHISTBAN": "0",
        "RRCONT": "8173521549",
        "POLCONT": "8008325452",
        "INV_LINK": "https://safetydata.fra.dot.gov/OfficeofSafety/PublicSite/Crossing/Crossing.aspx?phasetype=C&rpttype=I&txtcrossingnum=015115N",
        "ACC_LINK": "https://safetydata.fra.dot.gov/OfficeofSafety/PublicSite/Crossing/Crossing.aspx?phasetype=C&rpttype=A&txtcrossingnum=015115N",
        "TTSTNNAM": "PYRON",
        "XPURPOSE": "1",
        "OPERATINGR": "BNSF",
        "OPERATIN_1": "Primary",
        "DAYTHRU": 3,
        "NGHTTHRU": 3,
        "MAINTRK": 1,
        "SIDINGTRK": 1,
        "YARDTRK": 0,
        "TRANSITTRK": 0,
        "INDUSTRYTR": 0,
        "OTHRTRK": 1,
        "WDCODE": "Crossbucks",
        "REVISIONDA": "1996/01/01 00:00:00",
        "LASTUPDATE": "12/17/2024",
        "AADT": "4",
        "AADTYEAR": "2019",
        "STATENAME": "TEXAS",
        "STATEAB": "TX",
        "COUNTYNAME": "SCURRY",
        "CITYNAME": "SNYDER",
        "LATDD": 32.5843747,
        "LONGDD": -100.673548,
        "gridlyProductionCertified": true,
        "gridlyClassification": "PUBLIC_ROADWAY",
        "gridlyDisplayName": "CO RD",
        "gridlyId": "FRA-015115N"
      }
    },
    {
      "type": "Feature",
      "id": 203607,
      "geometry": {
        "type": "Point",
        "coordinates": [
          -100.884400000135,
          32.7086343999702
        ]
      },
      "properties": {
        "OBJECTID": 203607,
        "CROSSING": "015136G",
        "EFFDATE": 1734393600000,
        "REASON": "14",
        "StateCode": "48",
        "CountyCode": "48415",
        "STCYFIPS": "48415",
        "CITYCD": "484156440",
        "RAILROAD": "BNSF",
        "RRDIV": "RED RIVER",
        "RRSUBDIV": "SLATON",
        "HIGHWAY": "CO 2500",
        "STREET": "CO RD",
        "TTSTN": "679157",
        "MILEPOST": "0759.570",
        "TYPEXING": "Public",
        "POSXING": "RR Over",
        "PRVCAT": "14",
        "INIT": "1",
        "LATITUDE": 32.7086344,
        "LONGITUD": -100.8844,
        "LLSOURCE": "1",
        "WHISTBAN": "0",
        "RRCONT": "8173521549",
        "POLCONT": "8008325452",
        "INV_LINK": "https://safetydata.fra.dot.gov/OfficeofSafety/PublicSite/Crossing/Crossing.aspx?phasetype=C&rpttype=I&txtcrossingnum=015136G",
        "ACC_LINK": "https://safetydata.fra.dot.gov/OfficeofSafety/PublicSite/Crossing/Crossing.aspx?phasetype=C&rpttype=A&txtcrossingnum=015136G",
        "TTSTNNAM": "SNYDER",
        "XPURPOSE": "1",
        "OPERATINGR": "BNSF",
        "OPERATIN_1": "Primary",
        "DAYTHRU": 3,
        "NGHTTHRU": 3,
        "MAINTRK": 1,
        "SIDINGTRK": 0,
        "YARDTRK": 0,
        "TRANSITTRK": 0,
        "INDUSTRYTR": 0,
        "OTHRTRK": 0,
        "WDCODE": "",
        "REVISIONDA": "1996/01/01 00:00:00",
        "LASTUPDATE": "12/17/2024",
        "AADT": "000020",
        "AADTYEAR": "2010",
        "STATENAME": "TEXAS",
        "STATEAB": "TX",
        "COUNTYNAME": "SCURRY",
        "CITYNAME": "SNYDER",
        "LATDD": 32.7086344,
        "LONGDD": -100.8844,
        "gridlyProductionCertified": true,
        "gridlyClassification": "PUBLIC_ROADWAY",
        "gridlyDisplayName": "CO RD",
        "gridlyId": "FRA-015136G"
      }
    },
    {
      "type": "Feature",
      "id": 203609,
      "geometry": {
        "type": "Point",
        "coordinates": [
          -100.808873999791,
          32.6766703000894
        ]
      },
      "properties": {
        "OBJECTID": 203609,
        "CROSSING": "015139C",
        "EFFDATE": 1734393600000,
        "REASON": "14",
        "StateCode": "48",
        "CountyCode": "48415",
        "STCYFIPS": "48415",
        "CITYCD": "484156440",
        "RAILROAD": "BNSF",
        "RRDIV": "RED RIVER",
        "RRSUBDIV": "SLATON",
        "HIGHWAY": "FM 1673",
        "STREET": "S FM RD 1673",
        "TTSTN": "",
        "MILEPOST": "0764.501",
        "TYPEXING": "Public",
        "POSXING": "At Grade",
        "PRVCAT": "14",
        "INIT": "1",
        "LATITUDE": 32.6766703,
        "LONGITUD": -100.808874,
        "LLSOURCE": "1",
        "WHISTBAN": "0",
        "RRCONT": "8173521549",
        "POLCONT": "8008325452",
        "INV_LINK": "https://safetydata.fra.dot.gov/OfficeofSafety/PublicSite/Crossing/Crossing.aspx?phasetype=C&rpttype=I&txtcrossingnum=015139C",
        "ACC_LINK": "https://safetydata.fra.dot.gov/OfficeofSafety/PublicSite/Crossing/Crossing.aspx?phasetype=C&rpttype=A&txtcrossingnum=015139C",
        "TTSTNNAM": "",
        "XPURPOSE": "1",
        "OPERATINGR": "BNSF",
        "OPERATIN_1": "Primary",
        "DAYTHRU": 3,
        "NGHTTHRU": 3,
        "MAINTRK": 1,
        "SIDINGTRK": 0,
        "YARDTRK": 0,
        "TRANSITTRK": 0,
        "INDUSTRYTR": 0,
        "OTHRTRK": 0,
        "WDCODE": "All other Gates",
        "REVISIONDA": "1996/01/01 00:00:00",
        "LASTUPDATE": "12/17/2024",
        "AADT": "200",
        "AADTYEAR": "2019",
        "STATENAME": "TEXAS",
        "STATEAB": "TX",
        "COUNTYNAME": "SCURRY",
        "CITYNAME": "SNYDER",
        "LATDD": 32.6766703,
        "LONGDD": -100.808874,
        "gridlyProductionCertified": true,
        "gridlyClassification": "PUBLIC_ROADWAY",
        "gridlyDisplayName": "S FM RD 1673",
        "gridlyId": "FRA-015139C"
      }
    }
  ]
}
