{
  "type": "FeatureCollection",
  "features": [
    {
      "type": "Feature",
      "id": 201676,
      "geometry": {
        "type": "Point",
        "coordinates": [
          -99.4400980000609,
          32.4238916001916
        ]
      },
      "properties": {
        "OBJECTID": 201676,
        "CROSSING": "864732Y",
        "EFFDATE": 1668643200000,
        "REASON": "14",
        "StateCode": "48",
        "CountyCode": "48441",
        "STCYFIPS": "48441",
        "CITYCD": "484410030",
        "RAILROAD": "SSC",
        "RRDIV": "RIOGRANDE",
        "RRSUBDIV": "A&S",
        "HIGHWAY": "ST 0000",
        "STREET": "OAK",
        "TTSTN": "678810",
        "MILEPOST": "0006.50",
        "TYPEXING": "Public",
        "POSXING": "At Grade",
        "PRVCAT": "14",
        "INIT": "1",
        "LATITUDE": 32.4238916,
        "LONGITUD": -99.440098,
        "LLSOURCE": "2",
        "WHISTBAN": "0",
        "RRCONT": "3254390902",
        "POLCONT": "3256773601",
        "INV_LINK": "https://safetydata.fra.dot.gov/OfficeofSafety/PublicSite/Crossing/Crossing.aspx?phasetype=C&rpttype=I&txtcrossingnum=864732Y",
        "ACC_LINK": "https://safetydata.fra.dot.gov/OfficeofSafety/PublicSite/Crossing/Crossing.aspx?phasetype=C&rpttype=A&txtcrossingnum=864732Y",
        "TTSTNNAM": "ABILENE",
        "XPURPOSE": "1",
        "OPERATINGR": "SSC",
        "OPERATIN_1": "Primary",
        "DAYTHRU": 1,
        "NGHTTHRU": 0,
        "MAINTRK": 1,
        "SIDINGTRK": 0,
        "YARDTRK": 0,
        "TRANSITTRK": 0,
        "INDUSTRYTR": 0,
        "OTHRTRK": 0,
        "WDCODE": "Crossbucks",
        "REVISIONDA": "1975/01/01 00:00:00",
        "LASTUPDATE": "11/17/2022",
        "AADT": "740",
        "AADTYEAR": "2019",
        "STATENAME": "TEXAS",
        "STATEAB": "TX",
        "COUNTYNAME": "TAYLOR",
        "CITYNAME": "ABILENE",
        "LATDD": 32.4238916,
        "LONGDD": -99.440098,
        "gridlyProductionCertified": true,
        "gridlyClassification": "PUBLIC_ROADWAY",
        "gridlyDisplayName": "OAK",
        "gridlyId": "FRA-864732Y"
      }
    },
    {
      "type": "Feature",
      "id": 201698,
      "geometry": {
        "type": "Point",
        "coordinates": [
          -99.5033720004161,
          32.4073140002206
        ]
      },
      "properties": {
        "OBJECTID": 201698,
        "CROSSING": "864740R",
        "EFFDATE": 1668643200000,
        "REASON": "20",
        "StateCode": "48",
        "CountyCode": "48441",
        "STCYFIPS": "48441",
        "CITYCD": "484410030",
        "RAILROAD": "SSC",
        "RRDIV": "RIOGRANDE",
        "RRSUBDIV": "A&S",
        "HIGHWAY": "",
        "STREET": "*PRIVATE",
        "TTSTN": "678810",
        "MILEPOST": "0004.98",
        "TYPEXING": "Private",
        "POSXING": "At Grade",
        "PRVCAT": "20",
        "INIT": "1",
        "LATITUDE": 32.407314,
        "LONGITUD": -99.503372,
        "LLSOURCE": "",
        "WHISTBAN": "0",
        "RRCONT": "",
        "POLCONT": "8008488715",
        "INV_LINK": "https://safetydata.fra.dot.gov/OfficeofSafety/PublicSite/Crossing/Crossing.aspx?phasetype=C&rpttype=I&txtcrossingnum=864740R",
        "ACC_LINK": "https://safetydata.fra.dot.gov/OfficeofSafety/PublicSite/Crossing/Crossing.aspx?phasetype=C&rpttype=A&txtcrossingnum=864740R",
        "TTSTNNAM": "ABILENE",
        "XPURPOSE": "1",
        "OPERATINGR": "SSC",
        "OPERATIN_1": "Primary",
        "DAYTHRU": 0,
        "NGHTTHRU": 0,
        "MAINTRK": 0,
        "SIDINGTRK": 0,
        "YARDTRK": 0,
        "TRANSITTRK": 0,
        "INDUSTRYTR": 0,
        "OTHRTRK": 0,
        "WDCODE": "",
        "REVISIONDA": "1975/01/01 00:00:00",
        "LASTUPDATE": "11/17/2022",
        "AADT": "",
        "AADTYEAR": "1970",
        "STATENAME": "TEXAS",
        "STATEAB": "TX",
        "COUNTYNAME": "TAYLOR",
        "CITYNAME": "ABILENE",
        "LATDD": 32.407314,
        "LONGDD": -99.503372,
        "gridlyProductionCertified": true,
        "gridlyClassification": "PUBLIC_ROADWAY",
        "gridlyDisplayName": "*PRIVATE",
        "gridlyId": "FRA-864740R"
      }
    },
    {
      "type": "Feature",
      "id": 208636,
      "geometry": {
        "type": "Point",
        "coordinates": [
          -99.3383504002535,
          32.3877152003606
        ]
      },
      "properties": {
        "OBJECTID": 208636,
        "CROSSING": "176317E",
        "EFFDATE": 1758499200000,
        "REASON": "14",
        "StateCode": "48",
        "CountyCode": "48059",
        "STCYFIPS": "48059",
        "CITYCD": "480590380",
        "RAILROAD": "UP",
        "RRDIV": "TEXOMA",
        "RRSUBDIV": "BAIRD SUB",
        "HIGHWAY": "PRIVATE",
        "STREET": "Private",
        "TTSTN": "678753",
        "MILEPOST": "0382.380",
        "TYPEXING": "Private",
        "POSXING": "At Grade",
        "PRVCAT": "14",
        "INIT": "1",
        "LATITUDE": 32.3877152,
        "LONGITUD": -99.3383504,
        "LLSOURCE": "1",
        "WHISTBAN": "0",
        "RRCONT": "4025443721",
        "POLCONT": "8008488715",
        "INV_LINK": "https://safetydata.fra.dot.gov/OfficeofSafety/PublicSite/Crossing/Crossing.aspx?phasetype=C&rpttype=I&txtcrossingnum=176317E",
        "ACC_LINK": "https://safetydata.fra.dot.gov/OfficeofSafety/PublicSite/Crossing/Crossing.aspx?phasetype=C&rpttype=A&txtcrossingnum=176317E",
        "TTSTNNAM": "",
        "XPURPOSE": "1",
        "OPERATINGR": "UP",
        "OPERATIN_1": "Primary",
        "DAYTHRU": 11,
        "NGHTTHRU": 10,
        "MAINTRK": 1,
        "SIDINGTRK": 1,
        "YARDTRK": 0,
        "TRANSITTRK": 0,
        "INDUSTRYTR": 0,
        "OTHRTRK": 0,
        "WDCODE": "",
        "REVISIONDA": "1975/01/01 00:00:00",
        "LASTUPDATE": "9/22/2025",
        "AADT": "1",
        "AADTYEAR": "",
        "STATENAME": "TEXAS",
        "STATEAB": "TX",
        "COUNTYNAME": "CALLAHAN",
        "CITYNAME": "BAIRD",
        "LATDD": 32.3877152,
        "LONGDD": -99.3383504,
        "gridlyProductionCertified": true,
        "gridlyClassification": "PUBLIC_ROADWAY",
        "gridlyDisplayName": "Private",
        "gridlyId": "FRA-176317E"
      }
    },
    {
      "type": "Feature",
      "id": 208998,
      "geometry": {
        "type": "Point",
        "coordinates": [
          -99.2491459004014,
          32.3738907997574
        ]
      },
      "properties": {
        "OBJECTID": 208998,
        "CROSSING": "839288F",
        "EFFDATE": 1775001600000,
        "REASON": "14",
        "StateCode": "48",
        "CountyCode": "48059",
        "STCYFIPS": "48059",
        "CITYCD": "480595560",
        "RAILROAD": "UP",
        "RRDIV": "TEXOMA",
        "RRSUBDIV": "BAIRD SUB",
        "HIGHWAY": "CO 0451",
        "STREET": "BRUSHY CREEK ROAD",
        "TTSTN": "678753",
        "MILEPOST": "0376.990",
        "TYPEXING": "Public",
        "POSXING": "At Grade",
        "PRVCAT": "14",
        "INIT": "1",
        "LATITUDE": 32.3738908,
        "LONGITUD": -99.2491459,
        "LLSOURCE": "1",
        "WHISTBAN": "0",
        "RRCONT": "4025443721",
        "POLCONT": "8008488715",
        "INV_LINK": "https://safetydata.fra.dot.gov/OfficeofSafety/PublicSite/Crossing/Crossing.aspx?phasetype=C&rpttype=I&txtcrossingnum=839288F",
        "ACC_LINK": "https://safetydata.fra.dot.gov/OfficeofSafety/PublicSite/Crossing/Crossing.aspx?phasetype=C&rpttype=A&txtcrossingnum=839288F",
        "TTSTNNAM": "",
        "XPURPOSE": "1",
        "OPERATINGR": "UP",
        "OPERATIN_1": "Primary",
        "DAYTHRU": 11,
        "NGHTTHRU": 10,
        "MAINTRK": 1,
        "SIDINGTRK": 0,
        "YARDTRK": 0,
        "TRANSITTRK": 0,
        "INDUSTRYTR": 0,
        "OTHRTRK": 0,
        "WDCODE": "Crossbucks",
        "REVISIONDA": "1975/01/01 00:00:00",
        "LASTUPDATE": "4/1/2026",
        "AADT": "9",
        "AADTYEAR": "2019",
        "STATENAME": "TEXAS",
        "STATEAB": "TX",
        "COUNTYNAME": "CALLAHAN",
        "CITYNAME": "PUTNAM",
        "LATDD": 32.3738908,
        "LONGDD": -99.2491459,
        "gridlyProductionCertified": true,
        "gridlyClassification": "PUBLIC_ROADWAY",
        "gridlyDisplayName": "BRUSHY CREEK ROAD",
        "gridlyId": "FRA-839288F"
      }
    },
    {
      "type": "Feature",
      "id": 211857,
      "geometry": {
        "type": "Point",
        "coordinates": [
          -99.5257271996923,
          32.4105039997024
        ]
      },
      "properties": {
        "OBJECTID": 211857,
        "CROSSING": "796028P",
        "EFFDATE": 1758499200000,
        "REASON": "14",
        "StateCode": "48",
        "CountyCode": "48059",
        "STCYFIPS": "48059",
        "CITYCD": "480591400",
        "RAILROAD": "UP",
        "RRDIV": "TEXOMA",
        "RRSUBDIV": "BAIRD SUB",
        "HIGHWAY": "FM 1707",
        "STREET": "North Hays Road",
        "TTSTN": "678762",
        "MILEPOST": "0393.935",
        "TYPEXING": "Public",
        "POSXING": "At Grade",
        "PRVCAT": "14",
        "INIT": "1",
        "LATITUDE": 32.410504,
        "LONGITUD": -99.5257272,
        "LLSOURCE": "1",
        "WHISTBAN": "0",
        "RRCONT": "4025443721",
        "POLCONT": "8008488715",
        "INV_LINK": "https://safetydata.fra.dot.gov/OfficeofSafety/PublicSite/Crossing/Crossing.aspx?phasetype=C&rpttype=I&txtcrossingnum=796028P",
        "ACC_LINK": "https://safetydata.fra.dot.gov/OfficeofSafety/PublicSite/Crossing/Crossing.aspx?phasetype=C&rpttype=A&txtcrossingnum=796028P",
        "TTSTNNAM": "",
        "XPURPOSE": "1",
        "OPERATINGR": "UP",
        "OPERATIN_1": "Primary",
        "DAYTHRU": 11,
        "NGHTTHRU": 10,
        "MAINTRK": 1,
        "SIDINGTRK": 1,
        "YARDTRK": 0,
        "TRANSITTRK": 0,
        "INDUSTRYTR": 0,
        "OTHRTRK": 0,
        "WDCODE": "All other Gates",
        "REVISIONDA": "1975/01/01 00:00:00",
        "LASTUPDATE": "9/22/2025",
        "AADT": "1159",
        "AADTYEAR": "2019",
        "STATENAME": "TEXAS",
        "STATEAB": "TX",
        "COUNTYNAME": "CALLAHAN",
        "CITYNAME": "CLYDE",
        "LATDD": 32.410504,
        "LONGDD": -99.5257272,
        "gridlyProductionCertified": true,
        "gridlyClassification": "PUBLIC_ROADWAY",
        "gridlyDisplayName": "North Hays Road",
        "gridlyId": "FRA-796028P"
      }
    },
    {
      "type": "Feature",
      "id": 212022,
      "geometry": {
        "type": "Point",
        "coordinates": [
          -99.561915500333,
          32.411158699983
        ]
      },
      "properties": {
        "OBJECTID": 212022,
        "CROSSING": "796030R",
        "EFFDATE": 1758499200000,
        "REASON": "14",
        "StateCode": "48",
        "CountyCode": "48059",
        "STCYFIPS": "48059",
        "CITYCD": "480591400",
        "RAILROAD": "UP",
        "RRDIV": "TEXOMA",
        "RRSUBDIV": "BAIRD SUB",
        "HIGHWAY": "FM 0603",
        "STREET": "FM 603/EUFLA STREET",
        "TTSTN": "678762",
        "MILEPOST": "0396.060",
        "TYPEXING": "Public",
        "POSXING": "At Grade",
        "PRVCAT": "14",
        "INIT": "1",
        "LATITUDE": 32.4111587,
        "LONGITUD": -99.5619155,
        "LLSOURCE": "1",
        "WHISTBAN": "0",
        "RRCONT": "4025443721",
        "POLCONT": "8008488715",
        "INV_LINK": "https://safetydata.fra.dot.gov/OfficeofSafety/PublicSite/Crossing/Crossing.aspx?phasetype=C&rpttype=I&txtcrossingnum=796030R",
        "ACC_LINK": "https://safetydata.fra.dot.gov/OfficeofSafety/PublicSite/Crossing/Crossing.aspx?phasetype=C&rpttype=A&txtcrossingnum=796030R",
        "TTSTNNAM": "",
        "XPURPOSE": "1",
        "OPERATINGR": "UP",
        "OPERATIN_1": "Primary",
        "DAYTHRU": 11,
        "NGHTTHRU": 10,
        "MAINTRK": 1,
        "SIDINGTRK": 0,
        "YARDTRK": 0,
        "TRANSITTRK": 0,
        "INDUSTRYTR": 0,
        "OTHRTRK": 0,
        "WDCODE": "All other Gates",
        "REVISIONDA": "1975/01/01 00:00:00",
        "LASTUPDATE": "9/22/2025",
        "AADT": "1199",
        "AADTYEAR": "2019",
        "STATENAME": "TEXAS",
        "STATEAB": "TX",
        "COUNTYNAME": "CALLAHAN",
        "CITYNAME": "CLYDE",
        "LATDD": 32.4111587,
        "LONGDD": -99.5619155,
        "gridlyProductionCertified": true,
        "gridlyClassification": "PUBLIC_ROADWAY",
        "gridlyDisplayName": "FM 603/EUFLA STREET",
        "gridlyId": "FRA-796030R"
      }
    },
    {
      "type": "Feature",
      "id": 212387,
      "geometry": {
        "type": "Point",
        "coordinates": [
          -99.4618450003638,
          32.4012786000315
        ]
      },
      "properties": {
        "OBJECTID": 212387,
        "CROSSING": "839296X",
        "EFFDATE": 1759104000000,
        "REASON": "14",
        "StateCode": "48",
        "CountyCode": "48059",
        "STCYFIPS": "48059",
        "CITYCD": "480591400",
        "RAILROAD": "UP",
        "RRDIV": "TEXOMA",
        "RRSUBDIV": "BAIRD SUB",
        "HIGHWAY": "NA",
        "STREET": "Private",
        "TTSTN": "678762",
        "MILEPOST": "0390.170",
        "TYPEXING": "Private",
        "POSXING": "At Grade",
        "PRVCAT": "14",
        "INIT": "1",
        "LATITUDE": 32.4012786,
        "LONGITUD": -99.461845,
        "LLSOURCE": "1",
        "WHISTBAN": "0",
        "RRCONT": "4025443721",
        "POLCONT": "8008488715",
        "INV_LINK": "https://safetydata.fra.dot.gov/OfficeofSafety/PublicSite/Crossing/Crossing.aspx?phasetype=C&rpttype=I&txtcrossingnum=839296X",
        "ACC_LINK": "https://safetydata.fra.dot.gov/OfficeofSafety/PublicSite/Crossing/Crossing.aspx?phasetype=C&rpttype=A&txtcrossingnum=839296X",
        "TTSTNNAM": "",
        "XPURPOSE": "1",
        "OPERATINGR": "UP",
        "OPERATIN_1": "Primary",
        "DAYTHRU": 11,
        "NGHTTHRU": 10,
        "MAINTRK": 1,
        "SIDINGTRK": 0,
        "YARDTRK": 0,
        "TRANSITTRK": 0,
        "INDUSTRYTR": 0,
        "OTHRTRK": 0,
        "WDCODE": "",
        "REVISIONDA": "1975/01/01 00:00:00",
        "LASTUPDATE": "9/29/2025",
        "AADT": "1",
        "AADTYEAR": "1970",
        "STATENAME": "TEXAS",
        "STATEAB": "TX",
        "COUNTYNAME": "CALLAHAN",
        "CITYNAME": "CLYDE",
        "LATDD": 32.4012786,
        "LONGDD": -99.461845,
        "gridlyProductionCertified": true,
        "gridlyClassification": "PUBLIC_ROADWAY",
        "gridlyDisplayName": "Private",
        "gridlyId": "FRA-839296X"
      }
    },
    {
      "type": "Feature",
      "id": 212404,
      "geometry": {
        "type": "Point",
        "coordinates": [
          -99.1256022001743,
          32.38377369981
        ]
      },
      "properties": {
        "OBJECTID": 212404,
        "CROSSING": "839282P",
        "EFFDATE": 1758585600000,
        "REASON": "14",
        "StateCode": "48",
        "CountyCode": "48059",
        "STCYFIPS": "48059",
        "CITYCD": "480595560",
        "RAILROAD": "UP",
        "RRDIV": "TEXOMA",
        "RRSUBDIV": "BAIRD SUB",
        "HIGHWAY": "NA",
        "STREET": "Private",
        "TTSTN": "678753",
        "MILEPOST": "0369.570",
        "TYPEXING": "Private",
        "POSXING": "At Grade",
        "PRVCAT": "14",
        "INIT": "1",
        "LATITUDE": 32.3837737,
        "LONGITUD": -99.1256022,
        "LLSOURCE": "1",
        "WHISTBAN": "0",
        "RRCONT": "4025443721",
        "POLCONT": "8008488715",
        "INV_LINK": "https://safetydata.fra.dot.gov/OfficeofSafety/PublicSite/Crossing/Crossing.aspx?phasetype=C&rpttype=I&txtcrossingnum=839282P",
        "ACC_LINK": "https://safetydata.fra.dot.gov/OfficeofSafety/PublicSite/Crossing/Crossing.aspx?phasetype=C&rpttype=A&txtcrossingnum=839282P",
        "TTSTNNAM": "",
        "XPURPOSE": "1",
        "OPERATINGR": "UP",
        "OPERATIN_1": "Primary",
        "DAYTHRU": 11,
        "NGHTTHRU": 10,
        "MAINTRK": 1,
        "SIDINGTRK": 0,
        "YARDTRK": 0,
        "TRANSITTRK": 0,
        "INDUSTRYTR": 0,
        "OTHRTRK": 0,
        "WDCODE": "",
        "REVISIONDA": "1975/01/01 00:00:00",
        "LASTUPDATE": "9/23/2025",
        "AADT": "1",
        "AADTYEAR": "1970",
        "STATENAME": "TEXAS",
        "STATEAB": "TX",
        "COUNTYNAME": "CALLAHAN",
        "CITYNAME": "PUTNAM",
        "LATDD": 32.3837737,
        "LONGDD": -99.1256022,
        "gridlyProductionCertified": true,
        "gridlyClassification": "PUBLIC_ROADWAY",
        "gridlyDisplayName": "Private",
        "gridlyId": "FRA-839282P"
      }
    },
    {
      "type": "Feature",
      "id": 212405,
      "geometry": {
        "type": "Point",
        "coordinates": [
          -99.1427595001798,
          32.3822463999494
        ]
      },
      "properties": {
        "OBJECTID": 212405,
        "CROSSING": "839283W",
        "EFFDATE": 1758585600000,
        "REASON": "14",
        "StateCode": "48",
        "CountyCode": "48059",
        "STCYFIPS": "48059",
        "CITYCD": "480595560",
        "RAILROAD": "UP",
        "RRDIV": "TEXOMA",
        "RRSUBDIV": "BAIRD SUB",
        "HIGHWAY": "CO 0717",
        "STREET": "CR 425",
        "TTSTN": "678753",
        "MILEPOST": "0370.580",
        "TYPEXING": "Public",
        "POSXING": "At Grade",
        "PRVCAT": "14",
        "INIT": "1",
        "LATITUDE": 32.3822464,
        "LONGITUD": -99.1427595,
        "LLSOURCE": "1",
        "WHISTBAN": "0",
        "RRCONT": "4025443721",
        "POLCONT": "8008488715",
        "INV_LINK": "https://safetydata.fra.dot.gov/OfficeofSafety/PublicSite/Crossing/Crossing.aspx?phasetype=C&rpttype=I&txtcrossingnum=839283W",
        "ACC_LINK": "https://safetydata.fra.dot.gov/OfficeofSafety/PublicSite/Crossing/Crossing.aspx?phasetype=C&rpttype=A&txtcrossingnum=839283W",
        "TTSTNNAM": "",
        "XPURPOSE": "1",
        "OPERATINGR": "UP",
        "OPERATIN_1": "Primary",
        "DAYTHRU": 11,
        "NGHTTHRU": 10,
        "MAINTRK": 1,
        "SIDINGTRK": 0,
        "YARDTRK": 0,
        "TRANSITTRK": 0,
        "INDUSTRYTR": 0,
        "OTHRTRK": 0,
        "WDCODE": "Crossbucks",
        "REVISIONDA": "1975/01/01 00:00:00",
        "LASTUPDATE": "9/23/2025",
        "AADT": "13",
        "AADTYEAR": "2019",
        "STATENAME": "TEXAS",
        "STATEAB": "TX",
        "COUNTYNAME": "CALLAHAN",
        "CITYNAME": "PUTNAM",
        "LATDD": 32.3822464,
        "LONGDD": -99.1427595,
        "gridlyProductionCertified": true,
        "gridlyClassification": "PUBLIC_ROADWAY",
        "gridlyDisplayName": "CR 425",
        "gridlyId": "FRA-839283W"
      }
    },
    {
      "type": "Feature",
      "id": 212409,
      "geometry": {
        "type": "Point",
        "coordinates": [
          -99.165272999677,
          32.3769290003783
        ]
      },
      "properties": {
        "OBJECTID": 212409,
        "CROSSING": "839284D",
        "EFFDATE": 1758585600000,
        "REASON": "14",
        "StateCode": "48",
        "CountyCode": "48059",
        "STCYFIPS": "48059",
        "CITYCD": "480595560",
        "RAILROAD": "UP",
        "RRDIV": "Texoma",
        "RRSUBDIV": "Baird Sub",
        "HIGHWAY": "IH 0020",
        "STREET": "I 20",
        "TTSTN": "678753",
        "MILEPOST": "0371.950",
        "TYPEXING": "Public",
        "POSXING": "RR Under",
        "PRVCAT": "14",
        "INIT": "1",
        "LATITUDE": 32.376929,
        "LONGITUD": -99.165273,
        "LLSOURCE": "1",
        "WHISTBAN": "0",
        "RRCONT": "4025443721",
        "POLCONT": "8008488715",
        "INV_LINK": "https://safetydata.fra.dot.gov/OfficeofSafety/PublicSite/Crossing/Crossing.aspx?phasetype=C&rpttype=I&txtcrossingnum=839284D",
        "ACC_LINK": "https://safetydata.fra.dot.gov/OfficeofSafety/PublicSite/Crossing/Crossing.aspx?phasetype=C&rpttype=A&txtcrossingnum=839284D",
        "TTSTNNAM": "",
        "XPURPOSE": "1",
        "OPERATINGR": "UP",
        "OPERATIN_1": "Primary",
        "DAYTHRU": 9,
        "NGHTTHRU": 9,
        "MAINTRK": 1,
        "SIDINGTRK": 0,
        "YARDTRK": 0,
        "TRANSITTRK": 0,
        "INDUSTRYTR": 0,
        "OTHRTRK": 0,
        "WDCODE": "",
        "REVISIONDA": "1975/01/01 00:00:00",
        "LASTUPDATE": "9/23/2025",
        "AADT": "20980",
        "AADTYEAR": "2011",
        "STATENAME": "TEXAS",
        "STATEAB": "TX",
        "COUNTYNAME": "CALLAHAN",
        "CITYNAME": "PUTNAM",
        "LATDD": 32.376929,
        "LONGDD": -99.165273,
        "gridlyProductionCertified": true,
        "gridlyClassification": "PUBLIC_ROADWAY",
        "gridlyDisplayName": "I 20",
        "gridlyId": "FRA-839284D"
      }
    },
    {
      "type": "Feature",
      "id": 212411,
      "geometry": {
        "type": "Point",
        "coordinates": [
          -99.1925672998786,
          32.3709993997487
        ]
      },
      "properties": {
        "OBJECTID": 212411,
        "CROSSING": "839286S",
        "EFFDATE": 1758585600000,
        "REASON": "14",
        "StateCode": "48",
        "CountyCode": "48059",
        "STCYFIPS": "48059",
        "CITYCD": "480595560",
        "RAILROAD": "UP",
        "RRDIV": "TEXOMA",
        "RRSUBDIV": "BAIRD SUB",
        "HIGHWAY": "FM 0880",
        "STREET": "FM 880/HOUSTON STREET",
        "TTSTN": "678762",
        "MILEPOST": "0373.580",
        "TYPEXING": "Public",
        "POSXING": "At Grade",
        "PRVCAT": "14",
        "INIT": "1",
        "LATITUDE": 32.3709994,
        "LONGITUD": -99.1925673,
        "LLSOURCE": "1",
        "WHISTBAN": "0",
        "RRCONT": "4025443721",
        "POLCONT": "8008488715",
        "INV_LINK": "https://safetydata.fra.dot.gov/OfficeofSafety/PublicSite/Crossing/Crossing.aspx?phasetype=C&rpttype=I&txtcrossingnum=839286S",
        "ACC_LINK": "https://safetydata.fra.dot.gov/OfficeofSafety/PublicSite/Crossing/Crossing.aspx?phasetype=C&rpttype=A&txtcrossingnum=839286S",
        "TTSTNNAM": "",
        "XPURPOSE": "1",
        "OPERATINGR": "UP",
        "OPERATIN_1": "Primary",
        "DAYTHRU": 11,
        "NGHTTHRU": 10,
        "MAINTRK": 1,
        "SIDINGTRK": 0,
        "YARDTRK": 0,
        "TRANSITTRK": 0,
        "INDUSTRYTR": 0,
        "OTHRTRK": 0,
        "WDCODE": "All other Gates",
        "REVISIONDA": "1975/01/01 00:00:00",
        "LASTUPDATE": "9/23/2025",
        "AADT": "203",
        "AADTYEAR": "2019",
        "STATENAME": "TEXAS",
        "STATEAB": "TX",
        "COUNTYNAME": "CALLAHAN",
        "CITYNAME": "PUTNAM",
        "LATDD": 32.3709994,
        "LONGDD": -99.1925673,
        "gridlyProductionCertified": true,
        "gridlyClassification": "PUBLIC_ROADWAY",
        "gridlyDisplayName": "FM 880/HOUSTON STREET",
        "gridlyId": "FRA-839286S"
      }
    },
    {
      "type": "Feature",
      "id": 212412,
      "geometry": {
        "type": "Point",
        "coordinates": [
          -99.1968682996099,
          32.3706654001134
        ]
      },
      "properties": {
        "OBJECTID": 212412,
        "CROSSING": "839287Y",
        "EFFDATE": 1758585600000,
        "REASON": "14",
        "StateCode": "48",
        "CountyCode": "48059",
        "STCYFIPS": "48059",
        "CITYCD": "480595560",
        "RAILROAD": "UP",
        "RRDIV": "TEXOMA",
        "RRSUBDIV": "BAIRD SUB",
        "HIGHWAY": "ST 0000",
        "STREET": "PECAN STREET",
        "TTSTN": "678753",
        "MILEPOST": "0373.810",
        "TYPEXING": "Public",
        "POSXING": "At Grade",
        "PRVCAT": "14",
        "INIT": "1",
        "LATITUDE": 32.3706654,
        "LONGITUD": -99.1968683,
        "LLSOURCE": "1",
        "WHISTBAN": "0",
        "RRCONT": "4025443721",
        "POLCONT": "8008488715",
        "INV_LINK": "https://safetydata.fra.dot.gov/OfficeofSafety/PublicSite/Crossing/Crossing.aspx?phasetype=C&rpttype=I&txtcrossingnum=839287Y",
        "ACC_LINK": "https://safetydata.fra.dot.gov/OfficeofSafety/PublicSite/Crossing/Crossing.aspx?phasetype=C&rpttype=A&txtcrossingnum=839287Y",
        "TTSTNNAM": "",
        "XPURPOSE": "1",
        "OPERATINGR": "UP",
        "OPERATIN_1": "Primary",
        "DAYTHRU": 11,
        "NGHTTHRU": 10,
        "MAINTRK": 1,
        "SIDINGTRK": 0,
        "YARDTRK": 0,
        "TRANSITTRK": 0,
        "INDUSTRYTR": 0,
        "OTHRTRK": 1,
        "WDCODE": "All other Gates",
        "REVISIONDA": "1975/01/01 00:00:00",
        "LASTUPDATE": "9/23/2025",
        "AADT": "151",
        "AADTYEAR": "2017",
        "STATENAME": "TEXAS",
        "STATEAB": "TX",
        "COUNTYNAME": "CALLAHAN",
        "CITYNAME": "PUTNAM",
        "LATDD": 32.3706654,
        "LONGDD": -99.1968683,
        "gridlyProductionCertified": true,
        "gridlyClassification": "PUBLIC_ROADWAY",
        "gridlyDisplayName": "PECAN STREET",
        "gridlyId": "FRA-839287Y"
      }
    },
    {
      "type": "Feature",
      "id": 212417,
      "geometry": {
        "type": "Point",
        "coordinates": [
          -99.2979252000668,
          32.3785489996831
        ]
      },
      "properties": {
        "OBJECTID": 212417,
        "CROSSING": "839289M",
        "EFFDATE": 1758585600000,
        "REASON": "14",
        "StateCode": "48",
        "CountyCode": "48059",
        "STCYFIPS": "48059",
        "CITYCD": "480590380",
        "RAILROAD": "UP",
        "RRDIV": "TEXOMA",
        "RRSUBDIV": "BAIRD SUB",
        "HIGHWAY": "FM 2228",
        "STREET": "FM 2228",
        "TTSTN": "678762",
        "MILEPOST": "0379.943",
        "TYPEXING": "Public",
        "POSXING": "At Grade",
        "PRVCAT": "14",
        "INIT": "1",
        "LATITUDE": 32.378549,
        "LONGITUD": -99.2979252,
        "LLSOURCE": "1",
        "WHISTBAN": "0",
        "RRCONT": "4025443721",
        "POLCONT": "8008488715",
        "INV_LINK": "https://safetydata.fra.dot.gov/OfficeofSafety/PublicSite/Crossing/Crossing.aspx?phasetype=C&rpttype=I&txtcrossingnum=839289M",
        "ACC_LINK": "https://safetydata.fra.dot.gov/OfficeofSafety/PublicSite/Crossing/Crossing.aspx?phasetype=C&rpttype=A&txtcrossingnum=839289M",
        "TTSTNNAM": "",
        "XPURPOSE": "1",
        "OPERATINGR": "UP",
        "OPERATIN_1": "Primary",
        "DAYTHRU": 11,
        "NGHTTHRU": 10,
        "MAINTRK": 1,
        "SIDINGTRK": 1,
        "YARDTRK": 0,
        "TRANSITTRK": 0,
        "INDUSTRYTR": 0,
        "OTHRTRK": 0,
        "WDCODE": "All other Gates",
        "REVISIONDA": "1975/01/01 00:00:00",
        "LASTUPDATE": "9/23/2025",
        "AADT": "222",
        "AADTYEAR": "2019",
        "STATENAME": "TEXAS",
        "STATEAB": "TX",
        "COUNTYNAME": "CALLAHAN",
        "CITYNAME": "BAIRD",
        "LATDD": 32.378549,
        "LONGDD": -99.2979252,
        "gridlyProductionCertified": true,
        "gridlyClassification": "PUBLIC_ROADWAY",
        "gridlyDisplayName": "FM 2228",
        "gridlyId": "FRA-839289M"
      }
    },
    {
      "type": "Feature",
      "id": 212418,
      "geometry": {
        "type": "Point",
        "coordinates": [
          -99.3712380003845,
          32.3905589996255
        ]
      },
      "properties": {
        "OBJECTID": 212418,
        "CROSSING": "839290G",
        "EFFDATE": 1758585600000,
        "REASON": "14",
        "StateCode": "48",
        "CountyCode": "48059",
        "STCYFIPS": "48059",
        "CITYCD": "480590380",
        "RAILROAD": "UP",
        "RRDIV": "TEXOMA",
        "RRSUBDIV": "BAIRD SUB",
        "HIGHWAY": "NA",
        "STREET": "PRIVATE CITY SEWER",
        "TTSTN": "678753",
        "MILEPOST": "0384.360",
        "TYPEXING": "Private",
        "POSXING": "At Grade",
        "PRVCAT": "14",
        "INIT": "1",
        "LATITUDE": 32.390559,
        "LONGITUD": -99.371238,
        "LLSOURCE": "1",
        "WHISTBAN": "0",
        "RRCONT": "4025443721",
        "POLCONT": "8008488715",
        "INV_LINK": "https://safetydata.fra.dot.gov/OfficeofSafety/PublicSite/Crossing/Crossing.aspx?phasetype=C&rpttype=I&txtcrossingnum=839290G",
        "ACC_LINK": "https://safetydata.fra.dot.gov/OfficeofSafety/PublicSite/Crossing/Crossing.aspx?phasetype=C&rpttype=A&txtcrossingnum=839290G",
        "TTSTNNAM": "",
        "XPURPOSE": "1",
        "OPERATINGR": "UP",
        "OPERATIN_1": "Primary",
        "DAYTHRU": 11,
        "NGHTTHRU": 10,
        "MAINTRK": 1,
        "SIDINGTRK": 0,
        "YARDTRK": 0,
        "TRANSITTRK": 0,
        "INDUSTRYTR": 0,
        "OTHRTRK": 0,
        "WDCODE": "",
        "REVISIONDA": "1975/01/01 00:00:00",
        "LASTUPDATE": "9/23/2025",
        "AADT": "1",
        "AADTYEAR": "1970",
        "STATENAME": "TEXAS",
        "STATEAB": "TX",
        "COUNTYNAME": "CALLAHAN",
        "CITYNAME": "BAIRD",
        "LATDD": 32.390559,
        "LONGDD": -99.371238,
        "gridlyProductionCertified": true,
        "gridlyClassification": "PUBLIC_ROADWAY",
        "gridlyDisplayName": "PRIVATE CITY SEWER",
        "gridlyId": "FRA-839290G"
      }
    },
    {
      "type": "Feature",
      "id": 212419,
      "geometry": {
        "type": "Point",
        "coordinates": [
          -99.3868289996573,
          32.3899780000358
        ]
      },
      "properties": {
        "OBJECTID": 212419,
        "CROSSING": "839291N",
        "EFFDATE": 1758585600000,
        "REASON": "14",
        "StateCode": "48",
        "CountyCode": "48059",
        "STCYFIPS": "48059",
        "CITYCD": "480590380",
        "RAILROAD": "UP",
        "RRDIV": "TEXOMA",
        "RRSUBDIV": "BAIRD SUB",
        "HIGHWAY": "US 0283",
        "STREET": "US 283",
        "TTSTN": "678753",
        "MILEPOST": "0385.280",
        "TYPEXING": "Public",
        "POSXING": "RR Under",
        "PRVCAT": "14",
        "INIT": "1",
        "LATITUDE": 32.389978,
        "LONGITUD": -99.386829,
        "LLSOURCE": "1",
        "WHISTBAN": "0",
        "RRCONT": "4025443721",
        "POLCONT": "8008488715",
        "INV_LINK": "https://safetydata.fra.dot.gov/OfficeofSafety/PublicSite/Crossing/Crossing.aspx?phasetype=C&rpttype=I&txtcrossingnum=839291N",
        "ACC_LINK": "https://safetydata.fra.dot.gov/OfficeofSafety/PublicSite/Crossing/Crossing.aspx?phasetype=C&rpttype=A&txtcrossingnum=839291N",
        "TTSTNNAM": "",
        "XPURPOSE": "1",
        "OPERATINGR": "UP",
        "OPERATIN_1": "Primary",
        "DAYTHRU": 9,
        "NGHTTHRU": 9,
        "MAINTRK": 1,
        "SIDINGTRK": 0,
        "YARDTRK": 0,
        "TRANSITTRK": 0,
        "INDUSTRYTR": 0,
        "OTHRTRK": 0,
        "WDCODE": "",
        "REVISIONDA": "1975/01/01 00:00:00",
        "LASTUPDATE": "9/23/2025",
        "AADT": "1600",
        "AADTYEAR": "2011",
        "STATENAME": "TEXAS",
        "STATEAB": "TX",
        "COUNTYNAME": "CALLAHAN",
        "CITYNAME": "BAIRD",
        "LATDD": 32.389978,
        "LONGDD": -99.386829,
        "gridlyProductionCertified": true,
        "gridlyClassification": "PUBLIC_ROADWAY",
        "gridlyDisplayName": "US 283",
        "gridlyId": "FRA-839291N"
      }
    },
    {
      "type": "Feature",
      "id": 212420,
      "geometry": {
        "type": "Point",
        "coordinates": [
          -99.4112841995562,
          32.3933429001487
        ]
      },
      "properties": {
        "OBJECTID": 212420,
        "CROSSING": "839292V",
        "EFFDATE": 1758585600000,
        "REASON": "14",
        "StateCode": "48",
        "CountyCode": "48059",
        "STCYFIPS": "48059",
        "CITYCD": "480590380",
        "RAILROAD": "UP",
        "RRDIV": "TEXOMA",
        "RRSUBDIV": "BAIRD SUB",
        "HIGHWAY": "ST 0000",
        "STREET": "BOWEN STREET",
        "TTSTN": "678762",
        "MILEPOST": "0386.830",
        "TYPEXING": "Public",
        "POSXING": "At Grade",
        "PRVCAT": "14",
        "INIT": "1",
        "LATITUDE": 32.3933429,
        "LONGITUD": -99.4112842,
        "LLSOURCE": "1",
        "WHISTBAN": "0",
        "RRCONT": "4025443721",
        "POLCONT": "8008488715",
        "INV_LINK": "https://safetydata.fra.dot.gov/OfficeofSafety/PublicSite/Crossing/Crossing.aspx?phasetype=C&rpttype=I&txtcrossingnum=839292V",
        "ACC_LINK": "https://safetydata.fra.dot.gov/OfficeofSafety/PublicSite/Crossing/Crossing.aspx?phasetype=C&rpttype=A&txtcrossingnum=839292V",
        "TTSTNNAM": "",
        "XPURPOSE": "1",
        "OPERATINGR": "UP",
        "OPERATIN_1": "Primary",
        "DAYTHRU": 11,
        "NGHTTHRU": 10,
        "MAINTRK": 1,
        "SIDINGTRK": 0,
        "YARDTRK": 0,
        "TRANSITTRK": 0,
        "INDUSTRYTR": 0,
        "OTHRTRK": 0,
        "WDCODE": "Crossbucks",
        "REVISIONDA": "1975/01/01 00:00:00",
        "LASTUPDATE": "9/23/2025",
        "AADT": "12",
        "AADTYEAR": "2019",
        "STATENAME": "TEXAS",
        "STATEAB": "TX",
        "COUNTYNAME": "CALLAHAN",
        "CITYNAME": "BAIRD",
        "LATDD": 32.3933429,
        "LONGDD": -99.4112842,
        "gridlyProductionCertified": true,
        "gridlyClassification": "PUBLIC_ROADWAY",
        "gridlyDisplayName": "BOWEN STREET",
        "gridlyId": "FRA-839292V"
      }
    },
    {
      "type": "Feature",
      "id": 212432,
      "geometry": {
        "type": "Point",
        "coordinates": [
          -99.4548004002276,
          32.3999259003348
        ]
      },
      "properties": {
        "OBJECTID": 212432,
        "CROSSING": "839295R",
        "EFFDATE": 1758585600000,
        "REASON": "14",
        "StateCode": "48",
        "CountyCode": "48059",
        "STCYFIPS": "48059",
        "CITYCD": "480591400",
        "RAILROAD": "UP",
        "RRDIV": "TEXOMA",
        "RRSUBDIV": "BAIRD SUB",
        "HIGHWAY": "CO 0279",
        "STREET": "CR 279",
        "TTSTN": "678762",
        "MILEPOST": "0389.740",
        "TYPEXING": "Public",
        "POSXING": "At Grade",
        "PRVCAT": "14",
        "INIT": "1",
        "LATITUDE": 32.3999259,
        "LONGITUD": -99.4548004,
        "LLSOURCE": "1",
        "WHISTBAN": "0",
        "RRCONT": "4025443721",
        "POLCONT": "8008488715",
        "INV_LINK": "https://safetydata.fra.dot.gov/OfficeofSafety/PublicSite/Crossing/Crossing.aspx?phasetype=C&rpttype=I&txtcrossingnum=839295R",
        "ACC_LINK": "https://safetydata.fra.dot.gov/OfficeofSafety/PublicSite/Crossing/Crossing.aspx?phasetype=C&rpttype=A&txtcrossingnum=839295R",
        "TTSTNNAM": "",
        "XPURPOSE": "1",
        "OPERATINGR": "UP",
        "OPERATIN_1": "Primary",
        "DAYTHRU": 11,
        "NGHTTHRU": 10,
        "MAINTRK": 1,
        "SIDINGTRK": 0,
        "YARDTRK": 0,
        "TRANSITTRK": 0,
        "INDUSTRYTR": 0,
        "OTHRTRK": 0,
        "WDCODE": "All other Gates",
        "REVISIONDA": "1975/01/01 00:00:00",
        "LASTUPDATE": "9/23/2025",
        "AADT": "90",
        "AADTYEAR": "2019",
        "STATENAME": "TEXAS",
        "STATEAB": "TX",
        "COUNTYNAME": "CALLAHAN",
        "CITYNAME": "CLYDE",
        "LATDD": 32.3999259,
        "LONGDD": -99.4548004,
        "gridlyProductionCertified": true,
        "gridlyClassification": "PUBLIC_ROADWAY",
        "gridlyDisplayName": "CR 279",
        "gridlyId": "FRA-839295R"
      }
    },
    {
      "type": "Feature",
      "id": 212433,
      "geometry": {
        "type": "Point",
        "coordinates": [
          -99.4721117002189,
          32.4028241001439
        ]
      },
      "properties": {
        "OBJECTID": 212433,
        "CROSSING": "839297E",
        "EFFDATE": 1758585600000,
        "REASON": "14",
        "StateCode": "48",
        "CountyCode": "48059",
        "STCYFIPS": "48059",
        "CITYCD": "480591400",
        "RAILROAD": "UP",
        "RRDIV": "TEXOMA",
        "RRSUBDIV": "BAIRD SUB",
        "HIGHWAY": "CO 0527",
        "STREET": "CR 527",
        "TTSTN": "678762",
        "MILEPOST": "0390.780",
        "TYPEXING": "Public",
        "POSXING": "At Grade",
        "PRVCAT": "14",
        "INIT": "1",
        "LATITUDE": 32.4028241,
        "LONGITUD": -99.4721117,
        "LLSOURCE": "1",
        "WHISTBAN": "0",
        "RRCONT": "4025443721",
        "POLCONT": "8008488715",
        "INV_LINK": "https://safetydata.fra.dot.gov/OfficeofSafety/PublicSite/Crossing/Crossing.aspx?phasetype=C&rpttype=I&txtcrossingnum=839297E",
        "ACC_LINK": "https://safetydata.fra.dot.gov/OfficeofSafety/PublicSite/Crossing/Crossing.aspx?phasetype=C&rpttype=A&txtcrossingnum=839297E",
        "TTSTNNAM": "",
        "XPURPOSE": "1",
        "OPERATINGR": "UP",
        "OPERATIN_1": "Primary",
        "DAYTHRU": 11,
        "NGHTTHRU": 10,
        "MAINTRK": 1,
        "SIDINGTRK": 0,
        "YARDTRK": 0,
        "TRANSITTRK": 0,
        "INDUSTRYTR": 0,
        "OTHRTRK": 0,
        "WDCODE": "All other Gates",
        "REVISIONDA": "1975/01/01 00:00:00",
        "LASTUPDATE": "9/23/2025",
        "AADT": "322",
        "AADTYEAR": "2019",
        "STATENAME": "TEXAS",
        "STATEAB": "TX",
        "COUNTYNAME": "CALLAHAN",
        "CITYNAME": "CLYDE",
        "LATDD": 32.4028241,
        "LONGDD": -99.4721117,
        "gridlyProductionCertified": true,
        "gridlyClassification": "PUBLIC_ROADWAY",
        "gridlyDisplayName": "CR 527",
        "gridlyId": "FRA-839297E"
      }
    },
    {
      "type": "Feature",
      "id": 212434,
      "geometry": {
        "type": "Point",
        "coordinates": [
          -99.49339849989,
          32.4058693002091
        ]
      },
      "properties": {
        "OBJECTID": 212434,
        "CROSSING": "839298L",
        "EFFDATE": 1758585600000,
        "REASON": "14",
        "StateCode": "48",
        "CountyCode": "48059",
        "STCYFIPS": "48059",
        "CITYCD": "480591400",
        "RAILROAD": "UP",
        "RRDIV": "TEXOMA",
        "RRSUBDIV": "BAIRD SUB",
        "HIGHWAY": "ST 0000",
        "STREET": "RUSK STREET",
        "TTSTN": "678762",
        "MILEPOST": "0392.030",
        "TYPEXING": "Public",
        "POSXING": "At Grade",
        "PRVCAT": "14",
        "INIT": "1",
        "LATITUDE": 32.4058693,
        "LONGITUD": -99.4933985,
        "LLSOURCE": "1",
        "WHISTBAN": "0",
        "RRCONT": "4025443721",
        "POLCONT": "8008488715",
        "INV_LINK": "https://safetydata.fra.dot.gov/OfficeofSafety/PublicSite/Crossing/Crossing.aspx?phasetype=C&rpttype=I&txtcrossingnum=839298L",
        "ACC_LINK": "https://safetydata.fra.dot.gov/OfficeofSafety/PublicSite/Crossing/Crossing.aspx?phasetype=C&rpttype=A&txtcrossingnum=839298L",
        "TTSTNNAM": "",
        "XPURPOSE": "1",
        "OPERATINGR": "UP",
        "OPERATIN_1": "Primary",
        "DAYTHRU": 11,
        "NGHTTHRU": 10,
        "MAINTRK": 1,
        "SIDINGTRK": 0,
        "YARDTRK": 0,
        "TRANSITTRK": 0,
        "INDUSTRYTR": 0,
        "OTHRTRK": 0,
        "WDCODE": "All other Gates",
        "REVISIONDA": "1975/01/01 00:00:00",
        "LASTUPDATE": "9/23/2025",
        "AADT": "90",
        "AADTYEAR": "2019",
        "STATENAME": "TEXAS",
        "STATEAB": "TX",
        "COUNTYNAME": "CALLAHAN",
        "CITYNAME": "CLYDE",
        "LATDD": 32.4058693,
        "LONGDD": -99.4933985,
        "gridlyProductionCertified": true,
        "gridlyClassification": "PUBLIC_ROADWAY",
        "gridlyDisplayName": "RUSK STREET",
        "gridlyId": "FRA-839298L"
      }
    },
    {
      "type": "Feature",
      "id": 212466,
      "geometry": {
        "type": "Point",
        "coordinates": [
          -99.4125516999642,
          32.3945703996786
        ]
      },
      "properties": {
        "OBJECTID": 212466,
        "CROSSING": "839293C",
        "EFFDATE": 1758585600000,
        "REASON": "14",
        "StateCode": "48",
        "CountyCode": "48059",
        "STCYFIPS": "48059",
        "CITYCD": "480590380",
        "RAILROAD": "UP",
        "RRDIV": "TEXOMA",
        "RRSUBDIV": "BAIRD SUB",
        "HIGHWAY": "FM 0018",
        "STREET": "FM 18",
        "TTSTN": "678762",
        "MILEPOST": "0386.960",
        "TYPEXING": "Public",
        "POSXING": "RR Over",
        "PRVCAT": "14",
        "INIT": "1",
        "LATITUDE": 32.3945704,
        "LONGITUD": -99.4125517,
        "LLSOURCE": "1",
        "WHISTBAN": "0",
        "RRCONT": "4025443721",
        "POLCONT": "8008488715",
        "INV_LINK": "https://safetydata.fra.dot.gov/OfficeofSafety/PublicSite/Crossing/Crossing.aspx?phasetype=C&rpttype=I&txtcrossingnum=839293C",
        "ACC_LINK": "https://safetydata.fra.dot.gov/OfficeofSafety/PublicSite/Crossing/Crossing.aspx?phasetype=C&rpttype=A&txtcrossingnum=839293C",
        "TTSTNNAM": "",
        "XPURPOSE": "1",
        "OPERATINGR": "UP",
        "OPERATIN_1": "Primary",
        "DAYTHRU": 9,
        "NGHTTHRU": 9,
        "MAINTRK": 1,
        "SIDINGTRK": 0,
        "YARDTRK": 0,
        "TRANSITTRK": 0,
        "INDUSTRYTR": 0,
        "OTHRTRK": 0,
        "WDCODE": "",
        "REVISIONDA": "1975/01/01 00:00:00",
        "LASTUPDATE": "9/23/2025",
        "AADT": "660",
        "AADTYEAR": "2011",
        "STATENAME": "TEXAS",
        "STATEAB": "TX",
        "COUNTYNAME": "CALLAHAN",
        "CITYNAME": "BAIRD",
        "LATDD": 32.3945704,
        "LONGDD": -99.4125517,
        "gridlyProductionCertified": true,
        "gridlyClassification": "PUBLIC_ROADWAY",
        "gridlyDisplayName": "FM 18",
        "gridlyId": "FRA-839293C"
      }
    },
    {
      "type": "Feature",
      "id": 212467,
      "geometry": {
        "type": "Point",
        "coordinates": [
          -99.4419177002639,
          32.4012211002552
        ]
      },
      "properties": {
        "OBJECTID": 212467,
        "CROSSING": "839294J",
        "EFFDATE": 1758585600000,
        "REASON": "14",
        "StateCode": "48",
        "CountyCode": "48059",
        "STCYFIPS": "48059",
        "CITYCD": "480590380",
        "RAILROAD": "UP",
        "RRDIV": "TEXOMA",
        "RRSUBDIV": "BAIRD SUB",
        "HIGHWAY": "NA",
        "STREET": "Private",
        "TTSTN": "678762",
        "MILEPOST": "0388.990",
        "TYPEXING": "Private",
        "POSXING": "At Grade",
        "PRVCAT": "14",
        "INIT": "1",
        "LATITUDE": 32.4012211,
        "LONGITUD": -99.4419177,
        "LLSOURCE": "1",
        "WHISTBAN": "0",
        "RRCONT": "4025443721",
        "POLCONT": "8008488715",
        "INV_LINK": "https://safetydata.fra.dot.gov/OfficeofSafety/PublicSite/Crossing/Crossing.aspx?phasetype=C&rpttype=I&txtcrossingnum=839294J",
        "ACC_LINK": "https://safetydata.fra.dot.gov/OfficeofSafety/PublicSite/Crossing/Crossing.aspx?phasetype=C&rpttype=A&txtcrossingnum=839294J",
        "TTSTNNAM": "",
        "XPURPOSE": "1",
        "OPERATINGR": "UP",
        "OPERATIN_1": "Primary",
        "DAYTHRU": 11,
        "NGHTTHRU": 10,
        "MAINTRK": 1,
        "SIDINGTRK": 0,
        "YARDTRK": 0,
        "TRANSITTRK": 0,
        "INDUSTRYTR": 0,
        "OTHRTRK": 0,
        "WDCODE": "",
        "REVISIONDA": "1975/01/01 00:00:00",
        "LASTUPDATE": "9/23/2025",
        "AADT": "1",
        "AADTYEAR": "1970",
        "STATENAME": "TEXAS",
        "STATEAB": "TX",
        "COUNTYNAME": "CALLAHAN",
        "CITYNAME": "BAIRD",
        "LATDD": 32.4012211,
        "LONGDD": -99.4419177,
        "gridlyProductionCertified": true,
        "gridlyClassification": "PUBLIC_ROADWAY",
        "gridlyDisplayName": "Private",
        "gridlyId": "FRA-839294J"
      }
    },
    {
      "type": "Feature",
      "id": 212744,
      "geometry": {
        "type": "Point",
        "coordinates": [
          -99.4970145997942,
          32.4063455000927
        ]
      },
      "properties": {
        "OBJECTID": 212744,
        "CROSSING": "839301S",
        "EFFDATE": 1758585600000,
        "REASON": "14",
        "StateCode": "48",
        "CountyCode": "48059",
        "STCYFIPS": "48059",
        "CITYCD": "480591400",
        "RAILROAD": "UP",
        "RRDIV": "TEXOMA",
        "RRSUBDIV": "BAIRD SUB",
        "HIGHWAY": "FM 0604",
        "STREET": "HUNT STREET",
        "TTSTN": "678762",
        "MILEPOST": "0392.240",
        "TYPEXING": "Public",
        "POSXING": "At Grade",
        "PRVCAT": "14",
        "INIT": "1",
        "LATITUDE": 32.4063455,
        "LONGITUD": -99.4970146,
        "LLSOURCE": "1",
        "WHISTBAN": "0",
        "RRCONT": "4025443721",
        "POLCONT": "8008488715",
        "INV_LINK": "https://safetydata.fra.dot.gov/OfficeofSafety/PublicSite/Crossing/Crossing.aspx?phasetype=C&rpttype=I&txtcrossingnum=839301S",
        "ACC_LINK": "https://safetydata.fra.dot.gov/OfficeofSafety/PublicSite/Crossing/Crossing.aspx?phasetype=C&rpttype=A&txtcrossingnum=839301S",
        "TTSTNNAM": "",
        "XPURPOSE": "1",
        "OPERATINGR": "UP",
        "OPERATIN_1": "Primary",
        "DAYTHRU": 11,
        "NGHTTHRU": 10,
        "MAINTRK": 1,
        "SIDINGTRK": 1,
        "YARDTRK": 0,
        "TRANSITTRK": 0,
        "INDUSTRYTR": 0,
        "OTHRTRK": 1,
        "WDCODE": "All other Gates",
        "REVISIONDA": "1975/01/01 00:00:00",
        "LASTUPDATE": "9/23/2025",
        "AADT": "633",
        "AADTYEAR": "2019",
        "STATENAME": "TEXAS",
        "STATEAB": "TX",
        "COUNTYNAME": "CALLAHAN",
        "CITYNAME": "CLYDE",
        "LATDD": 32.4063455,
        "LONGDD": -99.4970146,
        "gridlyProductionCertified": true,
        "gridlyClassification": "PUBLIC_ROADWAY",
        "gridlyDisplayName": "HUNT STREET",
        "gridlyId": "FRA-839301S"
      }
    },
    {
      "type": "Feature",
      "id": 212745,
      "geometry": {
        "type": "Point",
        "coordinates": [
          -99.575694000298,
          32.4131080001843
        ]
      },
      "properties": {
        "OBJECTID": 212745,
        "CROSSING": "839392A",
        "EFFDATE": 1758585600000,
        "REASON": "14",
        "StateCode": "48",
        "CountyCode": "48059",
        "STCYFIPS": "48059",
        "CITYCD": "480591400",
        "RAILROAD": "UP",
        "RRDIV": "TEXOMA",
        "RRSUBDIV": "BAIRD SUB",
        "HIGHWAY": "NA",
        "STREET": "PRIVATE",
        "TTSTN": "668497",
        "MILEPOST": "0396.890",
        "TYPEXING": "Private",
        "POSXING": "At Grade",
        "PRVCAT": "14",
        "INIT": "1",
        "LATITUDE": 32.413108,
        "LONGITUD": -99.575694,
        "LLSOURCE": "1",
        "WHISTBAN": "0",
        "RRCONT": "4025443721",
        "POLCONT": "8008488715",
        "INV_LINK": "https://safetydata.fra.dot.gov/OfficeofSafety/PublicSite/Crossing/Crossing.aspx?phasetype=C&rpttype=I&txtcrossingnum=839392A",
        "ACC_LINK": "https://safetydata.fra.dot.gov/OfficeofSafety/PublicSite/Crossing/Crossing.aspx?phasetype=C&rpttype=A&txtcrossingnum=839392A",
        "TTSTNNAM": "",
        "XPURPOSE": "1",
        "OPERATINGR": "UP",
        "OPERATIN_1": "Primary",
        "DAYTHRU": 11,
        "NGHTTHRU": 10,
        "MAINTRK": 1,
        "SIDINGTRK": 0,
        "YARDTRK": 0,
        "TRANSITTRK": 0,
        "INDUSTRYTR": 0,
        "OTHRTRK": 0,
        "WDCODE": "",
        "REVISIONDA": "1975/01/01 00:00:00",
        "LASTUPDATE": "9/23/2025",
        "AADT": "1",
        "AADTYEAR": "1970",
        "STATENAME": "TEXAS",
        "STATEAB": "TX",
        "COUNTYNAME": "CALLAHAN",
        "CITYNAME": "CLYDE",
        "LATDD": 32.413108,
        "LONGDD": -99.575694,
        "gridlyProductionCertified": true,
        "gridlyClassification": "PUBLIC_ROADWAY",
        "gridlyDisplayName": "PRIVATE",
        "gridlyId": "FRA-839392A"
      }
    },
    {
      "type": "Feature",
      "id": 213149,
      "geometry": {
        "type": "Point",
        "coordinates": [
          -99.6008325001246,
          32.4169433000625
        ]
      },
      "properties": {
        "OBJECTID": 213149,
        "CROSSING": "796031X",
        "EFFDATE": 1758499200000,
        "REASON": "14",
        "StateCode": "48",
        "CountyCode": "48059",
        "STCYFIPS": "48059",
        "CITYCD": "480591400",
        "RAILROAD": "UP",
        "RRDIV": "TEXOMA",
        "RRSUBDIV": "BAIRD SUB",
        "HIGHWAY": "NA",
        "STREET": "Private",
        "TTSTN": "678762",
        "MILEPOST": "0398.380",
        "TYPEXING": "Private",
        "POSXING": "At Grade",
        "PRVCAT": "14",
        "INIT": "1",
        "LATITUDE": 32.4169433,
        "LONGITUD": -99.6008325,
        "LLSOURCE": "1",
        "WHISTBAN": "0",
        "RRCONT": "4025443721",
        "POLCONT": "8008488715",
        "INV_LINK": "https://safetydata.fra.dot.gov/OfficeofSafety/PublicSite/Crossing/Crossing.aspx?phasetype=C&rpttype=I&txtcrossingnum=796031X",
        "ACC_LINK": "https://safetydata.fra.dot.gov/OfficeofSafety/PublicSite/Crossing/Crossing.aspx?phasetype=C&rpttype=A&txtcrossingnum=796031X",
        "TTSTNNAM": "",
        "XPURPOSE": "1",
        "OPERATINGR": "UP",
        "OPERATIN_1": "Primary",
        "DAYTHRU": 11,
        "NGHTTHRU": 10,
        "MAINTRK": 1,
        "SIDINGTRK": 0,
        "YARDTRK": 0,
        "TRANSITTRK": 0,
        "INDUSTRYTR": 0,
        "OTHRTRK": 0,
        "WDCODE": "",
        "REVISIONDA": "1975/01/01 00:00:00",
        "LASTUPDATE": "9/22/2025",
        "AADT": "1",
        "AADTYEAR": "1970",
        "STATENAME": "TEXAS",
        "STATEAB": "TX",
        "COUNTYNAME": "CALLAHAN",
        "CITYNAME": "CLYDE",
        "LATDD": 32.4169433,
        "LONGDD": -99.6008325,
        "gridlyProductionCertified": true,
        "gridlyClassification": "PUBLIC_ROADWAY",
        "gridlyDisplayName": "Private",
        "gridlyId": "FRA-796031X"
      }
    },
    {
      "type": "Feature",
      "id": 213419,
      "geometry": {
        "type": "Point",
        "coordinates": [
          -99.5075309998573,
          32.4078749998139
        ]
      },
      "properties": {
        "OBJECTID": 213419,
        "CROSSING": "922554A",
        "EFFDATE": 1758585600000,
        "REASON": "14",
        "StateCode": "48",
        "CountyCode": "48059",
        "STCYFIPS": "48059",
        "CITYCD": "480591400",
        "RAILROAD": "UP",
        "RRDIV": "TEXOMA",
        "RRSUBDIV": "BAIRD SUB",
        "HIGHWAY": "FM 0604",
        "STREET": "FM 604",
        "TTSTN": "678762",
        "MILEPOST": "0392.860",
        "TYPEXING": "Public",
        "POSXING": "RR Under",
        "PRVCAT": "14",
        "INIT": "1",
        "LATITUDE": 32.407875,
        "LONGITUD": -99.507531,
        "LLSOURCE": "1",
        "WHISTBAN": "0",
        "RRCONT": "4025443721",
        "POLCONT": "8008488715",
        "INV_LINK": "https://safetydata.fra.dot.gov/OfficeofSafety/PublicSite/Crossing/Crossing.aspx?phasetype=C&rpttype=I&txtcrossingnum=922554A",
        "ACC_LINK": "https://safetydata.fra.dot.gov/OfficeofSafety/PublicSite/Crossing/Crossing.aspx?phasetype=C&rpttype=A&txtcrossingnum=922554A",
        "TTSTNNAM": "",
        "XPURPOSE": "1",
        "OPERATINGR": "UP",
        "OPERATIN_1": "Primary",
        "DAYTHRU": 9,
        "NGHTTHRU": 9,
        "MAINTRK": 1,
        "SIDINGTRK": 0,
        "YARDTRK": 0,
        "TRANSITTRK": 0,
        "INDUSTRYTR": 0,
        "OTHRTRK": 0,
        "WDCODE": "",
        "REVISIONDA": "1975/01/01 00:00:00",
        "LASTUPDATE": "9/23/2025",
        "AADT": "1100",
        "AADTYEAR": "2011",
        "STATENAME": "TEXAS",
        "STATEAB": "TX",
        "COUNTYNAME": "CALLAHAN",
        "CITYNAME": "CLYDE",
        "LATDD": 32.407875,
        "LONGDD": -99.507531,
        "gridlyProductionCertified": true,
        "gridlyClassification": "PUBLIC_ROADWAY",
        "gridlyDisplayName": "FM 604",
        "gridlyId": "FRA-922554A"
      }
    },
    {
      "type": "Feature",
      "id": 214680,
      "geometry": {
        "type": "Point",
        "coordinates": [
          -99.5439041001217,
          32.4101465997177
        ]
      },
      "properties": {
        "OBJECTID": 214680,
        "CROSSING": "796029W",
        "EFFDATE": 1771891200000,
        "REASON": "14",
        "StateCode": "48",
        "CountyCode": "48059",
        "STCYFIPS": "48059",
        "CITYCD": "480591400",
        "RAILROAD": "UP",
        "RRDIV": "TEXOMA",
        "RRSUBDIV": "BAIRD SUB",
        "HIGHWAY": "CR0243",
        "STREET": "COUNTY ROAD 243",
        "TTSTN": "678762",
        "MILEPOST": "0395.030",
        "TYPEXING": "Public",
        "POSXING": "At Grade",
        "PRVCAT": "14",
        "INIT": "2",
        "LATITUDE": 32.4101466,
        "LONGITUD": -99.5439041,
        "LLSOURCE": "1",
        "WHISTBAN": "0",
        "RRCONT": "4025443721",
        "POLCONT": "8008488715",
        "INV_LINK": "https://safetydata.fra.dot.gov/OfficeofSafety/PublicSite/Crossing/Crossing.aspx?phasetype=C&rpttype=I&txtcrossingnum=796029W",
        "ACC_LINK": "https://safetydata.fra.dot.gov/OfficeofSafety/PublicSite/Crossing/Crossing.aspx?phasetype=C&rpttype=A&txtcrossingnum=796029W",
        "TTSTNNAM": "",
        "XPURPOSE": "1",
        "OPERATINGR": "UP",
        "OPERATIN_1": "Primary",
        "DAYTHRU": 11,
        "NGHTTHRU": 10,
        "MAINTRK": 1,
        "SIDINGTRK": 0,
        "YARDTRK": 0,
        "TRANSITTRK": 0,
        "INDUSTRYTR": 0,
        "OTHRTRK": 0,
        "WDCODE": "Stop signs",
        "REVISIONDA": "1975/01/01 00:00:00",
        "LASTUPDATE": "2/24/2026",
        "AADT": "90",
        "AADTYEAR": "2019",
        "STATENAME": "TEXAS",
        "STATEAB": "TX",
        "COUNTYNAME": "CALLAHAN",
        "CITYNAME": "CLYDE",
        "LATDD": 32.4101466,
        "LONGDD": -99.5439041,
        "gridlyProductionCertified": true,
        "gridlyClassification": "PUBLIC_ROADWAY",
        "gridlyDisplayName": "COUNTY ROAD 243",
        "gridlyId": "FRA-796029W"
      }
    }
  ]
}
