{
  "type": "FeatureCollection",
  "features": [
    {
      "type": "Feature",
      "id": 201308,
      "geometry": {
        "type": "Point",
        "coordinates": [
          -96.2341536002365,
          32.7303462003635
        ]
      },
      "properties": {
        "OBJECTID": 201308,
        "CROSSING": "794764K",
        "EFFDATE": 1605571200000,
        "REASON": "14",
        "StateCode": "48",
        "CountyCode": "48257",
        "STCYFIPS": "48257",
        "CITYCD": "482576830",
        "RAILROAD": "UP",
        "RRDIV": "TEXOMA",
        "RRSUBDIV": "MINEOLA SUB",
        "HIGHWAY": "NA",
        "STREET": "PRIVATE",
        "TTSTN": "667426",
        "MILEPOST": "0180.010",
        "TYPEXING": "Private",
        "POSXING": "At Grade",
        "PRVCAT": "14",
        "INIT": "1",
        "LATITUDE": 32.7303462,
        "LONGITUD": -96.2341536,
        "LLSOURCE": "1",
        "WHISTBAN": "0",
        "RRCONT": "4025443721",
        "POLCONT": "8008488715",
        "INV_LINK": "https://safetydata.fra.dot.gov/OfficeofSafety/PublicSite/Crossing/Crossing.aspx?phasetype=C&rpttype=I&txtcrossingnum=794764K",
        "ACC_LINK": "https://safetydata.fra.dot.gov/OfficeofSafety/PublicSite/Crossing/Crossing.aspx?phasetype=C&rpttype=A&txtcrossingnum=794764K",
        "TTSTNNAM": "",
        "XPURPOSE": "1",
        "OPERATINGR": "UP",
        "OPERATIN_1": "Primary",
        "DAYTHRU": 12,
        "NGHTTHRU": 11,
        "MAINTRK": 1,
        "SIDINGTRK": 0,
        "YARDTRK": 0,
        "TRANSITTRK": 0,
        "INDUSTRYTR": 0,
        "OTHRTRK": 0,
        "WDCODE": "",
        "REVISIONDA": "1975/01/01 00:00:00",
        "LASTUPDATE": "11/17/2020",
        "AADT": "1",
        "AADTYEAR": "1970",
        "STATENAME": "TEXAS",
        "STATEAB": "TX",
        "COUNTYNAME": "KAUFMAN",
        "CITYNAME": "TERRELL",
        "LATDD": 32.7303462,
        "LONGDD": -96.2341536,
        "gridlyProductionCertified": true,
        "gridlyClassification": "PUBLIC_ROADWAY",
        "gridlyDisplayName": "PRIVATE",
        "gridlyId": "FRA-794764K"
      }
    },
    {
      "type": "Feature",
      "id": 207401,
      "geometry": {
        "type": "Point",
        "coordinates": [
          -96.2731090003115,
          32.7351279997552
        ]
      },
      "properties": {
        "OBJECTID": 207401,
        "CROSSING": "440622R",
        "EFFDATE": 1756425600000,
        "REASON": "14",
        "StateCode": "48",
        "CountyCode": "48257",
        "STCYFIPS": "48257",
        "CITYCD": "482576830",
        "RAILROAD": "UP",
        "RRDIV": "TEXOMA",
        "RRSUBDIV": "MINEOLA SUB",
        "HIGHWAY": "TBD",
        "STREET": "TX 34",
        "TTSTN": "",
        "MILEPOST": "0182.350",
        "TYPEXING": "Public",
        "POSXING": "RR Under",
        "PRVCAT": "14",
        "INIT": "1",
        "LATITUDE": 32.735128,
        "LONGITUD": -96.273109,
        "LLSOURCE": "1",
        "WHISTBAN": "",
        "RRCONT": "4025443721",
        "POLCONT": "8008488715",
        "INV_LINK": "https://safetydata.fra.dot.gov/OfficeofSafety/PublicSite/Crossing/Crossing.aspx?phasetype=C&rpttype=I&txtcrossingnum=440622R",
        "ACC_LINK": "https://safetydata.fra.dot.gov/OfficeofSafety/PublicSite/Crossing/Crossing.aspx?phasetype=C&rpttype=A&txtcrossingnum=440622R",
        "TTSTNNAM": "",
        "XPURPOSE": "1",
        "OPERATINGR": "UP",
        "OPERATIN_1": "Primary",
        "DAYTHRU": 10,
        "NGHTTHRU": 10,
        "MAINTRK": 1,
        "SIDINGTRK": 0,
        "YARDTRK": 1,
        "TRANSITTRK": 0,
        "INDUSTRYTR": 2,
        "OTHRTRK": 0,
        "WDCODE": "",
        "REVISIONDA": "1975/01/01 00:00:00",
        "LASTUPDATE": "8/29/2025",
        "AADT": "",
        "AADTYEAR": "",
        "STATENAME": "TEXAS",
        "STATEAB": "TX",
        "COUNTYNAME": "KAUFMAN",
        "CITYNAME": "TERRELL",
        "LATDD": 32.735128,
        "LONGDD": -96.273109,
        "gridlyProductionCertified": true,
        "gridlyClassification": "PUBLIC_ROADWAY",
        "gridlyDisplayName": "TX 34",
        "gridlyId": "FRA-440622R"
      }
    },
    {
      "type": "Feature",
      "id": 207402,
      "geometry": {
        "type": "Point",
        "coordinates": [
          -96.1890309998347,
          32.7248109997101
        ]
      },
      "properties": {
        "OBJECTID": 207402,
        "CROSSING": "794761P",
        "EFFDATE": 1756425600000,
        "REASON": "14",
        "StateCode": "48",
        "CountyCode": "48257",
        "STCYFIPS": "48257",
        "CITYCD": "482576830",
        "RAILROAD": "UP",
        "RRDIV": "TEXOMA",
        "RRSUBDIV": "MINEOLA SUB",
        "HIGHWAY": "US 0080",
        "STREET": "US 80",
        "TTSTN": "667426",
        "MILEPOST": "0177.400",
        "TYPEXING": "Public",
        "POSXING": "RR Over",
        "PRVCAT": "14",
        "INIT": "1",
        "LATITUDE": 32.724811,
        "LONGITUD": -96.189031,
        "LLSOURCE": "1",
        "WHISTBAN": "0",
        "RRCONT": "4025443721",
        "POLCONT": "8008488715",
        "INV_LINK": "https://safetydata.fra.dot.gov/OfficeofSafety/PublicSite/Crossing/Crossing.aspx?phasetype=C&rpttype=I&txtcrossingnum=794761P",
        "ACC_LINK": "https://safetydata.fra.dot.gov/OfficeofSafety/PublicSite/Crossing/Crossing.aspx?phasetype=C&rpttype=A&txtcrossingnum=794761P",
        "TTSTNNAM": "",
        "XPURPOSE": "1",
        "OPERATINGR": "UP",
        "OPERATIN_1": "Primary",
        "DAYTHRU": 10,
        "NGHTTHRU": 10,
        "MAINTRK": 1,
        "SIDINGTRK": 0,
        "YARDTRK": 0,
        "TRANSITTRK": 0,
        "INDUSTRYTR": 0,
        "OTHRTRK": 0,
        "WDCODE": "",
        "REVISIONDA": "1975/01/01 00:00:00",
        "LASTUPDATE": "8/29/2025",
        "AADT": "8400",
        "AADTYEAR": "2011",
        "STATENAME": "TEXAS",
        "STATEAB": "TX",
        "COUNTYNAME": "KAUFMAN",
        "CITYNAME": "TERRELL",
        "LATDD": 32.724811,
        "LONGDD": -96.189031,
        "gridlyProductionCertified": true,
        "gridlyClassification": "PUBLIC_ROADWAY",
        "gridlyDisplayName": "US 80",
        "gridlyId": "FRA-794761P"
      }
    },
    {
      "type": "Feature",
      "id": 207403,
      "geometry": {
        "type": "Point",
        "coordinates": [
          -96.4134149996356,
          32.7399499998936
        ]
      },
      "properties": {
        "OBJECTID": 207403,
        "CROSSING": "440134M",
        "EFFDATE": 1756425600000,
        "REASON": "14",
        "StateCode": "48",
        "CountyCode": "48257",
        "STCYFIPS": "48257",
        "CITYCD": "482572430",
        "RAILROAD": "UP",
        "RRDIV": "TEXOMA",
        "RRSUBDIV": "MINEOLA SUB",
        "HIGHWAY": "TBD",
        "STREET": "GATEWAY BOULEVARD",
        "TTSTN": "",
        "MILEPOST": "0190.570",
        "TYPEXING": "Public",
        "POSXING": "RR Under",
        "PRVCAT": "14",
        "INIT": "1",
        "LATITUDE": 32.73995,
        "LONGITUD": -96.413415,
        "LLSOURCE": "1",
        "WHISTBAN": "0",
        "RRCONT": "4025443721",
        "POLCONT": "8008488715",
        "INV_LINK": "https://safetydata.fra.dot.gov/OfficeofSafety/PublicSite/Crossing/Crossing.aspx?phasetype=C&rpttype=I&txtcrossingnum=440134M",
        "ACC_LINK": "https://safetydata.fra.dot.gov/OfficeofSafety/PublicSite/Crossing/Crossing.aspx?phasetype=C&rpttype=A&txtcrossingnum=440134M",
        "TTSTNNAM": "",
        "XPURPOSE": "1",
        "OPERATINGR": "UP",
        "OPERATIN_1": "Primary",
        "DAYTHRU": 10,
        "NGHTTHRU": 9,
        "MAINTRK": 1,
        "SIDINGTRK": 0,
        "YARDTRK": 0,
        "TRANSITTRK": 0,
        "INDUSTRYTR": 0,
        "OTHRTRK": 0,
        "WDCODE": "",
        "REVISIONDA": "1975/01/01 00:00:00",
        "LASTUPDATE": "8/29/2025",
        "AADT": "1",
        "AADTYEAR": "",
        "STATENAME": "TEXAS",
        "STATEAB": "TX",
        "COUNTYNAME": "KAUFMAN",
        "CITYNAME": "FORNEY",
        "LATDD": 32.73995,
        "LONGDD": -96.413415,
        "gridlyProductionCertified": true,
        "gridlyClassification": "PUBLIC_ROADWAY",
        "gridlyDisplayName": "GATEWAY BOULEVARD",
        "gridlyId": "FRA-440134M"
      }
    },
    {
      "type": "Feature",
      "id": 207404,
      "geometry": {
        "type": "Point",
        "coordinates": [
          -96.4922900002077,
          32.7526355997526
        ]
      },
      "properties": {
        "OBJECTID": 207404,
        "CROSSING": "450482T",
        "EFFDATE": 1756425600000,
        "REASON": "14",
        "StateCode": "48",
        "CountyCode": "48257",
        "STCYFIPS": "48257",
        "CITYCD": "482572430",
        "RAILROAD": "UP",
        "RRDIV": "TEXOMA",
        "RRSUBDIV": "MINEOLA SUB",
        "HIGHWAY": "NA",
        "STREET": "PRIVATE",
        "TTSTN": "667433",
        "MILEPOST": "0195.630",
        "TYPEXING": "Private",
        "POSXING": "At Grade",
        "PRVCAT": "14",
        "INIT": "1",
        "LATITUDE": 32.7526356,
        "LONGITUD": -96.49229,
        "LLSOURCE": "1",
        "WHISTBAN": "0",
        "RRCONT": "4025443721",
        "POLCONT": "8008488715",
        "INV_LINK": "https://safetydata.fra.dot.gov/OfficeofSafety/PublicSite/Crossing/Crossing.aspx?phasetype=C&rpttype=I&txtcrossingnum=450482T",
        "ACC_LINK": "https://safetydata.fra.dot.gov/OfficeofSafety/PublicSite/Crossing/Crossing.aspx?phasetype=C&rpttype=A&txtcrossingnum=450482T",
        "TTSTNNAM": "",
        "XPURPOSE": "1",
        "OPERATINGR": "UP",
        "OPERATIN_1": "Primary",
        "DAYTHRU": 10,
        "NGHTTHRU": 9,
        "MAINTRK": 1,
        "SIDINGTRK": 0,
        "YARDTRK": 0,
        "TRANSITTRK": 0,
        "INDUSTRYTR": 0,
        "OTHRTRK": 0,
        "WDCODE": "",
        "REVISIONDA": "1975/01/01 00:00:00",
        "LASTUPDATE": "8/29/2025",
        "AADT": "1",
        "AADTYEAR": "1996",
        "STATENAME": "TEXAS",
        "STATEAB": "TX",
        "COUNTYNAME": "KAUFMAN",
        "CITYNAME": "FORNEY",
        "LATDD": 32.7526356,
        "LONGDD": -96.49229,
        "gridlyProductionCertified": true,
        "gridlyClassification": "PUBLIC_ROADWAY",
        "gridlyDisplayName": "PRIVATE",
        "gridlyId": "FRA-450482T"
      }
    },
    {
      "type": "Feature",
      "id": 207405,
      "geometry": {
        "type": "Point",
        "coordinates": [
          -96.3313389001593,
          32.7375536001091
        ]
      },
      "properties": {
        "OBJECTID": 207405,
        "CROSSING": "748507P",
        "EFFDATE": 1756425600000,
        "REASON": "14",
        "StateCode": "48",
        "CountyCode": "48257",
        "STCYFIPS": "48257",
        "CITYCD": "482576830",
        "RAILROAD": "UP",
        "RRDIV": "TEXOMA",
        "RRSUBDIV": "MINEOLA SUB",
        "HIGHWAY": "TBD",
        "STREET": "METROCREST WAY",
        "TTSTN": "",
        "MILEPOST": "0185.740",
        "TYPEXING": "Public",
        "POSXING": "At Grade",
        "PRVCAT": "14",
        "INIT": "1",
        "LATITUDE": 32.7375536,
        "LONGITUD": -96.3313389,
        "LLSOURCE": "1",
        "WHISTBAN": "0",
        "RRCONT": "4025443721",
        "POLCONT": "8008488715",
        "INV_LINK": "https://safetydata.fra.dot.gov/OfficeofSafety/PublicSite/Crossing/Crossing.aspx?phasetype=C&rpttype=I&txtcrossingnum=748507P",
        "ACC_LINK": "https://safetydata.fra.dot.gov/OfficeofSafety/PublicSite/Crossing/Crossing.aspx?phasetype=C&rpttype=A&txtcrossingnum=748507P",
        "TTSTNNAM": "",
        "XPURPOSE": "1",
        "OPERATINGR": "UP",
        "OPERATIN_1": "Primary",
        "DAYTHRU": 10,
        "NGHTTHRU": 9,
        "MAINTRK": 1,
        "SIDINGTRK": 0,
        "YARDTRK": 0,
        "TRANSITTRK": 0,
        "INDUSTRYTR": 0,
        "OTHRTRK": 0,
        "WDCODE": "All other Gates",
        "REVISIONDA": "1975/01/01 00:00:00",
        "LASTUPDATE": "8/29/2025",
        "AADT": "17876",
        "AADTYEAR": "2019",
        "STATENAME": "TEXAS",
        "STATEAB": "TX",
        "COUNTYNAME": "KAUFMAN",
        "CITYNAME": "TERRELL",
        "LATDD": 32.7375536,
        "LONGDD": -96.3313389,
        "gridlyProductionCertified": true,
        "gridlyClassification": "PUBLIC_ROADWAY",
        "gridlyDisplayName": "METROCREST WAY",
        "gridlyId": "FRA-748507P"
      }
    },
    {
      "type": "Feature",
      "id": 207406,
      "geometry": {
        "type": "Point",
        "coordinates": [
          -96.3559008001511,
          32.7382829002316
        ]
      },
      "properties": {
        "OBJECTID": 207406,
        "CROSSING": "794792N",
        "EFFDATE": 1756425600000,
        "REASON": "14",
        "StateCode": "48",
        "CountyCode": "48257",
        "STCYFIPS": "48257",
        "CITYCD": "482576830",
        "RAILROAD": "UP",
        "RRDIV": "TEXOMA",
        "RRSUBDIV": "MINEOLA SUB",
        "HIGHWAY": "SS 0557",
        "STREET": "I 20",
        "TTSTN": "667426",
        "MILEPOST": "0187.170",
        "TYPEXING": "Public",
        "POSXING": "RR Under",
        "PRVCAT": "14",
        "INIT": "1",
        "LATITUDE": 32.7382829,
        "LONGITUD": -96.3559008,
        "LLSOURCE": "1",
        "WHISTBAN": "0",
        "RRCONT": "4025443721",
        "POLCONT": "8008488715",
        "INV_LINK": "https://safetydata.fra.dot.gov/OfficeofSafety/PublicSite/Crossing/Crossing.aspx?phasetype=C&rpttype=I&txtcrossingnum=794792N",
        "ACC_LINK": "https://safetydata.fra.dot.gov/OfficeofSafety/PublicSite/Crossing/Crossing.aspx?phasetype=C&rpttype=A&txtcrossingnum=794792N",
        "TTSTNNAM": "",
        "XPURPOSE": "1",
        "OPERATINGR": "UP",
        "OPERATIN_1": "Primary",
        "DAYTHRU": 10,
        "NGHTTHRU": 9,
        "MAINTRK": 1,
        "SIDINGTRK": 1,
        "YARDTRK": 0,
        "TRANSITTRK": 0,
        "INDUSTRYTR": 0,
        "OTHRTRK": 0,
        "WDCODE": "",
        "REVISIONDA": "1975/01/01 00:00:00",
        "LASTUPDATE": "8/29/2025",
        "AADT": "21550",
        "AADTYEAR": "2011",
        "STATENAME": "TEXAS",
        "STATEAB": "TX",
        "COUNTYNAME": "KAUFMAN",
        "CITYNAME": "TERRELL",
        "LATDD": 32.7382829,
        "LONGDD": -96.3559008,
        "gridlyProductionCertified": true,
        "gridlyClassification": "PUBLIC_ROADWAY",
        "gridlyDisplayName": "I 20",
        "gridlyId": "FRA-794792N"
      }
    },
    {
      "type": "Feature",
      "id": 207407,
      "geometry": {
        "type": "Point",
        "coordinates": [
          -96.3582013002538,
          32.738348499902
        ]
      },
      "properties": {
        "OBJECTID": 207407,
        "CROSSING": "794793V",
        "EFFDATE": 1756425600000,
        "REASON": "14",
        "StateCode": "48",
        "CountyCode": "48257",
        "STCYFIPS": "48257",
        "CITYCD": "482576830",
        "RAILROAD": "UP",
        "RRDIV": "TEXOMA",
        "RRSUBDIV": "MINEOLA SUB",
        "HIGHWAY": "CO 0238",
        "STREET": "CR 238",
        "TTSTN": "667426",
        "MILEPOST": "0187.300",
        "TYPEXING": "Public",
        "POSXING": "At Grade",
        "PRVCAT": "14",
        "INIT": "1",
        "LATITUDE": 32.7383485,
        "LONGITUD": -96.3582013,
        "LLSOURCE": "1",
        "WHISTBAN": "0",
        "RRCONT": "4025443721",
        "POLCONT": "8008488715",
        "INV_LINK": "https://safetydata.fra.dot.gov/OfficeofSafety/PublicSite/Crossing/Crossing.aspx?phasetype=C&rpttype=I&txtcrossingnum=794793V",
        "ACC_LINK": "https://safetydata.fra.dot.gov/OfficeofSafety/PublicSite/Crossing/Crossing.aspx?phasetype=C&rpttype=A&txtcrossingnum=794793V",
        "TTSTNNAM": "",
        "XPURPOSE": "1",
        "OPERATINGR": "UP",
        "OPERATIN_1": "Primary",
        "DAYTHRU": 10,
        "NGHTTHRU": 9,
        "MAINTRK": 1,
        "SIDINGTRK": 1,
        "YARDTRK": 0,
        "TRANSITTRK": 0,
        "INDUSTRYTR": 0,
        "OTHRTRK": 1,
        "WDCODE": "All other Gates",
        "REVISIONDA": "1975/01/01 00:00:00",
        "LASTUPDATE": "8/29/2025",
        "AADT": "118",
        "AADTYEAR": "2019",
        "STATENAME": "TEXAS",
        "STATEAB": "TX",
        "COUNTYNAME": "KAUFMAN",
        "CITYNAME": "TERRELL",
        "LATDD": 32.7383485,
        "LONGDD": -96.3582013,
        "gridlyProductionCertified": true,
        "gridlyClassification": "PUBLIC_ROADWAY",
        "gridlyDisplayName": "CR 238",
        "gridlyId": "FRA-794793V"
      }
    },
    {
      "type": "Feature",
      "id": 207408,
      "geometry": {
        "type": "Point",
        "coordinates": [
          -96.3993640002207,
          32.7395217999126
        ]
      },
      "properties": {
        "OBJECTID": 207408,
        "CROSSING": "794796R",
        "EFFDATE": 1756425600000,
        "REASON": "14",
        "StateCode": "48",
        "CountyCode": "48257",
        "STCYFIPS": "48257",
        "CITYCD": "482572430",
        "RAILROAD": "UP",
        "RRDIV": "TEXOMA",
        "RRSUBDIV": "MINEOLA SUB",
        "HIGHWAY": "NA",
        "STREET": "PRIVATE",
        "TTSTN": "667426",
        "MILEPOST": "0189.700",
        "TYPEXING": "Private",
        "POSXING": "At Grade",
        "PRVCAT": "14",
        "INIT": "1",
        "LATITUDE": 32.7395218,
        "LONGITUD": -96.399364,
        "LLSOURCE": "1",
        "WHISTBAN": "0",
        "RRCONT": "4025443721",
        "POLCONT": "8008488715",
        "INV_LINK": "https://safetydata.fra.dot.gov/OfficeofSafety/PublicSite/Crossing/Crossing.aspx?phasetype=C&rpttype=I&txtcrossingnum=794796R",
        "ACC_LINK": "https://safetydata.fra.dot.gov/OfficeofSafety/PublicSite/Crossing/Crossing.aspx?phasetype=C&rpttype=A&txtcrossingnum=794796R",
        "TTSTNNAM": "",
        "XPURPOSE": "1",
        "OPERATINGR": "UP",
        "OPERATIN_1": "Primary",
        "DAYTHRU": 10,
        "NGHTTHRU": 9,
        "MAINTRK": 1,
        "SIDINGTRK": 0,
        "YARDTRK": 0,
        "TRANSITTRK": 0,
        "INDUSTRYTR": 0,
        "OTHRTRK": 0,
        "WDCODE": "",
        "REVISIONDA": "1975/01/01 00:00:00",
        "LASTUPDATE": "8/29/2025",
        "AADT": "1",
        "AADTYEAR": "1970",
        "STATENAME": "TEXAS",
        "STATEAB": "TX",
        "COUNTYNAME": "KAUFMAN",
        "CITYNAME": "FORNEY",
        "LATDD": 32.7395218,
        "LONGDD": -96.399364,
        "gridlyProductionCertified": true,
        "gridlyClassification": "PUBLIC_ROADWAY",
        "gridlyDisplayName": "PRIVATE",
        "gridlyId": "FRA-794796R"
      }
    },
    {
      "type": "Feature",
      "id": 207411,
      "geometry": {
        "type": "Point",
        "coordinates": [
          -96.4279511000837,
          32.7403863001133
        ]
      },
      "properties": {
        "OBJECTID": 207411,
        "CROSSING": "794797X",
        "EFFDATE": 1756425600000,
        "REASON": "14",
        "StateCode": "48",
        "CountyCode": "48257",
        "STCYFIPS": "48257",
        "CITYCD": "482572430",
        "RAILROAD": "UP",
        "RRDIV": "TEXOMA",
        "RRSUBDIV": "MINEOLA SUB",
        "HIGHWAY": "CO 0212",
        "STREET": "CR 212",
        "TTSTN": "667426",
        "MILEPOST": "0191.410",
        "TYPEXING": "Public",
        "POSXING": "At Grade",
        "PRVCAT": "14",
        "INIT": "1",
        "LATITUDE": 32.7403863,
        "LONGITUD": -96.4279511,
        "LLSOURCE": "1",
        "WHISTBAN": "0",
        "RRCONT": "4025443721",
        "POLCONT": "8008488715",
        "INV_LINK": "https://safetydata.fra.dot.gov/OfficeofSafety/PublicSite/Crossing/Crossing.aspx?phasetype=C&rpttype=I&txtcrossingnum=794797X",
        "ACC_LINK": "https://safetydata.fra.dot.gov/OfficeofSafety/PublicSite/Crossing/Crossing.aspx?phasetype=C&rpttype=A&txtcrossingnum=794797X",
        "TTSTNNAM": "",
        "XPURPOSE": "1",
        "OPERATINGR": "UP",
        "OPERATIN_1": "Primary",
        "DAYTHRU": 10,
        "NGHTTHRU": 9,
        "MAINTRK": 1,
        "SIDINGTRK": 0,
        "YARDTRK": 0,
        "TRANSITTRK": 0,
        "INDUSTRYTR": 0,
        "OTHRTRK": 0,
        "WDCODE": "All other Gates",
        "REVISIONDA": "1975/01/01 00:00:00",
        "LASTUPDATE": "8/29/2025",
        "AADT": "992",
        "AADTYEAR": "2001",
        "STATENAME": "TEXAS",
        "STATEAB": "TX",
        "COUNTYNAME": "KAUFMAN",
        "CITYNAME": "FORNEY",
        "LATDD": 32.7403863,
        "LONGDD": -96.4279511,
        "gridlyProductionCertified": true,
        "gridlyClassification": "PUBLIC_ROADWAY",
        "gridlyDisplayName": "CR 212",
        "gridlyId": "FRA-794797X"
      }
    },
    {
      "type": "Feature",
      "id": 207412,
      "geometry": {
        "type": "Point",
        "coordinates": [
          -96.4355948998706,
          32.7406208001808
        ]
      },
      "properties": {
        "OBJECTID": 207412,
        "CROSSING": "794799L",
        "EFFDATE": 1756425600000,
        "REASON": "14",
        "StateCode": "48",
        "CountyCode": "48257",
        "STCYFIPS": "48257",
        "CITYCD": "482572430",
        "RAILROAD": "UP",
        "RRDIV": "TEXOMA",
        "RRSUBDIV": "MINEOLA SUB",
        "HIGHWAY": "NA",
        "STREET": "PRIVATE",
        "TTSTN": "667426",
        "MILEPOST": "0191.830",
        "TYPEXING": "Private",
        "POSXING": "At Grade",
        "PRVCAT": "14",
        "INIT": "1",
        "LATITUDE": 32.7406208,
        "LONGITUD": -96.4355949,
        "LLSOURCE": "1",
        "WHISTBAN": "0",
        "RRCONT": "4025443721",
        "POLCONT": "8008488715",
        "INV_LINK": "https://safetydata.fra.dot.gov/OfficeofSafety/PublicSite/Crossing/Crossing.aspx?phasetype=C&rpttype=I&txtcrossingnum=794799L",
        "ACC_LINK": "https://safetydata.fra.dot.gov/OfficeofSafety/PublicSite/Crossing/Crossing.aspx?phasetype=C&rpttype=A&txtcrossingnum=794799L",
        "TTSTNNAM": "",
        "XPURPOSE": "1",
        "OPERATINGR": "UP",
        "OPERATIN_1": "Primary",
        "DAYTHRU": 10,
        "NGHTTHRU": 9,
        "MAINTRK": 1,
        "SIDINGTRK": 0,
        "YARDTRK": 0,
        "TRANSITTRK": 0,
        "INDUSTRYTR": 1,
        "OTHRTRK": 0,
        "WDCODE": "",
        "REVISIONDA": "1975/01/01 00:00:00",
        "LASTUPDATE": "8/29/2025",
        "AADT": "1",
        "AADTYEAR": "1970",
        "STATENAME": "TEXAS",
        "STATEAB": "TX",
        "COUNTYNAME": "KAUFMAN",
        "CITYNAME": "FORNEY",
        "LATDD": 32.7406208,
        "LONGDD": -96.4355949,
        "gridlyProductionCertified": true,
        "gridlyClassification": "PUBLIC_ROADWAY",
        "gridlyDisplayName": "PRIVATE",
        "gridlyId": "FRA-794799L"
      }
    },
    {
      "type": "Feature",
      "id": 207413,
      "geometry": {
        "type": "Point",
        "coordinates": [
          -96.4417815999272,
          32.7408092997056
        ]
      },
      "properties": {
        "OBJECTID": 207413,
        "CROSSING": "794800D",
        "EFFDATE": 1756425600000,
        "REASON": "14",
        "StateCode": "48",
        "CountyCode": "48257",
        "STCYFIPS": "48257",
        "CITYCD": "482572430",
        "RAILROAD": "UP",
        "RRDIV": "TEXOMA",
        "RRSUBDIV": "MINEOLA SUB",
        "HIGHWAY": "NA",
        "STREET": "PRIVATE",
        "TTSTN": "667426",
        "MILEPOST": "0192.170",
        "TYPEXING": "Private",
        "POSXING": "At Grade",
        "PRVCAT": "14",
        "INIT": "1",
        "LATITUDE": 32.7408093,
        "LONGITUD": -96.4417816,
        "LLSOURCE": "1",
        "WHISTBAN": "0",
        "RRCONT": "4025443721",
        "POLCONT": "8008488715",
        "INV_LINK": "https://safetydata.fra.dot.gov/OfficeofSafety/PublicSite/Crossing/Crossing.aspx?phasetype=C&rpttype=I&txtcrossingnum=794800D",
        "ACC_LINK": "https://safetydata.fra.dot.gov/OfficeofSafety/PublicSite/Crossing/Crossing.aspx?phasetype=C&rpttype=A&txtcrossingnum=794800D",
        "TTSTNNAM": "",
        "XPURPOSE": "1",
        "OPERATINGR": "UP",
        "OPERATIN_1": "Primary",
        "DAYTHRU": 10,
        "NGHTTHRU": 9,
        "MAINTRK": 1,
        "SIDINGTRK": 0,
        "YARDTRK": 0,
        "TRANSITTRK": 0,
        "INDUSTRYTR": 0,
        "OTHRTRK": 0,
        "WDCODE": "",
        "REVISIONDA": "1975/01/01 00:00:00",
        "LASTUPDATE": "8/29/2025",
        "AADT": "1",
        "AADTYEAR": "1970",
        "STATENAME": "TEXAS",
        "STATEAB": "TX",
        "COUNTYNAME": "KAUFMAN",
        "CITYNAME": "FORNEY",
        "LATDD": 32.7408093,
        "LONGDD": -96.4417816,
        "gridlyProductionCertified": true,
        "gridlyClassification": "PUBLIC_ROADWAY",
        "gridlyDisplayName": "PRIVATE",
        "gridlyId": "FRA-794800D"
      }
    },
    {
      "type": "Feature",
      "id": 207417,
      "geometry": {
        "type": "Point",
        "coordinates": [
          -96.4663701996459,
          32.7435456997443
        ]
      },
      "properties": {
        "OBJECTID": 207417,
        "CROSSING": "794802S",
        "EFFDATE": 1756425600000,
        "REASON": "14",
        "StateCode": "48",
        "CountyCode": "48257",
        "STCYFIPS": "48257",
        "CITYCD": "482572430",
        "RAILROAD": "UP",
        "RRDIV": "TEXOMA",
        "RRSUBDIV": "MINEOLA SUB",
        "HIGHWAY": "FM 0548",
        "STREET": "CHESTNUT STREET FM 0548",
        "TTSTN": "667426",
        "MILEPOST": "0193.620",
        "TYPEXING": "Public",
        "POSXING": "At Grade",
        "PRVCAT": "14",
        "INIT": "1",
        "LATITUDE": 32.7435457,
        "LONGITUD": -96.4663702,
        "LLSOURCE": "1",
        "WHISTBAN": "1",
        "RRCONT": "4025443721",
        "POLCONT": "8008488715",
        "INV_LINK": "https://safetydata.fra.dot.gov/OfficeofSafety/PublicSite/Crossing/Crossing.aspx?phasetype=C&rpttype=I&txtcrossingnum=794802S",
        "ACC_LINK": "https://safetydata.fra.dot.gov/OfficeofSafety/PublicSite/Crossing/Crossing.aspx?phasetype=C&rpttype=A&txtcrossingnum=794802S",
        "TTSTNNAM": "",
        "XPURPOSE": "1",
        "OPERATINGR": "UP",
        "OPERATIN_1": "Primary",
        "DAYTHRU": 10,
        "NGHTTHRU": 9,
        "MAINTRK": 1,
        "SIDINGTRK": 0,
        "YARDTRK": 0,
        "TRANSITTRK": 0,
        "INDUSTRYTR": 0,
        "OTHRTRK": 1,
        "WDCODE": "All other Gates",
        "REVISIONDA": "1975/01/01 00:00:00",
        "LASTUPDATE": "8/29/2025",
        "AADT": "004118",
        "AADTYEAR": "2019",
        "STATENAME": "TEXAS",
        "STATEAB": "TX",
        "COUNTYNAME": "KAUFMAN",
        "CITYNAME": "FORNEY",
        "LATDD": 32.7435457,
        "LONGDD": -96.4663702,
        "gridlyProductionCertified": true,
        "gridlyClassification": "PUBLIC_ROADWAY",
        "gridlyDisplayName": "CHESTNUT STREET FM 0548",
        "gridlyId": "FRA-794802S"
      }
    },
    {
      "type": "Feature",
      "id": 207418,
      "geometry": {
        "type": "Point",
        "coordinates": [
          -96.4698740002582,
          32.747046800302
        ]
      },
      "properties": {
        "OBJECTID": 207418,
        "CROSSING": "794803Y",
        "EFFDATE": 1756425600000,
        "REASON": "14",
        "StateCode": "48",
        "CountyCode": "48257",
        "STCYFIPS": "48257",
        "CITYCD": "482572430",
        "RAILROAD": "UP",
        "RRDIV": "TEXOMA",
        "RRSUBDIV": "MINEOLA SUB",
        "HIGHWAY": "ST 0000",
        "STREET": "S CENTER STREET",
        "TTSTN": "667426",
        "MILEPOST": "0193.920",
        "TYPEXING": "Public",
        "POSXING": "At Grade",
        "PRVCAT": "14",
        "INIT": "1",
        "LATITUDE": 32.7470468,
        "LONGITUD": -96.469874,
        "LLSOURCE": "1",
        "WHISTBAN": "1",
        "RRCONT": "4025443721",
        "POLCONT": "8008488715",
        "INV_LINK": "https://safetydata.fra.dot.gov/OfficeofSafety/PublicSite/Crossing/Crossing.aspx?phasetype=C&rpttype=I&txtcrossingnum=794803Y",
        "ACC_LINK": "https://safetydata.fra.dot.gov/OfficeofSafety/PublicSite/Crossing/Crossing.aspx?phasetype=C&rpttype=A&txtcrossingnum=794803Y",
        "TTSTNNAM": "",
        "XPURPOSE": "1",
        "OPERATINGR": "UP",
        "OPERATIN_1": "Primary",
        "DAYTHRU": 10,
        "NGHTTHRU": 9,
        "MAINTRK": 1,
        "SIDINGTRK": 0,
        "YARDTRK": 0,
        "TRANSITTRK": 0,
        "INDUSTRYTR": 0,
        "OTHRTRK": 0,
        "WDCODE": "All other Gates",
        "REVISIONDA": "1975/01/01 00:00:00",
        "LASTUPDATE": "8/29/2025",
        "AADT": "000919",
        "AADTYEAR": "2019",
        "STATENAME": "TEXAS",
        "STATEAB": "TX",
        "COUNTYNAME": "KAUFMAN",
        "CITYNAME": "FORNEY",
        "LATDD": 32.7470468,
        "LONGDD": -96.469874,
        "gridlyProductionCertified": true,
        "gridlyClassification": "PUBLIC_ROADWAY",
        "gridlyDisplayName": "S CENTER STREET",
        "gridlyId": "FRA-794803Y"
      }
    },
    {
      "type": "Feature",
      "id": 207419,
      "geometry": {
        "type": "Point",
        "coordinates": [
          -96.5196169999839,
          32.7545059997061
        ]
      },
      "properties": {
        "OBJECTID": 207419,
        "CROSSING": "794806U",
        "EFFDATE": 1756425600000,
        "REASON": "14",
        "StateCode": "48",
        "CountyCode": "48113",
        "STCYFIPS": "48113",
        "CITYCD": "481134530",
        "RAILROAD": "UP",
        "RRDIV": "TEXOMA",
        "RRSUBDIV": "MINEOLA SUB",
        "HIGHWAY": "ST 0000",
        "STREET": "LAWSON ROAD",
        "TTSTN": "667242",
        "MILEPOST": "0197.410",
        "TYPEXING": "Public",
        "POSXING": "At Grade",
        "PRVCAT": "14",
        "INIT": "1",
        "LATITUDE": 32.754506,
        "LONGITUD": -96.519617,
        "LLSOURCE": "1",
        "WHISTBAN": "0",
        "RRCONT": "4025443721",
        "POLCONT": "8008488715",
        "INV_LINK": "https://safetydata.fra.dot.gov/OfficeofSafety/PublicSite/Crossing/Crossing.aspx?phasetype=C&rpttype=I&txtcrossingnum=794806U",
        "ACC_LINK": "https://safetydata.fra.dot.gov/OfficeofSafety/PublicSite/Crossing/Crossing.aspx?phasetype=C&rpttype=A&txtcrossingnum=794806U",
        "TTSTNNAM": "",
        "XPURPOSE": "1",
        "OPERATINGR": "UP",
        "OPERATIN_1": "Primary",
        "DAYTHRU": 10,
        "NGHTTHRU": 9,
        "MAINTRK": 1,
        "SIDINGTRK": 0,
        "YARDTRK": 0,
        "TRANSITTRK": 0,
        "INDUSTRYTR": 0,
        "OTHRTRK": 0,
        "WDCODE": "All other Gates",
        "REVISIONDA": "1975/01/01 00:00:00",
        "LASTUPDATE": "8/29/2025",
        "AADT": "3248",
        "AADTYEAR": "2019",
        "STATENAME": "TEXAS",
        "STATEAB": "TX",
        "COUNTYNAME": "DALLAS",
        "CITYNAME": "MESQUITE",
        "LATDD": 32.754506,
        "LONGDD": -96.519617,
        "gridlyProductionCertified": true,
        "gridlyClassification": "PUBLIC_ROADWAY",
        "gridlyDisplayName": "LAWSON ROAD",
        "gridlyId": "FRA-794806U"
      }
    },
    {
      "type": "Feature",
      "id": 207447,
      "geometry": {
        "type": "Point",
        "coordinates": [
          -96.470573000042,
          32.7477463996245
        ]
      },
      "properties": {
        "OBJECTID": 207447,
        "CROSSING": "794804F",
        "EFFDATE": 1756425600000,
        "REASON": "14",
        "StateCode": "48",
        "CountyCode": "48257",
        "STCYFIPS": "48257",
        "CITYCD": "482572430",
        "RAILROAD": "UP",
        "RRDIV": "TEXOMA",
        "RRSUBDIV": "MINEOLA SUB",
        "HIGHWAY": "ST 0000",
        "STREET": "ELM STREET",
        "TTSTN": "667426",
        "MILEPOST": "0193.980",
        "TYPEXING": "Public",
        "POSXING": "At Grade",
        "PRVCAT": "14",
        "INIT": "1",
        "LATITUDE": 32.7477464,
        "LONGITUD": -96.470573,
        "LLSOURCE": "1",
        "WHISTBAN": "1",
        "RRCONT": "4025443721",
        "POLCONT": "8008488715",
        "INV_LINK": "https://safetydata.fra.dot.gov/OfficeofSafety/PublicSite/Crossing/Crossing.aspx?phasetype=C&rpttype=I&txtcrossingnum=794804F",
        "ACC_LINK": "https://safetydata.fra.dot.gov/OfficeofSafety/PublicSite/Crossing/Crossing.aspx?phasetype=C&rpttype=A&txtcrossingnum=794804F",
        "TTSTNNAM": "",
        "XPURPOSE": "1",
        "OPERATINGR": "UP",
        "OPERATIN_1": "Primary",
        "DAYTHRU": 10,
        "NGHTTHRU": 9,
        "MAINTRK": 1,
        "SIDINGTRK": 0,
        "YARDTRK": 0,
        "TRANSITTRK": 0,
        "INDUSTRYTR": 0,
        "OTHRTRK": 0,
        "WDCODE": "All other Gates",
        "REVISIONDA": "1975/01/01 00:00:00",
        "LASTUPDATE": "8/29/2025",
        "AADT": "001063",
        "AADTYEAR": "2019",
        "STATENAME": "TEXAS",
        "STATEAB": "TX",
        "COUNTYNAME": "KAUFMAN",
        "CITYNAME": "FORNEY",
        "LATDD": 32.7477464,
        "LONGDD": -96.470573,
        "gridlyProductionCertified": true,
        "gridlyClassification": "PUBLIC_ROADWAY",
        "gridlyDisplayName": "ELM STREET",
        "gridlyId": "FRA-794804F"
      }
    },
    {
      "type": "Feature",
      "id": 207448,
      "geometry": {
        "type": "Point",
        "coordinates": [
          -96.4491288002618,
          32.7410320000565
        ]
      },
      "properties": {
        "OBJECTID": 207448,
        "CROSSING": "921043L",
        "EFFDATE": 1756425600000,
        "REASON": "14",
        "StateCode": "48",
        "CountyCode": "48257",
        "STCYFIPS": "48257",
        "CITYCD": "482572430",
        "RAILROAD": "UP",
        "RRDIV": "TEXOMA",
        "RRSUBDIV": "MINEOLA SUB",
        "HIGHWAY": "FM 0548",
        "STREET": "FM 0548",
        "TTSTN": "667433",
        "MILEPOST": "0192.600",
        "TYPEXING": "Public",
        "POSXING": "At Grade",
        "PRVCAT": "14",
        "INIT": "1",
        "LATITUDE": 32.741032,
        "LONGITUD": -96.4491288,
        "LLSOURCE": "1",
        "WHISTBAN": "1",
        "RRCONT": "4025443721",
        "POLCONT": "8008488715",
        "INV_LINK": "https://safetydata.fra.dot.gov/OfficeofSafety/PublicSite/Crossing/Crossing.aspx?phasetype=C&rpttype=I&txtcrossingnum=921043L",
        "ACC_LINK": "https://safetydata.fra.dot.gov/OfficeofSafety/PublicSite/Crossing/Crossing.aspx?phasetype=C&rpttype=A&txtcrossingnum=921043L",
        "TTSTNNAM": "",
        "XPURPOSE": "1",
        "OPERATINGR": "UP",
        "OPERATIN_1": "Primary",
        "DAYTHRU": 10,
        "NGHTTHRU": 9,
        "MAINTRK": 1,
        "SIDINGTRK": 0,
        "YARDTRK": 0,
        "TRANSITTRK": 0,
        "INDUSTRYTR": 0,
        "OTHRTRK": 0,
        "WDCODE": "All other Gates",
        "REVISIONDA": "1975/01/01 00:00:00",
        "LASTUPDATE": "8/29/2025",
        "AADT": "032937",
        "AADTYEAR": "2023",
        "STATENAME": "TEXAS",
        "STATEAB": "TX",
        "COUNTYNAME": "KAUFMAN",
        "CITYNAME": "FORNEY",
        "LATDD": 32.741032,
        "LONGDD": -96.4491288,
        "gridlyProductionCertified": true,
        "gridlyClassification": "PUBLIC_ROADWAY",
        "gridlyDisplayName": "FM 0548",
        "gridlyId": "FRA-921043L"
      }
    },
    {
      "type": "Feature",
      "id": 207495,
      "geometry": {
        "type": "Point",
        "coordinates": [
          -96.0975713998361,
          32.7143225996297
        ]
      },
      "properties": {
        "OBJECTID": 207495,
        "CROSSING": "794756T",
        "EFFDATE": 1756425600000,
        "REASON": "14",
        "StateCode": "48",
        "CountyCode": "48257",
        "STCYFIPS": "48257",
        "CITYCD": "482572188",
        "RAILROAD": "UP",
        "RRDIV": "TEXOMA",
        "RRSUBDIV": "MINEOLA SUB",
        "HIGHWAY": "CO 0350",
        "STREET": "CR 350",
        "TTSTN": "666447",
        "MILEPOST": "0172.020",
        "TYPEXING": "Public",
        "POSXING": "At Grade",
        "PRVCAT": "14",
        "INIT": "1",
        "LATITUDE": 32.7143226,
        "LONGITUD": -96.0975714,
        "LLSOURCE": "1",
        "WHISTBAN": "0",
        "RRCONT": "4025443721",
        "POLCONT": "8008488715",
        "INV_LINK": "https://safetydata.fra.dot.gov/OfficeofSafety/PublicSite/Crossing/Crossing.aspx?phasetype=C&rpttype=I&txtcrossingnum=794756T",
        "ACC_LINK": "https://safetydata.fra.dot.gov/OfficeofSafety/PublicSite/Crossing/Crossing.aspx?phasetype=C&rpttype=A&txtcrossingnum=794756T",
        "TTSTNNAM": "",
        "XPURPOSE": "1",
        "OPERATINGR": "UP",
        "OPERATIN_1": "Primary",
        "DAYTHRU": 12,
        "NGHTTHRU": 11,
        "MAINTRK": 1,
        "SIDINGTRK": 0,
        "YARDTRK": 0,
        "TRANSITTRK": 0,
        "INDUSTRYTR": 0,
        "OTHRTRK": 0,
        "WDCODE": "All other Gates",
        "REVISIONDA": "1975/01/01 00:00:00",
        "LASTUPDATE": "8/29/2025",
        "AADT": "226",
        "AADTYEAR": "2019",
        "STATENAME": "TEXAS",
        "STATEAB": "TX",
        "COUNTYNAME": "KAUFMAN",
        "CITYNAME": "ELMO",
        "LATDD": 32.7143226,
        "LONGDD": -96.0975714,
        "gridlyProductionCertified": true,
        "gridlyClassification": "PUBLIC_ROADWAY",
        "gridlyDisplayName": "CR 350",
        "gridlyId": "FRA-794756T"
      }
    },
    {
      "type": "Feature",
      "id": 207497,
      "geometry": {
        "type": "Point",
        "coordinates": [
          -96.1257888995535,
          32.7170510001851
        ]
      },
      "properties": {
        "OBJECTID": 207497,
        "CROSSING": "794757A",
        "EFFDATE": 1756425600000,
        "REASON": "14",
        "StateCode": "48",
        "CountyCode": "48257",
        "STCYFIPS": "48257",
        "CITYCD": "482572188",
        "RAILROAD": "UP",
        "RRDIV": "TEXOMA",
        "RRSUBDIV": "MINEOLA SUB",
        "HIGHWAY": "CO 0362",
        "STREET": "CR 362",
        "TTSTN": "666447",
        "MILEPOST": "0173.640",
        "TYPEXING": "Public",
        "POSXING": "At Grade",
        "PRVCAT": "14",
        "INIT": "1",
        "LATITUDE": 32.717051,
        "LONGITUD": -96.1257889,
        "LLSOURCE": "1",
        "WHISTBAN": "0",
        "RRCONT": "4025443721",
        "POLCONT": "8008488715",
        "INV_LINK": "https://safetydata.fra.dot.gov/OfficeofSafety/PublicSite/Crossing/Crossing.aspx?phasetype=C&rpttype=I&txtcrossingnum=794757A",
        "ACC_LINK": "https://safetydata.fra.dot.gov/OfficeofSafety/PublicSite/Crossing/Crossing.aspx?phasetype=C&rpttype=A&txtcrossingnum=794757A",
        "TTSTNNAM": "",
        "XPURPOSE": "1",
        "OPERATINGR": "UP",
        "OPERATIN_1": "Primary",
        "DAYTHRU": 12,
        "NGHTTHRU": 11,
        "MAINTRK": 1,
        "SIDINGTRK": 0,
        "YARDTRK": 0,
        "TRANSITTRK": 0,
        "INDUSTRYTR": 0,
        "OTHRTRK": 0,
        "WDCODE": "All other Gates",
        "REVISIONDA": "1975/01/01 00:00:00",
        "LASTUPDATE": "8/29/2025",
        "AADT": "118",
        "AADTYEAR": "2019",
        "STATENAME": "TEXAS",
        "STATEAB": "TX",
        "COUNTYNAME": "KAUFMAN",
        "CITYNAME": "ELMO",
        "LATDD": 32.717051,
        "LONGDD": -96.1257889,
        "gridlyProductionCertified": true,
        "gridlyClassification": "PUBLIC_ROADWAY",
        "gridlyDisplayName": "CR 362",
        "gridlyId": "FRA-794757A"
      }
    },
    {
      "type": "Feature",
      "id": 207498,
      "geometry": {
        "type": "Point",
        "coordinates": [
          -96.1435460998956,
          32.7192312997852
        ]
      },
      "properties": {
        "OBJECTID": 207498,
        "CROSSING": "794758G",
        "EFFDATE": 1756425600000,
        "REASON": "14",
        "StateCode": "48",
        "CountyCode": "48257",
        "STCYFIPS": "48257",
        "CITYCD": "482572188",
        "RAILROAD": "UP",
        "RRDIV": "TEXOMA",
        "RRSUBDIV": "MINEOLA SUB",
        "HIGHWAY": "CO 0351",
        "STREET": "CR 351",
        "TTSTN": "666447",
        "MILEPOST": "0174.690",
        "TYPEXING": "Public",
        "POSXING": "At Grade",
        "PRVCAT": "14",
        "INIT": "1",
        "LATITUDE": 32.7192313,
        "LONGITUD": -96.1435461,
        "LLSOURCE": "1",
        "WHISTBAN": "0",
        "RRCONT": "4025443721",
        "POLCONT": "8008488715",
        "INV_LINK": "https://safetydata.fra.dot.gov/OfficeofSafety/PublicSite/Crossing/Crossing.aspx?phasetype=C&rpttype=I&txtcrossingnum=794758G",
        "ACC_LINK": "https://safetydata.fra.dot.gov/OfficeofSafety/PublicSite/Crossing/Crossing.aspx?phasetype=C&rpttype=A&txtcrossingnum=794758G",
        "TTSTNNAM": "",
        "XPURPOSE": "1",
        "OPERATINGR": "UP",
        "OPERATIN_1": "Primary",
        "DAYTHRU": 12,
        "NGHTTHRU": 11,
        "MAINTRK": 1,
        "SIDINGTRK": 0,
        "YARDTRK": 0,
        "TRANSITTRK": 0,
        "INDUSTRYTR": 0,
        "OTHRTRK": 0,
        "WDCODE": "All other Gates",
        "REVISIONDA": "1975/01/01 00:00:00",
        "LASTUPDATE": "8/29/2025",
        "AADT": "153",
        "AADTYEAR": "2019",
        "STATENAME": "TEXAS",
        "STATEAB": "TX",
        "COUNTYNAME": "KAUFMAN",
        "CITYNAME": "ELMO",
        "LATDD": 32.7192313,
        "LONGDD": -96.1435461,
        "gridlyProductionCertified": true,
        "gridlyClassification": "PUBLIC_ROADWAY",
        "gridlyDisplayName": "CR 351",
        "gridlyId": "FRA-794758G"
      }
    },
    {
      "type": "Feature",
      "id": 207503,
      "geometry": {
        "type": "Point",
        "coordinates": [
          -96.3960359999096,
          32.7394429998843
        ]
      },
      "properties": {
        "OBJECTID": 207503,
        "CROSSING": "975318S",
        "EFFDATE": 1756425600000,
        "REASON": "14",
        "StateCode": "48",
        "CountyCode": "48257",
        "STCYFIPS": "48257",
        "CITYCD": "482572430",
        "RAILROAD": "UP",
        "RRDIV": "Texoma",
        "RRSUBDIV": "Mineola Sub",
        "HIGHWAY": "NA",
        "STREET": "Sierra Parkway",
        "TTSTN": "",
        "MILEPOST": "0189.500",
        "TYPEXING": "Public",
        "POSXING": "At Grade",
        "PRVCAT": "14",
        "INIT": "1",
        "LATITUDE": 32.739443,
        "LONGITUD": -96.396036,
        "LLSOURCE": "1",
        "WHISTBAN": "",
        "RRCONT": "4025445871",
        "POLCONT": "8008488715",
        "INV_LINK": "https://safetydata.fra.dot.gov/OfficeofSafety/PublicSite/Crossing/Crossing.aspx?phasetype=C&rpttype=I&txtcrossingnum=975318S",
        "ACC_LINK": "https://safetydata.fra.dot.gov/OfficeofSafety/PublicSite/Crossing/Crossing.aspx?phasetype=C&rpttype=A&txtcrossingnum=975318S",
        "TTSTNNAM": "",
        "XPURPOSE": "1",
        "OPERATINGR": "UP",
        "OPERATIN_1": "Primary",
        "DAYTHRU": 10,
        "NGHTTHRU": 9,
        "MAINTRK": 1,
        "SIDINGTRK": 0,
        "YARDTRK": 0,
        "TRANSITTRK": 0,
        "INDUSTRYTR": 0,
        "OTHRTRK": 0,
        "WDCODE": "All other Gates",
        "REVISIONDA": "1975/01/01 00:00:00",
        "LASTUPDATE": "8/29/2025",
        "AADT": "1000",
        "AADTYEAR": "2020",
        "STATENAME": "TEXAS",
        "STATEAB": "TX",
        "COUNTYNAME": "KAUFMAN",
        "CITYNAME": "FORNEY",
        "LATDD": 32.739443,
        "LONGDD": -96.396036,
        "gridlyProductionCertified": true,
        "gridlyClassification": "PUBLIC_ROADWAY",
        "gridlyDisplayName": "Sierra Parkway",
        "gridlyId": "FRA-975318S"
      }
    },
    {
      "type": "Feature",
      "id": 207504,
      "geometry": {
        "type": "Point",
        "coordinates": [
          -96.2016998001494,
          32.7263648001686
        ]
      },
      "properties": {
        "OBJECTID": 207504,
        "CROSSING": "794762W",
        "EFFDATE": 1756425600000,
        "REASON": "14",
        "StateCode": "48",
        "CountyCode": "48257",
        "STCYFIPS": "48257",
        "CITYCD": "482576830",
        "RAILROAD": "UP",
        "RRDIV": "TEXOMA",
        "RRSUBDIV": "MINEOLA SUB",
        "HIGHWAY": "CO 0309",
        "STREET": "CR 309",
        "TTSTN": "667426",
        "MILEPOST": "0178.150",
        "TYPEXING": "Public",
        "POSXING": "At Grade",
        "PRVCAT": "14",
        "INIT": "1",
        "LATITUDE": 32.7263648,
        "LONGITUD": -96.2016998,
        "LLSOURCE": "1",
        "WHISTBAN": "0",
        "RRCONT": "4025443721",
        "POLCONT": "8008488715",
        "INV_LINK": "https://safetydata.fra.dot.gov/OfficeofSafety/PublicSite/Crossing/Crossing.aspx?phasetype=C&rpttype=I&txtcrossingnum=794762W",
        "ACC_LINK": "https://safetydata.fra.dot.gov/OfficeofSafety/PublicSite/Crossing/Crossing.aspx?phasetype=C&rpttype=A&txtcrossingnum=794762W",
        "TTSTNNAM": "",
        "XPURPOSE": "1",
        "OPERATINGR": "UP",
        "OPERATIN_1": "Primary",
        "DAYTHRU": 12,
        "NGHTTHRU": 11,
        "MAINTRK": 1,
        "SIDINGTRK": 0,
        "YARDTRK": 0,
        "TRANSITTRK": 0,
        "INDUSTRYTR": 0,
        "OTHRTRK": 0,
        "WDCODE": "All other Gates",
        "REVISIONDA": "1975/01/01 00:00:00",
        "LASTUPDATE": "8/29/2025",
        "AADT": "58",
        "AADTYEAR": "2019",
        "STATENAME": "TEXAS",
        "STATEAB": "TX",
        "COUNTYNAME": "KAUFMAN",
        "CITYNAME": "TERRELL",
        "LATDD": 32.7263648,
        "LONGDD": -96.2016998,
        "gridlyProductionCertified": true,
        "gridlyClassification": "PUBLIC_ROADWAY",
        "gridlyDisplayName": "CR 309",
        "gridlyId": "FRA-794762W"
      }
    },
    {
      "type": "Feature",
      "id": 207505,
      "geometry": {
        "type": "Point",
        "coordinates": [
          -96.221976599692,
          32.7288541999769
        ]
      },
      "properties": {
        "OBJECTID": 207505,
        "CROSSING": "794763D",
        "EFFDATE": 1756425600000,
        "REASON": "14",
        "StateCode": "48",
        "CountyCode": "48257",
        "STCYFIPS": "48257",
        "CITYCD": "482576830",
        "RAILROAD": "UP",
        "RRDIV": "TEXOMA",
        "RRSUBDIV": "MINEOLA SUB",
        "HIGHWAY": "NA",
        "STREET": "PRIVATE",
        "TTSTN": "667426",
        "MILEPOST": "0179.330",
        "TYPEXING": "Private",
        "POSXING": "At Grade",
        "PRVCAT": "14",
        "INIT": "1",
        "LATITUDE": 32.7288542,
        "LONGITUD": -96.2219766,
        "LLSOURCE": "1",
        "WHISTBAN": "0",
        "RRCONT": "4025443721",
        "POLCONT": "8008488715",
        "INV_LINK": "https://safetydata.fra.dot.gov/OfficeofSafety/PublicSite/Crossing/Crossing.aspx?phasetype=C&rpttype=I&txtcrossingnum=794763D",
        "ACC_LINK": "https://safetydata.fra.dot.gov/OfficeofSafety/PublicSite/Crossing/Crossing.aspx?phasetype=C&rpttype=A&txtcrossingnum=794763D",
        "TTSTNNAM": "",
        "XPURPOSE": "1",
        "OPERATINGR": "UP",
        "OPERATIN_1": "Primary",
        "DAYTHRU": 12,
        "NGHTTHRU": 11,
        "MAINTRK": 1,
        "SIDINGTRK": 0,
        "YARDTRK": 0,
        "TRANSITTRK": 0,
        "INDUSTRYTR": 0,
        "OTHRTRK": 0,
        "WDCODE": "",
        "REVISIONDA": "1975/01/01 00:00:00",
        "LASTUPDATE": "8/29/2025",
        "AADT": "1",
        "AADTYEAR": "1970",
        "STATENAME": "TEXAS",
        "STATEAB": "TX",
        "COUNTYNAME": "KAUFMAN",
        "CITYNAME": "TERRELL",
        "LATDD": 32.7288542,
        "LONGDD": -96.2219766,
        "gridlyProductionCertified": true,
        "gridlyClassification": "PUBLIC_ROADWAY",
        "gridlyDisplayName": "PRIVATE",
        "gridlyId": "FRA-794763D"
      }
    },
    {
      "type": "Feature",
      "id": 207511,
      "geometry": {
        "type": "Point",
        "coordinates": [
          -96.245661600236,
          32.7317590999372
        ]
      },
      "properties": {
        "OBJECTID": 207511,
        "CROSSING": "794765S",
        "EFFDATE": 1756425600000,
        "REASON": "14",
        "StateCode": "48",
        "CountyCode": "48257",
        "STCYFIPS": "48257",
        "CITYCD": "482576830",
        "RAILROAD": "UP",
        "RRDIV": "TEXOMA",
        "RRSUBDIV": "MINEOLA SUB",
        "HIGHWAY": "FM 0429",
        "STREET": "FM 429",
        "TTSTN": "667426",
        "MILEPOST": "0180.710",
        "TYPEXING": "Public",
        "POSXING": "At Grade",
        "PRVCAT": "14",
        "INIT": "1",
        "LATITUDE": 32.7317591,
        "LONGITUD": -96.2456616,
        "LLSOURCE": "1",
        "WHISTBAN": "0",
        "RRCONT": "4025443721",
        "POLCONT": "8008488715",
        "INV_LINK": "https://safetydata.fra.dot.gov/OfficeofSafety/PublicSite/Crossing/Crossing.aspx?phasetype=C&rpttype=I&txtcrossingnum=794765S",
        "ACC_LINK": "https://safetydata.fra.dot.gov/OfficeofSafety/PublicSite/Crossing/Crossing.aspx?phasetype=C&rpttype=A&txtcrossingnum=794765S",
        "TTSTNNAM": "",
        "XPURPOSE": "1",
        "OPERATINGR": "UP",
        "OPERATIN_1": "Primary",
        "DAYTHRU": 12,
        "NGHTTHRU": 11,
        "MAINTRK": 1,
        "SIDINGTRK": 0,
        "YARDTRK": 0,
        "TRANSITTRK": 0,
        "INDUSTRYTR": 0,
        "OTHRTRK": 0,
        "WDCODE": "All other Gates",
        "REVISIONDA": "1975/01/01 00:00:00",
        "LASTUPDATE": "8/29/2025",
        "AADT": "1552",
        "AADTYEAR": "2019",
        "STATENAME": "TEXAS",
        "STATEAB": "TX",
        "COUNTYNAME": "KAUFMAN",
        "CITYNAME": "TERRELL",
        "LATDD": 32.7317591,
        "LONGDD": -96.2456616,
        "gridlyProductionCertified": true,
        "gridlyClassification": "PUBLIC_ROADWAY",
        "gridlyDisplayName": "FM 429",
        "gridlyId": "FRA-794765S"
      }
    },
    {
      "type": "Feature",
      "id": 207512,
      "geometry": {
        "type": "Point",
        "coordinates": [
          -96.253182000249,
          32.7326817997024
        ]
      },
      "properties": {
        "OBJECTID": 207512,
        "CROSSING": "794766Y",
        "EFFDATE": 1756425600000,
        "REASON": "14",
        "StateCode": "48",
        "CountyCode": "48257",
        "STCYFIPS": "48257",
        "CITYCD": "482576830",
        "RAILROAD": "UP",
        "RRDIV": "Texoma",
        "RRSUBDIV": "Mineola Sub",
        "HIGHWAY": "NA",
        "STREET": "Private",
        "TTSTN": "667426",
        "MILEPOST": "0181.160",
        "TYPEXING": "Private",
        "POSXING": "At Grade",
        "PRVCAT": "14",
        "INIT": "1",
        "LATITUDE": 32.7326818,
        "LONGITUD": -96.253182,
        "LLSOURCE": "1",
        "WHISTBAN": "0",
        "RRCONT": "4025443721",
        "POLCONT": "8008488715",
        "INV_LINK": "https://safetydata.fra.dot.gov/OfficeofSafety/PublicSite/Crossing/Crossing.aspx?phasetype=C&rpttype=I&txtcrossingnum=794766Y",
        "ACC_LINK": "https://safetydata.fra.dot.gov/OfficeofSafety/PublicSite/Crossing/Crossing.aspx?phasetype=C&rpttype=A&txtcrossingnum=794766Y",
        "TTSTNNAM": "",
        "XPURPOSE": "1",
        "OPERATINGR": "UP",
        "OPERATIN_1": "Primary",
        "DAYTHRU": 12,
        "NGHTTHRU": 11,
        "MAINTRK": 1,
        "SIDINGTRK": 0,
        "YARDTRK": 0,
        "TRANSITTRK": 0,
        "INDUSTRYTR": 0,
        "OTHRTRK": 0,
        "WDCODE": "",
        "REVISIONDA": "1975/01/01 00:00:00",
        "LASTUPDATE": "8/29/2025",
        "AADT": "1",
        "AADTYEAR": "1970",
        "STATENAME": "TEXAS",
        "STATEAB": "TX",
        "COUNTYNAME": "KAUFMAN",
        "CITYNAME": "TERRELL",
        "LATDD": 32.7326818,
        "LONGDD": -96.253182,
        "gridlyProductionCertified": true,
        "gridlyClassification": "PUBLIC_ROADWAY",
        "gridlyDisplayName": "Private",
        "gridlyId": "FRA-794766Y"
      }
    },
    {
      "type": "Feature",
      "id": 207513,
      "geometry": {
        "type": "Point",
        "coordinates": [
          -96.1649879002757,
          32.7218212996363
        ]
      },
      "properties": {
        "OBJECTID": 207513,
        "CROSSING": "794759N",
        "EFFDATE": 1756425600000,
        "REASON": "14",
        "StateCode": "48",
        "CountyCode": "48257",
        "STCYFIPS": "48257",
        "CITYCD": "482572188",
        "RAILROAD": "UP",
        "RRDIV": "TEXOMA",
        "RRSUBDIV": "MINEOLA SUB",
        "HIGHWAY": "FM 2728",
        "STREET": "FM 2728",
        "TTSTN": "667426",
        "MILEPOST": "0175.890",
        "TYPEXING": "Public",
        "POSXING": "At Grade",
        "PRVCAT": "14",
        "INIT": "1",
        "LATITUDE": 32.7218213,
        "LONGITUD": -96.1649879,
        "LLSOURCE": "1",
        "WHISTBAN": "0",
        "RRCONT": "4025443721",
        "POLCONT": "8008488715",
        "INV_LINK": "https://safetydata.fra.dot.gov/OfficeofSafety/PublicSite/Crossing/Crossing.aspx?phasetype=C&rpttype=I&txtcrossingnum=794759N",
        "ACC_LINK": "https://safetydata.fra.dot.gov/OfficeofSafety/PublicSite/Crossing/Crossing.aspx?phasetype=C&rpttype=A&txtcrossingnum=794759N",
        "TTSTNNAM": "",
        "XPURPOSE": "1",
        "OPERATINGR": "UP",
        "OPERATIN_1": "Primary",
        "DAYTHRU": 12,
        "NGHTTHRU": 11,
        "MAINTRK": 1,
        "SIDINGTRK": 1,
        "YARDTRK": 0,
        "TRANSITTRK": 0,
        "INDUSTRYTR": 0,
        "OTHRTRK": 1,
        "WDCODE": "All other Gates",
        "REVISIONDA": "1975/01/01 00:00:00",
        "LASTUPDATE": "8/29/2025",
        "AADT": "2216",
        "AADTYEAR": "2019",
        "STATENAME": "TEXAS",
        "STATEAB": "TX",
        "COUNTYNAME": "KAUFMAN",
        "CITYNAME": "ELMO",
        "LATDD": 32.7218213,
        "LONGDD": -96.1649879,
        "gridlyProductionCertified": true,
        "gridlyClassification": "PUBLIC_ROADWAY",
        "gridlyDisplayName": "FM 2728",
        "gridlyId": "FRA-794759N"
      }
    },
    {
      "type": "Feature",
      "id": 207518,
      "geometry": {
        "type": "Point",
        "coordinates": [
          -96.2638597997208,
          32.7339914996823
        ]
      },
      "properties": {
        "OBJECTID": 207518,
        "CROSSING": "794767F",
        "EFFDATE": 1756425600000,
        "REASON": "14",
        "StateCode": "48",
        "CountyCode": "48257",
        "STCYFIPS": "48257",
        "CITYCD": "482576830",
        "RAILROAD": "UP",
        "RRDIV": "TEXOMA",
        "RRSUBDIV": "MINEOLA SUB",
        "HIGHWAY": "ST 0000",
        "STREET": "BURCH STREET",
        "TTSTN": "667426",
        "MILEPOST": "0181.820",
        "TYPEXING": "Private",
        "POSXING": "At Grade",
        "PRVCAT": "14",
        "INIT": "1",
        "LATITUDE": 32.7339915,
        "LONGITUD": -96.2638598,
        "LLSOURCE": "1",
        "WHISTBAN": "0",
        "RRCONT": "4025443721",
        "POLCONT": "8008488715",
        "INV_LINK": "https://safetydata.fra.dot.gov/OfficeofSafety/PublicSite/Crossing/Crossing.aspx?phasetype=C&rpttype=I&txtcrossingnum=794767F",
        "ACC_LINK": "https://safetydata.fra.dot.gov/OfficeofSafety/PublicSite/Crossing/Crossing.aspx?phasetype=C&rpttype=A&txtcrossingnum=794767F",
        "TTSTNNAM": "",
        "XPURPOSE": "1",
        "OPERATINGR": "UP",
        "OPERATIN_1": "Primary",
        "DAYTHRU": 12,
        "NGHTTHRU": 11,
        "MAINTRK": 1,
        "SIDINGTRK": 0,
        "YARDTRK": 1,
        "TRANSITTRK": 0,
        "INDUSTRYTR": 0,
        "OTHRTRK": 0,
        "WDCODE": "",
        "REVISIONDA": "1975/01/01 00:00:00",
        "LASTUPDATE": "8/29/2025",
        "AADT": "154",
        "AADTYEAR": "2019",
        "STATENAME": "TEXAS",
        "STATEAB": "TX",
        "COUNTYNAME": "KAUFMAN",
        "CITYNAME": "TERRELL",
        "LATDD": 32.7339915,
        "LONGDD": -96.2638598,
        "gridlyProductionCertified": true,
        "gridlyClassification": "PUBLIC_ROADWAY",
        "gridlyDisplayName": "BURCH STREET",
        "gridlyId": "FRA-794767F"
      }
    },
    {
      "type": "Feature",
      "id": 207521,
      "geometry": {
        "type": "Point",
        "coordinates": [
          -96.2701305003414,
          32.7347597999678
        ]
      },
      "properties": {
        "OBJECTID": 207521,
        "CROSSING": "794768M",
        "EFFDATE": 1756425600000,
        "REASON": "14",
        "StateCode": "48",
        "CountyCode": "48257",
        "STCYFIPS": "48257",
        "CITYCD": "482576830",
        "RAILROAD": "UP",
        "RRDIV": "TEXOMA",
        "RRSUBDIV": "MINEOLA SUB",
        "HIGHWAY": "ST 0000",
        "STREET": "GARDNER STREET",
        "TTSTN": "667426",
        "MILEPOST": "0182.180",
        "TYPEXING": "Public",
        "POSXING": "At Grade",
        "PRVCAT": "14",
        "INIT": "1",
        "LATITUDE": 32.7347598,
        "LONGITUD": -96.2701305,
        "LLSOURCE": "1",
        "WHISTBAN": "0",
        "RRCONT": "4025443721",
        "POLCONT": "8008488715",
        "INV_LINK": "https://safetydata.fra.dot.gov/OfficeofSafety/PublicSite/Crossing/Crossing.aspx?phasetype=C&rpttype=I&txtcrossingnum=794768M",
        "ACC_LINK": "https://safetydata.fra.dot.gov/OfficeofSafety/PublicSite/Crossing/Crossing.aspx?phasetype=C&rpttype=A&txtcrossingnum=794768M",
        "TTSTNNAM": "",
        "XPURPOSE": "1",
        "OPERATINGR": "UP",
        "OPERATIN_1": "Primary",
        "DAYTHRU": 12,
        "NGHTTHRU": 11,
        "MAINTRK": 1,
        "SIDINGTRK": 0,
        "YARDTRK": 1,
        "TRANSITTRK": 0,
        "INDUSTRYTR": 0,
        "OTHRTRK": 1,
        "WDCODE": "All other Gates",
        "REVISIONDA": "1975/01/01 00:00:00",
        "LASTUPDATE": "8/29/2025",
        "AADT": "558",
        "AADTYEAR": "2019",
        "STATENAME": "TEXAS",
        "STATEAB": "TX",
        "COUNTYNAME": "KAUFMAN",
        "CITYNAME": "TERRELL",
        "LATDD": 32.7347598,
        "LONGDD": -96.2701305,
        "gridlyProductionCertified": true,
        "gridlyClassification": "PUBLIC_ROADWAY",
        "gridlyDisplayName": "GARDNER STREET",
        "gridlyId": "FRA-794768M"
      }
    },
    {
      "type": "Feature",
      "id": 207522,
      "geometry": {
        "type": "Point",
        "coordinates": [
          -96.2774062998822,
          32.735651600031
        ]
      },
      "properties": {
        "OBJECTID": 207522,
        "CROSSING": "794778T",
        "EFFDATE": 1756425600000,
        "REASON": "14",
        "StateCode": "48",
        "CountyCode": "48257",
        "STCYFIPS": "48257",
        "CITYCD": "482576830",
        "RAILROAD": "UP",
        "RRDIV": "TEXOMA",
        "RRSUBDIV": "MINEOLA SUB",
        "HIGHWAY": "ST 0000",
        "STREET": "CATHERINE STREET",
        "TTSTN": "667426",
        "MILEPOST": "0182.590",
        "TYPEXING": "Public",
        "POSXING": "At Grade",
        "PRVCAT": "14",
        "INIT": "1",
        "LATITUDE": 32.7356516,
        "LONGITUD": -96.2774063,
        "LLSOURCE": "1",
        "WHISTBAN": "0",
        "RRCONT": "4025443721",
        "POLCONT": "8008488715",
        "INV_LINK": "https://safetydata.fra.dot.gov/OfficeofSafety/PublicSite/Crossing/Crossing.aspx?phasetype=C&rpttype=I&txtcrossingnum=794778T",
        "ACC_LINK": "https://safetydata.fra.dot.gov/OfficeofSafety/PublicSite/Crossing/Crossing.aspx?phasetype=C&rpttype=A&txtcrossingnum=794778T",
        "TTSTNNAM": "",
        "XPURPOSE": "1",
        "OPERATINGR": "UP",
        "OPERATIN_1": "Primary",
        "DAYTHRU": 12,
        "NGHTTHRU": 11,
        "MAINTRK": 1,
        "SIDINGTRK": 0,
        "YARDTRK": 0,
        "TRANSITTRK": 0,
        "INDUSTRYTR": 0,
        "OTHRTRK": 0,
        "WDCODE": "All other Gates",
        "REVISIONDA": "1975/01/01 00:00:00",
        "LASTUPDATE": "8/29/2025",
        "AADT": "342",
        "AADTYEAR": "2019",
        "STATENAME": "TEXAS",
        "STATEAB": "TX",
        "COUNTYNAME": "KAUFMAN",
        "CITYNAME": "TERRELL",
        "LATDD": 32.7356516,
        "LONGDD": -96.2774063,
        "gridlyProductionCertified": true,
        "gridlyClassification": "PUBLIC_ROADWAY",
        "gridlyDisplayName": "CATHERINE STREET",
        "gridlyId": "FRA-794778T"
      }
    },
    {
      "type": "Feature",
      "id": 207524,
      "geometry": {
        "type": "Point",
        "coordinates": [
          -96.2784829999205,
          32.7357834998962
        ]
      },
      "properties": {
        "OBJECTID": 207524,
        "CROSSING": "794779A",
        "EFFDATE": 1756425600000,
        "REASON": "14",
        "StateCode": "48",
        "CountyCode": "48257",
        "STCYFIPS": "48257",
        "CITYCD": "482576830",
        "RAILROAD": "UP",
        "RRDIV": "TEXOMA",
        "RRSUBDIV": "MINEOLA SUB",
        "HIGHWAY": "ST 0000",
        "STREET": "FRANCES STREET",
        "TTSTN": "667426",
        "MILEPOST": "0182.650",
        "TYPEXING": "Public",
        "POSXING": "At Grade",
        "PRVCAT": "14",
        "INIT": "1",
        "LATITUDE": 32.7357835,
        "LONGITUD": -96.278483,
        "LLSOURCE": "1",
        "WHISTBAN": "0",
        "RRCONT": "4025443721",
        "POLCONT": "8008488715",
        "INV_LINK": "https://safetydata.fra.dot.gov/OfficeofSafety/PublicSite/Crossing/Crossing.aspx?phasetype=C&rpttype=I&txtcrossingnum=794779A",
        "ACC_LINK": "https://safetydata.fra.dot.gov/OfficeofSafety/PublicSite/Crossing/Crossing.aspx?phasetype=C&rpttype=A&txtcrossingnum=794779A",
        "TTSTNNAM": "",
        "XPURPOSE": "1",
        "OPERATINGR": "UP",
        "OPERATIN_1": "Primary",
        "DAYTHRU": 12,
        "NGHTTHRU": 11,
        "MAINTRK": 1,
        "SIDINGTRK": 0,
        "YARDTRK": 0,
        "TRANSITTRK": 0,
        "INDUSTRYTR": 0,
        "OTHRTRK": 0,
        "WDCODE": "All other Gates",
        "REVISIONDA": "1975/01/01 00:00:00",
        "LASTUPDATE": "8/29/2025",
        "AADT": "565",
        "AADTYEAR": "2019",
        "STATENAME": "TEXAS",
        "STATEAB": "TX",
        "COUNTYNAME": "KAUFMAN",
        "CITYNAME": "TERRELL",
        "LATDD": 32.7357835,
        "LONGDD": -96.278483,
        "gridlyProductionCertified": true,
        "gridlyClassification": "PUBLIC_ROADWAY",
        "gridlyDisplayName": "FRANCES STREET",
        "gridlyId": "FRA-794779A"
      }
    },
    {
      "type": "Feature",
      "id": 207534,
      "geometry": {
        "type": "Point",
        "coordinates": [
          -96.2807995996297,
          32.7360569001579
        ]
      },
      "properties": {
        "OBJECTID": 207534,
        "CROSSING": "794780U",
        "EFFDATE": 1756425600000,
        "REASON": "14",
        "StateCode": "48",
        "CountyCode": "48257",
        "STCYFIPS": "48257",
        "CITYCD": "482576830",
        "RAILROAD": "UP",
        "RRDIV": "TEXOMA",
        "RRSUBDIV": "MINEOLA SUB",
        "HIGHWAY": "CO 0309",
        "STREET": "SOUTH ROCKWALL AVENUE",
        "TTSTN": "667426",
        "MILEPOST": "0182.770",
        "TYPEXING": "Public",
        "POSXING": "At Grade",
        "PRVCAT": "14",
        "INIT": "1",
        "LATITUDE": 32.7360569,
        "LONGITUD": -96.2807996,
        "LLSOURCE": "1",
        "WHISTBAN": "0",
        "RRCONT": "4025443721",
        "POLCONT": "8008488715",
        "INV_LINK": "https://safetydata.fra.dot.gov/OfficeofSafety/PublicSite/Crossing/Crossing.aspx?phasetype=C&rpttype=I&txtcrossingnum=794780U",
        "ACC_LINK": "https://safetydata.fra.dot.gov/OfficeofSafety/PublicSite/Crossing/Crossing.aspx?phasetype=C&rpttype=A&txtcrossingnum=794780U",
        "TTSTNNAM": "",
        "XPURPOSE": "1",
        "OPERATINGR": "UP",
        "OPERATIN_1": "Primary",
        "DAYTHRU": 12,
        "NGHTTHRU": 11,
        "MAINTRK": 1,
        "SIDINGTRK": 0,
        "YARDTRK": 0,
        "TRANSITTRK": 0,
        "INDUSTRYTR": 0,
        "OTHRTRK": 0,
        "WDCODE": "All other Gates",
        "REVISIONDA": "1975/01/01 00:00:00",
        "LASTUPDATE": "8/29/2025",
        "AADT": "5836",
        "AADTYEAR": "2019",
        "STATENAME": "TEXAS",
        "STATEAB": "TX",
        "COUNTYNAME": "KAUFMAN",
        "CITYNAME": "TERRELL",
        "LATDD": 32.7360569,
        "LONGDD": -96.2807996,
        "gridlyProductionCertified": true,
        "gridlyClassification": "PUBLIC_ROADWAY",
        "gridlyDisplayName": "SOUTH ROCKWALL AVENUE",
        "gridlyId": "FRA-794780U"
      }
    },
    {
      "type": "Feature",
      "id": 207535,
      "geometry": {
        "type": "Point",
        "coordinates": [
          -96.2849799996359,
          32.73620899982
        ]
      },
      "properties": {
        "OBJECTID": 207535,
        "CROSSING": "794783P",
        "EFFDATE": 1756425600000,
        "REASON": "14",
        "StateCode": "48",
        "CountyCode": "48257",
        "STCYFIPS": "48257",
        "CITYCD": "482576830",
        "RAILROAD": "UP",
        "RRDIV": "TEXOMA",
        "RRSUBDIV": "MINEOLA SUB",
        "HIGHWAY": "ST 0000",
        "STREET": "BOWSER Circle",
        "TTSTN": "667426",
        "MILEPOST": "0183.000",
        "TYPEXING": "Public",
        "POSXING": "At Grade",
        "PRVCAT": "14",
        "INIT": "1",
        "LATITUDE": 32.736209,
        "LONGITUD": -96.28498,
        "LLSOURCE": "1",
        "WHISTBAN": "0",
        "RRCONT": "4025443721",
        "POLCONT": "8008488715",
        "INV_LINK": "https://safetydata.fra.dot.gov/OfficeofSafety/PublicSite/Crossing/Crossing.aspx?phasetype=C&rpttype=I&txtcrossingnum=794783P",
        "ACC_LINK": "https://safetydata.fra.dot.gov/OfficeofSafety/PublicSite/Crossing/Crossing.aspx?phasetype=C&rpttype=A&txtcrossingnum=794783P",
        "TTSTNNAM": "",
        "XPURPOSE": "1",
        "OPERATINGR": "UP",
        "OPERATIN_1": "Primary",
        "DAYTHRU": 12,
        "NGHTTHRU": 11,
        "MAINTRK": 1,
        "SIDINGTRK": 0,
        "YARDTRK": 0,
        "TRANSITTRK": 0,
        "INDUSTRYTR": 0,
        "OTHRTRK": 0,
        "WDCODE": "All other Gates",
        "REVISIONDA": "1975/01/01 00:00:00",
        "LASTUPDATE": "8/29/2025",
        "AADT": "445",
        "AADTYEAR": "2019",
        "STATENAME": "TEXAS",
        "STATEAB": "TX",
        "COUNTYNAME": "KAUFMAN",
        "CITYNAME": "TERRELL",
        "LATDD": 32.736209,
        "LONGDD": -96.28498,
        "gridlyProductionCertified": true,
        "gridlyClassification": "PUBLIC_ROADWAY",
        "gridlyDisplayName": "BOWSER Circle",
        "gridlyId": "FRA-794783P"
      }
    },
    {
      "type": "Feature",
      "id": 207537,
      "geometry": {
        "type": "Point",
        "coordinates": [
          -96.2897301004155,
          32.7363504999457
        ]
      },
      "properties": {
        "OBJECTID": 207537,
        "CROSSING": "794784W",
        "EFFDATE": 1756425600000,
        "REASON": "14",
        "StateCode": "48",
        "CountyCode": "48257",
        "STCYFIPS": "48257",
        "CITYCD": "482576830",
        "RAILROAD": "UP",
        "RRDIV": "TEXOMA",
        "RRSUBDIV": "MINEOLA SUB",
        "HIGHWAY": "ST 0000",
        "STREET": "BRADSHAW STREET",
        "TTSTN": "667426",
        "MILEPOST": "0183.300",
        "TYPEXING": "Public",
        "POSXING": "At Grade",
        "PRVCAT": "14",
        "INIT": "1",
        "LATITUDE": 32.7363505,
        "LONGITUD": -96.2897301,
        "LLSOURCE": "1",
        "WHISTBAN": "0",
        "RRCONT": "4025443721",
        "POLCONT": "8008488715",
        "INV_LINK": "https://safetydata.fra.dot.gov/OfficeofSafety/PublicSite/Crossing/Crossing.aspx?phasetype=C&rpttype=I&txtcrossingnum=794784W",
        "ACC_LINK": "https://safetydata.fra.dot.gov/OfficeofSafety/PublicSite/Crossing/Crossing.aspx?phasetype=C&rpttype=A&txtcrossingnum=794784W",
        "TTSTNNAM": "",
        "XPURPOSE": "1",
        "OPERATINGR": "UP",
        "OPERATIN_1": "Primary",
        "DAYTHRU": 12,
        "NGHTTHRU": 11,
        "MAINTRK": 1,
        "SIDINGTRK": 0,
        "YARDTRK": 0,
        "TRANSITTRK": 0,
        "INDUSTRYTR": 0,
        "OTHRTRK": 0,
        "WDCODE": "All other Gates",
        "REVISIONDA": "1975/01/01 00:00:00",
        "LASTUPDATE": "8/29/2025",
        "AADT": "1866",
        "AADTYEAR": "2019",
        "STATENAME": "TEXAS",
        "STATEAB": "TX",
        "COUNTYNAME": "KAUFMAN",
        "CITYNAME": "TERRELL",
        "LATDD": 32.7363505,
        "LONGDD": -96.2897301,
        "gridlyProductionCertified": true,
        "gridlyClassification": "PUBLIC_ROADWAY",
        "gridlyDisplayName": "BRADSHAW STREET",
        "gridlyId": "FRA-794784W"
      }
    },
    {
      "type": "Feature",
      "id": 207548,
      "geometry": {
        "type": "Point",
        "coordinates": [
          -96.315793900019,
          32.7371069996634
        ]
      },
      "properties": {
        "OBJECTID": 207548,
        "CROSSING": "794787S",
        "EFFDATE": 1756425600000,
        "REASON": "14",
        "StateCode": "48",
        "CountyCode": "48257",
        "STCYFIPS": "48257",
        "CITYCD": "482576830",
        "RAILROAD": "UP",
        "RRDIV": "TEXOMA",
        "RRSUBDIV": "MINEOLA SUB",
        "HIGHWAY": "NA",
        "STREET": "PRIVATE",
        "TTSTN": "667426",
        "MILEPOST": "0184.826",
        "TYPEXING": "Private",
        "POSXING": "At Grade",
        "PRVCAT": "14",
        "INIT": "1",
        "LATITUDE": 32.737107,
        "LONGITUD": -96.3157939,
        "LLSOURCE": "1",
        "WHISTBAN": "0",
        "RRCONT": "4025443721",
        "POLCONT": "8008488715",
        "INV_LINK": "https://safetydata.fra.dot.gov/OfficeofSafety/PublicSite/Crossing/Crossing.aspx?phasetype=C&rpttype=I&txtcrossingnum=794787S",
        "ACC_LINK": "https://safetydata.fra.dot.gov/OfficeofSafety/PublicSite/Crossing/Crossing.aspx?phasetype=C&rpttype=A&txtcrossingnum=794787S",
        "TTSTNNAM": "",
        "XPURPOSE": "1",
        "OPERATINGR": "UP",
        "OPERATIN_1": "Primary",
        "DAYTHRU": 12,
        "NGHTTHRU": 11,
        "MAINTRK": 1,
        "SIDINGTRK": 0,
        "YARDTRK": 0,
        "TRANSITTRK": 0,
        "INDUSTRYTR": 0,
        "OTHRTRK": 0,
        "WDCODE": "",
        "REVISIONDA": "1975/01/01 00:00:00",
        "LASTUPDATE": "8/29/2025",
        "AADT": "1",
        "AADTYEAR": "1970",
        "STATENAME": "TEXAS",
        "STATEAB": "TX",
        "COUNTYNAME": "KAUFMAN",
        "CITYNAME": "TERRELL",
        "LATDD": 32.737107,
        "LONGDD": -96.3157939,
        "gridlyProductionCertified": true,
        "gridlyClassification": "PUBLIC_ROADWAY",
        "gridlyDisplayName": "PRIVATE",
        "gridlyId": "FRA-794787S"
      }
    },
    {
      "type": "Feature",
      "id": 207549,
      "geometry": {
        "type": "Point",
        "coordinates": [
          -96.3222000001091,
          32.7372910000677
        ]
      },
      "properties": {
        "OBJECTID": 207549,
        "CROSSING": "794788Y",
        "EFFDATE": 1756425600000,
        "REASON": "14",
        "StateCode": "48",
        "CountyCode": "48257",
        "STCYFIPS": "48257",
        "CITYCD": "482576830",
        "RAILROAD": "UP",
        "RRDIV": "Texoma",
        "RRSUBDIV": "Mineola Sub",
        "HIGHWAY": "CO 0000",
        "STREET": "Metro Drive",
        "TTSTN": "667426",
        "MILEPOST": "0185.195",
        "TYPEXING": "Public",
        "POSXING": "At Grade",
        "PRVCAT": "14",
        "INIT": "1",
        "LATITUDE": 32.737291,
        "LONGITUD": -96.3222,
        "LLSOURCE": "1",
        "WHISTBAN": "0",
        "RRCONT": "4025443721",
        "POLCONT": "8008488715",
        "INV_LINK": "https://safetydata.fra.dot.gov/OfficeofSafety/PublicSite/Crossing/Crossing.aspx?phasetype=C&rpttype=I&txtcrossingnum=794788Y",
        "ACC_LINK": "https://safetydata.fra.dot.gov/OfficeofSafety/PublicSite/Crossing/Crossing.aspx?phasetype=C&rpttype=A&txtcrossingnum=794788Y",
        "TTSTNNAM": "",
        "XPURPOSE": "1",
        "OPERATINGR": "UP",
        "OPERATIN_1": "Primary",
        "DAYTHRU": 12,
        "NGHTTHRU": 11,
        "MAINTRK": 1,
        "SIDINGTRK": 0,
        "YARDTRK": 0,
        "TRANSITTRK": 0,
        "INDUSTRYTR": 1,
        "OTHRTRK": 0,
        "WDCODE": "All other Gates",
        "REVISIONDA": "1975/01/01 00:00:00",
        "LASTUPDATE": "8/29/2025",
        "AADT": "154",
        "AADTYEAR": "2019",
        "STATENAME": "TEXAS",
        "STATEAB": "TX",
        "COUNTYNAME": "KAUFMAN",
        "CITYNAME": "TERRELL",
        "LATDD": 32.737291,
        "LONGDD": -96.3222,
        "gridlyProductionCertified": true,
        "gridlyClassification": "PUBLIC_ROADWAY",
        "gridlyDisplayName": "Metro Drive",
        "gridlyId": "FRA-794788Y"
      }
    },
    {
      "type": "Feature",
      "id": 207597,
      "geometry": {
        "type": "Point",
        "coordinates": [
          -96.1671574996718,
          32.7220861996681
        ]
      },
      "properties": {
        "OBJECTID": 207597,
        "CROSSING": "794760H",
        "EFFDATE": 1756425600000,
        "REASON": "14",
        "StateCode": "48",
        "CountyCode": "48257",
        "STCYFIPS": "48257",
        "CITYCD": "482572188",
        "RAILROAD": "UP",
        "RRDIV": "TEXOMA",
        "RRSUBDIV": "MINEOLA SUB",
        "HIGHWAY": "CO 0352",
        "STREET": "CR 352",
        "TTSTN": "667426",
        "MILEPOST": "0176.020",
        "TYPEXING": "Public",
        "POSXING": "At Grade",
        "PRVCAT": "14",
        "INIT": "1",
        "LATITUDE": 32.7220862,
        "LONGITUD": -96.1671575,
        "LLSOURCE": "1",
        "WHISTBAN": "0",
        "RRCONT": "4025443721",
        "POLCONT": "8008488715",
        "INV_LINK": "https://safetydata.fra.dot.gov/OfficeofSafety/PublicSite/Crossing/Crossing.aspx?phasetype=C&rpttype=I&txtcrossingnum=794760H",
        "ACC_LINK": "https://safetydata.fra.dot.gov/OfficeofSafety/PublicSite/Crossing/Crossing.aspx?phasetype=C&rpttype=A&txtcrossingnum=794760H",
        "TTSTNNAM": "",
        "XPURPOSE": "1",
        "OPERATINGR": "UP",
        "OPERATIN_1": "Primary",
        "DAYTHRU": 12,
        "NGHTTHRU": 11,
        "MAINTRK": 1,
        "SIDINGTRK": 1,
        "YARDTRK": 0,
        "TRANSITTRK": 0,
        "INDUSTRYTR": 0,
        "OTHRTRK": 1,
        "WDCODE": "All other Gates",
        "REVISIONDA": "1975/01/01 00:00:00",
        "LASTUPDATE": "8/29/2025",
        "AADT": "428",
        "AADTYEAR": "2019",
        "STATENAME": "TEXAS",
        "STATEAB": "TX",
        "COUNTYNAME": "KAUFMAN",
        "CITYNAME": "ELMO",
        "LATDD": 32.7220862,
        "LONGDD": -96.1671575,
        "gridlyProductionCertified": true,
        "gridlyClassification": "PUBLIC_ROADWAY",
        "gridlyDisplayName": "CR 352",
        "gridlyId": "FRA-794760H"
      }
    },
    {
      "type": "Feature",
      "id": 207652,
      "geometry": {
        "type": "Point",
        "coordinates": [
          -96.282956500441,
          32.7361431998426
        ]
      },
      "properties": {
        "OBJECTID": 207652,
        "CROSSING": "794782H",
        "EFFDATE": 1757548800000,
        "REASON": "14",
        "StateCode": "48",
        "CountyCode": "48257",
        "STCYFIPS": "48257",
        "CITYCD": "482576830",
        "RAILROAD": "UP",
        "RRDIV": "TEXOMA",
        "RRSUBDIV": "MINEOLA SUB",
        "HIGHWAY": "ST 0000",
        "STREET": "ANN STREET",
        "TTSTN": "667426",
        "MILEPOST": "0182.890",
        "TYPEXING": "Public",
        "POSXING": "At Grade",
        "PRVCAT": "14",
        "INIT": "1",
        "LATITUDE": 32.7361432,
        "LONGITUD": -96.2829565,
        "LLSOURCE": "1",
        "WHISTBAN": "0",
        "RRCONT": "4025443721",
        "POLCONT": "8008488715",
        "INV_LINK": "https://safetydata.fra.dot.gov/OfficeofSafety/PublicSite/Crossing/Crossing.aspx?phasetype=C&rpttype=I&txtcrossingnum=794782H",
        "ACC_LINK": "https://safetydata.fra.dot.gov/OfficeofSafety/PublicSite/Crossing/Crossing.aspx?phasetype=C&rpttype=A&txtcrossingnum=794782H",
        "TTSTNNAM": "",
        "XPURPOSE": "1",
        "OPERATINGR": "UP",
        "OPERATIN_1": "Primary",
        "DAYTHRU": 12,
        "NGHTTHRU": 11,
        "MAINTRK": 1,
        "SIDINGTRK": 0,
        "YARDTRK": 0,
        "TRANSITTRK": 0,
        "INDUSTRYTR": 0,
        "OTHRTRK": 0,
        "WDCODE": "All other Gates",
        "REVISIONDA": "1975/01/01 00:00:00",
        "LASTUPDATE": "9/11/2025",
        "AADT": "331",
        "AADTYEAR": "2019",
        "STATENAME": "TEXAS",
        "STATEAB": "TX",
        "COUNTYNAME": "KAUFMAN",
        "CITYNAME": "TERRELL",
        "LATDD": 32.7361432,
        "LONGDD": -96.2829565,
        "gridlyProductionCertified": true,
        "gridlyClassification": "PUBLIC_ROADWAY",
        "gridlyDisplayName": "ANN STREET",
        "gridlyId": "FRA-794782H"
      }
    },
    {
      "type": "Feature",
      "id": 207662,
      "geometry": {
        "type": "Point",
        "coordinates": [
          -96.2752565002533,
          32.735388099705
        ]
      },
      "properties": {
        "OBJECTID": 207662,
        "CROSSING": "794775X",
        "EFFDATE": 1758067200000,
        "REASON": "14",
        "StateCode": "48",
        "CountyCode": "48257",
        "STCYFIPS": "48257",
        "CITYCD": "482576830",
        "RAILROAD": "UP",
        "RRDIV": "TEXOMA",
        "RRSUBDIV": "MINEOLA SUB",
        "HIGHWAY": "TBD",
        "STREET": "TX 34",
        "TTSTN": "667426",
        "MILEPOST": "0182.460",
        "TYPEXING": "Public",
        "POSXING": "At Grade",
        "PRVCAT": "14",
        "INIT": "1",
        "LATITUDE": 32.7353881,
        "LONGITUD": -96.2752565,
        "LLSOURCE": "1",
        "WHISTBAN": "0",
        "RRCONT": "4025443721",
        "POLCONT": "8008488715",
        "INV_LINK": "https://safetydata.fra.dot.gov/OfficeofSafety/PublicSite/Crossing/Crossing.aspx?phasetype=C&rpttype=I&txtcrossingnum=794775X",
        "ACC_LINK": "https://safetydata.fra.dot.gov/OfficeofSafety/PublicSite/Crossing/Crossing.aspx?phasetype=C&rpttype=A&txtcrossingnum=794775X",
        "TTSTNNAM": "",
        "XPURPOSE": "1",
        "OPERATINGR": "UP",
        "OPERATIN_1": "Primary",
        "DAYTHRU": 12,
        "NGHTTHRU": 11,
        "MAINTRK": 1,
        "SIDINGTRK": 0,
        "YARDTRK": 0,
        "TRANSITTRK": 0,
        "INDUSTRYTR": 0,
        "OTHRTRK": 0,
        "WDCODE": "All other Gates",
        "REVISIONDA": "1975/01/01 00:00:00",
        "LASTUPDATE": "9/17/2025",
        "AADT": "7857",
        "AADTYEAR": "2019",
        "STATENAME": "TEXAS",
        "STATEAB": "TX",
        "COUNTYNAME": "KAUFMAN",
        "CITYNAME": "TERRELL",
        "LATDD": 32.7353881,
        "LONGDD": -96.2752565,
        "gridlyProductionCertified": true,
        "gridlyClassification": "PUBLIC_ROADWAY",
        "gridlyDisplayName": "TX 34",
        "gridlyId": "FRA-794775X"
      }
    },
    {
      "type": "Feature",
      "id": 207898,
      "geometry": {
        "type": "Point",
        "coordinates": [
          -96.4712800999347,
          32.7484533999266
        ]
      },
      "properties": {
        "OBJECTID": 207898,
        "CROSSING": "794805M",
        "EFFDATE": 1757289600000,
        "REASON": "14",
        "StateCode": "48",
        "CountyCode": "48257",
        "STCYFIPS": "48257",
        "CITYCD": "482572430",
        "RAILROAD": "UP",
        "RRDIV": "TEXOMA",
        "RRSUBDIV": "MINEOLA SUB",
        "HIGHWAY": "FM 0740",
        "STREET": "FM 0740 S BOIS D'ARC ST",
        "TTSTN": "667433",
        "MILEPOST": "0194.050",
        "TYPEXING": "Public",
        "POSXING": "At Grade",
        "PRVCAT": "14",
        "INIT": "1",
        "LATITUDE": 32.7484534,
        "LONGITUD": -96.4712801,
        "LLSOURCE": "1",
        "WHISTBAN": "1",
        "RRCONT": "4025443721",
        "POLCONT": "8008488715",
        "INV_LINK": "https://safetydata.fra.dot.gov/OfficeofSafety/PublicSite/Crossing/Crossing.aspx?phasetype=C&rpttype=I&txtcrossingnum=794805M",
        "ACC_LINK": "https://safetydata.fra.dot.gov/OfficeofSafety/PublicSite/Crossing/Crossing.aspx?phasetype=C&rpttype=A&txtcrossingnum=794805M",
        "TTSTNNAM": "",
        "XPURPOSE": "1",
        "OPERATINGR": "UP",
        "OPERATIN_1": "Primary",
        "DAYTHRU": 10,
        "NGHTTHRU": 9,
        "MAINTRK": 1,
        "SIDINGTRK": 0,
        "YARDTRK": 0,
        "TRANSITTRK": 0,
        "INDUSTRYTR": 0,
        "OTHRTRK": 0,
        "WDCODE": "All other Gates",
        "REVISIONDA": "1975/01/01 00:00:00",
        "LASTUPDATE": "9/8/2025",
        "AADT": "013175",
        "AADTYEAR": "2022",
        "STATENAME": "TEXAS",
        "STATEAB": "TX",
        "COUNTYNAME": "KAUFMAN",
        "CITYNAME": "FORNEY",
        "LATDD": 32.7484534,
        "LONGDD": -96.4712801,
        "gridlyProductionCertified": true,
        "gridlyClassification": "PUBLIC_ROADWAY",
        "gridlyDisplayName": "FM 0740 S BOIS D'ARC ST",
        "gridlyId": "FRA-794805M"
      }
    },
    {
      "type": "Feature",
      "id": 207936,
      "geometry": {
        "type": "Point",
        "coordinates": [
          -96.2763536001334,
          32.7355231003551
        ]
      },
      "properties": {
        "OBJECTID": 207936,
        "CROSSING": "794776E",
        "EFFDATE": 1757289600000,
        "REASON": "14",
        "StateCode": "48",
        "CountyCode": "48257",
        "STCYFIPS": "48257",
        "CITYCD": "482576830",
        "RAILROAD": "UP",
        "RRDIV": "TEXOMA",
        "RRSUBDIV": "MINEOLA SUB",
        "HIGHWAY": "ST 0000",
        "STREET": "ADELAIDE STREET",
        "TTSTN": "667426",
        "MILEPOST": "0182.540",
        "TYPEXING": "Public",
        "POSXING": "At Grade",
        "PRVCAT": "14",
        "INIT": "1",
        "LATITUDE": 32.7355231,
        "LONGITUD": -96.2763536,
        "LLSOURCE": "1",
        "WHISTBAN": "0",
        "RRCONT": "4025443721",
        "POLCONT": "8008488715",
        "INV_LINK": "https://safetydata.fra.dot.gov/OfficeofSafety/PublicSite/Crossing/Crossing.aspx?phasetype=C&rpttype=I&txtcrossingnum=794776E",
        "ACC_LINK": "https://safetydata.fra.dot.gov/OfficeofSafety/PublicSite/Crossing/Crossing.aspx?phasetype=C&rpttype=A&txtcrossingnum=794776E",
        "TTSTNNAM": "",
        "XPURPOSE": "1",
        "OPERATINGR": "UP",
        "OPERATIN_1": "Primary",
        "DAYTHRU": 12,
        "NGHTTHRU": 11,
        "MAINTRK": 1,
        "SIDINGTRK": 0,
        "YARDTRK": 0,
        "TRANSITTRK": 0,
        "INDUSTRYTR": 0,
        "OTHRTRK": 0,
        "WDCODE": "All other Gates",
        "REVISIONDA": "1975/01/01 00:00:00",
        "LASTUPDATE": "9/8/2025",
        "AADT": "783",
        "AADTYEAR": "2019",
        "STATENAME": "TEXAS",
        "STATEAB": "TX",
        "COUNTYNAME": "KAUFMAN",
        "CITYNAME": "TERRELL",
        "LATDD": 32.7355231,
        "LONGDD": -96.2763536,
        "gridlyProductionCertified": true,
        "gridlyClassification": "PUBLIC_ROADWAY",
        "gridlyDisplayName": "ADELAIDE STREET",
        "gridlyId": "FRA-794776E"
      }
    },
    {
      "type": "Feature",
      "id": 211853,
      "geometry": {
        "type": "Point",
        "coordinates": [
          -96.2729899995875,
          32.7340300002428
        ]
      },
      "properties": {
        "OBJECTID": 211853,
        "CROSSING": "794771V",
        "EFFDATE": 1758499200000,
        "REASON": "14",
        "StateCode": "48",
        "CountyCode": "48257",
        "STCYFIPS": "48257",
        "CITYCD": "482576830",
        "RAILROAD": "UP",
        "RRDIV": "TEXOMA",
        "RRSUBDIV": "MINEOLA SUB",
        "HIGHWAY": "ST 0000",
        "STREET": "EAST GROVE STREET",
        "TTSTN": "667426",
        "MILEPOST": "0182.294",
        "TYPEXING": "Public",
        "POSXING": "At Grade",
        "PRVCAT": "14",
        "INIT": "1",
        "LATITUDE": 32.73403,
        "LONGITUD": -96.27299,
        "LLSOURCE": "1",
        "WHISTBAN": "0",
        "RRCONT": "4025443721",
        "POLCONT": "8008488715",
        "INV_LINK": "https://safetydata.fra.dot.gov/OfficeofSafety/PublicSite/Crossing/Crossing.aspx?phasetype=C&rpttype=I&txtcrossingnum=794771V",
        "ACC_LINK": "https://safetydata.fra.dot.gov/OfficeofSafety/PublicSite/Crossing/Crossing.aspx?phasetype=C&rpttype=A&txtcrossingnum=794771V",
        "TTSTNNAM": "",
        "XPURPOSE": "1",
        "OPERATINGR": "UP",
        "OPERATIN_1": "Primary",
        "DAYTHRU": 0,
        "NGHTTHRU": 0,
        "MAINTRK": 0,
        "SIDINGTRK": 0,
        "YARDTRK": 0,
        "TRANSITTRK": 0,
        "INDUSTRYTR": 1,
        "OTHRTRK": 1,
        "WDCODE": "Crossbucks",
        "REVISIONDA": "1975/01/01 00:00:00",
        "LASTUPDATE": "9/22/2025",
        "AADT": "530",
        "AADTYEAR": "2019",
        "STATENAME": "TEXAS",
        "STATEAB": "TX",
        "COUNTYNAME": "KAUFMAN",
        "CITYNAME": "TERRELL",
        "LATDD": 32.73403,
        "LONGDD": -96.27299,
        "gridlyProductionCertified": true,
        "gridlyClassification": "PUBLIC_ROADWAY",
        "gridlyDisplayName": "EAST GROVE STREET",
        "gridlyId": "FRA-794771V"
      }
    },
    {
      "type": "Feature",
      "id": 211854,
      "geometry": {
        "type": "Point",
        "coordinates": [
          -96.2740270003784,
          32.7296710001914
        ]
      },
      "properties": {
        "OBJECTID": 211854,
        "CROSSING": "794772C",
        "EFFDATE": 1758499200000,
        "REASON": "14",
        "StateCode": "48",
        "CountyCode": "48257",
        "STCYFIPS": "48257",
        "CITYCD": "482576830",
        "RAILROAD": "UP",
        "RRDIV": "TEXOMA",
        "RRSUBDIV": "MINEOLA SUB",
        "HIGHWAY": "TBD",
        "STREET": "TEMPLE STREET",
        "TTSTN": "667426",
        "MILEPOST": "0181.987",
        "TYPEXING": "Public",
        "POSXING": "At Grade",
        "PRVCAT": "14",
        "INIT": "1",
        "LATITUDE": 32.729671,
        "LONGITUD": -96.274027,
        "LLSOURCE": "1",
        "WHISTBAN": "0",
        "RRCONT": "4025443721",
        "POLCONT": "8008488715",
        "INV_LINK": "https://safetydata.fra.dot.gov/OfficeofSafety/PublicSite/Crossing/Crossing.aspx?phasetype=C&rpttype=I&txtcrossingnum=794772C",
        "ACC_LINK": "https://safetydata.fra.dot.gov/OfficeofSafety/PublicSite/Crossing/Crossing.aspx?phasetype=C&rpttype=A&txtcrossingnum=794772C",
        "TTSTNNAM": "",
        "XPURPOSE": "1",
        "OPERATINGR": "UP",
        "OPERATIN_1": "Primary",
        "DAYTHRU": 0,
        "NGHTTHRU": 0,
        "MAINTRK": 0,
        "SIDINGTRK": 0,
        "YARDTRK": 0,
        "TRANSITTRK": 0,
        "INDUSTRYTR": 1,
        "OTHRTRK": 0,
        "WDCODE": "Crossbucks",
        "REVISIONDA": "1975/01/01 00:00:00",
        "LASTUPDATE": "9/22/2025",
        "AADT": "",
        "AADTYEAR": "1970",
        "STATENAME": "TEXAS",
        "STATEAB": "TX",
        "COUNTYNAME": "KAUFMAN",
        "CITYNAME": "TERRELL",
        "LATDD": 32.729671,
        "LONGDD": -96.274027,
        "gridlyProductionCertified": true,
        "gridlyClassification": "PUBLIC_ROADWAY",
        "gridlyDisplayName": "TEMPLE STREET",
        "gridlyId": "FRA-794772C"
      }
    },
    {
      "type": "Feature",
      "id": 211888,
      "geometry": {
        "type": "Point",
        "coordinates": [
          -96.2748859999958,
          32.7245769999072
        ]
      },
      "properties": {
        "OBJECTID": 211888,
        "CROSSING": "794773J",
        "EFFDATE": 1758499200000,
        "REASON": "14",
        "StateCode": "48",
        "CountyCode": "48257",
        "STCYFIPS": "48257",
        "CITYCD": "482576830",
        "RAILROAD": "UP",
        "RRDIV": "TEXOMA",
        "RRSUBDIV": "MINEOLA SUB",
        "HIGHWAY": "TBD",
        "STREET": "Airport Road",
        "TTSTN": "667426",
        "MILEPOST": "0181.631",
        "TYPEXING": "Public",
        "POSXING": "At Grade",
        "PRVCAT": "14",
        "INIT": "1",
        "LATITUDE": 32.724577,
        "LONGITUD": -96.274886,
        "LLSOURCE": "1",
        "WHISTBAN": "0",
        "RRCONT": "4025443721",
        "POLCONT": "8008488715",
        "INV_LINK": "https://safetydata.fra.dot.gov/OfficeofSafety/PublicSite/Crossing/Crossing.aspx?phasetype=C&rpttype=I&txtcrossingnum=794773J",
        "ACC_LINK": "https://safetydata.fra.dot.gov/OfficeofSafety/PublicSite/Crossing/Crossing.aspx?phasetype=C&rpttype=A&txtcrossingnum=794773J",
        "TTSTNNAM": "",
        "XPURPOSE": "1",
        "OPERATINGR": "UP",
        "OPERATIN_1": "Primary",
        "DAYTHRU": 0,
        "NGHTTHRU": 0,
        "MAINTRK": 0,
        "SIDINGTRK": 0,
        "YARDTRK": 0,
        "TRANSITTRK": 0,
        "INDUSTRYTR": 1,
        "OTHRTRK": 1,
        "WDCODE": "Crossbucks",
        "REVISIONDA": "1975/01/01 00:00:00",
        "LASTUPDATE": "9/22/2025",
        "AADT": "4571",
        "AADTYEAR": "2019",
        "STATENAME": "TEXAS",
        "STATEAB": "TX",
        "COUNTYNAME": "KAUFMAN",
        "CITYNAME": "TERRELL",
        "LATDD": 32.724577,
        "LONGDD": -96.274886,
        "gridlyProductionCertified": true,
        "gridlyClassification": "PUBLIC_ROADWAY",
        "gridlyDisplayName": "Airport Road",
        "gridlyId": "FRA-794773J"
      }
    },
    {
      "type": "Feature",
      "id": 212852,
      "geometry": {
        "type": "Point",
        "coordinates": [
          -96.3029688997443,
          32.7367346996879
        ]
      },
      "properties": {
        "OBJECTID": 212852,
        "CROSSING": "794785D",
        "EFFDATE": 1764547200000,
        "REASON": "14",
        "StateCode": "48",
        "CountyCode": "48257",
        "STCYFIPS": "48257",
        "CITYCD": "482576830",
        "RAILROAD": "UP",
        "RRDIV": "TEXOMA",
        "RRSUBDIV": "MINEOLA SUB",
        "HIGHWAY": "FM 0148",
        "STREET": "FM 148",
        "TTSTN": "667426",
        "MILEPOST": "0184.090",
        "TYPEXING": "Public",
        "POSXING": "At Grade",
        "PRVCAT": "14",
        "INIT": "1",
        "LATITUDE": 32.7367347,
        "LONGITUD": -96.3029689,
        "LLSOURCE": "1",
        "WHISTBAN": "0",
        "RRCONT": "4025443721",
        "POLCONT": "8008488715",
        "INV_LINK": "https://safetydata.fra.dot.gov/OfficeofSafety/PublicSite/Crossing/Crossing.aspx?phasetype=C&rpttype=I&txtcrossingnum=794785D",
        "ACC_LINK": "https://safetydata.fra.dot.gov/OfficeofSafety/PublicSite/Crossing/Crossing.aspx?phasetype=C&rpttype=A&txtcrossingnum=794785D",
        "TTSTNNAM": "",
        "XPURPOSE": "1",
        "OPERATINGR": "UP",
        "OPERATIN_1": "Primary",
        "DAYTHRU": 12,
        "NGHTTHRU": 11,
        "MAINTRK": 1,
        "SIDINGTRK": 0,
        "YARDTRK": 0,
        "TRANSITTRK": 0,
        "INDUSTRYTR": 0,
        "OTHRTRK": 0,
        "WDCODE": "All other Gates",
        "REVISIONDA": "1975/01/01 00:00:00",
        "LASTUPDATE": "12/1/2025",
        "AADT": "12780",
        "AADTYEAR": "2019",
        "STATENAME": "TEXAS",
        "STATEAB": "TX",
        "COUNTYNAME": "KAUFMAN",
        "CITYNAME": "TERRELL",
        "LATDD": 32.7367347,
        "LONGDD": -96.3029689,
        "gridlyProductionCertified": true,
        "gridlyClassification": "PUBLIC_ROADWAY",
        "gridlyDisplayName": "FM 148",
        "gridlyId": "FRA-794785D"
      }
    },
    {
      "type": "Feature",
      "id": 213388,
      "geometry": {
        "type": "Point",
        "coordinates": [
          -96.4438449995921,
          32.7401060001299
        ]
      },
      "properties": {
        "OBJECTID": 213388,
        "CROSSING": "975165R",
        "EFFDATE": 1758585600000,
        "REASON": "14",
        "StateCode": "48",
        "CountyCode": "48257",
        "STCYFIPS": "48257",
        "CITYCD": "482572430",
        "RAILROAD": "UP",
        "RRDIV": "TEXOMA",
        "RRSUBDIV": "MINEOLA SUB",
        "HIGHWAY": "NA",
        "STREET": "ALL PRIVATE IN Industry - SMURFIT KAPPA",
        "TTSTN": "",
        "MILEPOST": "0192.275",
        "TYPEXING": "Private",
        "POSXING": "At Grade",
        "PRVCAT": "14",
        "INIT": "1",
        "LATITUDE": 32.740106,
        "LONGITUD": -96.443845,
        "LLSOURCE": "1",
        "WHISTBAN": "",
        "RRCONT": "4025443721",
        "POLCONT": "8008488715",
        "INV_LINK": "https://safetydata.fra.dot.gov/OfficeofSafety/PublicSite/Crossing/Crossing.aspx?phasetype=C&rpttype=I&txtcrossingnum=975165R",
        "ACC_LINK": "https://safetydata.fra.dot.gov/OfficeofSafety/PublicSite/Crossing/Crossing.aspx?phasetype=C&rpttype=A&txtcrossingnum=975165R",
        "TTSTNNAM": "",
        "XPURPOSE": "1",
        "OPERATINGR": "UP",
        "OPERATIN_1": "Primary",
        "DAYTHRU": 0,
        "NGHTTHRU": 0,
        "MAINTRK": 0,
        "SIDINGTRK": 0,
        "YARDTRK": 0,
        "TRANSITTRK": 0,
        "INDUSTRYTR": 1,
        "OTHRTRK": 0,
        "WDCODE": "",
        "REVISIONDA": "1975/01/01 00:00:00",
        "LASTUPDATE": "9/23/2025",
        "AADT": "",
        "AADTYEAR": "",
        "STATENAME": "TEXAS",
        "STATEAB": "TX",
        "COUNTYNAME": "KAUFMAN",
        "CITYNAME": "FORNEY",
        "LATDD": 32.740106,
        "LONGDD": -96.443845,
        "gridlyProductionCertified": true,
        "gridlyClassification": "PUBLIC_ROADWAY",
        "gridlyDisplayName": "ALL PRIVATE IN Industry - SMURFIT KAPPA",
        "gridlyId": "FRA-975165R"
      }
    }
  ]
}
