{
  "type": "FeatureCollection",
  "features": [
    {
      "type": "Feature",
      "id": 203179,
      "geometry": {
        "type": "Point",
        "coordinates": [
          -102.005829999594,
          34.3289899996723
        ]
      },
      "properties": {
        "OBJECTID": 203179,
        "CROSSING": "275942M",
        "EFFDATE": 1712534400000,
        "REASON": "20",
        "StateCode": "48",
        "CountyCode": "48069",
        "STCYFIPS": "48069",
        "CITYCD": "480693035",
        "RAILROAD": "LBWR",
        "RRDIV": "PLAINS",
        "RRSUBDIV": "DIMMITT",
        "HIGHWAY": "ST 0000",
        "STREET": "PRIVATE",
        "TTSTN": "674733",
        "MILEPOST": "0344.25",
        "TYPEXING": "Private",
        "POSXING": "At Grade",
        "PRVCAT": "20",
        "INIT": "1",
        "LATITUDE": 34.32899,
        "LONGITUD": -102.00583,
        "LLSOURCE": "2",
        "WHISTBAN": "0",
        "RRCONT": "8068550079",
        "POLCONT": "8663869321",
        "INV_LINK": "https://safetydata.fra.dot.gov/OfficeofSafety/PublicSite/Crossing/Crossing.aspx?phasetype=C&rpttype=I&txtcrossingnum=275942M",
        "ACC_LINK": "https://safetydata.fra.dot.gov/OfficeofSafety/PublicSite/Crossing/Crossing.aspx?phasetype=C&rpttype=A&txtcrossingnum=275942M",
        "TTSTNNAM": "EDMONSON",
        "XPURPOSE": "1",
        "OPERATINGR": "LBWR",
        "OPERATIN_1": "Primary",
        "DAYTHRU": 1,
        "NGHTTHRU": 0,
        "MAINTRK": 1,
        "SIDINGTRK": 0,
        "YARDTRK": 0,
        "TRANSITTRK": 0,
        "INDUSTRYTR": 0,
        "OTHRTRK": 0,
        "WDCODE": "",
        "REVISIONDA": "2015/06/18 00:00:00",
        "LASTUPDATE": "4/8/2024",
        "AADT": "",
        "AADTYEAR": "1970",
        "STATENAME": "TEXAS",
        "STATEAB": "TX",
        "COUNTYNAME": "CASTRO",
        "CITYNAME": "HART",
        "LATDD": 34.32899,
        "LONGDD": -102.00583,
        "gridlyProductionCertified": true,
        "gridlyClassification": "PUBLIC_ROADWAY",
        "gridlyDisplayName": "PRIVATE",
        "gridlyId": "FRA-275942M"
      }
    },
    {
      "type": "Feature",
      "id": 203180,
      "geometry": {
        "type": "Point",
        "coordinates": [
          -102.014820000292,
          34.3328699998329
        ]
      },
      "properties": {
        "OBJECTID": 203180,
        "CROSSING": "976466P",
        "EFFDATE": 1712534400000,
        "REASON": "20",
        "StateCode": "48",
        "CountyCode": "48069",
        "STCYFIPS": "48069",
        "CITYCD": "480693035",
        "RAILROAD": "LBWR",
        "RRDIV": "plains",
        "RRSUBDIV": "Dimmit",
        "HIGHWAY": "ST194",
        "STREET": "Private",
        "TTSTN": "",
        "MILEPOST": "0344.72",
        "TYPEXING": "Private",
        "POSXING": "At Grade",
        "PRVCAT": "20",
        "INIT": "1",
        "LATITUDE": 34.33287,
        "LONGITUD": -102.01482,
        "LLSOURCE": "1",
        "WHISTBAN": "",
        "RRCONT": "8068550079",
        "POLCONT": "8663869321",
        "INV_LINK": "https://safetydata.fra.dot.gov/OfficeofSafety/PublicSite/Crossing/Crossing.aspx?phasetype=C&rpttype=I&txtcrossingnum=976466P",
        "ACC_LINK": "https://safetydata.fra.dot.gov/OfficeofSafety/PublicSite/Crossing/Crossing.aspx?phasetype=C&rpttype=A&txtcrossingnum=976466P",
        "TTSTNNAM": "dimmit",
        "XPURPOSE": "1",
        "OPERATINGR": "LBWR",
        "OPERATIN_1": "Primary",
        "DAYTHRU": 1,
        "NGHTTHRU": 0,
        "MAINTRK": 1,
        "SIDINGTRK": 0,
        "YARDTRK": 0,
        "TRANSITTRK": 0,
        "INDUSTRYTR": 0,
        "OTHRTRK": 0,
        "WDCODE": "",
        "REVISIONDA": "2015/06/18 00:00:00",
        "LASTUPDATE": "4/8/2024",
        "AADT": "",
        "AADTYEAR": "",
        "STATENAME": "TEXAS",
        "STATEAB": "TX",
        "COUNTYNAME": "CASTRO",
        "CITYNAME": "HART",
        "LATDD": 34.33287,
        "LONGDD": -102.01482,
        "gridlyProductionCertified": true,
        "gridlyClassification": "PUBLIC_ROADWAY",
        "gridlyDisplayName": "Private",
        "gridlyId": "FRA-976466P"
      }
    },
    {
      "type": "Feature",
      "id": 203181,
      "geometry": {
        "type": "Point",
        "coordinates": [
          -102.03850059999,
          34.343124700313
        ]
      },
      "properties": {
        "OBJECTID": 203181,
        "CROSSING": "275940Y",
        "EFFDATE": 1712534400000,
        "REASON": "20",
        "StateCode": "48",
        "CountyCode": "48069",
        "STCYFIPS": "48069",
        "CITYCD": "480693035",
        "RAILROAD": "LBWR",
        "RRDIV": "PLAINS",
        "RRSUBDIV": "DIMMITT",
        "HIGHWAY": "CO 0529",
        "STREET": "CR 529",
        "TTSTN": "674570",
        "MILEPOST": "0346.27",
        "TYPEXING": "Public",
        "POSXING": "At Grade",
        "PRVCAT": "20",
        "INIT": "1",
        "LATITUDE": 34.3431247,
        "LONGITUD": -102.0385006,
        "LLSOURCE": "2",
        "WHISTBAN": "0",
        "RRCONT": "8068550079",
        "POLCONT": "8663869321",
        "INV_LINK": "https://safetydata.fra.dot.gov/OfficeofSafety/PublicSite/Crossing/Crossing.aspx?phasetype=C&rpttype=I&txtcrossingnum=275940Y",
        "ACC_LINK": "https://safetydata.fra.dot.gov/OfficeofSafety/PublicSite/Crossing/Crossing.aspx?phasetype=C&rpttype=A&txtcrossingnum=275940Y",
        "TTSTNNAM": "HART",
        "XPURPOSE": "1",
        "OPERATINGR": "LBWR",
        "OPERATIN_1": "Primary",
        "DAYTHRU": 1,
        "NGHTTHRU": 0,
        "MAINTRK": 1,
        "SIDINGTRK": 0,
        "YARDTRK": 0,
        "TRANSITTRK": 0,
        "INDUSTRYTR": 0,
        "OTHRTRK": 0,
        "WDCODE": "Crossbucks",
        "REVISIONDA": "2015/06/18 00:00:00",
        "LASTUPDATE": "4/8/2024",
        "AADT": "20",
        "AADTYEAR": "2019",
        "STATENAME": "TEXAS",
        "STATEAB": "TX",
        "COUNTYNAME": "CASTRO",
        "CITYNAME": "HART",
        "LATDD": 34.3431247,
        "LONGDD": -102.0385006,
        "gridlyProductionCertified": true,
        "gridlyClassification": "PUBLIC_ROADWAY",
        "gridlyDisplayName": "CR 529",
        "gridlyId": "FRA-275940Y"
      }
    },
    {
      "type": "Feature",
      "id": 203182,
      "geometry": {
        "type": "Point",
        "coordinates": [
          -102.05585660015,
          34.3506640002368
        ]
      },
      "properties": {
        "OBJECTID": 203182,
        "CROSSING": "275939E",
        "EFFDATE": 1712534400000,
        "REASON": "20",
        "StateCode": "48",
        "CountyCode": "48069",
        "STCYFIPS": "48069",
        "CITYCD": "480693035",
        "RAILROAD": "LBWR",
        "RRDIV": "PLAINS",
        "RRSUBDIV": "DIMMITT",
        "HIGHWAY": "CO 0528",
        "STREET": "CR 528",
        "TTSTN": "674570",
        "MILEPOST": "0347.38",
        "TYPEXING": "Public",
        "POSXING": "At Grade",
        "PRVCAT": "20",
        "INIT": "1",
        "LATITUDE": 34.350664,
        "LONGITUD": -102.0558566,
        "LLSOURCE": "2",
        "WHISTBAN": "0",
        "RRCONT": "8068550079",
        "POLCONT": "8663869321",
        "INV_LINK": "https://safetydata.fra.dot.gov/OfficeofSafety/PublicSite/Crossing/Crossing.aspx?phasetype=C&rpttype=I&txtcrossingnum=275939E",
        "ACC_LINK": "https://safetydata.fra.dot.gov/OfficeofSafety/PublicSite/Crossing/Crossing.aspx?phasetype=C&rpttype=A&txtcrossingnum=275939E",
        "TTSTNNAM": "HART",
        "XPURPOSE": "1",
        "OPERATINGR": "LBWR",
        "OPERATIN_1": "Primary",
        "DAYTHRU": 1,
        "NGHTTHRU": 0,
        "MAINTRK": 1,
        "SIDINGTRK": 0,
        "YARDTRK": 0,
        "TRANSITTRK": 0,
        "INDUSTRYTR": 0,
        "OTHRTRK": 0,
        "WDCODE": "Crossbucks",
        "REVISIONDA": "2015/06/18 00:00:00",
        "LASTUPDATE": "4/8/2024",
        "AADT": "23",
        "AADTYEAR": "2019",
        "STATENAME": "TEXAS",
        "STATEAB": "TX",
        "COUNTYNAME": "CASTRO",
        "CITYNAME": "HART",
        "LATDD": 34.350664,
        "LONGDD": -102.0558566,
        "gridlyProductionCertified": true,
        "gridlyClassification": "PUBLIC_ROADWAY",
        "gridlyDisplayName": "CR 528",
        "gridlyId": "FRA-275939E"
      }
    },
    {
      "type": "Feature",
      "id": 203183,
      "geometry": {
        "type": "Point",
        "coordinates": [
          -102.082720000069,
          34.3623599996614
        ]
      },
      "properties": {
        "OBJECTID": 203183,
        "CROSSING": "275938X",
        "EFFDATE": 1712534400000,
        "REASON": "20",
        "StateCode": "48",
        "CountyCode": "48069",
        "STCYFIPS": "48069",
        "CITYCD": "480693035",
        "RAILROAD": "LBWR",
        "RRDIV": "PLAINS",
        "RRSUBDIV": "DIMMITT",
        "HIGHWAY": "ST 0000",
        "STREET": "PRIVATE",
        "TTSTN": "674570",
        "MILEPOST": "0349.09",
        "TYPEXING": "Private",
        "POSXING": "At Grade",
        "PRVCAT": "20",
        "INIT": "1",
        "LATITUDE": 34.36236,
        "LONGITUD": -102.08272,
        "LLSOURCE": "2",
        "WHISTBAN": "0",
        "RRCONT": "8068550079",
        "POLCONT": "8663869321",
        "INV_LINK": "https://safetydata.fra.dot.gov/OfficeofSafety/PublicSite/Crossing/Crossing.aspx?phasetype=C&rpttype=I&txtcrossingnum=275938X",
        "ACC_LINK": "https://safetydata.fra.dot.gov/OfficeofSafety/PublicSite/Crossing/Crossing.aspx?phasetype=C&rpttype=A&txtcrossingnum=275938X",
        "TTSTNNAM": "HART",
        "XPURPOSE": "1",
        "OPERATINGR": "LBWR",
        "OPERATIN_1": "Primary",
        "DAYTHRU": 1,
        "NGHTTHRU": 0,
        "MAINTRK": 1,
        "SIDINGTRK": 0,
        "YARDTRK": 0,
        "TRANSITTRK": 0,
        "INDUSTRYTR": 0,
        "OTHRTRK": 0,
        "WDCODE": "",
        "REVISIONDA": "2015/06/18 00:00:00",
        "LASTUPDATE": "4/8/2024",
        "AADT": "",
        "AADTYEAR": "1970",
        "STATENAME": "TEXAS",
        "STATEAB": "TX",
        "COUNTYNAME": "CASTRO",
        "CITYNAME": "HART",
        "LATDD": 34.36236,
        "LONGDD": -102.08272,
        "gridlyProductionCertified": true,
        "gridlyClassification": "PUBLIC_ROADWAY",
        "gridlyDisplayName": "PRIVATE",
        "gridlyId": "FRA-275938X"
      }
    },
    {
      "type": "Feature",
      "id": 203186,
      "geometry": {
        "type": "Point",
        "coordinates": [
          -102.090970000078,
          34.3659200000488
        ]
      },
      "properties": {
        "OBJECTID": 203186,
        "CROSSING": "275937R",
        "EFFDATE": 1712534400000,
        "REASON": "20",
        "StateCode": "48",
        "CountyCode": "48069",
        "STCYFIPS": "48069",
        "CITYCD": "480693035",
        "RAILROAD": "LBWR",
        "RRDIV": "PLAINS",
        "RRSUBDIV": "DIMMITT",
        "HIGHWAY": "CO 0754",
        "STREET": "CR 0754",
        "TTSTN": "674570",
        "MILEPOST": "0349.63",
        "TYPEXING": "Public",
        "POSXING": "At Grade",
        "PRVCAT": "20",
        "INIT": "1",
        "LATITUDE": 34.36592,
        "LONGITUD": -102.09097,
        "LLSOURCE": "2",
        "WHISTBAN": "0",
        "RRCONT": "8068550079",
        "POLCONT": "8663869321",
        "INV_LINK": "https://safetydata.fra.dot.gov/OfficeofSafety/PublicSite/Crossing/Crossing.aspx?phasetype=C&rpttype=I&txtcrossingnum=275937R",
        "ACC_LINK": "https://safetydata.fra.dot.gov/OfficeofSafety/PublicSite/Crossing/Crossing.aspx?phasetype=C&rpttype=A&txtcrossingnum=275937R",
        "TTSTNNAM": "HART",
        "XPURPOSE": "1",
        "OPERATINGR": "LBWR",
        "OPERATIN_1": "Primary",
        "DAYTHRU": 1,
        "NGHTTHRU": 0,
        "MAINTRK": 1,
        "SIDINGTRK": 0,
        "YARDTRK": 0,
        "TRANSITTRK": 0,
        "INDUSTRYTR": 0,
        "OTHRTRK": 0,
        "WDCODE": "Crossbucks",
        "REVISIONDA": "2015/06/18 00:00:00",
        "LASTUPDATE": "4/8/2024",
        "AADT": "000060",
        "AADTYEAR": "2013",
        "STATENAME": "TEXAS",
        "STATEAB": "TX",
        "COUNTYNAME": "CASTRO",
        "CITYNAME": "HART",
        "LATDD": 34.36592,
        "LONGDD": -102.09097,
        "gridlyProductionCertified": true,
        "gridlyClassification": "PUBLIC_ROADWAY",
        "gridlyDisplayName": "CR 0754",
        "gridlyId": "FRA-275937R"
      }
    },
    {
      "type": "Feature",
      "id": 203187,
      "geometry": {
        "type": "Point",
        "coordinates": [
          -102.107599999791,
          34.3776600000917
        ]
      },
      "properties": {
        "OBJECTID": 203187,
        "CROSSING": "275935C",
        "EFFDATE": 1712534400000,
        "REASON": "20",
        "StateCode": "48",
        "CountyCode": "48069",
        "STCYFIPS": "48069",
        "CITYCD": "480693035",
        "RAILROAD": "LBWR",
        "RRDIV": "Plains",
        "RRSUBDIV": "DIMMITT",
        "HIGHWAY": "FM 0145",
        "STREET": "FM 0145",
        "TTSTN": "674570",
        "MILEPOST": "0350.82",
        "TYPEXING": "Public",
        "POSXING": "At Grade",
        "PRVCAT": "20",
        "INIT": "1",
        "LATITUDE": 34.37766,
        "LONGITUD": -102.1076,
        "LLSOURCE": "2",
        "WHISTBAN": "0",
        "RRCONT": "8068550079",
        "POLCONT": "8663869321",
        "INV_LINK": "https://safetydata.fra.dot.gov/OfficeofSafety/PublicSite/Crossing/Crossing.aspx?phasetype=C&rpttype=I&txtcrossingnum=275935C",
        "ACC_LINK": "https://safetydata.fra.dot.gov/OfficeofSafety/PublicSite/Crossing/Crossing.aspx?phasetype=C&rpttype=A&txtcrossingnum=275935C",
        "TTSTNNAM": "HART",
        "XPURPOSE": "1",
        "OPERATINGR": "LBWR",
        "OPERATIN_1": "Primary",
        "DAYTHRU": 1,
        "NGHTTHRU": 0,
        "MAINTRK": 1,
        "SIDINGTRK": 0,
        "YARDTRK": 0,
        "TRANSITTRK": 0,
        "INDUSTRYTR": 0,
        "OTHRTRK": 0,
        "WDCODE": "Crossbucks",
        "REVISIONDA": "2015/06/18 00:00:00",
        "LASTUPDATE": "4/8/2024",
        "AADT": "277",
        "AADTYEAR": "2019",
        "STATENAME": "TEXAS",
        "STATEAB": "TX",
        "COUNTYNAME": "CASTRO",
        "CITYNAME": "HART",
        "LATDD": 34.37766,
        "LONGDD": -102.1076,
        "gridlyProductionCertified": true,
        "gridlyClassification": "PUBLIC_ROADWAY",
        "gridlyDisplayName": "FM 0145",
        "gridlyId": "FRA-275935C"
      }
    },
    {
      "type": "Feature",
      "id": 203188,
      "geometry": {
        "type": "Point",
        "coordinates": [
          -102.108640000057,
          34.3785200000151
        ]
      },
      "properties": {
        "OBJECTID": 203188,
        "CROSSING": "275934V",
        "EFFDATE": 1712534400000,
        "REASON": "20",
        "StateCode": "48",
        "CountyCode": "48069",
        "STCYFIPS": "48069",
        "CITYCD": "480693035",
        "RAILROAD": "LBWR",
        "RRDIV": "PLAINS",
        "RRSUBDIV": "DIMMITT",
        "HIGHWAY": "ST 0000",
        "STREET": "FIRST ST",
        "TTSTN": "674570",
        "MILEPOST": "0350.97",
        "TYPEXING": "Public",
        "POSXING": "At Grade",
        "PRVCAT": "20",
        "INIT": "1",
        "LATITUDE": 34.37852,
        "LONGITUD": -102.10864,
        "LLSOURCE": "2",
        "WHISTBAN": "0",
        "RRCONT": "8068550079",
        "POLCONT": "8663869321",
        "INV_LINK": "https://safetydata.fra.dot.gov/OfficeofSafety/PublicSite/Crossing/Crossing.aspx?phasetype=C&rpttype=I&txtcrossingnum=275934V",
        "ACC_LINK": "https://safetydata.fra.dot.gov/OfficeofSafety/PublicSite/Crossing/Crossing.aspx?phasetype=C&rpttype=A&txtcrossingnum=275934V",
        "TTSTNNAM": "HART",
        "XPURPOSE": "1",
        "OPERATINGR": "LBWR",
        "OPERATIN_1": "Primary",
        "DAYTHRU": 1,
        "NGHTTHRU": 0,
        "MAINTRK": 1,
        "SIDINGTRK": 0,
        "YARDTRK": 0,
        "TRANSITTRK": 0,
        "INDUSTRYTR": 0,
        "OTHRTRK": 1,
        "WDCODE": "Crossbucks",
        "REVISIONDA": "2015/06/18 00:00:00",
        "LASTUPDATE": "4/8/2024",
        "AADT": "18",
        "AADTYEAR": "2019",
        "STATENAME": "TEXAS",
        "STATEAB": "TX",
        "COUNTYNAME": "CASTRO",
        "CITYNAME": "HART",
        "LATDD": 34.37852,
        "LONGDD": -102.10864,
        "gridlyProductionCertified": true,
        "gridlyClassification": "PUBLIC_ROADWAY",
        "gridlyDisplayName": "FIRST ST",
        "gridlyId": "FRA-275934V"
      }
    },
    {
      "type": "Feature",
      "id": 203193,
      "geometry": {
        "type": "Point",
        "coordinates": [
          -102.115689999966,
          34.3843800002314
        ]
      },
      "properties": {
        "OBJECTID": 203193,
        "CROSSING": "275933N",
        "EFFDATE": 1712534400000,
        "REASON": "20",
        "StateCode": "48",
        "CountyCode": "48069",
        "STCYFIPS": "48069",
        "CITYCD": "480693035",
        "RAILROAD": "LBWR",
        "RRDIV": "PLAINS",
        "RRSUBDIV": "DIMMITT",
        "HIGHWAY": "FM 0168",
        "STREET": "FM 0168",
        "TTSTN": "674570",
        "MILEPOST": "0351.55",
        "TYPEXING": "Public",
        "POSXING": "At Grade",
        "PRVCAT": "20",
        "INIT": "1",
        "LATITUDE": 34.38438,
        "LONGITUD": -102.11569,
        "LLSOURCE": "2",
        "WHISTBAN": "0",
        "RRCONT": "8068550079",
        "POLCONT": "8663869321",
        "INV_LINK": "https://safetydata.fra.dot.gov/OfficeofSafety/PublicSite/Crossing/Crossing.aspx?phasetype=C&rpttype=I&txtcrossingnum=275933N",
        "ACC_LINK": "https://safetydata.fra.dot.gov/OfficeofSafety/PublicSite/Crossing/Crossing.aspx?phasetype=C&rpttype=A&txtcrossingnum=275933N",
        "TTSTNNAM": "HART",
        "XPURPOSE": "1",
        "OPERATINGR": "LBWR",
        "OPERATIN_1": "Primary",
        "DAYTHRU": 1,
        "NGHTTHRU": 0,
        "MAINTRK": 1,
        "SIDINGTRK": 1,
        "YARDTRK": 0,
        "TRANSITTRK": 0,
        "INDUSTRYTR": 0,
        "OTHRTRK": 1,
        "WDCODE": "Flashing lights",
        "REVISIONDA": "2015/06/18 00:00:00",
        "LASTUPDATE": "4/8/2024",
        "AADT": "1704",
        "AADTYEAR": "2019",
        "STATENAME": "TEXAS",
        "STATEAB": "TX",
        "COUNTYNAME": "CASTRO",
        "CITYNAME": "HART",
        "LATDD": 34.38438,
        "LONGDD": -102.11569,
        "gridlyProductionCertified": true,
        "gridlyClassification": "PUBLIC_ROADWAY",
        "gridlyDisplayName": "FM 0168",
        "gridlyId": "FRA-275933N"
      }
    },
    {
      "type": "Feature",
      "id": 203194,
      "geometry": {
        "type": "Point",
        "coordinates": [
          -102.124433500256,
          34.3916120999554
        ]
      },
      "properties": {
        "OBJECTID": 203194,
        "CROSSING": "275928S",
        "EFFDATE": 1712534400000,
        "REASON": "20",
        "StateCode": "48",
        "CountyCode": "48069",
        "STCYFIPS": "48069",
        "CITYCD": "480693035",
        "RAILROAD": "LBWR",
        "RRDIV": "PLAINS",
        "RRSUBDIV": "DIMMITT",
        "HIGHWAY": "ST 0000",
        "STREET": "AVE A",
        "TTSTN": "674570",
        "MILEPOST": "0352.23",
        "TYPEXING": "Public",
        "POSXING": "At Grade",
        "PRVCAT": "20",
        "INIT": "1",
        "LATITUDE": 34.3916121,
        "LONGITUD": -102.1244335,
        "LLSOURCE": "2",
        "WHISTBAN": "0",
        "RRCONT": "8068550079",
        "POLCONT": "8663869321",
        "INV_LINK": "https://safetydata.fra.dot.gov/OfficeofSafety/PublicSite/Crossing/Crossing.aspx?phasetype=C&rpttype=I&txtcrossingnum=275928S",
        "ACC_LINK": "https://safetydata.fra.dot.gov/OfficeofSafety/PublicSite/Crossing/Crossing.aspx?phasetype=C&rpttype=A&txtcrossingnum=275928S",
        "TTSTNNAM": "HART",
        "XPURPOSE": "1",
        "OPERATINGR": "LBWR",
        "OPERATIN_1": "Primary",
        "DAYTHRU": 1,
        "NGHTTHRU": 0,
        "MAINTRK": 1,
        "SIDINGTRK": 0,
        "YARDTRK": 0,
        "TRANSITTRK": 0,
        "INDUSTRYTR": 0,
        "OTHRTRK": 0,
        "WDCODE": "Crossbucks",
        "REVISIONDA": "2015/06/18 00:00:00",
        "LASTUPDATE": "4/8/2024",
        "AADT": "402",
        "AADTYEAR": "2019",
        "STATENAME": "TEXAS",
        "STATEAB": "TX",
        "COUNTYNAME": "CASTRO",
        "CITYNAME": "HART",
        "LATDD": 34.3916121,
        "LONGDD": -102.1244335,
        "gridlyProductionCertified": true,
        "gridlyClassification": "PUBLIC_ROADWAY",
        "gridlyDisplayName": "AVE A",
        "gridlyId": "FRA-275928S"
      }
    },
    {
      "type": "Feature",
      "id": 203195,
      "geometry": {
        "type": "Point",
        "coordinates": [
          -102.126469999869,
          34.3933099998778
        ]
      },
      "properties": {
        "OBJECTID": 203195,
        "CROSSING": "275927K",
        "EFFDATE": 1712534400000,
        "REASON": "20",
        "StateCode": "48",
        "CountyCode": "48069",
        "STCYFIPS": "48069",
        "CITYCD": "480693035",
        "RAILROAD": "LBWR",
        "RRDIV": "PLAINS",
        "RRSUBDIV": "DIMMITT",
        "HIGHWAY": "ST 0000",
        "STREET": "PRIVATE",
        "TTSTN": "674570",
        "MILEPOST": "0352.41",
        "TYPEXING": "Private",
        "POSXING": "At Grade",
        "PRVCAT": "20",
        "INIT": "1",
        "LATITUDE": 34.39331,
        "LONGITUD": -102.12647,
        "LLSOURCE": "2",
        "WHISTBAN": "0",
        "RRCONT": "8068550079",
        "POLCONT": "8663869321",
        "INV_LINK": "https://safetydata.fra.dot.gov/OfficeofSafety/PublicSite/Crossing/Crossing.aspx?phasetype=C&rpttype=I&txtcrossingnum=275927K",
        "ACC_LINK": "https://safetydata.fra.dot.gov/OfficeofSafety/PublicSite/Crossing/Crossing.aspx?phasetype=C&rpttype=A&txtcrossingnum=275927K",
        "TTSTNNAM": "HART",
        "XPURPOSE": "1",
        "OPERATINGR": "LBWR",
        "OPERATIN_1": "Primary",
        "DAYTHRU": 1,
        "NGHTTHRU": 0,
        "MAINTRK": 1,
        "SIDINGTRK": 0,
        "YARDTRK": 0,
        "TRANSITTRK": 0,
        "INDUSTRYTR": 0,
        "OTHRTRK": 0,
        "WDCODE": "",
        "REVISIONDA": "2015/06/18 00:00:00",
        "LASTUPDATE": "4/8/2024",
        "AADT": "",
        "AADTYEAR": "1970",
        "STATENAME": "TEXAS",
        "STATEAB": "TX",
        "COUNTYNAME": "CASTRO",
        "CITYNAME": "HART",
        "LATDD": 34.39331,
        "LONGDD": -102.12647,
        "gridlyProductionCertified": true,
        "gridlyClassification": "PUBLIC_ROADWAY",
        "gridlyDisplayName": "PRIVATE",
        "gridlyId": "FRA-275927K"
      }
    },
    {
      "type": "Feature",
      "id": 203197,
      "geometry": {
        "type": "Point",
        "coordinates": [
          -102.13738700004,
          34.4023631001238
        ]
      },
      "properties": {
        "OBJECTID": 203197,
        "CROSSING": "275926D",
        "EFFDATE": 1712534400000,
        "REASON": "20",
        "StateCode": "48",
        "CountyCode": "48069",
        "STCYFIPS": "48069",
        "CITYCD": "480693035",
        "RAILROAD": "LBWR",
        "RRDIV": "PLAINS",
        "RRSUBDIV": "DIMMITT",
        "HIGHWAY": "CO 0523",
        "STREET": "CR",
        "TTSTN": "674570",
        "MILEPOST": "0353.29",
        "TYPEXING": "Public",
        "POSXING": "At Grade",
        "PRVCAT": "20",
        "INIT": "1",
        "LATITUDE": 34.4023631,
        "LONGITUD": -102.137387,
        "LLSOURCE": "2",
        "WHISTBAN": "0",
        "RRCONT": "8068550079",
        "POLCONT": "8663869321",
        "INV_LINK": "https://safetydata.fra.dot.gov/OfficeofSafety/PublicSite/Crossing/Crossing.aspx?phasetype=C&rpttype=I&txtcrossingnum=275926D",
        "ACC_LINK": "https://safetydata.fra.dot.gov/OfficeofSafety/PublicSite/Crossing/Crossing.aspx?phasetype=C&rpttype=A&txtcrossingnum=275926D",
        "TTSTNNAM": "HART",
        "XPURPOSE": "1",
        "OPERATINGR": "LBWR",
        "OPERATIN_1": "Primary",
        "DAYTHRU": 1,
        "NGHTTHRU": 0,
        "MAINTRK": 1,
        "SIDINGTRK": 0,
        "YARDTRK": 0,
        "TRANSITTRK": 0,
        "INDUSTRYTR": 0,
        "OTHRTRK": 0,
        "WDCODE": "Crossbucks",
        "REVISIONDA": "2015/06/18 00:00:00",
        "LASTUPDATE": "4/8/2024",
        "AADT": "000070",
        "AADTYEAR": "2013",
        "STATENAME": "TEXAS",
        "STATEAB": "TX",
        "COUNTYNAME": "CASTRO",
        "CITYNAME": "HART",
        "LATDD": 34.4023631,
        "LONGDD": -102.137387,
        "gridlyProductionCertified": true,
        "gridlyClassification": "PUBLIC_ROADWAY",
        "gridlyDisplayName": "CR",
        "gridlyId": "FRA-275926D"
      }
    },
    {
      "type": "Feature",
      "id": 203198,
      "geometry": {
        "type": "Point",
        "coordinates": [
          -102.179422900193,
          34.4372170996643
        ]
      },
      "properties": {
        "OBJECTID": 203198,
        "CROSSING": "275924P",
        "EFFDATE": 1712534400000,
        "REASON": "20",
        "StateCode": "48",
        "CountyCode": "48069",
        "STCYFIPS": "48069",
        "CITYCD": "480693035",
        "RAILROAD": "LBWR",
        "RRDIV": "PLAINS",
        "RRSUBDIV": "DIMMITT",
        "HIGHWAY": "CO 523A",
        "STREET": "CR 523A",
        "TTSTN": "674570",
        "MILEPOST": "0356.68",
        "TYPEXING": "Public",
        "POSXING": "At Grade",
        "PRVCAT": "20",
        "INIT": "1",
        "LATITUDE": 34.4372171,
        "LONGITUD": -102.1794229,
        "LLSOURCE": "2",
        "WHISTBAN": "0",
        "RRCONT": "8068550079",
        "POLCONT": "8663869321",
        "INV_LINK": "https://safetydata.fra.dot.gov/OfficeofSafety/PublicSite/Crossing/Crossing.aspx?phasetype=C&rpttype=I&txtcrossingnum=275924P",
        "ACC_LINK": "https://safetydata.fra.dot.gov/OfficeofSafety/PublicSite/Crossing/Crossing.aspx?phasetype=C&rpttype=A&txtcrossingnum=275924P",
        "TTSTNNAM": "HART",
        "XPURPOSE": "1",
        "OPERATINGR": "LBWR",
        "OPERATIN_1": "Primary",
        "DAYTHRU": 1,
        "NGHTTHRU": 0,
        "MAINTRK": 1,
        "SIDINGTRK": 0,
        "YARDTRK": 0,
        "TRANSITTRK": 0,
        "INDUSTRYTR": 0,
        "OTHRTRK": 0,
        "WDCODE": "Crossbucks",
        "REVISIONDA": "2015/06/18 00:00:00",
        "LASTUPDATE": "4/8/2024",
        "AADT": "400",
        "AADTYEAR": "2019",
        "STATENAME": "TEXAS",
        "STATEAB": "TX",
        "COUNTYNAME": "CASTRO",
        "CITYNAME": "HART",
        "LATDD": 34.4372171,
        "LONGDD": -102.1794229,
        "gridlyProductionCertified": true,
        "gridlyClassification": "PUBLIC_ROADWAY",
        "gridlyDisplayName": "CR 523A",
        "gridlyId": "FRA-275924P"
      }
    },
    {
      "type": "Feature",
      "id": 203199,
      "geometry": {
        "type": "Point",
        "coordinates": [
          -102.197390099699,
          34.4521135999308
        ]
      },
      "properties": {
        "OBJECTID": 203199,
        "CROSSING": "275922B",
        "EFFDATE": 1712534400000,
        "REASON": "20",
        "StateCode": "48",
        "CountyCode": "48069",
        "STCYFIPS": "48069",
        "CITYCD": "480693035",
        "RAILROAD": "LBWR",
        "RRDIV": "PLAINS",
        "RRSUBDIV": "DIMMITT",
        "HIGHWAY": "CO 0622",
        "STREET": "CR 622",
        "TTSTN": "674570",
        "MILEPOST": "0358.13",
        "TYPEXING": "Public",
        "POSXING": "At Grade",
        "PRVCAT": "20",
        "INIT": "1",
        "LATITUDE": 34.4521136,
        "LONGITUD": -102.1973901,
        "LLSOURCE": "2",
        "WHISTBAN": "0",
        "RRCONT": "8068550079",
        "POLCONT": "8663869321",
        "INV_LINK": "https://safetydata.fra.dot.gov/OfficeofSafety/PublicSite/Crossing/Crossing.aspx?phasetype=C&rpttype=I&txtcrossingnum=275922B",
        "ACC_LINK": "https://safetydata.fra.dot.gov/OfficeofSafety/PublicSite/Crossing/Crossing.aspx?phasetype=C&rpttype=A&txtcrossingnum=275922B",
        "TTSTNNAM": "HART",
        "XPURPOSE": "1",
        "OPERATINGR": "LBWR",
        "OPERATIN_1": "Primary",
        "DAYTHRU": 1,
        "NGHTTHRU": 0,
        "MAINTRK": 1,
        "SIDINGTRK": 0,
        "YARDTRK": 0,
        "TRANSITTRK": 0,
        "INDUSTRYTR": 0,
        "OTHRTRK": 0,
        "WDCODE": "Crossbucks",
        "REVISIONDA": "2015/06/18 00:00:00",
        "LASTUPDATE": "4/8/2024",
        "AADT": "59",
        "AADTYEAR": "2019",
        "STATENAME": "TEXAS",
        "STATEAB": "TX",
        "COUNTYNAME": "CASTRO",
        "CITYNAME": "HART",
        "LATDD": 34.4521136,
        "LONGDD": -102.1973901,
        "gridlyProductionCertified": true,
        "gridlyClassification": "PUBLIC_ROADWAY",
        "gridlyDisplayName": "CR 622",
        "gridlyId": "FRA-275922B"
      }
    },
    {
      "type": "Feature",
      "id": 203200,
      "geometry": {
        "type": "Point",
        "coordinates": [
          -102.230456999967,
          34.479511999716
        ]
      },
      "properties": {
        "OBJECTID": 203200,
        "CROSSING": "275918L",
        "EFFDATE": 1712534400000,
        "REASON": "20",
        "StateCode": "48",
        "CountyCode": "48069",
        "STCYFIPS": "48069",
        "CITYCD": "480691940",
        "RAILROAD": "LBWR",
        "RRDIV": "PLAINS",
        "RRSUBDIV": "DIMMITT",
        "HIGHWAY": "co518",
        "STREET": "co 518",
        "TTSTN": "674550",
        "MILEPOST": "0360.82",
        "TYPEXING": "Private",
        "POSXING": "At Grade",
        "PRVCAT": "20",
        "INIT": "1",
        "LATITUDE": 34.479512,
        "LONGITUD": -102.230457,
        "LLSOURCE": "2",
        "WHISTBAN": "0",
        "RRCONT": "8068550079",
        "POLCONT": "8663869321",
        "INV_LINK": "https://safetydata.fra.dot.gov/OfficeofSafety/PublicSite/Crossing/Crossing.aspx?phasetype=C&rpttype=I&txtcrossingnum=275918L",
        "ACC_LINK": "https://safetydata.fra.dot.gov/OfficeofSafety/PublicSite/Crossing/Crossing.aspx?phasetype=C&rpttype=A&txtcrossingnum=275918L",
        "TTSTNNAM": "DIMMITT",
        "XPURPOSE": "1",
        "OPERATINGR": "LBWR",
        "OPERATIN_1": "Primary",
        "DAYTHRU": 1,
        "NGHTTHRU": 0,
        "MAINTRK": 1,
        "SIDINGTRK": 0,
        "YARDTRK": 0,
        "TRANSITTRK": 0,
        "INDUSTRYTR": 0,
        "OTHRTRK": 0,
        "WDCODE": "",
        "REVISIONDA": "2015/06/18 00:00:00",
        "LASTUPDATE": "4/8/2024",
        "AADT": "",
        "AADTYEAR": "1970",
        "STATENAME": "TEXAS",
        "STATEAB": "TX",
        "COUNTYNAME": "CASTRO",
        "CITYNAME": "DIMMITT",
        "LATDD": 34.479512,
        "LONGDD": -102.230457,
        "gridlyProductionCertified": true,
        "gridlyClassification": "PUBLIC_ROADWAY",
        "gridlyDisplayName": "co 518",
        "gridlyId": "FRA-275918L"
      }
    },
    {
      "type": "Feature",
      "id": 203201,
      "geometry": {
        "type": "Point",
        "coordinates": [
          -102.232175600175,
          34.4809542002549
        ]
      },
      "properties": {
        "OBJECTID": 203201,
        "CROSSING": "275919T",
        "EFFDATE": 1712534400000,
        "REASON": "20",
        "StateCode": "48",
        "CountyCode": "48069",
        "STCYFIPS": "48069",
        "CITYCD": "480691940",
        "RAILROAD": "LBWR",
        "RRDIV": "PLAINS",
        "RRSUBDIV": "DIMMITT",
        "HIGHWAY": "CO 0518",
        "STREET": "CR 518",
        "TTSTN": "674550",
        "MILEPOST": "0360.95",
        "TYPEXING": "Public",
        "POSXING": "At Grade",
        "PRVCAT": "20",
        "INIT": "1",
        "LATITUDE": 34.4809542,
        "LONGITUD": -102.2321756,
        "LLSOURCE": "2",
        "WHISTBAN": "0",
        "RRCONT": "8068550079",
        "POLCONT": "8663869321",
        "INV_LINK": "https://safetydata.fra.dot.gov/OfficeofSafety/PublicSite/Crossing/Crossing.aspx?phasetype=C&rpttype=I&txtcrossingnum=275919T",
        "ACC_LINK": "https://safetydata.fra.dot.gov/OfficeofSafety/PublicSite/Crossing/Crossing.aspx?phasetype=C&rpttype=A&txtcrossingnum=275919T",
        "TTSTNNAM": "DIMMITT",
        "XPURPOSE": "1",
        "OPERATINGR": "LBWR",
        "OPERATIN_1": "Primary",
        "DAYTHRU": 1,
        "NGHTTHRU": 0,
        "MAINTRK": 1,
        "SIDINGTRK": 0,
        "YARDTRK": 0,
        "TRANSITTRK": 0,
        "INDUSTRYTR": 0,
        "OTHRTRK": 0,
        "WDCODE": "Crossbucks",
        "REVISIONDA": "2015/06/18 00:00:00",
        "LASTUPDATE": "4/8/2024",
        "AADT": "000070",
        "AADTYEAR": "2013",
        "STATENAME": "TEXAS",
        "STATEAB": "TX",
        "COUNTYNAME": "CASTRO",
        "CITYNAME": "DIMMITT",
        "LATDD": 34.4809542,
        "LONGDD": -102.2321756,
        "gridlyProductionCertified": true,
        "gridlyClassification": "PUBLIC_ROADWAY",
        "gridlyDisplayName": "CR 518",
        "gridlyId": "FRA-275919T"
      }
    },
    {
      "type": "Feature",
      "id": 203202,
      "geometry": {
        "type": "Point",
        "coordinates": [
          -102.205833000338,
          34.4590980002194
        ]
      },
      "properties": {
        "OBJECTID": 203202,
        "CROSSING": "275921U",
        "EFFDATE": 1712534400000,
        "REASON": "20",
        "StateCode": "48",
        "CountyCode": "48069",
        "STCYFIPS": "48069",
        "CITYCD": "480693035",
        "RAILROAD": "LBWR",
        "RRDIV": "PLAINS",
        "RRSUBDIV": "DIMMITT",
        "HIGHWAY": "CO 0000",
        "STREET": "PRIVATE",
        "TTSTN": "674570",
        "MILEPOST": "0358.78",
        "TYPEXING": "Private",
        "POSXING": "At Grade",
        "PRVCAT": "20",
        "INIT": "1",
        "LATITUDE": 34.459098,
        "LONGITUD": -102.205833,
        "LLSOURCE": "2",
        "WHISTBAN": "0",
        "RRCONT": "8068550079",
        "POLCONT": "8663869321",
        "INV_LINK": "https://safetydata.fra.dot.gov/OfficeofSafety/PublicSite/Crossing/Crossing.aspx?phasetype=C&rpttype=I&txtcrossingnum=275921U",
        "ACC_LINK": "https://safetydata.fra.dot.gov/OfficeofSafety/PublicSite/Crossing/Crossing.aspx?phasetype=C&rpttype=A&txtcrossingnum=275921U",
        "TTSTNNAM": "HART",
        "XPURPOSE": "1",
        "OPERATINGR": "LBWR",
        "OPERATIN_1": "Primary",
        "DAYTHRU": 1,
        "NGHTTHRU": 0,
        "MAINTRK": 1,
        "SIDINGTRK": 0,
        "YARDTRK": 0,
        "TRANSITTRK": 0,
        "INDUSTRYTR": 0,
        "OTHRTRK": 0,
        "WDCODE": "",
        "REVISIONDA": "2015/06/18 00:00:00",
        "LASTUPDATE": "4/8/2024",
        "AADT": "",
        "AADTYEAR": "1970",
        "STATENAME": "TEXAS",
        "STATEAB": "TX",
        "COUNTYNAME": "CASTRO",
        "CITYNAME": "HART",
        "LATDD": 34.459098,
        "LONGDD": -102.205833,
        "gridlyProductionCertified": true,
        "gridlyClassification": "PUBLIC_ROADWAY",
        "gridlyDisplayName": "PRIVATE",
        "gridlyId": "FRA-275921U"
      }
    },
    {
      "type": "Feature",
      "id": 203203,
      "geometry": {
        "type": "Point",
        "coordinates": [
          -102.214528899799,
          34.4663232001088
        ]
      },
      "properties": {
        "OBJECTID": 203203,
        "CROSSING": "275920M",
        "EFFDATE": 1712534400000,
        "REASON": "20",
        "StateCode": "48",
        "CountyCode": "48069",
        "STCYFIPS": "48069",
        "CITYCD": "480693035",
        "RAILROAD": "LBWR",
        "RRDIV": "PLAINS",
        "RRSUBDIV": "DIMMITT",
        "HIGHWAY": "CO 0621",
        "STREET": "CR 621",
        "TTSTN": "674570",
        "MILEPOST": "0359.52",
        "TYPEXING": "Public",
        "POSXING": "At Grade",
        "PRVCAT": "20",
        "INIT": "1",
        "LATITUDE": 34.4663232,
        "LONGITUD": -102.2145289,
        "LLSOURCE": "2",
        "WHISTBAN": "0",
        "RRCONT": "8068550079",
        "POLCONT": "8663869321",
        "INV_LINK": "https://safetydata.fra.dot.gov/OfficeofSafety/PublicSite/Crossing/Crossing.aspx?phasetype=C&rpttype=I&txtcrossingnum=275920M",
        "ACC_LINK": "https://safetydata.fra.dot.gov/OfficeofSafety/PublicSite/Crossing/Crossing.aspx?phasetype=C&rpttype=A&txtcrossingnum=275920M",
        "TTSTNNAM": "HART",
        "XPURPOSE": "1",
        "OPERATINGR": "LBWR",
        "OPERATIN_1": "Primary",
        "DAYTHRU": 1,
        "NGHTTHRU": 0,
        "MAINTRK": 1,
        "SIDINGTRK": 0,
        "YARDTRK": 0,
        "TRANSITTRK": 0,
        "INDUSTRYTR": 0,
        "OTHRTRK": 0,
        "WDCODE": "Crossbucks",
        "REVISIONDA": "2015/06/18 00:00:00",
        "LASTUPDATE": "4/8/2024",
        "AADT": "52",
        "AADTYEAR": "2019",
        "STATENAME": "TEXAS",
        "STATEAB": "TX",
        "COUNTYNAME": "CASTRO",
        "CITYNAME": "HART",
        "LATDD": 34.4663232,
        "LONGDD": -102.2145289,
        "gridlyProductionCertified": true,
        "gridlyClassification": "PUBLIC_ROADWAY",
        "gridlyDisplayName": "CR 621",
        "gridlyId": "FRA-275920M"
      }
    },
    {
      "type": "Feature",
      "id": 203204,
      "geometry": {
        "type": "Point",
        "coordinates": [
          -102.251219499719,
          34.4967431997974
        ]
      },
      "properties": {
        "OBJECTID": 203204,
        "CROSSING": "275916X",
        "EFFDATE": 1712534400000,
        "REASON": "20",
        "StateCode": "48",
        "CountyCode": "48069",
        "STCYFIPS": "48069",
        "CITYCD": "480691940",
        "RAILROAD": "LBWR",
        "RRDIV": "PLAINS",
        "RRSUBDIV": "DIMMITT",
        "HIGHWAY": "CO 618",
        "STREET": "CR 618",
        "TTSTN": "674550",
        "MILEPOST": "0362.48",
        "TYPEXING": "Public",
        "POSXING": "At Grade",
        "PRVCAT": "20",
        "INIT": "1",
        "LATITUDE": 34.4967432,
        "LONGITUD": -102.2512195,
        "LLSOURCE": "2",
        "WHISTBAN": "0",
        "RRCONT": "8068550079",
        "POLCONT": "8663869321",
        "INV_LINK": "https://safetydata.fra.dot.gov/OfficeofSafety/PublicSite/Crossing/Crossing.aspx?phasetype=C&rpttype=I&txtcrossingnum=275916X",
        "ACC_LINK": "https://safetydata.fra.dot.gov/OfficeofSafety/PublicSite/Crossing/Crossing.aspx?phasetype=C&rpttype=A&txtcrossingnum=275916X",
        "TTSTNNAM": "DIMMITT",
        "XPURPOSE": "1",
        "OPERATINGR": "LBWR",
        "OPERATIN_1": "Primary",
        "DAYTHRU": 1,
        "NGHTTHRU": 0,
        "MAINTRK": 1,
        "SIDINGTRK": 0,
        "YARDTRK": 0,
        "TRANSITTRK": 0,
        "INDUSTRYTR": 0,
        "OTHRTRK": 0,
        "WDCODE": "Crossbucks",
        "REVISIONDA": "2015/06/18 00:00:00",
        "LASTUPDATE": "4/8/2024",
        "AADT": "9",
        "AADTYEAR": "2019",
        "STATENAME": "TEXAS",
        "STATEAB": "TX",
        "COUNTYNAME": "CASTRO",
        "CITYNAME": "DIMMITT",
        "LATDD": 34.4967432,
        "LONGDD": -102.2512195,
        "gridlyProductionCertified": true,
        "gridlyClassification": "PUBLIC_ROADWAY",
        "gridlyDisplayName": "CR 618",
        "gridlyId": "FRA-275916X"
      }
    },
    {
      "type": "Feature",
      "id": 203205,
      "geometry": {
        "type": "Point",
        "coordinates": [
          -102.268006000328,
          34.5109799997003
        ]
      },
      "properties": {
        "OBJECTID": 203205,
        "CROSSING": "275915R",
        "EFFDATE": 1712534400000,
        "REASON": "20",
        "StateCode": "48",
        "CountyCode": "48069",
        "STCYFIPS": "48069",
        "CITYCD": "480691940",
        "RAILROAD": "LBWR",
        "RRDIV": "PLAINS",
        "RRSUBDIV": "DIMMITT",
        "HIGHWAY": "CR 0516",
        "STREET": "CR 516",
        "TTSTN": "674550",
        "MILEPOST": "0363.84",
        "TYPEXING": "Public",
        "POSXING": "At Grade",
        "PRVCAT": "20",
        "INIT": "1",
        "LATITUDE": 34.51098,
        "LONGITUD": -102.268006,
        "LLSOURCE": "2",
        "WHISTBAN": "0",
        "RRCONT": "8068550079",
        "POLCONT": "8663869321",
        "INV_LINK": "https://safetydata.fra.dot.gov/OfficeofSafety/PublicSite/Crossing/Crossing.aspx?phasetype=C&rpttype=I&txtcrossingnum=275915R",
        "ACC_LINK": "https://safetydata.fra.dot.gov/OfficeofSafety/PublicSite/Crossing/Crossing.aspx?phasetype=C&rpttype=A&txtcrossingnum=275915R",
        "TTSTNNAM": "DIMMITT",
        "XPURPOSE": "1",
        "OPERATINGR": "LBWR",
        "OPERATIN_1": "Primary",
        "DAYTHRU": 1,
        "NGHTTHRU": 0,
        "MAINTRK": 1,
        "SIDINGTRK": 0,
        "YARDTRK": 0,
        "TRANSITTRK": 0,
        "INDUSTRYTR": 0,
        "OTHRTRK": 0,
        "WDCODE": "Crossbucks",
        "REVISIONDA": "2015/06/18 00:00:00",
        "LASTUPDATE": "4/8/2024",
        "AADT": "000035",
        "AADTYEAR": "1991",
        "STATENAME": "TEXAS",
        "STATEAB": "TX",
        "COUNTYNAME": "CASTRO",
        "CITYNAME": "DIMMITT",
        "LATDD": 34.51098,
        "LONGDD": -102.268006,
        "gridlyProductionCertified": true,
        "gridlyClassification": "PUBLIC_ROADWAY",
        "gridlyDisplayName": "CR 516",
        "gridlyId": "FRA-275915R"
      }
    },
    {
      "type": "Feature",
      "id": 203206,
      "geometry": {
        "type": "Point",
        "coordinates": [
          -102.280609999772,
          34.5210600000595
        ]
      },
      "properties": {
        "OBJECTID": 203206,
        "CROSSING": "926501P",
        "EFFDATE": 1712534400000,
        "REASON": "20",
        "StateCode": "48",
        "CountyCode": "48069",
        "STCYFIPS": "48069",
        "CITYCD": "480691940",
        "RAILROAD": "LBWR",
        "RRDIV": "Plains",
        "RRSUBDIV": "DIMMITT",
        "HIGHWAY": "CO 0000",
        "STREET": "PRIVATE",
        "TTSTN": "674550",
        "MILEPOST": "0364.85",
        "TYPEXING": "Private",
        "POSXING": "At Grade",
        "PRVCAT": "20",
        "INIT": "1",
        "LATITUDE": 34.52106,
        "LONGITUD": -102.28061,
        "LLSOURCE": "2",
        "WHISTBAN": "0",
        "RRCONT": "8068550079",
        "POLCONT": "8663869321",
        "INV_LINK": "https://safetydata.fra.dot.gov/OfficeofSafety/PublicSite/Crossing/Crossing.aspx?phasetype=C&rpttype=I&txtcrossingnum=926501P",
        "ACC_LINK": "https://safetydata.fra.dot.gov/OfficeofSafety/PublicSite/Crossing/Crossing.aspx?phasetype=C&rpttype=A&txtcrossingnum=926501P",
        "TTSTNNAM": "DIMMITT",
        "XPURPOSE": "1",
        "OPERATINGR": "LBWR",
        "OPERATIN_1": "Primary",
        "DAYTHRU": 1,
        "NGHTTHRU": 1,
        "MAINTRK": 1,
        "SIDINGTRK": 0,
        "YARDTRK": 0,
        "TRANSITTRK": 0,
        "INDUSTRYTR": 0,
        "OTHRTRK": 0,
        "WDCODE": "",
        "REVISIONDA": "2015/06/18 00:00:00",
        "LASTUPDATE": "4/8/2024",
        "AADT": "",
        "AADTYEAR": "",
        "STATENAME": "TEXAS",
        "STATEAB": "TX",
        "COUNTYNAME": "CASTRO",
        "CITYNAME": "DIMMITT",
        "LATDD": 34.52106,
        "LONGDD": -102.28061,
        "gridlyProductionCertified": true,
        "gridlyClassification": "PUBLIC_ROADWAY",
        "gridlyDisplayName": "PRIVATE",
        "gridlyId": "FRA-926501P"
      }
    },
    {
      "type": "Feature",
      "id": 203207,
      "geometry": {
        "type": "Point",
        "coordinates": [
          -102.286499999765,
          34.5256700001469
        ]
      },
      "properties": {
        "OBJECTID": 203207,
        "CROSSING": "275914J",
        "EFFDATE": 1712534400000,
        "REASON": "20",
        "StateCode": "48",
        "CountyCode": "48069",
        "STCYFIPS": "48069",
        "CITYCD": "480691940",
        "RAILROAD": "LBWR",
        "RRDIV": "PLAINS",
        "RRSUBDIV": "DIMMITT",
        "HIGHWAY": "SH 0194",
        "STREET": "SH 0194",
        "TTSTN": "674550",
        "MILEPOST": "0365.38",
        "TYPEXING": "Public",
        "POSXING": "At Grade",
        "PRVCAT": "20",
        "INIT": "1",
        "LATITUDE": 34.52567,
        "LONGITUD": -102.2865,
        "LLSOURCE": "2",
        "WHISTBAN": "0",
        "RRCONT": "8068550079",
        "POLCONT": "8663869321",
        "INV_LINK": "https://safetydata.fra.dot.gov/OfficeofSafety/PublicSite/Crossing/Crossing.aspx?phasetype=C&rpttype=I&txtcrossingnum=275914J",
        "ACC_LINK": "https://safetydata.fra.dot.gov/OfficeofSafety/PublicSite/Crossing/Crossing.aspx?phasetype=C&rpttype=A&txtcrossingnum=275914J",
        "TTSTNNAM": "DIMMITT",
        "XPURPOSE": "1",
        "OPERATINGR": "LBWR",
        "OPERATIN_1": "Primary",
        "DAYTHRU": 1,
        "NGHTTHRU": 0,
        "MAINTRK": 1,
        "SIDINGTRK": 0,
        "YARDTRK": 0,
        "TRANSITTRK": 0,
        "INDUSTRYTR": 0,
        "OTHRTRK": 1,
        "WDCODE": "Crossbucks",
        "REVISIONDA": "2015/06/18 00:00:00",
        "LASTUPDATE": "4/8/2024",
        "AADT": "2074",
        "AADTYEAR": "2019",
        "STATENAME": "TEXAS",
        "STATEAB": "TX",
        "COUNTYNAME": "CASTRO",
        "CITYNAME": "DIMMITT",
        "LATDD": 34.52567,
        "LONGDD": -102.2865,
        "gridlyProductionCertified": true,
        "gridlyClassification": "PUBLIC_ROADWAY",
        "gridlyDisplayName": "SH 0194",
        "gridlyId": "FRA-275914J"
      }
    },
    {
      "type": "Feature",
      "id": 203208,
      "geometry": {
        "type": "Point",
        "coordinates": [
          -102.30223029989,
          34.5411158996864
        ]
      },
      "properties": {
        "OBJECTID": 203208,
        "CROSSING": "276686C",
        "EFFDATE": 1712534400000,
        "REASON": "20",
        "StateCode": "48",
        "CountyCode": "48069",
        "STCYFIPS": "48069",
        "CITYCD": "480691940",
        "RAILROAD": "LBWR",
        "RRDIV": "Plains",
        "RRSUBDIV": "DIMMITT",
        "HIGHWAY": "CO 0615",
        "STREET": "CR 0615",
        "TTSTN": "674550",
        "MILEPOST": "0366.72",
        "TYPEXING": "Public",
        "POSXING": "At Grade",
        "PRVCAT": "20",
        "INIT": "1",
        "LATITUDE": 34.5411159,
        "LONGITUD": -102.3022303,
        "LLSOURCE": "2",
        "WHISTBAN": "0",
        "RRCONT": "8068550079",
        "POLCONT": "8663869321",
        "INV_LINK": "https://safetydata.fra.dot.gov/OfficeofSafety/PublicSite/Crossing/Crossing.aspx?phasetype=C&rpttype=I&txtcrossingnum=276686C",
        "ACC_LINK": "https://safetydata.fra.dot.gov/OfficeofSafety/PublicSite/Crossing/Crossing.aspx?phasetype=C&rpttype=A&txtcrossingnum=276686C",
        "TTSTNNAM": "DIMMITT",
        "XPURPOSE": "1",
        "OPERATINGR": "LBWR",
        "OPERATIN_1": "Primary",
        "DAYTHRU": 2,
        "NGHTTHRU": 0,
        "MAINTRK": 1,
        "SIDINGTRK": 0,
        "YARDTRK": 0,
        "TRANSITTRK": 0,
        "INDUSTRYTR": 0,
        "OTHRTRK": 0,
        "WDCODE": "Crossbucks",
        "REVISIONDA": "2015/06/18 00:00:00",
        "LASTUPDATE": "4/8/2024",
        "AADT": "000085",
        "AADTYEAR": "1978",
        "STATENAME": "TEXAS",
        "STATEAB": "TX",
        "COUNTYNAME": "CASTRO",
        "CITYNAME": "DIMMITT",
        "LATDD": 34.5411159,
        "LONGDD": -102.3022303,
        "gridlyProductionCertified": true,
        "gridlyClassification": "PUBLIC_ROADWAY",
        "gridlyDisplayName": "CR 0615",
        "gridlyId": "FRA-276686C"
      }
    },
    {
      "type": "Feature",
      "id": 203209,
      "geometry": {
        "type": "Point",
        "coordinates": [
          -102.307391099638,
          34.5497138998223
        ]
      },
      "properties": {
        "OBJECTID": 203209,
        "CROSSING": "276685V",
        "EFFDATE": 1712534400000,
        "REASON": "20",
        "StateCode": "48",
        "CountyCode": "48069",
        "STCYFIPS": "48069",
        "CITYCD": "480691940",
        "RAILROAD": "LBWR",
        "RRDIV": "plains",
        "RRSUBDIV": "DIMMITT",
        "HIGHWAY": "ST 0000",
        "STREET": "EAST JONES",
        "TTSTN": "674550",
        "MILEPOST": "0367.38",
        "TYPEXING": "Public",
        "POSXING": "At Grade",
        "PRVCAT": "20",
        "INIT": "1",
        "LATITUDE": 34.5497139,
        "LONGITUD": -102.3073911,
        "LLSOURCE": "2",
        "WHISTBAN": "0",
        "RRCONT": "8068550079",
        "POLCONT": "8663869321",
        "INV_LINK": "https://safetydata.fra.dot.gov/OfficeofSafety/PublicSite/Crossing/Crossing.aspx?phasetype=C&rpttype=I&txtcrossingnum=276685V",
        "ACC_LINK": "https://safetydata.fra.dot.gov/OfficeofSafety/PublicSite/Crossing/Crossing.aspx?phasetype=C&rpttype=A&txtcrossingnum=276685V",
        "TTSTNNAM": "DIMMITT",
        "XPURPOSE": "1",
        "OPERATINGR": "LBWR",
        "OPERATIN_1": "Primary",
        "DAYTHRU": 1,
        "NGHTTHRU": 0,
        "MAINTRK": 1,
        "SIDINGTRK": 1,
        "YARDTRK": 0,
        "TRANSITTRK": 0,
        "INDUSTRYTR": 0,
        "OTHRTRK": 0,
        "WDCODE": "Crossbucks",
        "REVISIONDA": "2015/06/18 00:00:00",
        "LASTUPDATE": "4/8/2024",
        "AADT": "143",
        "AADTYEAR": "2019",
        "STATENAME": "TEXAS",
        "STATEAB": "TX",
        "COUNTYNAME": "CASTRO",
        "CITYNAME": "DIMMITT",
        "LATDD": 34.5497139,
        "LONGDD": -102.3073911,
        "gridlyProductionCertified": true,
        "gridlyClassification": "PUBLIC_ROADWAY",
        "gridlyDisplayName": "EAST JONES",
        "gridlyId": "FRA-276685V"
      }
    },
    {
      "type": "Feature",
      "id": 203210,
      "geometry": {
        "type": "Point",
        "coordinates": [
          -102.308093300119,
          34.5508837996563
        ]
      },
      "properties": {
        "OBJECTID": 203210,
        "CROSSING": "276681T",
        "EFFDATE": 1712534400000,
        "REASON": "20",
        "StateCode": "48",
        "CountyCode": "48069",
        "STCYFIPS": "48069",
        "CITYCD": "480691940",
        "RAILROAD": "LBWR",
        "RRDIV": "plains",
        "RRSUBDIV": "DIMMITT",
        "HIGHWAY": "SH 0086",
        "STREET": "SH 0086",
        "TTSTN": "674550",
        "MILEPOST": "0367.47",
        "TYPEXING": "Public",
        "POSXING": "At Grade",
        "PRVCAT": "20",
        "INIT": "1",
        "LATITUDE": 34.5508838,
        "LONGITUD": -102.3080933,
        "LLSOURCE": "2",
        "WHISTBAN": "0",
        "RRCONT": "8068550079",
        "POLCONT": "8663869321",
        "INV_LINK": "https://safetydata.fra.dot.gov/OfficeofSafety/PublicSite/Crossing/Crossing.aspx?phasetype=C&rpttype=I&txtcrossingnum=276681T",
        "ACC_LINK": "https://safetydata.fra.dot.gov/OfficeofSafety/PublicSite/Crossing/Crossing.aspx?phasetype=C&rpttype=A&txtcrossingnum=276681T",
        "TTSTNNAM": "DIMMITT",
        "XPURPOSE": "1",
        "OPERATINGR": "LBWR",
        "OPERATIN_1": "Primary",
        "DAYTHRU": 2,
        "NGHTTHRU": 0,
        "MAINTRK": 1,
        "SIDINGTRK": 1,
        "YARDTRK": 0,
        "TRANSITTRK": 0,
        "INDUSTRYTR": 0,
        "OTHRTRK": 0,
        "WDCODE": "Flashing lights",
        "REVISIONDA": "2015/06/18 00:00:00",
        "LASTUPDATE": "4/8/2024",
        "AADT": "2269",
        "AADTYEAR": "2019",
        "STATENAME": "TEXAS",
        "STATEAB": "TX",
        "COUNTYNAME": "CASTRO",
        "CITYNAME": "DIMMITT",
        "LATDD": 34.5508838,
        "LONGDD": -102.3080933,
        "gridlyProductionCertified": true,
        "gridlyClassification": "PUBLIC_ROADWAY",
        "gridlyDisplayName": "SH 0086",
        "gridlyId": "FRA-276681T"
      }
    },
    {
      "type": "Feature",
      "id": 203385,
      "geometry": {
        "type": "Point",
        "coordinates": [
          -102.310781300198,
          34.5553613002434
        ]
      },
      "properties": {
        "OBJECTID": 203385,
        "CROSSING": "276678K",
        "EFFDATE": 1712534400000,
        "REASON": "20",
        "StateCode": "48",
        "CountyCode": "48069",
        "STCYFIPS": "48069",
        "CITYCD": "480691940",
        "RAILROAD": "LBWR",
        "RRDIV": "plains",
        "RRSUBDIV": "DIMMITT",
        "HIGHWAY": "ST 0000",
        "STREET": "HALSELL ST",
        "TTSTN": "674550",
        "MILEPOST": "0367.82",
        "TYPEXING": "Public",
        "POSXING": "At Grade",
        "PRVCAT": "20",
        "INIT": "1",
        "LATITUDE": 34.5553613,
        "LONGITUD": -102.3107813,
        "LLSOURCE": "2",
        "WHISTBAN": "0",
        "RRCONT": "8068550079",
        "POLCONT": "8663869321",
        "INV_LINK": "https://safetydata.fra.dot.gov/OfficeofSafety/PublicSite/Crossing/Crossing.aspx?phasetype=C&rpttype=I&txtcrossingnum=276678K",
        "ACC_LINK": "https://safetydata.fra.dot.gov/OfficeofSafety/PublicSite/Crossing/Crossing.aspx?phasetype=C&rpttype=A&txtcrossingnum=276678K",
        "TTSTNNAM": "DIMMITT",
        "XPURPOSE": "1",
        "OPERATINGR": "LBWR",
        "OPERATIN_1": "Primary",
        "DAYTHRU": 2,
        "NGHTTHRU": 0,
        "MAINTRK": 1,
        "SIDINGTRK": 1,
        "YARDTRK": 0,
        "TRANSITTRK": 0,
        "INDUSTRYTR": 0,
        "OTHRTRK": 2,
        "WDCODE": "Crossbucks",
        "REVISIONDA": "2015/06/18 00:00:00",
        "LASTUPDATE": "4/8/2024",
        "AADT": "773",
        "AADTYEAR": "2019",
        "STATENAME": "TEXAS",
        "STATEAB": "TX",
        "COUNTYNAME": "CASTRO",
        "CITYNAME": "DIMMITT",
        "LATDD": 34.5553613,
        "LONGDD": -102.3107813,
        "gridlyProductionCertified": true,
        "gridlyClassification": "PUBLIC_ROADWAY",
        "gridlyDisplayName": "HALSELL ST",
        "gridlyId": "FRA-276678K"
      }
    },
    {
      "type": "Feature",
      "id": 203386,
      "geometry": {
        "type": "Point",
        "coordinates": [
          -102.313296500348,
          34.5595505001072
        ]
      },
      "properties": {
        "OBJECTID": 203386,
        "CROSSING": "276677D",
        "EFFDATE": 1712534400000,
        "REASON": "20",
        "StateCode": "48",
        "CountyCode": "48069",
        "STCYFIPS": "48069",
        "CITYCD": "480691940",
        "RAILROAD": "LBWR",
        "RRDIV": "PLAINS",
        "RRSUBDIV": "DIMMITT",
        "HIGHWAY": "US 0385",
        "STREET": "N BROADWAY",
        "TTSTN": "674550",
        "MILEPOST": "0368.14",
        "TYPEXING": "Public",
        "POSXING": "At Grade",
        "PRVCAT": "20",
        "INIT": "1",
        "LATITUDE": 34.5595505,
        "LONGITUD": -102.3132965,
        "LLSOURCE": "2",
        "WHISTBAN": "0",
        "RRCONT": "8068550079",
        "POLCONT": "8663869321",
        "INV_LINK": "https://safetydata.fra.dot.gov/OfficeofSafety/PublicSite/Crossing/Crossing.aspx?phasetype=C&rpttype=I&txtcrossingnum=276677D",
        "ACC_LINK": "https://safetydata.fra.dot.gov/OfficeofSafety/PublicSite/Crossing/Crossing.aspx?phasetype=C&rpttype=A&txtcrossingnum=276677D",
        "TTSTNNAM": "DIMMITT",
        "XPURPOSE": "1",
        "OPERATINGR": "LBWR",
        "OPERATIN_1": "Primary",
        "DAYTHRU": 1,
        "NGHTTHRU": 0,
        "MAINTRK": 1,
        "SIDINGTRK": 0,
        "YARDTRK": 0,
        "TRANSITTRK": 0,
        "INDUSTRYTR": 0,
        "OTHRTRK": 0,
        "WDCODE": "All other Gates",
        "REVISIONDA": "2015/06/18 00:00:00",
        "LASTUPDATE": "4/8/2024",
        "AADT": "4157",
        "AADTYEAR": "2019",
        "STATENAME": "TEXAS",
        "STATEAB": "TX",
        "COUNTYNAME": "CASTRO",
        "CITYNAME": "DIMMITT",
        "LATDD": 34.5595505,
        "LONGDD": -102.3132965,
        "gridlyProductionCertified": true,
        "gridlyClassification": "PUBLIC_ROADWAY",
        "gridlyDisplayName": "N BROADWAY",
        "gridlyId": "FRA-276677D"
      }
    },
    {
      "type": "Feature",
      "id": 214582,
      "geometry": {
        "type": "Point",
        "coordinates": [
          -102.513002700418,
          34.7352305999222
        ]
      },
      "properties": {
        "OBJECTID": 214582,
        "CROSSING": "014755K",
        "EFFDATE": 1772064000000,
        "REASON": "14",
        "StateCode": "48",
        "CountyCode": "48069",
        "STCYFIPS": "48069",
        "CITYCD": "481173140",
        "RAILROAD": "BNSF",
        "RRDIV": "KANSAS",
        "RRSUBDIV": "HEREFORD",
        "HIGHWAY": "FM1057",
        "STREET": "FM1057",
        "TTSTN": "674530",
        "MILEPOST": "0608.170",
        "TYPEXING": "Public",
        "POSXING": "At Grade",
        "PRVCAT": "14",
        "INIT": "2",
        "LATITUDE": 34.7352306,
        "LONGITUD": -102.5130027,
        "LLSOURCE": "1",
        "WHISTBAN": "0",
        "RRCONT": "8173521549",
        "POLCONT": "8008325452",
        "INV_LINK": "https://safetydata.fra.dot.gov/OfficeofSafety/PublicSite/Crossing/Crossing.aspx?phasetype=C&rpttype=I&txtcrossingnum=014755K",
        "ACC_LINK": "https://safetydata.fra.dot.gov/OfficeofSafety/PublicSite/Crossing/Crossing.aspx?phasetype=C&rpttype=A&txtcrossingnum=014755K",
        "TTSTNNAM": "SUMMERFIELD",
        "XPURPOSE": "1",
        "OPERATINGR": "BNSF",
        "OPERATIN_1": "Primary",
        "DAYTHRU": 37,
        "NGHTTHRU": 37,
        "MAINTRK": 2,
        "SIDINGTRK": 0,
        "YARDTRK": 0,
        "TRANSITTRK": 0,
        "INDUSTRYTR": 0,
        "OTHRTRK": 0,
        "WDCODE": "All other Gates",
        "REVISIONDA": "1996/01/01 00:00:00",
        "LASTUPDATE": "2/26/2026",
        "AADT": "458",
        "AADTYEAR": "2023",
        "STATENAME": "TEXAS",
        "STATEAB": "TX",
        "COUNTYNAME": "CASTRO",
        "CITYNAME": "HEREFORD",
        "LATDD": 34.7352306,
        "LONGDD": -102.5130027,
        "gridlyProductionCertified": true,
        "gridlyClassification": "PUBLIC_ROADWAY",
        "gridlyDisplayName": "FM1057",
        "gridlyId": "FRA-014755K"
      }
    }
  ]
}
