{
  "type": "FeatureCollection",
  "features": [
    {
      "type": "Feature",
      "id": 203593,
      "geometry": {
        "type": "Point",
        "coordinates": [
          -100.91872900014,
          35.5486243001675
        ]
      },
      "properties": {
        "OBJECTID": 203593,
        "CROSSING": "016610F",
        "EFFDATE": 1734393600000,
        "REASON": "14",
        "StateCode": "48",
        "CountyCode": "48179",
        "STCYFIPS": "48179",
        "CITYCD": "481795190",
        "RAILROAD": "BNSF",
        "RRDIV": "KANSAS",
        "RRSUBDIV": "PAMPA IND SPUR",
        "HIGHWAY": "CR",
        "STREET": "CR 0010",
        "TTSTN": "671830",
        "MILEPOST": "0002.161",
        "TYPEXING": "Public",
        "POSXING": "At Grade",
        "PRVCAT": "14",
        "INIT": "1",
        "LATITUDE": 35.5486243,
        "LONGITUD": -100.918729,
        "LLSOURCE": "1",
        "WHISTBAN": "0",
        "RRCONT": "8173521549",
        "POLCONT": "8008325452",
        "INV_LINK": "https://safetydata.fra.dot.gov/OfficeofSafety/PublicSite/Crossing/Crossing.aspx?phasetype=C&rpttype=I&txtcrossingnum=016610F",
        "ACC_LINK": "https://safetydata.fra.dot.gov/OfficeofSafety/PublicSite/Crossing/Crossing.aspx?phasetype=C&rpttype=A&txtcrossingnum=016610F",
        "TTSTNNAM": "PAMPA",
        "XPURPOSE": "1",
        "OPERATINGR": "BNSF",
        "OPERATIN_1": "Primary",
        "DAYTHRU": 0,
        "NGHTTHRU": 0,
        "MAINTRK": 0,
        "SIDINGTRK": 0,
        "YARDTRK": 1,
        "TRANSITTRK": 0,
        "INDUSTRYTR": 0,
        "OTHRTRK": 1,
        "WDCODE": "Crossbucks",
        "REVISIONDA": "1996/01/01 00:00:00",
        "LASTUPDATE": "12/17/2024",
        "AADT": "000010",
        "AADTYEAR": "1987",
        "STATENAME": "TEXAS",
        "STATEAB": "TX",
        "COUNTYNAME": "GRAY",
        "CITYNAME": "PAMPA",
        "LATDD": 35.5486243,
        "LONGDD": -100.918729,
        "gridlyProductionCertified": true,
        "gridlyClassification": "PUBLIC_ROADWAY",
        "gridlyDisplayName": "CR 0010",
        "gridlyId": "FRA-016610F"
      }
    },
    {
      "type": "Feature",
      "id": 203594,
      "geometry": {
        "type": "Point",
        "coordinates": [
          -100.909819999633,
          35.5486399996712
        ]
      },
      "properties": {
        "OBJECTID": 203594,
        "CROSSING": "016612U",
        "EFFDATE": 1734393600000,
        "REASON": "14",
        "StateCode": "48",
        "CountyCode": "48179",
        "STCYFIPS": "48179",
        "CITYCD": "481795190",
        "RAILROAD": "BNSF",
        "RRDIV": "KANSAS",
        "RRSUBDIV": "PAMPA IND SPUR",
        "HIGHWAY": "Not Yet Reported by State",
        "STREET": "PRIVATE",
        "TTSTN": "671830",
        "MILEPOST": "0002.656",
        "TYPEXING": "Private",
        "POSXING": "At Grade",
        "PRVCAT": "14",
        "INIT": "1",
        "LATITUDE": 35.54864,
        "LONGITUD": -100.90982,
        "LLSOURCE": "1",
        "WHISTBAN": "0",
        "RRCONT": "8173521549",
        "POLCONT": "8008325452",
        "INV_LINK": "https://safetydata.fra.dot.gov/OfficeofSafety/PublicSite/Crossing/Crossing.aspx?phasetype=C&rpttype=I&txtcrossingnum=016612U",
        "ACC_LINK": "https://safetydata.fra.dot.gov/OfficeofSafety/PublicSite/Crossing/Crossing.aspx?phasetype=C&rpttype=A&txtcrossingnum=016612U",
        "TTSTNNAM": "PAMPA",
        "XPURPOSE": "1",
        "OPERATINGR": "BNSF",
        "OPERATIN_1": "Primary",
        "DAYTHRU": 0,
        "NGHTTHRU": 0,
        "MAINTRK": 0,
        "SIDINGTRK": 0,
        "YARDTRK": 1,
        "TRANSITTRK": 0,
        "INDUSTRYTR": 0,
        "OTHRTRK": 1,
        "WDCODE": "",
        "REVISIONDA": "1996/01/01 00:00:00",
        "LASTUPDATE": "12/17/2024",
        "AADT": "",
        "AADTYEAR": "1983",
        "STATENAME": "TEXAS",
        "STATEAB": "TX",
        "COUNTYNAME": "GRAY",
        "CITYNAME": "PAMPA",
        "LATDD": 35.54864,
        "LONGDD": -100.90982,
        "gridlyProductionCertified": true,
        "gridlyClassification": "PUBLIC_ROADWAY",
        "gridlyDisplayName": "PRIVATE",
        "gridlyId": "FRA-016612U"
      }
    },
    {
      "type": "Feature",
      "id": 203601,
      "geometry": {
        "type": "Point",
        "coordinates": [
          -100.893639000356,
          35.5487869996475
        ]
      },
      "properties": {
        "OBJECTID": 203601,
        "CROSSING": "016613B",
        "EFFDATE": 1734393600000,
        "REASON": "14",
        "StateCode": "48",
        "CountyCode": "48179",
        "STCYFIPS": "48179",
        "CITYCD": "481795190",
        "RAILROAD": "BNSF",
        "RRDIV": "KANSAS",
        "RRSUBDIV": "PAMPA IND SPUR",
        "HIGHWAY": "Not Yet Reported by State",
        "STREET": "PRIVATE",
        "TTSTN": "671830",
        "MILEPOST": "0003.556",
        "TYPEXING": "Private",
        "POSXING": "At Grade",
        "PRVCAT": "14",
        "INIT": "1",
        "LATITUDE": 35.548787,
        "LONGITUD": -100.893639,
        "LLSOURCE": "1",
        "WHISTBAN": "0",
        "RRCONT": "8173521549",
        "POLCONT": "8008325452",
        "INV_LINK": "https://safetydata.fra.dot.gov/OfficeofSafety/PublicSite/Crossing/Crossing.aspx?phasetype=C&rpttype=I&txtcrossingnum=016613B",
        "ACC_LINK": "https://safetydata.fra.dot.gov/OfficeofSafety/PublicSite/Crossing/Crossing.aspx?phasetype=C&rpttype=A&txtcrossingnum=016613B",
        "TTSTNNAM": "PAMPA",
        "XPURPOSE": "1",
        "OPERATINGR": "BNSF",
        "OPERATIN_1": "Primary",
        "DAYTHRU": 0,
        "NGHTTHRU": 0,
        "MAINTRK": 0,
        "SIDINGTRK": 0,
        "YARDTRK": 1,
        "TRANSITTRK": 0,
        "INDUSTRYTR": 0,
        "OTHRTRK": 1,
        "WDCODE": "",
        "REVISIONDA": "1996/01/01 00:00:00",
        "LASTUPDATE": "12/17/2024",
        "AADT": "",
        "AADTYEAR": "1970",
        "STATENAME": "TEXAS",
        "STATEAB": "TX",
        "COUNTYNAME": "GRAY",
        "CITYNAME": "PAMPA",
        "LATDD": 35.548787,
        "LONGDD": -100.893639,
        "gridlyProductionCertified": true,
        "gridlyClassification": "PUBLIC_ROADWAY",
        "gridlyDisplayName": "PRIVATE",
        "gridlyId": "FRA-016613B"
      }
    },
    {
      "type": "Feature",
      "id": 204092,
      "geometry": {
        "type": "Point",
        "coordinates": [
          -101.007513799905,
          35.5127569001132
        ]
      },
      "properties": {
        "OBJECTID": 204092,
        "CROSSING": "014551Y",
        "EFFDATE": 1774396800000,
        "REASON": "14",
        "StateCode": "48",
        "CountyCode": "48179",
        "STCYFIPS": "48179",
        "CITYCD": "481795190",
        "RAILROAD": "BNSF",
        "RRDIV": "KANSAS",
        "RRSUBDIV": "PANHANDLE",
        "HIGHWAY": "CR0005",
        "STREET": "COUNTY ROAD 5",
        "TTSTN": "671830",
        "MILEPOST": "0501.992",
        "TYPEXING": "Public",
        "POSXING": "At Grade",
        "PRVCAT": "14",
        "INIT": "1",
        "LATITUDE": 35.5127569,
        "LONGITUD": -101.0075138,
        "LLSOURCE": "1",
        "WHISTBAN": "0",
        "RRCONT": "8173521549",
        "POLCONT": "8008325452",
        "INV_LINK": "https://safetydata.fra.dot.gov/OfficeofSafety/PublicSite/Crossing/Crossing.aspx?phasetype=C&rpttype=I&txtcrossingnum=014551Y",
        "ACC_LINK": "https://safetydata.fra.dot.gov/OfficeofSafety/PublicSite/Crossing/Crossing.aspx?phasetype=C&rpttype=A&txtcrossingnum=014551Y",
        "TTSTNNAM": "PAMPA",
        "XPURPOSE": "1",
        "OPERATINGR": "BNSF",
        "OPERATIN_1": "Primary",
        "DAYTHRU": 30,
        "NGHTTHRU": 29,
        "MAINTRK": 2,
        "SIDINGTRK": 0,
        "YARDTRK": 0,
        "TRANSITTRK": 0,
        "INDUSTRYTR": 0,
        "OTHRTRK": 0,
        "WDCODE": "All other Gates",
        "REVISIONDA": "1996/01/01 00:00:00",
        "LASTUPDATE": "3/25/2026",
        "AADT": "68",
        "AADTYEAR": "2020",
        "STATENAME": "TEXAS",
        "STATEAB": "TX",
        "COUNTYNAME": "GRAY",
        "CITYNAME": "PAMPA",
        "LATDD": 35.5127569,
        "LONGDD": -101.0075138,
        "gridlyProductionCertified": true,
        "gridlyClassification": "PUBLIC_ROADWAY",
        "gridlyDisplayName": "COUNTY ROAD 5",
        "gridlyId": "FRA-014551Y"
      }
    },
    {
      "type": "Feature",
      "id": 204095,
      "geometry": {
        "type": "Point",
        "coordinates": [
          -100.995354000302,
          35.5183772000003
        ]
      },
      "properties": {
        "OBJECTID": 204095,
        "CROSSING": "014550S",
        "EFFDATE": 1774396800000,
        "REASON": "14",
        "StateCode": "48",
        "CountyCode": "48179",
        "STCYFIPS": "48179",
        "CITYCD": "481795190",
        "RAILROAD": "BNSF",
        "RRDIV": "KANSAS",
        "RRSUBDIV": "PANHANDLE",
        "HIGHWAY": "Not Yet Reported by State",
        "STREET": "PRIVATE",
        "TTSTN": "671830",
        "MILEPOST": "0501.210",
        "TYPEXING": "Private",
        "POSXING": "At Grade",
        "PRVCAT": "14",
        "INIT": "1",
        "LATITUDE": 35.5183772,
        "LONGITUD": -100.995354,
        "LLSOURCE": "1",
        "WHISTBAN": "0",
        "RRCONT": "8173521549",
        "POLCONT": "8008325452",
        "INV_LINK": "https://safetydata.fra.dot.gov/OfficeofSafety/PublicSite/Crossing/Crossing.aspx?phasetype=C&rpttype=I&txtcrossingnum=014550S",
        "ACC_LINK": "https://safetydata.fra.dot.gov/OfficeofSafety/PublicSite/Crossing/Crossing.aspx?phasetype=C&rpttype=A&txtcrossingnum=014550S",
        "TTSTNNAM": "PAMPA",
        "XPURPOSE": "1",
        "OPERATINGR": "BNSF",
        "OPERATIN_1": "Primary",
        "DAYTHRU": 30,
        "NGHTTHRU": 29,
        "MAINTRK": 2,
        "SIDINGTRK": 0,
        "YARDTRK": 0,
        "TRANSITTRK": 0,
        "INDUSTRYTR": 0,
        "OTHRTRK": 0,
        "WDCODE": "",
        "REVISIONDA": "1996/01/01 00:00:00",
        "LASTUPDATE": "3/25/2026",
        "AADT": "",
        "AADTYEAR": "1970",
        "STATENAME": "TEXAS",
        "STATEAB": "TX",
        "COUNTYNAME": "GRAY",
        "CITYNAME": "PAMPA",
        "LATDD": 35.5183772,
        "LONGDD": -100.995354,
        "gridlyProductionCertified": true,
        "gridlyClassification": "PUBLIC_ROADWAY",
        "gridlyDisplayName": "PRIVATE",
        "gridlyId": "FRA-014550S"
      }
    },
    {
      "type": "Feature",
      "id": 205267,
      "geometry": {
        "type": "Point",
        "coordinates": [
          -101.078439799869,
          35.4799871003492
        ]
      },
      "properties": {
        "OBJECTID": 205267,
        "CROSSING": "014561E",
        "EFFDATE": 1774396800000,
        "REASON": "14",
        "StateCode": "48",
        "CountyCode": "48179",
        "STCYFIPS": "48179",
        "CITYCD": "480657430",
        "RAILROAD": "BNSF",
        "RRDIV": "KANSAS",
        "RRSUBDIV": "PANHANDLE",
        "HIGHWAY": "cr0001",
        "STREET": "west line road / aderwald road",
        "TTSTN": "671867",
        "MILEPOST": "0506.588",
        "TYPEXING": "Public",
        "POSXING": "At Grade",
        "PRVCAT": "14",
        "INIT": "1",
        "LATITUDE": 35.4799871,
        "LONGITUD": -101.0784398,
        "LLSOURCE": "1",
        "WHISTBAN": "0",
        "RRCONT": "8173521549",
        "POLCONT": "8008325452",
        "INV_LINK": "https://safetydata.fra.dot.gov/OfficeofSafety/PublicSite/Crossing/Crossing.aspx?phasetype=C&rpttype=I&txtcrossingnum=014561E",
        "ACC_LINK": "https://safetydata.fra.dot.gov/OfficeofSafety/PublicSite/Crossing/Crossing.aspx?phasetype=C&rpttype=A&txtcrossingnum=014561E",
        "TTSTNNAM": "KINGS MILL",
        "XPURPOSE": "1",
        "OPERATINGR": "BNSF",
        "OPERATIN_1": "Primary",
        "DAYTHRU": 32,
        "NGHTTHRU": 32,
        "MAINTRK": 2,
        "SIDINGTRK": 0,
        "YARDTRK": 0,
        "TRANSITTRK": 0,
        "INDUSTRYTR": 1,
        "OTHRTRK": 1,
        "WDCODE": "All other Gates",
        "REVISIONDA": "1996/01/01 00:00:00",
        "LASTUPDATE": "3/25/2026",
        "AADT": "6",
        "AADTYEAR": "2020",
        "STATENAME": "TEXAS",
        "STATEAB": "TX",
        "COUNTYNAME": "GRAY",
        "CITYNAME": "WHITE DEER",
        "LATDD": 35.4799871,
        "LONGDD": -101.0784398,
        "gridlyProductionCertified": true,
        "gridlyClassification": "PUBLIC_ROADWAY",
        "gridlyDisplayName": "west line road / aderwald road",
        "gridlyId": "FRA-014561E"
      }
    },
    {
      "type": "Feature",
      "id": 205310,
      "geometry": {
        "type": "Point",
        "coordinates": [
          -100.955780599735,
          35.5365924998061
        ]
      },
      "properties": {
        "OBJECTID": 205310,
        "CROSSING": "014543G",
        "EFFDATE": 1774396800000,
        "REASON": "14",
        "StateCode": "48",
        "CountyCode": "48179",
        "STCYFIPS": "48179",
        "CITYCD": "481795190",
        "RAILROAD": "BNSF",
        "RRDIV": "KANSAS",
        "RRSUBDIV": "PANHANDLE",
        "HIGHWAY": "LS0000",
        "STREET": "SOUTH STARKWEATHER STREET",
        "TTSTN": "671830",
        "MILEPOST": "0498.650",
        "TYPEXING": "Public",
        "POSXING": "At Grade",
        "PRVCAT": "14",
        "INIT": "1",
        "LATITUDE": 35.5365925,
        "LONGITUD": -100.9557806,
        "LLSOURCE": "1",
        "WHISTBAN": "0",
        "RRCONT": "8173521549",
        "POLCONT": "8008325452",
        "INV_LINK": "https://safetydata.fra.dot.gov/OfficeofSafety/PublicSite/Crossing/Crossing.aspx?phasetype=C&rpttype=I&txtcrossingnum=014543G",
        "ACC_LINK": "https://safetydata.fra.dot.gov/OfficeofSafety/PublicSite/Crossing/Crossing.aspx?phasetype=C&rpttype=A&txtcrossingnum=014543G",
        "TTSTNNAM": "PAMPA",
        "XPURPOSE": "1",
        "OPERATINGR": "BNSF",
        "OPERATIN_1": "Primary",
        "DAYTHRU": 30,
        "NGHTTHRU": 29,
        "MAINTRK": 2,
        "SIDINGTRK": 1,
        "YARDTRK": 1,
        "TRANSITTRK": 0,
        "INDUSTRYTR": 0,
        "OTHRTRK": 2,
        "WDCODE": "All other Gates",
        "REVISIONDA": "1996/01/01 00:00:00",
        "LASTUPDATE": "3/25/2026",
        "AADT": "3300",
        "AADTYEAR": "2020",
        "STATENAME": "TEXAS",
        "STATEAB": "TX",
        "COUNTYNAME": "GRAY",
        "CITYNAME": "PAMPA",
        "LATDD": 35.5365925,
        "LONGDD": -100.9557806,
        "gridlyProductionCertified": true,
        "gridlyClassification": "PUBLIC_ROADWAY",
        "gridlyDisplayName": "SOUTH STARKWEATHER STREET",
        "gridlyId": "FRA-014543G"
      }
    },
    {
      "type": "Feature",
      "id": 205427,
      "geometry": {
        "type": "Point",
        "coordinates": [
          -100.936316900391,
          35.545607400018
        ]
      },
      "properties": {
        "OBJECTID": 205427,
        "CROSSING": "014542A",
        "EFFDATE": 1774396800000,
        "REASON": "14",
        "StateCode": "48",
        "CountyCode": "48179",
        "STCYFIPS": "48179",
        "CITYCD": "481795190",
        "RAILROAD": "BNSF",
        "RRDIV": "KANSAS",
        "RRSUBDIV": "PANHANDLE",
        "HIGHWAY": "CR0009",
        "STREET": "GRAY COUNTY ROAD 9",
        "TTSTN": "671830",
        "MILEPOST": "0497.386",
        "TYPEXING": "Public",
        "POSXING": "At Grade",
        "PRVCAT": "14",
        "INIT": "1",
        "LATITUDE": 35.5456074,
        "LONGITUD": -100.9363169,
        "LLSOURCE": "1",
        "WHISTBAN": "0",
        "RRCONT": "8173521549",
        "POLCONT": "8008325452",
        "INV_LINK": "https://safetydata.fra.dot.gov/OfficeofSafety/PublicSite/Crossing/Crossing.aspx?phasetype=C&rpttype=I&txtcrossingnum=014542A",
        "ACC_LINK": "https://safetydata.fra.dot.gov/OfficeofSafety/PublicSite/Crossing/Crossing.aspx?phasetype=C&rpttype=A&txtcrossingnum=014542A",
        "TTSTNNAM": "PAMPA",
        "XPURPOSE": "1",
        "OPERATINGR": "BNSF",
        "OPERATIN_1": "Primary",
        "DAYTHRU": 30,
        "NGHTTHRU": 29,
        "MAINTRK": 2,
        "SIDINGTRK": 1,
        "YARDTRK": 1,
        "TRANSITTRK": 0,
        "INDUSTRYTR": 0,
        "OTHRTRK": 2,
        "WDCODE": "All other Gates",
        "REVISIONDA": "1996/01/01 00:00:00",
        "LASTUPDATE": "3/25/2026",
        "AADT": "116",
        "AADTYEAR": "2020",
        "STATENAME": "TEXAS",
        "STATEAB": "TX",
        "COUNTYNAME": "GRAY",
        "CITYNAME": "PAMPA",
        "LATDD": 35.5456074,
        "LONGDD": -100.9363169,
        "gridlyProductionCertified": true,
        "gridlyClassification": "PUBLIC_ROADWAY",
        "gridlyDisplayName": "GRAY COUNTY ROAD 9",
        "gridlyId": "FRA-014542A"
      }
    },
    {
      "type": "Feature",
      "id": 205442,
      "geometry": {
        "type": "Point",
        "coordinates": [
          -101.01650599968,
          35.5092220001099
        ]
      },
      "properties": {
        "OBJECTID": 205442,
        "CROSSING": "977620N",
        "EFFDATE": 1774396800000,
        "REASON": "14",
        "StateCode": "48",
        "CountyCode": "48179",
        "STCYFIPS": "48179",
        "CITYCD": "481795190",
        "RAILROAD": "BNSF",
        "RRDIV": "KANSAS",
        "RRSUBDIV": "PANHANDLE",
        "HIGHWAY": "PRIVATE",
        "STREET": "PRIVATE",
        "TTSTN": "",
        "MILEPOST": "0502.554",
        "TYPEXING": "Private",
        "POSXING": "At Grade",
        "PRVCAT": "14",
        "INIT": "1",
        "LATITUDE": 35.509222,
        "LONGITUD": -101.016506,
        "LLSOURCE": "1",
        "WHISTBAN": "",
        "RRCONT": "8173521549",
        "POLCONT": "8008325452",
        "INV_LINK": "https://safetydata.fra.dot.gov/OfficeofSafety/PublicSite/Crossing/Crossing.aspx?phasetype=C&rpttype=I&txtcrossingnum=977620N",
        "ACC_LINK": "https://safetydata.fra.dot.gov/OfficeofSafety/PublicSite/Crossing/Crossing.aspx?phasetype=C&rpttype=A&txtcrossingnum=977620N",
        "TTSTNNAM": "KINGS MILL",
        "XPURPOSE": "1",
        "OPERATINGR": "BNSF",
        "OPERATIN_1": "Primary",
        "DAYTHRU": 0,
        "NGHTTHRU": 0,
        "MAINTRK": 0,
        "SIDINGTRK": 0,
        "YARDTRK": 0,
        "TRANSITTRK": 0,
        "INDUSTRYTR": 2,
        "OTHRTRK": 0,
        "WDCODE": "",
        "REVISIONDA": "1996/01/01 00:00:00",
        "LASTUPDATE": "3/25/2026",
        "AADT": "",
        "AADTYEAR": "",
        "STATENAME": "TEXAS",
        "STATEAB": "TX",
        "COUNTYNAME": "GRAY",
        "CITYNAME": "PAMPA",
        "LATDD": 35.509222,
        "LONGDD": -101.016506,
        "gridlyProductionCertified": true,
        "gridlyClassification": "PUBLIC_ROADWAY",
        "gridlyDisplayName": "PRIVATE",
        "gridlyId": "FRA-977620N"
      }
    },
    {
      "type": "Feature",
      "id": 205460,
      "geometry": {
        "type": "Point",
        "coordinates": [
          -100.960492499658,
          35.5343977999449
        ]
      },
      "properties": {
        "OBJECTID": 205460,
        "CROSSING": "014544N",
        "EFFDATE": 1774396800000,
        "REASON": "14",
        "StateCode": "48",
        "CountyCode": "48179",
        "STCYFIPS": "48179",
        "CITYCD": "481795190",
        "RAILROAD": "BNSF",
        "RRDIV": "KANSAS",
        "RRSUBDIV": "PANHANDLE",
        "HIGHWAY": "LS0000",
        "STREET": "CUYLER STREET",
        "TTSTN": "671830",
        "MILEPOST": "0498.901",
        "TYPEXING": "Public",
        "POSXING": "RR Over",
        "PRVCAT": "14",
        "INIT": "1",
        "LATITUDE": 35.5343978,
        "LONGITUD": -100.9604925,
        "LLSOURCE": "1",
        "WHISTBAN": "0",
        "RRCONT": "8173521549",
        "POLCONT": "8008325452",
        "INV_LINK": "https://safetydata.fra.dot.gov/OfficeofSafety/PublicSite/Crossing/Crossing.aspx?phasetype=C&rpttype=I&txtcrossingnum=014544N",
        "ACC_LINK": "https://safetydata.fra.dot.gov/OfficeofSafety/PublicSite/Crossing/Crossing.aspx?phasetype=C&rpttype=A&txtcrossingnum=014544N",
        "TTSTNNAM": "PAMPA",
        "XPURPOSE": "1",
        "OPERATINGR": "BNSF",
        "OPERATIN_1": "Primary",
        "DAYTHRU": 15,
        "NGHTTHRU": 15,
        "MAINTRK": 1,
        "SIDINGTRK": 0,
        "YARDTRK": 0,
        "TRANSITTRK": 0,
        "INDUSTRYTR": 0,
        "OTHRTRK": 0,
        "WDCODE": "",
        "REVISIONDA": "1996/01/01 00:00:00",
        "LASTUPDATE": "3/25/2026",
        "AADT": "3767",
        "AADTYEAR": "2015",
        "STATENAME": "TEXAS",
        "STATEAB": "TX",
        "COUNTYNAME": "GRAY",
        "CITYNAME": "PAMPA",
        "LATDD": 35.5343978,
        "LONGDD": -100.9604925,
        "gridlyProductionCertified": true,
        "gridlyClassification": "PUBLIC_ROADWAY",
        "gridlyDisplayName": "CUYLER STREET",
        "gridlyId": "FRA-014544N"
      }
    },
    {
      "type": "Feature",
      "id": 205693,
      "geometry": {
        "type": "Point",
        "coordinates": [
          -100.847921000177,
          35.5933756003086
        ]
      },
      "properties": {
        "OBJECTID": 205693,
        "CROSSING": "014540L",
        "EFFDATE": 1774396800000,
        "REASON": "14",
        "StateCode": "48",
        "CountyCode": "48179",
        "STCYFIPS": "48179",
        "CITYCD": "481795190",
        "RAILROAD": "BNSF",
        "RRDIV": "KANSAS",
        "RRSUBDIV": "PANHANDLE",
        "HIGHWAY": "FM2391",
        "STREET": "FM2391",
        "TTSTN": "671823",
        "MILEPOST": "0491.181",
        "TYPEXING": "Public",
        "POSXING": "At Grade",
        "PRVCAT": "14",
        "INIT": "1",
        "LATITUDE": 35.5933756,
        "LONGITUD": -100.847921,
        "LLSOURCE": "1",
        "WHISTBAN": "0",
        "RRCONT": "8173521549",
        "POLCONT": "8008325452",
        "INV_LINK": "https://safetydata.fra.dot.gov/OfficeofSafety/PublicSite/Crossing/Crossing.aspx?phasetype=C&rpttype=I&txtcrossingnum=014540L",
        "ACC_LINK": "https://safetydata.fra.dot.gov/OfficeofSafety/PublicSite/Crossing/Crossing.aspx?phasetype=C&rpttype=A&txtcrossingnum=014540L",
        "TTSTNNAM": "HOOVER",
        "XPURPOSE": "1",
        "OPERATINGR": "BNSF",
        "OPERATIN_1": "Primary",
        "DAYTHRU": 29,
        "NGHTTHRU": 29,
        "MAINTRK": 2,
        "SIDINGTRK": 0,
        "YARDTRK": 0,
        "TRANSITTRK": 0,
        "INDUSTRYTR": 0,
        "OTHRTRK": 0,
        "WDCODE": "All other Gates",
        "REVISIONDA": "1996/01/01 00:00:00",
        "LASTUPDATE": "3/25/2026",
        "AADT": "14",
        "AADTYEAR": "2023",
        "STATENAME": "TEXAS",
        "STATEAB": "TX",
        "COUNTYNAME": "GRAY",
        "CITYNAME": "PAMPA",
        "LATDD": 35.5933756,
        "LONGDD": -100.847921,
        "gridlyProductionCertified": true,
        "gridlyClassification": "PUBLIC_ROADWAY",
        "gridlyDisplayName": "FM2391",
        "gridlyId": "FRA-014540L"
      }
    },
    {
      "type": "Feature",
      "id": 205907,
      "geometry": {
        "type": "Point",
        "coordinates": [
          -101.043909499985,
          35.4954697996499
        ]
      },
      "properties": {
        "OBJECTID": 205907,
        "CROSSING": "014557P",
        "EFFDATE": 1774396800000,
        "REASON": "14",
        "StateCode": "48",
        "CountyCode": "48179",
        "STCYFIPS": "48179",
        "CITYCD": "481795190",
        "RAILROAD": "BNSF",
        "RRDIV": "KANSAS",
        "RRSUBDIV": "PANHANDLE",
        "HIGHWAY": "US0060",
        "STREET": "US0060",
        "TTSTN": "671867",
        "MILEPOST": "0504.291",
        "TYPEXING": "Public",
        "POSXING": "At Grade",
        "PRVCAT": "14",
        "INIT": "1",
        "LATITUDE": 35.4954698,
        "LONGITUD": -101.0439095,
        "LLSOURCE": "1",
        "WHISTBAN": "0",
        "RRCONT": "8173521549",
        "POLCONT": "8008325452",
        "INV_LINK": "https://safetydata.fra.dot.gov/OfficeofSafety/PublicSite/Crossing/Crossing.aspx?phasetype=C&rpttype=I&txtcrossingnum=014557P",
        "ACC_LINK": "https://safetydata.fra.dot.gov/OfficeofSafety/PublicSite/Crossing/Crossing.aspx?phasetype=C&rpttype=A&txtcrossingnum=014557P",
        "TTSTNNAM": "KINGS MILL",
        "XPURPOSE": "1",
        "OPERATINGR": "BNSF",
        "OPERATIN_1": "Primary",
        "DAYTHRU": 15,
        "NGHTTHRU": 15,
        "MAINTRK": 1,
        "SIDINGTRK": 0,
        "YARDTRK": 0,
        "TRANSITTRK": 0,
        "INDUSTRYTR": 0,
        "OTHRTRK": 1,
        "WDCODE": "Flashing lights",
        "REVISIONDA": "1996/01/01 00:00:00",
        "LASTUPDATE": "3/25/2026",
        "AADT": "7071",
        "AADTYEAR": "2023",
        "STATENAME": "TEXAS",
        "STATEAB": "TX",
        "COUNTYNAME": "GRAY",
        "CITYNAME": "PAMPA",
        "LATDD": 35.4954698,
        "LONGDD": -101.0439095,
        "gridlyProductionCertified": true,
        "gridlyClassification": "PUBLIC_ROADWAY",
        "gridlyDisplayName": "US0060",
        "gridlyId": "FRA-014557P"
      }
    },
    {
      "type": "Feature",
      "id": 205928,
      "geometry": {
        "type": "Point",
        "coordinates": [
          -100.989647700394,
          35.5209678002965
        ]
      },
      "properties": {
        "OBJECTID": 205928,
        "CROSSING": "014549X",
        "EFFDATE": 1774396800000,
        "REASON": "14",
        "StateCode": "48",
        "CountyCode": "48179",
        "STCYFIPS": "48179",
        "CITYCD": "481795190",
        "RAILROAD": "BNSF",
        "RRDIV": "KANSAS",
        "RRSUBDIV": "PANHANDLE",
        "HIGHWAY": "FM0282",
        "STREET": "FM0282 / SOUTH PRICE ROAD",
        "TTSTN": "671830",
        "MILEPOST": "0500.838",
        "TYPEXING": "Public",
        "POSXING": "At Grade",
        "PRVCAT": "14",
        "INIT": "1",
        "LATITUDE": 35.5209678,
        "LONGITUD": -100.9896477,
        "LLSOURCE": "1",
        "WHISTBAN": "0",
        "RRCONT": "8173521549",
        "POLCONT": "8008325452",
        "INV_LINK": "https://safetydata.fra.dot.gov/OfficeofSafety/PublicSite/Crossing/Crossing.aspx?phasetype=C&rpttype=I&txtcrossingnum=014549X",
        "ACC_LINK": "https://safetydata.fra.dot.gov/OfficeofSafety/PublicSite/Crossing/Crossing.aspx?phasetype=C&rpttype=A&txtcrossingnum=014549X",
        "TTSTNNAM": "PAMPA",
        "XPURPOSE": "1",
        "OPERATINGR": "BNSF",
        "OPERATIN_1": "Primary",
        "DAYTHRU": 30,
        "NGHTTHRU": 29,
        "MAINTRK": 2,
        "SIDINGTRK": 0,
        "YARDTRK": 0,
        "TRANSITTRK": 0,
        "INDUSTRYTR": 0,
        "OTHRTRK": 0,
        "WDCODE": "All other Gates",
        "REVISIONDA": "1996/01/01 00:00:00",
        "LASTUPDATE": "3/25/2026",
        "AADT": "3592",
        "AADTYEAR": "2023",
        "STATENAME": "TEXAS",
        "STATEAB": "TX",
        "COUNTYNAME": "GRAY",
        "CITYNAME": "PAMPA",
        "LATDD": 35.5209678,
        "LONGDD": -100.9896477,
        "gridlyProductionCertified": true,
        "gridlyClassification": "PUBLIC_ROADWAY",
        "gridlyDisplayName": "FM0282 / SOUTH PRICE ROAD",
        "gridlyId": "FRA-014549X"
      }
    },
    {
      "type": "Feature",
      "id": 206892,
      "geometry": {
        "type": "Point",
        "coordinates": [
          -100.931216000306,
          35.5475491999004
        ]
      },
      "properties": {
        "OBJECTID": 206892,
        "CROSSING": "014541T",
        "EFFDATE": 1774396800000,
        "REASON": "14",
        "StateCode": "48",
        "CountyCode": "48179",
        "STCYFIPS": "48179",
        "CITYCD": "481795190",
        "RAILROAD": "BNSF",
        "RRDIV": "KANSAS",
        "RRSUBDIV": "PANHANDLE",
        "HIGHWAY": "LP0171",
        "STREET": "LP0171",
        "TTSTN": "671830",
        "MILEPOST": "0497.078",
        "TYPEXING": "Public",
        "POSXING": "RR Under",
        "PRVCAT": "14",
        "INIT": "1",
        "LATITUDE": 35.5475492,
        "LONGITUD": -100.931216,
        "LLSOURCE": "1",
        "WHISTBAN": "0",
        "RRCONT": "8173521549",
        "POLCONT": "8008325452",
        "INV_LINK": "https://safetydata.fra.dot.gov/OfficeofSafety/PublicSite/Crossing/Crossing.aspx?phasetype=C&rpttype=I&txtcrossingnum=014541T",
        "ACC_LINK": "https://safetydata.fra.dot.gov/OfficeofSafety/PublicSite/Crossing/Crossing.aspx?phasetype=C&rpttype=A&txtcrossingnum=014541T",
        "TTSTNNAM": "PAMPA",
        "XPURPOSE": "1",
        "OPERATINGR": "BNSF",
        "OPERATIN_1": "Primary",
        "DAYTHRU": 14,
        "NGHTTHRU": 13,
        "MAINTRK": 1,
        "SIDINGTRK": 0,
        "YARDTRK": 0,
        "TRANSITTRK": 0,
        "INDUSTRYTR": 0,
        "OTHRTRK": 0,
        "WDCODE": "",
        "REVISIONDA": "1996/01/01 00:00:00",
        "LASTUPDATE": "3/25/2026",
        "AADT": "2544",
        "AADTYEAR": "2024",
        "STATENAME": "TEXAS",
        "STATEAB": "TX",
        "COUNTYNAME": "GRAY",
        "CITYNAME": "PAMPA",
        "LATDD": 35.5475492,
        "LONGDD": -100.931216,
        "gridlyProductionCertified": true,
        "gridlyClassification": "PUBLIC_ROADWAY",
        "gridlyDisplayName": "LP0171",
        "gridlyId": "FRA-014541T"
      }
    },
    {
      "type": "Feature",
      "id": 206893,
      "geometry": {
        "type": "Point",
        "coordinates": [
          -101.042993499568,
          35.496353400217
        ]
      },
      "properties": {
        "OBJECTID": 206893,
        "CROSSING": "014556H",
        "EFFDATE": 1774396800000,
        "REASON": "14",
        "StateCode": "48",
        "CountyCode": "48179",
        "STCYFIPS": "48179",
        "CITYCD": "481795190",
        "RAILROAD": "BNSF",
        "RRDIV": "KANSAS",
        "RRSUBDIV": "PANHANDLE",
        "HIGHWAY": "cr0003",
        "STREET": "County Road 3",
        "TTSTN": "671867",
        "MILEPOST": "0504.296",
        "TYPEXING": "Public",
        "POSXING": "At Grade",
        "PRVCAT": "14",
        "INIT": "1",
        "LATITUDE": 35.4963534,
        "LONGITUD": -101.0429935,
        "LLSOURCE": "1",
        "WHISTBAN": "0",
        "RRCONT": "8173521549",
        "POLCONT": "8008325452",
        "INV_LINK": "https://safetydata.fra.dot.gov/OfficeofSafety/PublicSite/Crossing/Crossing.aspx?phasetype=C&rpttype=I&txtcrossingnum=014556H",
        "ACC_LINK": "https://safetydata.fra.dot.gov/OfficeofSafety/PublicSite/Crossing/Crossing.aspx?phasetype=C&rpttype=A&txtcrossingnum=014556H",
        "TTSTNNAM": "KINGS MILL",
        "XPURPOSE": "1",
        "OPERATINGR": "BNSF",
        "OPERATIN_1": "Primary",
        "DAYTHRU": 30,
        "NGHTTHRU": 29,
        "MAINTRK": 2,
        "SIDINGTRK": 0,
        "YARDTRK": 0,
        "TRANSITTRK": 0,
        "INDUSTRYTR": 0,
        "OTHRTRK": 2,
        "WDCODE": "All other Gates",
        "REVISIONDA": "1996/01/01 00:00:00",
        "LASTUPDATE": "3/25/2026",
        "AADT": "641",
        "AADTYEAR": "2023",
        "STATENAME": "TEXAS",
        "STATEAB": "TX",
        "COUNTYNAME": "GRAY",
        "CITYNAME": "PAMPA",
        "LATDD": 35.4963534,
        "LONGDD": -101.0429935,
        "gridlyProductionCertified": true,
        "gridlyClassification": "PUBLIC_ROADWAY",
        "gridlyDisplayName": "County Road 3",
        "gridlyId": "FRA-014556H"
      }
    },
    {
      "type": "Feature",
      "id": 213824,
      "geometry": {
        "type": "Point",
        "coordinates": [
          -100.931605199895,
          35.5477984003419
        ]
      },
      "properties": {
        "OBJECTID": 213824,
        "CROSSING": "016609L",
        "EFFDATE": 1774396800000,
        "REASON": "14",
        "StateCode": "48",
        "CountyCode": "48179",
        "STCYFIPS": "48179",
        "CITYCD": "481795190",
        "RAILROAD": "BNSF",
        "RRDIV": "KANSAS",
        "RRSUBDIV": "PANHANDLE",
        "HIGHWAY": "LP0171",
        "STREET": "LP0171",
        "TTSTN": "671830",
        "MILEPOST": "0497.085",
        "TYPEXING": "Public",
        "POSXING": "RR Under",
        "PRVCAT": "14",
        "INIT": "1",
        "LATITUDE": 35.5477984,
        "LONGITUD": -100.9316052,
        "LLSOURCE": "1",
        "WHISTBAN": "0",
        "RRCONT": "8173521549",
        "POLCONT": "8008325452",
        "INV_LINK": "https://safetydata.fra.dot.gov/OfficeofSafety/PublicSite/Crossing/Crossing.aspx?phasetype=C&rpttype=I&txtcrossingnum=016609L",
        "ACC_LINK": "https://safetydata.fra.dot.gov/OfficeofSafety/PublicSite/Crossing/Crossing.aspx?phasetype=C&rpttype=A&txtcrossingnum=016609L",
        "TTSTNNAM": "PAMPA",
        "XPURPOSE": "1",
        "OPERATINGR": "BNSF",
        "OPERATIN_1": "Primary",
        "DAYTHRU": 14,
        "NGHTTHRU": 13,
        "MAINTRK": 1,
        "SIDINGTRK": 0,
        "YARDTRK": 0,
        "TRANSITTRK": 0,
        "INDUSTRYTR": 0,
        "OTHRTRK": 1,
        "WDCODE": "",
        "REVISIONDA": "1996/01/01 00:00:00",
        "LASTUPDATE": "3/25/2026",
        "AADT": "2544",
        "AADTYEAR": "2024",
        "STATENAME": "TEXAS",
        "STATEAB": "TX",
        "COUNTYNAME": "GRAY",
        "CITYNAME": "PAMPA",
        "LATDD": 35.5477984,
        "LONGDD": -100.9316052,
        "gridlyProductionCertified": true,
        "gridlyClassification": "PUBLIC_ROADWAY",
        "gridlyDisplayName": "LP0171",
        "gridlyId": "FRA-016609L"
      }
    },
    {
      "type": "Feature",
      "id": 213874,
      "geometry": {
        "type": "Point",
        "coordinates": [
          -101.057617399556,
          35.4891358000005
        ]
      },
      "properties": {
        "OBJECTID": 213874,
        "CROSSING": "014634M",
        "EFFDATE": 1767830400000,
        "REASON": "14",
        "StateCode": "48",
        "CountyCode": "48065",
        "STCYFIPS": "48065",
        "CITYCD": "481795190",
        "RAILROAD": "BNSF",
        "RRDIV": "KANSAS",
        "RRSUBDIV": "PANHANDLE",
        "HIGHWAY": "US0060",
        "STREET": "US0060",
        "TTSTN": "671867",
        "MILEPOST": "0505.264",
        "TYPEXING": "Public",
        "POSXING": "At Grade",
        "PRVCAT": "14",
        "INIT": "2",
        "LATITUDE": 35.4891358,
        "LONGITUD": -101.0576174,
        "LLSOURCE": "1",
        "WHISTBAN": "0",
        "RRCONT": "8173521549",
        "POLCONT": "8008325452",
        "INV_LINK": "https://safetydata.fra.dot.gov/OfficeofSafety/PublicSite/Crossing/Crossing.aspx?phasetype=C&rpttype=I&txtcrossingnum=014634M",
        "ACC_LINK": "https://safetydata.fra.dot.gov/OfficeofSafety/PublicSite/Crossing/Crossing.aspx?phasetype=C&rpttype=A&txtcrossingnum=014634M",
        "TTSTNNAM": "KINGS MILL",
        "XPURPOSE": "1",
        "OPERATINGR": "BNSF",
        "OPERATIN_1": "Primary",
        "DAYTHRU": 0,
        "NGHTTHRU": 0,
        "MAINTRK": 0,
        "SIDINGTRK": 0,
        "YARDTRK": 0,
        "TRANSITTRK": 0,
        "INDUSTRYTR": 1,
        "OTHRTRK": 1,
        "WDCODE": "Flashing lights",
        "REVISIONDA": "1996/01/01 00:00:00",
        "LASTUPDATE": "1/8/2026",
        "AADT": "5923",
        "AADTYEAR": "2024",
        "STATENAME": "TEXAS",
        "STATEAB": "TX",
        "COUNTYNAME": "CARSON",
        "CITYNAME": "PAMPA",
        "LATDD": 35.4891358,
        "LONGDD": -101.0576174,
        "gridlyProductionCertified": true,
        "gridlyClassification": "PUBLIC_ROADWAY",
        "gridlyDisplayName": "US0060",
        "gridlyId": "FRA-014634M"
      }
    },
    {
      "type": "Feature",
      "id": 216287,
      "geometry": {
        "type": "Point",
        "coordinates": [
          -100.8832269998,
          35.5489191002291
        ]
      },
      "properties": {
        "OBJECTID": 216287,
        "CROSSING": "016614H",
        "EFFDATE": 1773014400000,
        "REASON": "14",
        "StateCode": "48",
        "CountyCode": "48179",
        "STCYFIPS": "48179",
        "CITYCD": "481795190",
        "RAILROAD": "BNSF",
        "RRDIV": "KANSAS",
        "RRSUBDIV": "PAMPA IND SPUR",
        "HIGHWAY": "CR0012",
        "STREET": "COUNTY ROAD 12",
        "TTSTN": "671830",
        "MILEPOST": "0004.134",
        "TYPEXING": "Public",
        "POSXING": "At Grade",
        "PRVCAT": "14",
        "INIT": "2",
        "LATITUDE": 35.5489191,
        "LONGITUD": -100.883227,
        "LLSOURCE": "1",
        "WHISTBAN": "0",
        "RRCONT": "8173521549",
        "POLCONT": "8008325452",
        "INV_LINK": "https://safetydata.fra.dot.gov/OfficeofSafety/PublicSite/Crossing/Crossing.aspx?phasetype=C&rpttype=I&txtcrossingnum=016614H",
        "ACC_LINK": "https://safetydata.fra.dot.gov/OfficeofSafety/PublicSite/Crossing/Crossing.aspx?phasetype=C&rpttype=A&txtcrossingnum=016614H",
        "TTSTNNAM": "PAMPA",
        "XPURPOSE": "1",
        "OPERATINGR": "BNSF",
        "OPERATIN_1": "Primary",
        "DAYTHRU": 0,
        "NGHTTHRU": 0,
        "MAINTRK": 0,
        "SIDINGTRK": 0,
        "YARDTRK": 0,
        "TRANSITTRK": 0,
        "INDUSTRYTR": 0,
        "OTHRTRK": 1,
        "WDCODE": "Crossbucks",
        "REVISIONDA": "1996/01/01 00:00:00",
        "LASTUPDATE": "3/9/2026",
        "AADT": "414",
        "AADTYEAR": "2020",
        "STATENAME": "TEXAS",
        "STATEAB": "TX",
        "COUNTYNAME": "GRAY",
        "CITYNAME": "PAMPA",
        "LATDD": 35.5489191,
        "LONGDD": -100.883227,
        "gridlyProductionCertified": true,
        "gridlyClassification": "PUBLIC_ROADWAY",
        "gridlyDisplayName": "COUNTY ROAD 12",
        "gridlyId": "FRA-016614H"
      }
    },
    {
      "type": "Feature",
      "id": 216288,
      "geometry": {
        "type": "Point",
        "coordinates": [
          -100.966403799604,
          35.5286538003258
        ]
      },
      "properties": {
        "OBJECTID": 216288,
        "CROSSING": "014547J",
        "EFFDATE": 1773014400000,
        "REASON": "14",
        "StateCode": "48",
        "CountyCode": "48179",
        "STCYFIPS": "48179",
        "CITYCD": "481795190",
        "RAILROAD": "BNSF",
        "RRDIV": "KANSAS",
        "RRSUBDIV": "PANHANDLE",
        "HIGHWAY": "US0060",
        "STREET": "US0060 / WEST BROWN STREET",
        "TTSTN": "671830",
        "MILEPOST": "0499.557",
        "TYPEXING": "Public",
        "POSXING": "At Grade",
        "PRVCAT": "14",
        "INIT": "2",
        "LATITUDE": 35.5286538,
        "LONGITUD": -100.9664038,
        "LLSOURCE": "1",
        "WHISTBAN": "0",
        "RRCONT": "8173521549",
        "POLCONT": "8008325452",
        "INV_LINK": "https://safetydata.fra.dot.gov/OfficeofSafety/PublicSite/Crossing/Crossing.aspx?phasetype=C&rpttype=I&txtcrossingnum=014547J",
        "ACC_LINK": "https://safetydata.fra.dot.gov/OfficeofSafety/PublicSite/Crossing/Crossing.aspx?phasetype=C&rpttype=A&txtcrossingnum=014547J",
        "TTSTNNAM": "PAMPA",
        "XPURPOSE": "1",
        "OPERATINGR": "BNSF",
        "OPERATIN_1": "Primary",
        "DAYTHRU": 32,
        "NGHTTHRU": 32,
        "MAINTRK": 0,
        "SIDINGTRK": 0,
        "YARDTRK": 0,
        "TRANSITTRK": 0,
        "INDUSTRYTR": 1,
        "OTHRTRK": 1,
        "WDCODE": "Crossbucks",
        "REVISIONDA": "1996/01/01 00:00:00",
        "LASTUPDATE": "3/9/2026",
        "AADT": "6581",
        "AADTYEAR": "2023",
        "STATENAME": "TEXAS",
        "STATEAB": "TX",
        "COUNTYNAME": "GRAY",
        "CITYNAME": "PAMPA",
        "LATDD": 35.5286538,
        "LONGDD": -100.9664038,
        "gridlyProductionCertified": true,
        "gridlyClassification": "PUBLIC_ROADWAY",
        "gridlyDisplayName": "US0060 / WEST BROWN STREET",
        "gridlyId": "FRA-014547J"
      }
    },
    {
      "type": "Feature",
      "id": 216318,
      "geometry": {
        "type": "Point",
        "coordinates": [
          -101.032371000385,
          35.5012959998117
        ]
      },
      "properties": {
        "OBJECTID": 216318,
        "CROSSING": "014554U",
        "EFFDATE": 1774396800000,
        "REASON": "14",
        "StateCode": "48",
        "CountyCode": "48179",
        "STCYFIPS": "48179",
        "CITYCD": "481795190",
        "RAILROAD": "BNSF",
        "RRDIV": "KANSAS",
        "RRSUBDIV": "PANHANDLE",
        "HIGHWAY": "Not Yet Reported by State",
        "STREET": "ING RAND PLANT",
        "TTSTN": "671867",
        "MILEPOST": "0503.606",
        "TYPEXING": "Private",
        "POSXING": "At Grade",
        "PRVCAT": "14",
        "INIT": "1",
        "LATITUDE": 35.501296,
        "LONGITUD": -101.032371,
        "LLSOURCE": "1",
        "WHISTBAN": "0",
        "RRCONT": "8173521549",
        "POLCONT": "8008325452",
        "INV_LINK": "https://safetydata.fra.dot.gov/OfficeofSafety/PublicSite/Crossing/Crossing.aspx?phasetype=C&rpttype=I&txtcrossingnum=014554U",
        "ACC_LINK": "https://safetydata.fra.dot.gov/OfficeofSafety/PublicSite/Crossing/Crossing.aspx?phasetype=C&rpttype=A&txtcrossingnum=014554U",
        "TTSTNNAM": "KINGS MILL",
        "XPURPOSE": "1",
        "OPERATINGR": "BNSF",
        "OPERATIN_1": "Primary",
        "DAYTHRU": 30,
        "NGHTTHRU": 29,
        "MAINTRK": 2,
        "SIDINGTRK": 0,
        "YARDTRK": 0,
        "TRANSITTRK": 0,
        "INDUSTRYTR": 0,
        "OTHRTRK": 0,
        "WDCODE": "",
        "REVISIONDA": "1996/01/01 00:00:00",
        "LASTUPDATE": "3/25/2026",
        "AADT": "",
        "AADTYEAR": "1978",
        "STATENAME": "TEXAS",
        "STATEAB": "TX",
        "COUNTYNAME": "GRAY",
        "CITYNAME": "PAMPA",
        "LATDD": 35.501296,
        "LONGDD": -101.032371,
        "gridlyProductionCertified": true,
        "gridlyClassification": "PUBLIC_ROADWAY",
        "gridlyDisplayName": "ING RAND PLANT",
        "gridlyId": "FRA-014554U"
      }
    },
    {
      "type": "Feature",
      "id": 216336,
      "geometry": {
        "type": "Point",
        "coordinates": [
          -101.01583000036,
          35.5089336997757
        ]
      },
      "properties": {
        "OBJECTID": 216336,
        "CROSSING": "014552F",
        "EFFDATE": 1774396800000,
        "REASON": "14",
        "StateCode": "48",
        "CountyCode": "48179",
        "STCYFIPS": "48179",
        "CITYCD": "481795190",
        "RAILROAD": "BNSF",
        "RRDIV": "KANSAS",
        "RRSUBDIV": "PANHANDLE",
        "HIGHWAY": "Not Yet Reported by State",
        "STREET": "CABOT PLANT",
        "TTSTN": "671867",
        "MILEPOST": "0502.534",
        "TYPEXING": "Private",
        "POSXING": "At Grade",
        "PRVCAT": "14",
        "INIT": "1",
        "LATITUDE": 35.5089337,
        "LONGITUD": -101.01583,
        "LLSOURCE": "1",
        "WHISTBAN": "0",
        "RRCONT": "8173521549",
        "POLCONT": "8008325452",
        "INV_LINK": "https://safetydata.fra.dot.gov/OfficeofSafety/PublicSite/Crossing/Crossing.aspx?phasetype=C&rpttype=I&txtcrossingnum=014552F",
        "ACC_LINK": "https://safetydata.fra.dot.gov/OfficeofSafety/PublicSite/Crossing/Crossing.aspx?phasetype=C&rpttype=A&txtcrossingnum=014552F",
        "TTSTNNAM": "KINGS MILL",
        "XPURPOSE": "1",
        "OPERATINGR": "BNSF",
        "OPERATIN_1": "Primary",
        "DAYTHRU": 30,
        "NGHTTHRU": 29,
        "MAINTRK": 2,
        "SIDINGTRK": 0,
        "YARDTRK": 0,
        "TRANSITTRK": 0,
        "INDUSTRYTR": 0,
        "OTHRTRK": 0,
        "WDCODE": "",
        "REVISIONDA": "1996/01/01 00:00:00",
        "LASTUPDATE": "3/25/2026",
        "AADT": "000310",
        "AADTYEAR": "1984",
        "STATENAME": "TEXAS",
        "STATEAB": "TX",
        "COUNTYNAME": "GRAY",
        "CITYNAME": "PAMPA",
        "LATDD": 35.5089337,
        "LONGDD": -101.01583,
        "gridlyProductionCertified": true,
        "gridlyClassification": "PUBLIC_ROADWAY",
        "gridlyDisplayName": "CABOT PLANT",
        "gridlyId": "FRA-014552F"
      }
    },
    {
      "type": "Feature",
      "id": 216339,
      "geometry": {
        "type": "Point",
        "coordinates": [
          -100.971832800363,
          35.5291805999038
        ]
      },
      "properties": {
        "OBJECTID": 216339,
        "CROSSING": "014548R",
        "EFFDATE": 1774396800000,
        "REASON": "14",
        "StateCode": "48",
        "CountyCode": "48179",
        "STCYFIPS": "48179",
        "CITYCD": "481795190",
        "RAILROAD": "BNSF",
        "RRDIV": "KANSAS",
        "RRSUBDIV": "PANHANDLE",
        "HIGHWAY": "SH0070",
        "STREET": "SH0070 / S HOBART STREET",
        "TTSTN": "671830",
        "MILEPOST": "0499.701",
        "TYPEXING": "Public",
        "POSXING": "RR Over",
        "PRVCAT": "14",
        "INIT": "1",
        "LATITUDE": 35.5291806,
        "LONGITUD": -100.9718328,
        "LLSOURCE": "1",
        "WHISTBAN": "0",
        "RRCONT": "8173521549",
        "POLCONT": "8008325452",
        "INV_LINK": "https://safetydata.fra.dot.gov/OfficeofSafety/PublicSite/Crossing/Crossing.aspx?phasetype=C&rpttype=I&txtcrossingnum=014548R",
        "ACC_LINK": "https://safetydata.fra.dot.gov/OfficeofSafety/PublicSite/Crossing/Crossing.aspx?phasetype=C&rpttype=A&txtcrossingnum=014548R",
        "TTSTNNAM": "PAMPA",
        "XPURPOSE": "1",
        "OPERATINGR": "BNSF",
        "OPERATIN_1": "Primary",
        "DAYTHRU": 15,
        "NGHTTHRU": 15,
        "MAINTRK": 1,
        "SIDINGTRK": 0,
        "YARDTRK": 0,
        "TRANSITTRK": 0,
        "INDUSTRYTR": 0,
        "OTHRTRK": 0,
        "WDCODE": "",
        "REVISIONDA": "1996/01/01 00:00:00",
        "LASTUPDATE": "3/25/2026",
        "AADT": "11520",
        "AADTYEAR": "2024",
        "STATENAME": "TEXAS",
        "STATEAB": "TX",
        "COUNTYNAME": "GRAY",
        "CITYNAME": "PAMPA",
        "LATDD": 35.5291806,
        "LONGDD": -100.9718328,
        "gridlyProductionCertified": true,
        "gridlyClassification": "PUBLIC_ROADWAY",
        "gridlyDisplayName": "SH0070 / S HOBART STREET",
        "gridlyId": "FRA-014548R"
      }
    },
    {
      "type": "Feature",
      "id": 216343,
      "geometry": {
        "type": "Point",
        "coordinates": [
          -101.025036099784,
          35.5046775002958
        ]
      },
      "properties": {
        "OBJECTID": 216343,
        "CROSSING": "014553M",
        "EFFDATE": 1774396800000,
        "REASON": "14",
        "StateCode": "48",
        "CountyCode": "48179",
        "STCYFIPS": "48179",
        "CITYCD": "481795190",
        "RAILROAD": "BNSF",
        "RRDIV": "KANSAS",
        "RRSUBDIV": "PANHANDLE",
        "HIGHWAY": "CR0004",
        "STREET": "COUNTY ROAD 4",
        "TTSTN": "671867",
        "MILEPOST": "0503.127",
        "TYPEXING": "Public",
        "POSXING": "At Grade",
        "PRVCAT": "14",
        "INIT": "1",
        "LATITUDE": 35.5046775,
        "LONGITUD": -101.0250361,
        "LLSOURCE": "1",
        "WHISTBAN": "0",
        "RRCONT": "8173521549",
        "POLCONT": "8008325452",
        "INV_LINK": "https://safetydata.fra.dot.gov/OfficeofSafety/PublicSite/Crossing/Crossing.aspx?phasetype=C&rpttype=I&txtcrossingnum=014553M",
        "ACC_LINK": "https://safetydata.fra.dot.gov/OfficeofSafety/PublicSite/Crossing/Crossing.aspx?phasetype=C&rpttype=A&txtcrossingnum=014553M",
        "TTSTNNAM": "KINGS MILL",
        "XPURPOSE": "1",
        "OPERATINGR": "BNSF",
        "OPERATIN_1": "Primary",
        "DAYTHRU": 30,
        "NGHTTHRU": 29,
        "MAINTRK": 2,
        "SIDINGTRK": 0,
        "YARDTRK": 0,
        "TRANSITTRK": 0,
        "INDUSTRYTR": 0,
        "OTHRTRK": 0,
        "WDCODE": "All other Gates",
        "REVISIONDA": "1996/01/01 00:00:00",
        "LASTUPDATE": "3/25/2026",
        "AADT": "86",
        "AADTYEAR": "2020",
        "STATENAME": "TEXAS",
        "STATEAB": "TX",
        "COUNTYNAME": "GRAY",
        "CITYNAME": "PAMPA",
        "LATDD": 35.5046775,
        "LONGDD": -101.0250361,
        "gridlyProductionCertified": true,
        "gridlyClassification": "PUBLIC_ROADWAY",
        "gridlyDisplayName": "COUNTY ROAD 4",
        "gridlyId": "FRA-014553M"
      }
    },
    {
      "type": "Feature",
      "id": 216350,
      "geometry": {
        "type": "Point",
        "coordinates": [
          -101.060728199808,
          35.4881793001157
        ]
      },
      "properties": {
        "OBJECTID": 216350,
        "CROSSING": "014558W",
        "EFFDATE": 1774396800000,
        "REASON": "14",
        "StateCode": "48",
        "CountyCode": "48179",
        "STCYFIPS": "48179",
        "CITYCD": "481795190",
        "RAILROAD": "BNSF",
        "RRDIV": "KANSAS",
        "RRSUBDIV": "PANHANDLE",
        "HIGHWAY": "cr0002",
        "STREET": "county road 2",
        "TTSTN": "671867",
        "MILEPOST": "0505.448",
        "TYPEXING": "Public",
        "POSXING": "At Grade",
        "PRVCAT": "14",
        "INIT": "1",
        "LATITUDE": 35.4881793,
        "LONGITUD": -101.0607282,
        "LLSOURCE": "1",
        "WHISTBAN": "0",
        "RRCONT": "8173521549",
        "POLCONT": "8008325452",
        "INV_LINK": "https://safetydata.fra.dot.gov/OfficeofSafety/PublicSite/Crossing/Crossing.aspx?phasetype=C&rpttype=I&txtcrossingnum=014558W",
        "ACC_LINK": "https://safetydata.fra.dot.gov/OfficeofSafety/PublicSite/Crossing/Crossing.aspx?phasetype=C&rpttype=A&txtcrossingnum=014558W",
        "TTSTNNAM": "KINGS MILL",
        "XPURPOSE": "1",
        "OPERATINGR": "BNSF",
        "OPERATIN_1": "Primary",
        "DAYTHRU": 45,
        "NGHTTHRU": 44,
        "MAINTRK": 2,
        "SIDINGTRK": 0,
        "YARDTRK": 0,
        "TRANSITTRK": 0,
        "INDUSTRYTR": 0,
        "OTHRTRK": 1,
        "WDCODE": "All other Gates",
        "REVISIONDA": "1996/01/01 00:00:00",
        "LASTUPDATE": "3/25/2026",
        "AADT": "36",
        "AADTYEAR": "2020",
        "STATENAME": "TEXAS",
        "STATEAB": "TX",
        "COUNTYNAME": "GRAY",
        "CITYNAME": "PAMPA",
        "LATDD": 35.4881793,
        "LONGDD": -101.0607282,
        "gridlyProductionCertified": true,
        "gridlyClassification": "PUBLIC_ROADWAY",
        "gridlyDisplayName": "county road 2",
        "gridlyId": "FRA-014558W"
      }
    },
    {
      "type": "Feature",
      "id": 216352,
      "geometry": {
        "type": "Point",
        "coordinates": [
          -100.80276399969,
          35.6184923001355
        ]
      },
      "properties": {
        "OBJECTID": 216352,
        "CROSSING": "014539S",
        "EFFDATE": 1774396800000,
        "REASON": "14",
        "StateCode": "48",
        "CountyCode": "48179",
        "STCYFIPS": "48179",
        "CITYCD": "481795190",
        "RAILROAD": "BNSF",
        "RRDIV": "KANSAS",
        "RRSUBDIV": "PANHANDLE",
        "HIGHWAY": "Not Yet Reported by State",
        "STREET": "PRIVATE",
        "TTSTN": "671823",
        "MILEPOST": "0488.011",
        "TYPEXING": "Private",
        "POSXING": "At Grade",
        "PRVCAT": "14",
        "INIT": "1",
        "LATITUDE": 35.6184923,
        "LONGITUD": -100.802764,
        "LLSOURCE": "1",
        "WHISTBAN": "0",
        "RRCONT": "8173521549",
        "POLCONT": "8008325452",
        "INV_LINK": "https://safetydata.fra.dot.gov/OfficeofSafety/PublicSite/Crossing/Crossing.aspx?phasetype=C&rpttype=I&txtcrossingnum=014539S",
        "ACC_LINK": "https://safetydata.fra.dot.gov/OfficeofSafety/PublicSite/Crossing/Crossing.aspx?phasetype=C&rpttype=A&txtcrossingnum=014539S",
        "TTSTNNAM": "HOOVER",
        "XPURPOSE": "1",
        "OPERATINGR": "BNSF",
        "OPERATIN_1": "Primary",
        "DAYTHRU": 29,
        "NGHTTHRU": 29,
        "MAINTRK": 2,
        "SIDINGTRK": 0,
        "YARDTRK": 0,
        "TRANSITTRK": 0,
        "INDUSTRYTR": 0,
        "OTHRTRK": 0,
        "WDCODE": "",
        "REVISIONDA": "1996/01/01 00:00:00",
        "LASTUPDATE": "3/25/2026",
        "AADT": "",
        "AADTYEAR": "1970",
        "STATENAME": "TEXAS",
        "STATEAB": "TX",
        "COUNTYNAME": "GRAY",
        "CITYNAME": "PAMPA",
        "LATDD": 35.6184923,
        "LONGDD": -100.802764,
        "gridlyProductionCertified": true,
        "gridlyClassification": "PUBLIC_ROADWAY",
        "gridlyDisplayName": "PRIVATE",
        "gridlyId": "FRA-014539S"
      }
    }
  ]
}
