{
  "type": "FeatureCollection",
  "features": [
    {
      "type": "Feature",
      "id": 202560,
      "geometry": {
        "type": "Point",
        "coordinates": [
          -97.3806349997697,
          32.1836173997443
        ]
      },
      "properties": {
        "OBJECTID": 202560,
        "CROSSING": "023155G",
        "EFFDATE": 1702339200000,
        "REASON": "20",
        "StateCode": "48",
        "CountyCode": "48217",
        "STCYFIPS": "48217",
        "CITYCD": "482515791",
        "RAILROAD": "BNSF",
        "RRDIV": "RED RIVER",
        "RRSUBDIV": "FT WORTH",
        "HIGHWAY": "Not Yet Reported by State",
        "STREET": "PRIVATE",
        "TTSTN": "669118",
        "MILEPOST": "0306.130",
        "TYPEXING": "Private",
        "POSXING": "At Grade",
        "PRVCAT": "20",
        "INIT": "1",
        "LATITUDE": 32.1836174,
        "LONGITUD": -97.380635,
        "LLSOURCE": "1",
        "WHISTBAN": "0",
        "RRCONT": "8173521549",
        "POLCONT": "8008325452",
        "INV_LINK": "https://safetydata.fra.dot.gov/OfficeofSafety/PublicSite/Crossing/Crossing.aspx?phasetype=C&rpttype=I&txtcrossingnum=023155G",
        "ACC_LINK": "https://safetydata.fra.dot.gov/OfficeofSafety/PublicSite/Crossing/Crossing.aspx?phasetype=C&rpttype=A&txtcrossingnum=023155G",
        "TTSTNNAM": "BLUM",
        "XPURPOSE": "1",
        "OPERATINGR": "BNSF",
        "OPERATIN_1": "Primary",
        "DAYTHRU": 11,
        "NGHTTHRU": 11,
        "MAINTRK": 1,
        "SIDINGTRK": 0,
        "YARDTRK": 0,
        "TRANSITTRK": 0,
        "INDUSTRYTR": 0,
        "OTHRTRK": 0,
        "WDCODE": "",
        "REVISIONDA": "1996/01/01 00:00:00",
        "LASTUPDATE": "12/12/2023",
        "AADT": "",
        "AADTYEAR": "1970",
        "STATENAME": "TEXAS",
        "STATEAB": "TX",
        "COUNTYNAME": "HILL",
        "CITYNAME": "RIO VISTA",
        "LATDD": 32.1836174,
        "LONGDD": -97.380635,
        "gridlyProductionCertified": true,
        "gridlyClassification": "PUBLIC_ROADWAY",
        "gridlyDisplayName": "PRIVATE",
        "gridlyId": "FRA-023155G"
      }
    },
    {
      "type": "Feature",
      "id": 204495,
      "geometry": {
        "type": "Point",
        "coordinates": [
          -97.4333459999565,
          32.1288971998696
        ]
      },
      "properties": {
        "OBJECTID": 204495,
        "CROSSING": "023146H",
        "EFFDATE": 1734393600000,
        "REASON": "14",
        "StateCode": "48",
        "CountyCode": "48217",
        "STCYFIPS": "48217",
        "CITYCD": "482170730",
        "RAILROAD": "BNSF",
        "RRDIV": "RED RIVER",
        "RRSUBDIV": "FT WORTH",
        "HIGHWAY": "Not Yet Reported by State",
        "STREET": "PRIVATE",
        "TTSTN": "669118",
        "MILEPOST": "0300.910",
        "TYPEXING": "Private",
        "POSXING": "At Grade",
        "PRVCAT": "14",
        "INIT": "1",
        "LATITUDE": 32.1288972,
        "LONGITUD": -97.433346,
        "LLSOURCE": "1",
        "WHISTBAN": "0",
        "RRCONT": "8173521549",
        "POLCONT": "8008325452",
        "INV_LINK": "https://safetydata.fra.dot.gov/OfficeofSafety/PublicSite/Crossing/Crossing.aspx?phasetype=C&rpttype=I&txtcrossingnum=023146H",
        "ACC_LINK": "https://safetydata.fra.dot.gov/OfficeofSafety/PublicSite/Crossing/Crossing.aspx?phasetype=C&rpttype=A&txtcrossingnum=023146H",
        "TTSTNNAM": "BLUM",
        "XPURPOSE": "1",
        "OPERATINGR": "BNSF",
        "OPERATIN_1": "Primary",
        "DAYTHRU": 10,
        "NGHTTHRU": 10,
        "MAINTRK": 1,
        "SIDINGTRK": 0,
        "YARDTRK": 0,
        "TRANSITTRK": 0,
        "INDUSTRYTR": 0,
        "OTHRTRK": 0,
        "WDCODE": "",
        "REVISIONDA": "1996/01/01 00:00:00",
        "LASTUPDATE": "12/17/2024",
        "AADT": "",
        "AADTYEAR": "1970",
        "STATENAME": "TEXAS",
        "STATEAB": "TX",
        "COUNTYNAME": "HILL",
        "CITYNAME": "BLUM",
        "LATDD": 32.1288972,
        "LONGDD": -97.433346,
        "gridlyProductionCertified": true,
        "gridlyClassification": "PUBLIC_ROADWAY",
        "gridlyDisplayName": "PRIVATE",
        "gridlyId": "FRA-023146H"
      }
    },
    {
      "type": "Feature",
      "id": 204897,
      "geometry": {
        "type": "Point",
        "coordinates": [
          -97.4095130001728,
          32.1476756996928
        ]
      },
      "properties": {
        "OBJECTID": 204897,
        "CROSSING": "023149D",
        "EFFDATE": 1734393600000,
        "REASON": "14",
        "StateCode": "48",
        "CountyCode": "48217",
        "STCYFIPS": "48217",
        "CITYCD": "482170730",
        "RAILROAD": "BNSF",
        "RRDIV": "RED RIVER",
        "RRSUBDIV": "FT WORTH",
        "HIGHWAY": "Not Yet Reported by State",
        "STREET": "PRIVATE",
        "TTSTN": "669118",
        "MILEPOST": "0302.830",
        "TYPEXING": "Private",
        "POSXING": "At Grade",
        "PRVCAT": "14",
        "INIT": "1",
        "LATITUDE": 32.1476757,
        "LONGITUD": -97.409513,
        "LLSOURCE": "1",
        "WHISTBAN": "0",
        "RRCONT": "8173521549",
        "POLCONT": "8008325452",
        "INV_LINK": "https://safetydata.fra.dot.gov/OfficeofSafety/PublicSite/Crossing/Crossing.aspx?phasetype=C&rpttype=I&txtcrossingnum=023149D",
        "ACC_LINK": "https://safetydata.fra.dot.gov/OfficeofSafety/PublicSite/Crossing/Crossing.aspx?phasetype=C&rpttype=A&txtcrossingnum=023149D",
        "TTSTNNAM": "BLUM",
        "XPURPOSE": "1",
        "OPERATINGR": "BNSF",
        "OPERATIN_1": "Primary",
        "DAYTHRU": 10,
        "NGHTTHRU": 9,
        "MAINTRK": 1,
        "SIDINGTRK": 1,
        "YARDTRK": 0,
        "TRANSITTRK": 0,
        "INDUSTRYTR": 0,
        "OTHRTRK": 1,
        "WDCODE": "",
        "REVISIONDA": "1996/01/01 00:00:00",
        "LASTUPDATE": "12/17/2024",
        "AADT": "",
        "AADTYEAR": "1970",
        "STATENAME": "TEXAS",
        "STATEAB": "TX",
        "COUNTYNAME": "HILL",
        "CITYNAME": "BLUM",
        "LATDD": 32.1476757,
        "LONGDD": -97.409513,
        "gridlyProductionCertified": true,
        "gridlyClassification": "PUBLIC_ROADWAY",
        "gridlyDisplayName": "PRIVATE",
        "gridlyId": "FRA-023149D"
      }
    },
    {
      "type": "Feature",
      "id": 204932,
      "geometry": {
        "type": "Point",
        "coordinates": [
          -97.4057160002316,
          32.1514214001238
        ]
      },
      "properties": {
        "OBJECTID": 204932,
        "CROSSING": "023150X",
        "EFFDATE": 1734393600000,
        "REASON": "14",
        "StateCode": "48",
        "CountyCode": "48217",
        "STCYFIPS": "48217",
        "CITYCD": "482170730",
        "RAILROAD": "BNSF",
        "RRDIV": "RED RIVER",
        "RRSUBDIV": "FT WORTH",
        "HIGHWAY": "Not Yet Reported by State",
        "STREET": "PRIVATE",
        "TTSTN": "669118",
        "MILEPOST": "0303.170",
        "TYPEXING": "Private",
        "POSXING": "At Grade",
        "PRVCAT": "14",
        "INIT": "1",
        "LATITUDE": 32.1514214,
        "LONGITUD": -97.405716,
        "LLSOURCE": "1",
        "WHISTBAN": "0",
        "RRCONT": "8173521549",
        "POLCONT": "8008325452",
        "INV_LINK": "https://safetydata.fra.dot.gov/OfficeofSafety/PublicSite/Crossing/Crossing.aspx?phasetype=C&rpttype=I&txtcrossingnum=023150X",
        "ACC_LINK": "https://safetydata.fra.dot.gov/OfficeofSafety/PublicSite/Crossing/Crossing.aspx?phasetype=C&rpttype=A&txtcrossingnum=023150X",
        "TTSTNNAM": "BLUM",
        "XPURPOSE": "1",
        "OPERATINGR": "BNSF",
        "OPERATIN_1": "Primary",
        "DAYTHRU": 10,
        "NGHTTHRU": 9,
        "MAINTRK": 1,
        "SIDINGTRK": 1,
        "YARDTRK": 0,
        "TRANSITTRK": 0,
        "INDUSTRYTR": 0,
        "OTHRTRK": 1,
        "WDCODE": "",
        "REVISIONDA": "1996/01/01 00:00:00",
        "LASTUPDATE": "12/17/2024",
        "AADT": "",
        "AADTYEAR": "1970",
        "STATENAME": "TEXAS",
        "STATEAB": "TX",
        "COUNTYNAME": "HILL",
        "CITYNAME": "BLUM",
        "LATDD": 32.1514214,
        "LONGDD": -97.405716,
        "gridlyProductionCertified": true,
        "gridlyClassification": "PUBLIC_ROADWAY",
        "gridlyDisplayName": "PRIVATE",
        "gridlyId": "FRA-023150X"
      }
    },
    {
      "type": "Feature",
      "id": 207677,
      "geometry": {
        "type": "Point",
        "coordinates": [
          -97.1306639003539,
          32.1042919002326
        ]
      },
      "properties": {
        "OBJECTID": 207677,
        "CROSSING": "416034W",
        "EFFDATE": 1758153600000,
        "REASON": "14",
        "StateCode": "48",
        "CountyCode": "48217",
        "STCYFIPS": "48217",
        "CITYCD": "482173440",
        "RAILROAD": "UP",
        "RRDIV": "TEXOMA",
        "RRSUBDIV": "FT. WORTH SUB",
        "HIGHWAY": "Cr4247",
        "STREET": "County Road 4247",
        "TTSTN": "669150",
        "MILEPOST": "0202.680",
        "TYPEXING": "Public",
        "POSXING": "At Grade",
        "PRVCAT": "14",
        "INIT": "2",
        "LATITUDE": 32.1042919,
        "LONGITUD": -97.1306639,
        "LLSOURCE": "1",
        "WHISTBAN": "0",
        "RRCONT": "4025443721",
        "POLCONT": "8008488715",
        "INV_LINK": "https://safetydata.fra.dot.gov/OfficeofSafety/PublicSite/Crossing/Crossing.aspx?phasetype=C&rpttype=I&txtcrossingnum=416034W",
        "ACC_LINK": "https://safetydata.fra.dot.gov/OfficeofSafety/PublicSite/Crossing/Crossing.aspx?phasetype=C&rpttype=A&txtcrossingnum=416034W",
        "TTSTNNAM": "",
        "XPURPOSE": "1",
        "OPERATINGR": "UP",
        "OPERATIN_1": "Primary",
        "DAYTHRU": 9,
        "NGHTTHRU": 8,
        "MAINTRK": 1,
        "SIDINGTRK": 0,
        "YARDTRK": 0,
        "TRANSITTRK": 0,
        "INDUSTRYTR": 0,
        "OTHRTRK": 0,
        "WDCODE": "Crossbucks",
        "REVISIONDA": "1975/01/01 00:00:00",
        "LASTUPDATE": "9/18/2025",
        "AADT": "9",
        "AADTYEAR": "2020",
        "STATENAME": "TEXAS",
        "STATEAB": "TX",
        "COUNTYNAME": "HILL",
        "CITYNAME": "ITASCA",
        "LATDD": 32.1042919,
        "LONGDD": -97.1306639,
        "gridlyProductionCertified": true,
        "gridlyClassification": "PUBLIC_ROADWAY",
        "gridlyDisplayName": "County Road 4247",
        "gridlyId": "FRA-416034W"
      }
    },
    {
      "type": "Feature",
      "id": 207704,
      "geometry": {
        "type": "Point",
        "coordinates": [
          -97.1815647997348,
          32.2339123003142
        ]
      },
      "properties": {
        "OBJECTID": 207704,
        "CROSSING": "416014K",
        "EFFDATE": 1758067200000,
        "REASON": "14",
        "StateCode": "48",
        "CountyCode": "48217",
        "STCYFIPS": "48217",
        "CITYCD": "482512820",
        "RAILROAD": "UP",
        "RRDIV": "TEXOMA",
        "RRSUBDIV": "FT. WORTH SUB",
        "HIGHWAY": "Cr4149",
        "STREET": "County Road 4149",
        "TTSTN": "668570",
        "MILEPOST": "0212.140",
        "TYPEXING": "Public",
        "POSXING": "At Grade",
        "PRVCAT": "14",
        "INIT": "2",
        "LATITUDE": 32.2339123,
        "LONGITUD": -97.1815648,
        "LLSOURCE": "1",
        "WHISTBAN": "0",
        "RRCONT": "4025443721",
        "POLCONT": "8008488715",
        "INV_LINK": "https://safetydata.fra.dot.gov/OfficeofSafety/PublicSite/Crossing/Crossing.aspx?phasetype=C&rpttype=I&txtcrossingnum=416014K",
        "ACC_LINK": "https://safetydata.fra.dot.gov/OfficeofSafety/PublicSite/Crossing/Crossing.aspx?phasetype=C&rpttype=A&txtcrossingnum=416014K",
        "TTSTNNAM": "",
        "XPURPOSE": "1",
        "OPERATINGR": "UP",
        "OPERATIN_1": "Primary",
        "DAYTHRU": 9,
        "NGHTTHRU": 8,
        "MAINTRK": 1,
        "SIDINGTRK": 0,
        "YARDTRK": 0,
        "TRANSITTRK": 0,
        "INDUSTRYTR": 0,
        "OTHRTRK": 0,
        "WDCODE": "Crossbucks",
        "REVISIONDA": "1975/01/01 00:00:00",
        "LASTUPDATE": "9/17/2025",
        "AADT": "6",
        "AADTYEAR": "2019",
        "STATENAME": "TEXAS",
        "STATEAB": "TX",
        "COUNTYNAME": "HILL",
        "CITYNAME": "GRANDVIEW",
        "LATDD": 32.2339123,
        "LONGDD": -97.1815648,
        "gridlyProductionCertified": true,
        "gridlyClassification": "PUBLIC_ROADWAY",
        "gridlyDisplayName": "County Road 4149",
        "gridlyId": "FRA-416014K"
      }
    },
    {
      "type": "Feature",
      "id": 207705,
      "geometry": {
        "type": "Point",
        "coordinates": [
          -97.180319900041,
          32.2209473002892
        ]
      },
      "properties": {
        "OBJECTID": 207705,
        "CROSSING": "416015S",
        "EFFDATE": 1758067200000,
        "REASON": "14",
        "StateCode": "48",
        "CountyCode": "48217",
        "STCYFIPS": "48217",
        "CITYCD": "482512820",
        "RAILROAD": "UP",
        "RRDIV": "TEXOMA",
        "RRSUBDIV": "FT. WORTH SUB",
        "HIGHWAY": "Cr4148",
        "STREET": "County Road 4148",
        "TTSTN": "668570",
        "MILEPOST": "0211.260",
        "TYPEXING": "Public",
        "POSXING": "At Grade",
        "PRVCAT": "14",
        "INIT": "2",
        "LATITUDE": 32.2209473,
        "LONGITUD": -97.1803199,
        "LLSOURCE": "1",
        "WHISTBAN": "0",
        "RRCONT": "4025443721",
        "POLCONT": "8008488715",
        "INV_LINK": "https://safetydata.fra.dot.gov/OfficeofSafety/PublicSite/Crossing/Crossing.aspx?phasetype=C&rpttype=I&txtcrossingnum=416015S",
        "ACC_LINK": "https://safetydata.fra.dot.gov/OfficeofSafety/PublicSite/Crossing/Crossing.aspx?phasetype=C&rpttype=A&txtcrossingnum=416015S",
        "TTSTNNAM": "",
        "XPURPOSE": "1",
        "OPERATINGR": "UP",
        "OPERATIN_1": "Primary",
        "DAYTHRU": 9,
        "NGHTTHRU": 8,
        "MAINTRK": 1,
        "SIDINGTRK": 0,
        "YARDTRK": 0,
        "TRANSITTRK": 0,
        "INDUSTRYTR": 0,
        "OTHRTRK": 0,
        "WDCODE": "Crossbucks",
        "REVISIONDA": "1975/01/01 00:00:00",
        "LASTUPDATE": "9/17/2025",
        "AADT": "6",
        "AADTYEAR": "2020",
        "STATENAME": "TEXAS",
        "STATEAB": "TX",
        "COUNTYNAME": "HILL",
        "CITYNAME": "GRANDVIEW",
        "LATDD": 32.2209473,
        "LONGDD": -97.1803199,
        "gridlyProductionCertified": true,
        "gridlyClassification": "PUBLIC_ROADWAY",
        "gridlyDisplayName": "County Road 4148",
        "gridlyId": "FRA-416015S"
      }
    },
    {
      "type": "Feature",
      "id": 207729,
      "geometry": {
        "type": "Point",
        "coordinates": [
          -97.1609046998403,
          32.1825167002272
        ]
      },
      "properties": {
        "OBJECTID": 207729,
        "CROSSING": "416020N",
        "EFFDATE": 1758067200000,
        "REASON": "14",
        "StateCode": "48",
        "CountyCode": "48217",
        "STCYFIPS": "48217",
        "CITYCD": "482173440",
        "RAILROAD": "UP",
        "RRDIV": "TEXOMA",
        "RRSUBDIV": "FT. WORTH SUB",
        "HIGHWAY": "Cr1111",
        "STREET": "County Road 1111",
        "TTSTN": "668570",
        "MILEPOST": "0208.390",
        "TYPEXING": "Public",
        "POSXING": "At Grade",
        "PRVCAT": "14",
        "INIT": "2",
        "LATITUDE": 32.1825167,
        "LONGITUD": -97.1609047,
        "LLSOURCE": "1",
        "WHISTBAN": "0",
        "RRCONT": "4025443721",
        "POLCONT": "8008488715",
        "INV_LINK": "https://safetydata.fra.dot.gov/OfficeofSafety/PublicSite/Crossing/Crossing.aspx?phasetype=C&rpttype=I&txtcrossingnum=416020N",
        "ACC_LINK": "https://safetydata.fra.dot.gov/OfficeofSafety/PublicSite/Crossing/Crossing.aspx?phasetype=C&rpttype=A&txtcrossingnum=416020N",
        "TTSTNNAM": "",
        "XPURPOSE": "1",
        "OPERATINGR": "UP",
        "OPERATIN_1": "Primary",
        "DAYTHRU": 9,
        "NGHTTHRU": 8,
        "MAINTRK": 1,
        "SIDINGTRK": 0,
        "YARDTRK": 0,
        "TRANSITTRK": 0,
        "INDUSTRYTR": 0,
        "OTHRTRK": 0,
        "WDCODE": "Crossbucks",
        "REVISIONDA": "1975/01/01 00:00:00",
        "LASTUPDATE": "9/17/2025",
        "AADT": "20",
        "AADTYEAR": "2020",
        "STATENAME": "TEXAS",
        "STATEAB": "TX",
        "COUNTYNAME": "HILL",
        "CITYNAME": "ITASCA",
        "LATDD": 32.1825167,
        "LONGDD": -97.1609047,
        "gridlyProductionCertified": true,
        "gridlyClassification": "PUBLIC_ROADWAY",
        "gridlyDisplayName": "County Road 1111",
        "gridlyId": "FRA-416020N"
      }
    },
    {
      "type": "Feature",
      "id": 207814,
      "geometry": {
        "type": "Point",
        "coordinates": [
          -97.1675637996504,
          32.1948925999123
        ]
      },
      "properties": {
        "OBJECTID": 207814,
        "CROSSING": "416018M",
        "EFFDATE": 1770681600000,
        "REASON": "22",
        "StateCode": "48",
        "CountyCode": "48217",
        "STCYFIPS": "48217",
        "CITYCD": "482173440",
        "RAILROAD": "UP",
        "RRDIV": "TEXOMA",
        "RRSUBDIV": "FT. WORTH SUB",
        "HIGHWAY": "FM2719",
        "STREET": "FM 2719",
        "TTSTN": "668570",
        "MILEPOST": "0209.330",
        "TYPEXING": "Public",
        "POSXING": "At Grade",
        "PRVCAT": "22",
        "INIT": "1",
        "LATITUDE": 32.1948926,
        "LONGITUD": -97.1675638,
        "LLSOURCE": "1",
        "WHISTBAN": "0",
        "RRCONT": "4025443721",
        "POLCONT": "8008488715",
        "INV_LINK": "https://safetydata.fra.dot.gov/OfficeofSafety/PublicSite/Crossing/Crossing.aspx?phasetype=C&rpttype=I&txtcrossingnum=416018M",
        "ACC_LINK": "https://safetydata.fra.dot.gov/OfficeofSafety/PublicSite/Crossing/Crossing.aspx?phasetype=C&rpttype=A&txtcrossingnum=416018M",
        "TTSTNNAM": "",
        "XPURPOSE": "1",
        "OPERATINGR": "UP",
        "OPERATIN_1": "Primary",
        "DAYTHRU": 9,
        "NGHTTHRU": 8,
        "MAINTRK": 1,
        "SIDINGTRK": 0,
        "YARDTRK": 0,
        "TRANSITTRK": 0,
        "INDUSTRYTR": 0,
        "OTHRTRK": 0,
        "WDCODE": "All other Gates",
        "REVISIONDA": "1975/01/01 00:00:00",
        "LASTUPDATE": "2/10/2026",
        "AADT": "406",
        "AADTYEAR": "2023",
        "STATENAME": "TEXAS",
        "STATEAB": "TX",
        "COUNTYNAME": "HILL",
        "CITYNAME": "ITASCA",
        "LATDD": 32.1948926,
        "LONGDD": -97.1675638,
        "gridlyProductionCertified": true,
        "gridlyClassification": "PUBLIC_ROADWAY",
        "gridlyDisplayName": "FM 2719",
        "gridlyId": "FRA-416018M"
      }
    },
    {
      "type": "Feature",
      "id": 208187,
      "geometry": {
        "type": "Point",
        "coordinates": [
          -97.0822332000194,
          31.9210587997993
        ]
      },
      "properties": {
        "OBJECTID": 208187,
        "CROSSING": "416057D",
        "EFFDATE": 1756339200000,
        "REASON": "14",
        "StateCode": "48",
        "CountyCode": "48217",
        "STCYFIPS": "48217",
        "CITYCD": "482173210",
        "RAILROAD": "UP",
        "RRDIV": "TEXOMA",
        "RRSUBDIV": "FT. WORTH SUB",
        "HIGHWAY": "NA",
        "STREET": "PRIVATE",
        "TTSTN": "669111",
        "MILEPOST": "0189.050",
        "TYPEXING": "Private",
        "POSXING": "At Grade",
        "PRVCAT": "14",
        "INIT": "1",
        "LATITUDE": 31.9210588,
        "LONGITUD": -97.0822332,
        "LLSOURCE": "1",
        "WHISTBAN": "0",
        "RRCONT": "4025443721",
        "POLCONT": "8008488715",
        "INV_LINK": "https://safetydata.fra.dot.gov/OfficeofSafety/PublicSite/Crossing/Crossing.aspx?phasetype=C&rpttype=I&txtcrossingnum=416057D",
        "ACC_LINK": "https://safetydata.fra.dot.gov/OfficeofSafety/PublicSite/Crossing/Crossing.aspx?phasetype=C&rpttype=A&txtcrossingnum=416057D",
        "TTSTNNAM": "",
        "XPURPOSE": "1",
        "OPERATINGR": "UP",
        "OPERATIN_1": "Primary",
        "DAYTHRU": 9,
        "NGHTTHRU": 8,
        "MAINTRK": 1,
        "SIDINGTRK": 0,
        "YARDTRK": 0,
        "TRANSITTRK": 0,
        "INDUSTRYTR": 0,
        "OTHRTRK": 0,
        "WDCODE": "",
        "REVISIONDA": "1975/01/01 00:00:00",
        "LASTUPDATE": "8/28/2025",
        "AADT": "1",
        "AADTYEAR": "1970",
        "STATENAME": "TEXAS",
        "STATEAB": "TX",
        "COUNTYNAME": "HILL",
        "CITYNAME": "HILLSBORO",
        "LATDD": 31.9210588,
        "LONGDD": -97.0822332,
        "gridlyProductionCertified": true,
        "gridlyClassification": "PUBLIC_ROADWAY",
        "gridlyDisplayName": "PRIVATE",
        "gridlyId": "FRA-416057D"
      }
    },
    {
      "type": "Feature",
      "id": 208188,
      "geometry": {
        "type": "Point",
        "coordinates": [
          -97.1577856000535,
          32.1746341000116
        ]
      },
      "properties": {
        "OBJECTID": 208188,
        "CROSSING": "416021V",
        "EFFDATE": 1756339200000,
        "REASON": "14",
        "StateCode": "48",
        "CountyCode": "48217",
        "STCYFIPS": "48217",
        "CITYCD": "482173440",
        "RAILROAD": "UP",
        "RRDIV": "Texoma",
        "RRSUBDIV": "Ft. Worth Sub",
        "HIGHWAY": "NA",
        "STREET": "Private",
        "TTSTN": "668570",
        "MILEPOST": "0207.810",
        "TYPEXING": "Private",
        "POSXING": "At Grade",
        "PRVCAT": "14",
        "INIT": "1",
        "LATITUDE": 32.1746341,
        "LONGITUD": -97.1577856,
        "LLSOURCE": "1",
        "WHISTBAN": "0",
        "RRCONT": "4025443721",
        "POLCONT": "8008488715",
        "INV_LINK": "https://safetydata.fra.dot.gov/OfficeofSafety/PublicSite/Crossing/Crossing.aspx?phasetype=C&rpttype=I&txtcrossingnum=416021V",
        "ACC_LINK": "https://safetydata.fra.dot.gov/OfficeofSafety/PublicSite/Crossing/Crossing.aspx?phasetype=C&rpttype=A&txtcrossingnum=416021V",
        "TTSTNNAM": "",
        "XPURPOSE": "1",
        "OPERATINGR": "UP",
        "OPERATIN_1": "Primary",
        "DAYTHRU": 9,
        "NGHTTHRU": 8,
        "MAINTRK": 1,
        "SIDINGTRK": 0,
        "YARDTRK": 0,
        "TRANSITTRK": 0,
        "INDUSTRYTR": 0,
        "OTHRTRK": 0,
        "WDCODE": "",
        "REVISIONDA": "1975/01/01 00:00:00",
        "LASTUPDATE": "8/28/2025",
        "AADT": "1",
        "AADTYEAR": "1970",
        "STATENAME": "TEXAS",
        "STATEAB": "TX",
        "COUNTYNAME": "HILL",
        "CITYNAME": "ITASCA",
        "LATDD": 32.1746341,
        "LONGDD": -97.1577856,
        "gridlyProductionCertified": true,
        "gridlyClassification": "PUBLIC_ROADWAY",
        "gridlyDisplayName": "Private",
        "gridlyId": "FRA-416021V"
      }
    },
    {
      "type": "Feature",
      "id": 208189,
      "geometry": {
        "type": "Point",
        "coordinates": [
          -97.1559038999261,
          32.1698637997038
        ]
      },
      "properties": {
        "OBJECTID": 208189,
        "CROSSING": "416022C",
        "EFFDATE": 1756339200000,
        "REASON": "14",
        "StateCode": "48",
        "CountyCode": "48217",
        "STCYFIPS": "48217",
        "CITYCD": "482173440",
        "RAILROAD": "UP",
        "RRDIV": "TEXOMA",
        "RRSUBDIV": "FT. WORTH SUB",
        "HIGHWAY": "NA",
        "STREET": "PRIVATE",
        "TTSTN": "668570",
        "MILEPOST": "0207.460",
        "TYPEXING": "Private",
        "POSXING": "At Grade",
        "PRVCAT": "14",
        "INIT": "1",
        "LATITUDE": 32.1698638,
        "LONGITUD": -97.1559039,
        "LLSOURCE": "1",
        "WHISTBAN": "0",
        "RRCONT": "4025443721",
        "POLCONT": "8008488715",
        "INV_LINK": "https://safetydata.fra.dot.gov/OfficeofSafety/PublicSite/Crossing/Crossing.aspx?phasetype=C&rpttype=I&txtcrossingnum=416022C",
        "ACC_LINK": "https://safetydata.fra.dot.gov/OfficeofSafety/PublicSite/Crossing/Crossing.aspx?phasetype=C&rpttype=A&txtcrossingnum=416022C",
        "TTSTNNAM": "",
        "XPURPOSE": "1",
        "OPERATINGR": "UP",
        "OPERATIN_1": "Primary",
        "DAYTHRU": 9,
        "NGHTTHRU": 8,
        "MAINTRK": 1,
        "SIDINGTRK": 0,
        "YARDTRK": 0,
        "TRANSITTRK": 0,
        "INDUSTRYTR": 0,
        "OTHRTRK": 0,
        "WDCODE": "",
        "REVISIONDA": "1975/01/01 00:00:00",
        "LASTUPDATE": "8/28/2025",
        "AADT": "1",
        "AADTYEAR": "1970",
        "STATENAME": "TEXAS",
        "STATEAB": "TX",
        "COUNTYNAME": "HILL",
        "CITYNAME": "ITASCA",
        "LATDD": 32.1698638,
        "LONGDD": -97.1559039,
        "gridlyProductionCertified": true,
        "gridlyClassification": "PUBLIC_ROADWAY",
        "gridlyDisplayName": "PRIVATE",
        "gridlyId": "FRA-416022C"
      }
    },
    {
      "type": "Feature",
      "id": 208192,
      "geometry": {
        "type": "Point",
        "coordinates": [
          -97.0751106997784,
          31.8627214997999
        ]
      },
      "properties": {
        "OBJECTID": 208192,
        "CROSSING": "416063G",
        "EFFDATE": 1756339200000,
        "REASON": "14",
        "StateCode": "48",
        "CountyCode": "48217",
        "STCYFIPS": "48217",
        "CITYCD": "482170010",
        "RAILROAD": "UP",
        "RRDIV": "TEXOMA",
        "RRSUBDIV": "FT. WORTH SUB",
        "HIGHWAY": "NA",
        "STREET": "PRIVATE",
        "TTSTN": "669711",
        "MILEPOST": "0184.950",
        "TYPEXING": "Private",
        "POSXING": "At Grade",
        "PRVCAT": "14",
        "INIT": "1",
        "LATITUDE": 31.8627215,
        "LONGITUD": -97.0751107,
        "LLSOURCE": "1",
        "WHISTBAN": "0",
        "RRCONT": "4025443721",
        "POLCONT": "8008488715",
        "INV_LINK": "https://safetydata.fra.dot.gov/OfficeofSafety/PublicSite/Crossing/Crossing.aspx?phasetype=C&rpttype=I&txtcrossingnum=416063G",
        "ACC_LINK": "https://safetydata.fra.dot.gov/OfficeofSafety/PublicSite/Crossing/Crossing.aspx?phasetype=C&rpttype=A&txtcrossingnum=416063G",
        "TTSTNNAM": "",
        "XPURPOSE": "1",
        "OPERATINGR": "UP",
        "OPERATIN_1": "Primary",
        "DAYTHRU": 9,
        "NGHTTHRU": 8,
        "MAINTRK": 1,
        "SIDINGTRK": 0,
        "YARDTRK": 0,
        "TRANSITTRK": 0,
        "INDUSTRYTR": 0,
        "OTHRTRK": 0,
        "WDCODE": "",
        "REVISIONDA": "1975/01/01 00:00:00",
        "LASTUPDATE": "8/28/2025",
        "AADT": "1",
        "AADTYEAR": "1970",
        "STATENAME": "TEXAS",
        "STATEAB": "TX",
        "COUNTYNAME": "HILL",
        "CITYNAME": "ABBOTT",
        "LATDD": 31.8627215,
        "LONGDD": -97.0751107,
        "gridlyProductionCertified": true,
        "gridlyClassification": "PUBLIC_ROADWAY",
        "gridlyDisplayName": "PRIVATE",
        "gridlyId": "FRA-416063G"
      }
    },
    {
      "type": "Feature",
      "id": 208249,
      "geometry": {
        "type": "Point",
        "coordinates": [
          -97.1552321999438,
          32.1681626003682
        ]
      },
      "properties": {
        "OBJECTID": 208249,
        "CROSSING": "416023J",
        "EFFDATE": 1756339200000,
        "REASON": "14",
        "StateCode": "48",
        "CountyCode": "48217",
        "STCYFIPS": "48217",
        "CITYCD": "482173440",
        "RAILROAD": "UP",
        "RRDIV": "TEXOMA",
        "RRSUBDIV": "FT. WORTH SUB",
        "HIGHWAY": "NA",
        "STREET": "PRIVATE",
        "TTSTN": "668570",
        "MILEPOST": "0207.330",
        "TYPEXING": "Private",
        "POSXING": "At Grade",
        "PRVCAT": "14",
        "INIT": "1",
        "LATITUDE": 32.1681626,
        "LONGITUD": -97.1552322,
        "LLSOURCE": "1",
        "WHISTBAN": "0",
        "RRCONT": "4025443721",
        "POLCONT": "8008488715",
        "INV_LINK": "https://safetydata.fra.dot.gov/OfficeofSafety/PublicSite/Crossing/Crossing.aspx?phasetype=C&rpttype=I&txtcrossingnum=416023J",
        "ACC_LINK": "https://safetydata.fra.dot.gov/OfficeofSafety/PublicSite/Crossing/Crossing.aspx?phasetype=C&rpttype=A&txtcrossingnum=416023J",
        "TTSTNNAM": "",
        "XPURPOSE": "1",
        "OPERATINGR": "UP",
        "OPERATIN_1": "Primary",
        "DAYTHRU": 9,
        "NGHTTHRU": 8,
        "MAINTRK": 1,
        "SIDINGTRK": 0,
        "YARDTRK": 0,
        "TRANSITTRK": 0,
        "INDUSTRYTR": 0,
        "OTHRTRK": 0,
        "WDCODE": "",
        "REVISIONDA": "1975/01/01 00:00:00",
        "LASTUPDATE": "8/28/2025",
        "AADT": "1",
        "AADTYEAR": "1970",
        "STATENAME": "TEXAS",
        "STATEAB": "TX",
        "COUNTYNAME": "HILL",
        "CITYNAME": "ITASCA",
        "LATDD": 32.1681626,
        "LONGDD": -97.1552322,
        "gridlyProductionCertified": true,
        "gridlyClassification": "PUBLIC_ROADWAY",
        "gridlyDisplayName": "PRIVATE",
        "gridlyId": "FRA-416023J"
      }
    },
    {
      "type": "Feature",
      "id": 208265,
      "geometry": {
        "type": "Point",
        "coordinates": [
          -97.1340447997572,
          32.1185828999558
        ]
      },
      "properties": {
        "OBJECTID": 208265,
        "CROSSING": "416033P",
        "EFFDATE": 1756339200000,
        "REASON": "14",
        "StateCode": "48",
        "CountyCode": "48217",
        "STCYFIPS": "48217",
        "CITYCD": "482173210",
        "RAILROAD": "UP",
        "RRDIV": "TEXOMA",
        "RRSUBDIV": "FT. WORTH SUB",
        "HIGHWAY": "FM 3147",
        "STREET": "FM 3147",
        "TTSTN": "669150",
        "MILEPOST": "0203.700",
        "TYPEXING": "Public",
        "POSXING": "At Grade",
        "PRVCAT": "14",
        "INIT": "1",
        "LATITUDE": 32.1185829,
        "LONGITUD": -97.1340448,
        "LLSOURCE": "1",
        "WHISTBAN": "0",
        "RRCONT": "4025443721",
        "POLCONT": "8008488715",
        "INV_LINK": "https://safetydata.fra.dot.gov/OfficeofSafety/PublicSite/Crossing/Crossing.aspx?phasetype=C&rpttype=I&txtcrossingnum=416033P",
        "ACC_LINK": "https://safetydata.fra.dot.gov/OfficeofSafety/PublicSite/Crossing/Crossing.aspx?phasetype=C&rpttype=A&txtcrossingnum=416033P",
        "TTSTNNAM": "",
        "XPURPOSE": "1",
        "OPERATINGR": "UP",
        "OPERATIN_1": "Primary",
        "DAYTHRU": 9,
        "NGHTTHRU": 8,
        "MAINTRK": 1,
        "SIDINGTRK": 0,
        "YARDTRK": 0,
        "TRANSITTRK": 0,
        "INDUSTRYTR": 0,
        "OTHRTRK": 0,
        "WDCODE": "All other Gates",
        "REVISIONDA": "1975/01/01 00:00:00",
        "LASTUPDATE": "8/28/2025",
        "AADT": "304",
        "AADTYEAR": "2019",
        "STATENAME": "TEXAS",
        "STATEAB": "TX",
        "COUNTYNAME": "HILL",
        "CITYNAME": "HILLSBORO",
        "LATDD": 32.1185829,
        "LONGDD": -97.1340448,
        "gridlyProductionCertified": true,
        "gridlyClassification": "PUBLIC_ROADWAY",
        "gridlyDisplayName": "FM 3147",
        "gridlyId": "FRA-416033P"
      }
    },
    {
      "type": "Feature",
      "id": 208426,
      "geometry": {
        "type": "Point",
        "coordinates": [
          -97.0936193004316,
          31.9536269002843
        ]
      },
      "properties": {
        "OBJECTID": 208426,
        "CROSSING": "416055P",
        "EFFDATE": 1758153600000,
        "REASON": "14",
        "StateCode": "48",
        "CountyCode": "48217",
        "STCYFIPS": "48217",
        "CITYCD": "482173210",
        "RAILROAD": "UP",
        "RRDIV": "TEXOMA",
        "RRSUBDIV": "FT. WORTH SUB",
        "HIGHWAY": "Cr3105",
        "STREET": "County Road 3105",
        "TTSTN": "669111",
        "MILEPOST": "0191.400",
        "TYPEXING": "Public",
        "POSXING": "At Grade",
        "PRVCAT": "14",
        "INIT": "2",
        "LATITUDE": 31.9536269,
        "LONGITUD": -97.0936193,
        "LLSOURCE": "1",
        "WHISTBAN": "0",
        "RRCONT": "4025443721",
        "POLCONT": "8008488715",
        "INV_LINK": "https://safetydata.fra.dot.gov/OfficeofSafety/PublicSite/Crossing/Crossing.aspx?phasetype=C&rpttype=I&txtcrossingnum=416055P",
        "ACC_LINK": "https://safetydata.fra.dot.gov/OfficeofSafety/PublicSite/Crossing/Crossing.aspx?phasetype=C&rpttype=A&txtcrossingnum=416055P",
        "TTSTNNAM": "",
        "XPURPOSE": "1",
        "OPERATINGR": "UP",
        "OPERATIN_1": "Primary",
        "DAYTHRU": 9,
        "NGHTTHRU": 8,
        "MAINTRK": 1,
        "SIDINGTRK": 0,
        "YARDTRK": 0,
        "TRANSITTRK": 0,
        "INDUSTRYTR": 0,
        "OTHRTRK": 0,
        "WDCODE": "Crossbucks",
        "REVISIONDA": "1975/01/01 00:00:00",
        "LASTUPDATE": "9/18/2025",
        "AADT": "8",
        "AADTYEAR": "2020",
        "STATENAME": "TEXAS",
        "STATEAB": "TX",
        "COUNTYNAME": "HILL",
        "CITYNAME": "HILLSBORO",
        "LATDD": 31.9536269,
        "LONGDD": -97.0936193,
        "gridlyProductionCertified": true,
        "gridlyClassification": "PUBLIC_ROADWAY",
        "gridlyDisplayName": "County Road 3105",
        "gridlyId": "FRA-416055P"
      }
    },
    {
      "type": "Feature",
      "id": 208427,
      "geometry": {
        "type": "Point",
        "coordinates": [
          -97.0900549003685,
          31.9434618002991
        ]
      },
      "properties": {
        "OBJECTID": 208427,
        "CROSSING": "416056W",
        "EFFDATE": 1758153600000,
        "REASON": "14",
        "StateCode": "48",
        "CountyCode": "48217",
        "STCYFIPS": "48217",
        "CITYCD": "482173210",
        "RAILROAD": "UP",
        "RRDIV": "TEXOMA",
        "RRSUBDIV": "FT. WORTH SUB",
        "HIGHWAY": "Cr3111",
        "STREET": "County Road 3111 east",
        "TTSTN": "669111",
        "MILEPOST": "0190.670",
        "TYPEXING": "Public",
        "POSXING": "At Grade",
        "PRVCAT": "14",
        "INIT": "2",
        "LATITUDE": 31.9434618,
        "LONGITUD": -97.0900549,
        "LLSOURCE": "1",
        "WHISTBAN": "0",
        "RRCONT": "4025443721",
        "POLCONT": "8008488715",
        "INV_LINK": "https://safetydata.fra.dot.gov/OfficeofSafety/PublicSite/Crossing/Crossing.aspx?phasetype=C&rpttype=I&txtcrossingnum=416056W",
        "ACC_LINK": "https://safetydata.fra.dot.gov/OfficeofSafety/PublicSite/Crossing/Crossing.aspx?phasetype=C&rpttype=A&txtcrossingnum=416056W",
        "TTSTNNAM": "",
        "XPURPOSE": "1",
        "OPERATINGR": "UP",
        "OPERATIN_1": "Primary",
        "DAYTHRU": 9,
        "NGHTTHRU": 8,
        "MAINTRK": 1,
        "SIDINGTRK": 0,
        "YARDTRK": 0,
        "TRANSITTRK": 0,
        "INDUSTRYTR": 0,
        "OTHRTRK": 0,
        "WDCODE": "Crossbucks",
        "REVISIONDA": "1975/01/01 00:00:00",
        "LASTUPDATE": "9/18/2025",
        "AADT": "73",
        "AADTYEAR": "2020",
        "STATENAME": "TEXAS",
        "STATEAB": "TX",
        "COUNTYNAME": "HILL",
        "CITYNAME": "HILLSBORO",
        "LATDD": 31.9434618,
        "LONGDD": -97.0900549,
        "gridlyProductionCertified": true,
        "gridlyClassification": "PUBLIC_ROADWAY",
        "gridlyDisplayName": "County Road 3111 east",
        "gridlyId": "FRA-416056W"
      }
    },
    {
      "type": "Feature",
      "id": 208430,
      "geometry": {
        "type": "Point",
        "coordinates": [
          -97.1282924998191,
          32.0889503001449
        ]
      },
      "properties": {
        "OBJECTID": 208430,
        "CROSSING": "416036K",
        "EFFDATE": 1758153600000,
        "REASON": "14",
        "StateCode": "48",
        "CountyCode": "48217",
        "STCYFIPS": "48217",
        "CITYCD": "482173210",
        "RAILROAD": "UP",
        "RRDIV": "TEXOMA",
        "RRSUBDIV": "FT. WORTH SUB",
        "HIGHWAY": "CO 4281",
        "STREET": "HILL County access Rd 4281",
        "TTSTN": "669150",
        "MILEPOST": "0201.620",
        "TYPEXING": "Public",
        "POSXING": "At Grade",
        "PRVCAT": "14",
        "INIT": "2",
        "LATITUDE": 32.0889503,
        "LONGITUD": -97.1282925,
        "LLSOURCE": "1",
        "WHISTBAN": "0",
        "RRCONT": "4025443721",
        "POLCONT": "8008488715",
        "INV_LINK": "https://safetydata.fra.dot.gov/OfficeofSafety/PublicSite/Crossing/Crossing.aspx?phasetype=C&rpttype=I&txtcrossingnum=416036K",
        "ACC_LINK": "https://safetydata.fra.dot.gov/OfficeofSafety/PublicSite/Crossing/Crossing.aspx?phasetype=C&rpttype=A&txtcrossingnum=416036K",
        "TTSTNNAM": "",
        "XPURPOSE": "1",
        "OPERATINGR": "UP",
        "OPERATIN_1": "Primary",
        "DAYTHRU": 9,
        "NGHTTHRU": 8,
        "MAINTRK": 1,
        "SIDINGTRK": 0,
        "YARDTRK": 0,
        "TRANSITTRK": 0,
        "INDUSTRYTR": 0,
        "OTHRTRK": 0,
        "WDCODE": "Crossbucks",
        "REVISIONDA": "1975/01/01 00:00:00",
        "LASTUPDATE": "9/18/2025",
        "AADT": "929",
        "AADTYEAR": "2023",
        "STATENAME": "TEXAS",
        "STATEAB": "TX",
        "COUNTYNAME": "HILL",
        "CITYNAME": "HILLSBORO",
        "LATDD": 32.0889503,
        "LONGDD": -97.1282925,
        "gridlyProductionCertified": true,
        "gridlyClassification": "PUBLIC_ROADWAY",
        "gridlyDisplayName": "HILL County access Rd 4281",
        "gridlyId": "FRA-416036K"
      }
    },
    {
      "type": "Feature",
      "id": 210983,
      "geometry": {
        "type": "Point",
        "coordinates": [
          -97.1776656002604,
          32.2155014003079
        ]
      },
      "properties": {
        "OBJECTID": 210983,
        "CROSSING": "416016Y",
        "EFFDATE": 1770681600000,
        "REASON": "22",
        "StateCode": "48",
        "CountyCode": "48217",
        "STCYFIPS": "48217",
        "CITYCD": "482512820",
        "RAILROAD": "UP",
        "RRDIV": "Texoma",
        "RRSUBDIV": "Ft. Worth Sub",
        "HIGHWAY": "FM0067",
        "STREET": "FM 67",
        "TTSTN": "668570",
        "MILEPOST": "0210.870",
        "TYPEXING": "Public",
        "POSXING": "At Grade",
        "PRVCAT": "22",
        "INIT": "1",
        "LATITUDE": 32.2155014,
        "LONGITUD": -97.1776656,
        "LLSOURCE": "1",
        "WHISTBAN": "0",
        "RRCONT": "4025443721",
        "POLCONT": "8008488715",
        "INV_LINK": "https://safetydata.fra.dot.gov/OfficeofSafety/PublicSite/Crossing/Crossing.aspx?phasetype=C&rpttype=I&txtcrossingnum=416016Y",
        "ACC_LINK": "https://safetydata.fra.dot.gov/OfficeofSafety/PublicSite/Crossing/Crossing.aspx?phasetype=C&rpttype=A&txtcrossingnum=416016Y",
        "TTSTNNAM": "",
        "XPURPOSE": "1",
        "OPERATINGR": "UP",
        "OPERATIN_1": "Primary",
        "DAYTHRU": 9,
        "NGHTTHRU": 8,
        "MAINTRK": 1,
        "SIDINGTRK": 0,
        "YARDTRK": 0,
        "TRANSITTRK": 0,
        "INDUSTRYTR": 0,
        "OTHRTRK": 0,
        "WDCODE": "All other Gates",
        "REVISIONDA": "1975/01/01 00:00:00",
        "LASTUPDATE": "2/10/2026",
        "AADT": "1953",
        "AADTYEAR": "2023",
        "STATENAME": "TEXAS",
        "STATEAB": "TX",
        "COUNTYNAME": "HILL",
        "CITYNAME": "GRANDVIEW",
        "LATDD": 32.2155014,
        "LONGDD": -97.1776656,
        "gridlyProductionCertified": true,
        "gridlyClassification": "PUBLIC_ROADWAY",
        "gridlyDisplayName": "FM 67",
        "gridlyId": "FRA-416016Y"
      }
    },
    {
      "type": "Feature",
      "id": 211018,
      "geometry": {
        "type": "Point",
        "coordinates": [
          -97.4528851002929,
          32.1236236003635
        ]
      },
      "properties": {
        "OBJECTID": 211018,
        "CROSSING": "023145B",
        "EFFDATE": 1759968000000,
        "REASON": "14",
        "StateCode": "48",
        "CountyCode": "48217",
        "STCYFIPS": "48217",
        "CITYCD": "482170730",
        "RAILROAD": "BNSF",
        "RRDIV": "RED RIVER",
        "RRSUBDIV": "FT WORTH",
        "HIGHWAY": "CR1104",
        "STREET": "County Road 1104 loop",
        "TTSTN": "669118",
        "MILEPOST": "0299.710",
        "TYPEXING": "Public",
        "POSXING": "RR Under",
        "PRVCAT": "14",
        "INIT": "2",
        "LATITUDE": 32.1236236,
        "LONGITUD": -97.4528851,
        "LLSOURCE": "1",
        "WHISTBAN": "0",
        "RRCONT": "8173521549",
        "POLCONT": "8008325452",
        "INV_LINK": "https://safetydata.fra.dot.gov/OfficeofSafety/PublicSite/Crossing/Crossing.aspx?phasetype=C&rpttype=I&txtcrossingnum=023145B",
        "ACC_LINK": "https://safetydata.fra.dot.gov/OfficeofSafety/PublicSite/Crossing/Crossing.aspx?phasetype=C&rpttype=A&txtcrossingnum=023145B",
        "TTSTNNAM": "BLUM",
        "XPURPOSE": "1",
        "OPERATINGR": "BNSF",
        "OPERATIN_1": "Primary",
        "DAYTHRU": 10,
        "NGHTTHRU": 10,
        "MAINTRK": 1,
        "SIDINGTRK": 0,
        "YARDTRK": 0,
        "TRANSITTRK": 0,
        "INDUSTRYTR": 0,
        "OTHRTRK": 0,
        "WDCODE": "",
        "REVISIONDA": "1996/01/01 00:00:00",
        "LASTUPDATE": "10/9/2025",
        "AADT": "120",
        "AADTYEAR": "2024",
        "STATENAME": "TEXAS",
        "STATEAB": "TX",
        "COUNTYNAME": "HILL",
        "CITYNAME": "BLUM",
        "LATDD": 32.1236236,
        "LONGDD": -97.4528851,
        "gridlyProductionCertified": true,
        "gridlyClassification": "PUBLIC_ROADWAY",
        "gridlyDisplayName": "County Road 1104 loop",
        "gridlyId": "FRA-023145B"
      }
    },
    {
      "type": "Feature",
      "id": 211019,
      "geometry": {
        "type": "Point",
        "coordinates": [
          -97.4268559999139,
          32.1332926999211
        ]
      },
      "properties": {
        "OBJECTID": 211019,
        "CROSSING": "023147P",
        "EFFDATE": 1759968000000,
        "REASON": "14",
        "StateCode": "48",
        "CountyCode": "48217",
        "STCYFIPS": "48217",
        "CITYCD": "482170730",
        "RAILROAD": "BNSF",
        "RRDIV": "RED RIVER",
        "RRSUBDIV": "FT WORTH",
        "HIGHWAY": "CR1104",
        "STREET": "County Road 1104",
        "TTSTN": "669118",
        "MILEPOST": "0301.430",
        "TYPEXING": "Public",
        "POSXING": "RR Under",
        "PRVCAT": "14",
        "INIT": "2",
        "LATITUDE": 32.1332927,
        "LONGITUD": -97.426856,
        "LLSOURCE": "1",
        "WHISTBAN": "0",
        "RRCONT": "8173521549",
        "POLCONT": "8008325452",
        "INV_LINK": "https://safetydata.fra.dot.gov/OfficeofSafety/PublicSite/Crossing/Crossing.aspx?phasetype=C&rpttype=I&txtcrossingnum=023147P",
        "ACC_LINK": "https://safetydata.fra.dot.gov/OfficeofSafety/PublicSite/Crossing/Crossing.aspx?phasetype=C&rpttype=A&txtcrossingnum=023147P",
        "TTSTNNAM": "BLUM",
        "XPURPOSE": "1",
        "OPERATINGR": "BNSF",
        "OPERATIN_1": "Primary",
        "DAYTHRU": 10,
        "NGHTTHRU": 10,
        "MAINTRK": 1,
        "SIDINGTRK": 0,
        "YARDTRK": 0,
        "TRANSITTRK": 0,
        "INDUSTRYTR": 0,
        "OTHRTRK": 0,
        "WDCODE": "",
        "REVISIONDA": "1996/01/01 00:00:00",
        "LASTUPDATE": "10/9/2025",
        "AADT": "299",
        "AADTYEAR": "2020",
        "STATENAME": "TEXAS",
        "STATEAB": "TX",
        "COUNTYNAME": "HILL",
        "CITYNAME": "BLUM",
        "LATDD": 32.1332927,
        "LONGDD": -97.426856,
        "gridlyProductionCertified": true,
        "gridlyClassification": "PUBLIC_ROADWAY",
        "gridlyDisplayName": "County Road 1104",
        "gridlyId": "FRA-023147P"
      }
    },
    {
      "type": "Feature",
      "id": 211020,
      "geometry": {
        "type": "Point",
        "coordinates": [
          -97.4186109999281,
          32.1392091000799
        ]
      },
      "properties": {
        "OBJECTID": 211020,
        "CROSSING": "023148W",
        "EFFDATE": 1759968000000,
        "REASON": "14",
        "StateCode": "48",
        "CountyCode": "48217",
        "STCYFIPS": "48217",
        "CITYCD": "482170730",
        "RAILROAD": "BNSF",
        "RRDIV": "RED RIVER",
        "RRSUBDIV": "FT WORTH",
        "HIGHWAY": "CR1102",
        "STREET": "County Road 1102",
        "TTSTN": "669118",
        "MILEPOST": "0302.040",
        "TYPEXING": "Public",
        "POSXING": "RR Under",
        "PRVCAT": "14",
        "INIT": "2",
        "LATITUDE": 32.1392091,
        "LONGITUD": -97.418611,
        "LLSOURCE": "1",
        "WHISTBAN": "0",
        "RRCONT": "8173521549",
        "POLCONT": "8008325452",
        "INV_LINK": "https://safetydata.fra.dot.gov/OfficeofSafety/PublicSite/Crossing/Crossing.aspx?phasetype=C&rpttype=I&txtcrossingnum=023148W",
        "ACC_LINK": "https://safetydata.fra.dot.gov/OfficeofSafety/PublicSite/Crossing/Crossing.aspx?phasetype=C&rpttype=A&txtcrossingnum=023148W",
        "TTSTNNAM": "BLUM",
        "XPURPOSE": "1",
        "OPERATINGR": "BNSF",
        "OPERATIN_1": "Primary",
        "DAYTHRU": 10,
        "NGHTTHRU": 10,
        "MAINTRK": 1,
        "SIDINGTRK": 0,
        "YARDTRK": 0,
        "TRANSITTRK": 0,
        "INDUSTRYTR": 0,
        "OTHRTRK": 0,
        "WDCODE": "",
        "REVISIONDA": "1996/01/01 00:00:00",
        "LASTUPDATE": "10/9/2025",
        "AADT": "120",
        "AADTYEAR": "2020",
        "STATENAME": "TEXAS",
        "STATEAB": "TX",
        "COUNTYNAME": "HILL",
        "CITYNAME": "BLUM",
        "LATDD": 32.1392091,
        "LONGDD": -97.418611,
        "gridlyProductionCertified": true,
        "gridlyClassification": "PUBLIC_ROADWAY",
        "gridlyDisplayName": "County Road 1102",
        "gridlyId": "FRA-023148W"
      }
    },
    {
      "type": "Feature",
      "id": 212063,
      "geometry": {
        "type": "Point",
        "coordinates": [
          -97.111120100032,
          32.0293343997826
        ]
      },
      "properties": {
        "OBJECTID": 212063,
        "CROSSING": "414886T",
        "EFFDATE": 1758499200000,
        "REASON": "14",
        "StateCode": "48",
        "CountyCode": "48217",
        "STCYFIPS": "48217",
        "CITYCD": "482173210",
        "RAILROAD": "UP",
        "RRDIV": "TEXOMA",
        "RRSUBDIV": "HILLSBORO IND LD",
        "HIGHWAY": "ls0000",
        "STREET": "Pecos Street",
        "TTSTN": "669150",
        "MILEPOST": "0831.390",
        "TYPEXING": "Public",
        "POSXING": "At Grade",
        "PRVCAT": "14",
        "INIT": "1",
        "LATITUDE": 32.0293344,
        "LONGITUD": -97.1111201,
        "LLSOURCE": "1",
        "WHISTBAN": "0",
        "RRCONT": "4025443721",
        "POLCONT": "8008488715",
        "INV_LINK": "https://safetydata.fra.dot.gov/OfficeofSafety/PublicSite/Crossing/Crossing.aspx?phasetype=C&rpttype=I&txtcrossingnum=414886T",
        "ACC_LINK": "https://safetydata.fra.dot.gov/OfficeofSafety/PublicSite/Crossing/Crossing.aspx?phasetype=C&rpttype=A&txtcrossingnum=414886T",
        "TTSTNNAM": "",
        "XPURPOSE": "1",
        "OPERATINGR": "UP",
        "OPERATIN_1": "Primary",
        "DAYTHRU": 0,
        "NGHTTHRU": 0,
        "MAINTRK": 0,
        "SIDINGTRK": 0,
        "YARDTRK": 0,
        "TRANSITTRK": 0,
        "INDUSTRYTR": 1,
        "OTHRTRK": 0,
        "WDCODE": "Crossbucks",
        "REVISIONDA": "1975/01/01 00:00:00",
        "LASTUPDATE": "9/22/2025",
        "AADT": "508",
        "AADTYEAR": "2020",
        "STATENAME": "TEXAS",
        "STATEAB": "TX",
        "COUNTYNAME": "HILL",
        "CITYNAME": "HILLSBORO",
        "LATDD": 32.0293344,
        "LONGDD": -97.1111201,
        "gridlyProductionCertified": true,
        "gridlyClassification": "PUBLIC_ROADWAY",
        "gridlyDisplayName": "Pecos Street",
        "gridlyId": "FRA-414886T"
      }
    },
    {
      "type": "Feature",
      "id": 212079,
      "geometry": {
        "type": "Point",
        "coordinates": [
          -97.1517303998797,
          32.1592697998937
        ]
      },
      "properties": {
        "OBJECTID": 212079,
        "CROSSING": "416027L",
        "EFFDATE": 1769644800000,
        "REASON": "14",
        "StateCode": "48",
        "CountyCode": "48217",
        "STCYFIPS": "48217",
        "CITYCD": "482173440",
        "RAILROAD": "UP",
        "RRDIV": "TEXOMA",
        "RRSUBDIV": "FT. WORTH SUB",
        "HIGHWAY": "FM0066",
        "STREET": "fm0066 / WEST Main Street",
        "TTSTN": "668570",
        "MILEPOST": "0206.690",
        "TYPEXING": "Public",
        "POSXING": "At Grade",
        "PRVCAT": "14",
        "INIT": "2",
        "LATITUDE": 32.1592698,
        "LONGITUD": -97.1517304,
        "LLSOURCE": "1",
        "WHISTBAN": "0",
        "RRCONT": "4025443721",
        "POLCONT": "8008488715",
        "INV_LINK": "https://safetydata.fra.dot.gov/OfficeofSafety/PublicSite/Crossing/Crossing.aspx?phasetype=C&rpttype=I&txtcrossingnum=416027L",
        "ACC_LINK": "https://safetydata.fra.dot.gov/OfficeofSafety/PublicSite/Crossing/Crossing.aspx?phasetype=C&rpttype=A&txtcrossingnum=416027L",
        "TTSTNNAM": "",
        "XPURPOSE": "1",
        "OPERATINGR": "UP",
        "OPERATIN_1": "Primary",
        "DAYTHRU": 9,
        "NGHTTHRU": 8,
        "MAINTRK": 1,
        "SIDINGTRK": 0,
        "YARDTRK": 0,
        "TRANSITTRK": 0,
        "INDUSTRYTR": 0,
        "OTHRTRK": 1,
        "WDCODE": "All other Gates",
        "REVISIONDA": "1975/01/01 00:00:00",
        "LASTUPDATE": "1/29/2026",
        "AADT": "2113",
        "AADTYEAR": "2023",
        "STATENAME": "TEXAS",
        "STATEAB": "TX",
        "COUNTYNAME": "HILL",
        "CITYNAME": "ITASCA",
        "LATDD": 32.1592698,
        "LONGDD": -97.1517304,
        "gridlyProductionCertified": true,
        "gridlyClassification": "PUBLIC_ROADWAY",
        "gridlyDisplayName": "fm0066 / WEST Main Street",
        "gridlyId": "FRA-416027L"
      }
    },
    {
      "type": "Feature",
      "id": 212182,
      "geometry": {
        "type": "Point",
        "coordinates": [
          -97.1219323997598,
          32.0242213003171
        ]
      },
      "properties": {
        "OBJECTID": 212182,
        "CROSSING": "415817N",
        "EFFDATE": 1758499200000,
        "REASON": "14",
        "StateCode": "48",
        "CountyCode": "48217",
        "STCYFIPS": "48217",
        "CITYCD": "482173210",
        "RAILROAD": "UP",
        "RRDIV": "TEXOMA",
        "RRSUBDIV": "Hillsboro Ind Ld",
        "HIGHWAY": "ls0000",
        "STREET": "MILFORD road",
        "TTSTN": "669150",
        "MILEPOST": "0832.120",
        "TYPEXING": "Public",
        "POSXING": "At Grade",
        "PRVCAT": "14",
        "INIT": "1",
        "LATITUDE": 32.0242213,
        "LONGITUD": -97.1219324,
        "LLSOURCE": "1",
        "WHISTBAN": "0",
        "RRCONT": "4025443721",
        "POLCONT": "8008488715",
        "INV_LINK": "https://safetydata.fra.dot.gov/OfficeofSafety/PublicSite/Crossing/Crossing.aspx?phasetype=C&rpttype=I&txtcrossingnum=415817N",
        "ACC_LINK": "https://safetydata.fra.dot.gov/OfficeofSafety/PublicSite/Crossing/Crossing.aspx?phasetype=C&rpttype=A&txtcrossingnum=415817N",
        "TTSTNNAM": "",
        "XPURPOSE": "1",
        "OPERATINGR": "UP",
        "OPERATIN_1": "Primary",
        "DAYTHRU": 0,
        "NGHTTHRU": 0,
        "MAINTRK": 0,
        "SIDINGTRK": 0,
        "YARDTRK": 0,
        "TRANSITTRK": 0,
        "INDUSTRYTR": 1,
        "OTHRTRK": 0,
        "WDCODE": "Crossbucks",
        "REVISIONDA": "1975/01/01 00:00:00",
        "LASTUPDATE": "9/22/2025",
        "AADT": "486",
        "AADTYEAR": "2020",
        "STATENAME": "TEXAS",
        "STATEAB": "TX",
        "COUNTYNAME": "HILL",
        "CITYNAME": "HILLSBORO",
        "LATDD": 32.0242213,
        "LONGDD": -97.1219324,
        "gridlyProductionCertified": true,
        "gridlyClassification": "PUBLIC_ROADWAY",
        "gridlyDisplayName": "MILFORD road",
        "gridlyId": "FRA-415817N"
      }
    },
    {
      "type": "Feature",
      "id": 212568,
      "geometry": {
        "type": "Point",
        "coordinates": [
          -97.1096137995737,
          31.9830437996428
        ]
      },
      "properties": {
        "OBJECTID": 212568,
        "CROSSING": "416051M",
        "EFFDATE": 1759363200000,
        "REASON": "14",
        "StateCode": "48",
        "CountyCode": "48217",
        "STCYFIPS": "48217",
        "CITYCD": "482173210",
        "RAILROAD": "UP",
        "RRDIV": "TEXOMA",
        "RRSUBDIV": "FT. WORTH SUB",
        "HIGHWAY": "IH0035",
        "STREET": "ih0035",
        "TTSTN": "669111",
        "MILEPOST": "0193.670",
        "TYPEXING": "Public",
        "POSXING": "RR Under",
        "PRVCAT": "14",
        "INIT": "2",
        "LATITUDE": 31.9830438,
        "LONGITUD": -97.1096138,
        "LLSOURCE": "1",
        "WHISTBAN": "0",
        "RRCONT": "4025443721",
        "POLCONT": "8008488715",
        "INV_LINK": "https://safetydata.fra.dot.gov/OfficeofSafety/PublicSite/Crossing/Crossing.aspx?phasetype=C&rpttype=I&txtcrossingnum=416051M",
        "ACC_LINK": "https://safetydata.fra.dot.gov/OfficeofSafety/PublicSite/Crossing/Crossing.aspx?phasetype=C&rpttype=A&txtcrossingnum=416051M",
        "TTSTNNAM": "",
        "XPURPOSE": "1",
        "OPERATINGR": "UP",
        "OPERATIN_1": "Primary",
        "DAYTHRU": 12,
        "NGHTTHRU": 12,
        "MAINTRK": 1,
        "SIDINGTRK": 0,
        "YARDTRK": 0,
        "TRANSITTRK": 0,
        "INDUSTRYTR": 0,
        "OTHRTRK": 0,
        "WDCODE": "",
        "REVISIONDA": "1975/01/01 00:00:00",
        "LASTUPDATE": "10/2/2025",
        "AADT": "47410",
        "AADTYEAR": "2011",
        "STATENAME": "TEXAS",
        "STATEAB": "TX",
        "COUNTYNAME": "HILL",
        "CITYNAME": "HILLSBORO",
        "LATDD": 31.9830438,
        "LONGDD": -97.1096138,
        "gridlyProductionCertified": true,
        "gridlyClassification": "PUBLIC_ROADWAY",
        "gridlyDisplayName": "ih0035",
        "gridlyId": "FRA-416051M"
      }
    },
    {
      "type": "Feature",
      "id": 212569,
      "geometry": {
        "type": "Point",
        "coordinates": [
          -97.1264410001534,
          32.0225570002896
        ]
      },
      "properties": {
        "OBJECTID": 212569,
        "CROSSING": "415819C",
        "EFFDATE": 1759104000000,
        "REASON": "14",
        "StateCode": "48",
        "CountyCode": "48217",
        "STCYFIPS": "48217",
        "CITYCD": "482173210",
        "RAILROAD": "UP",
        "RRDIV": "TEXOMA",
        "RRSUBDIV": "HILLSBORO IND LD",
        "HIGHWAY": "TBD",
        "STREET": "LB FOSTER",
        "TTSTN": "669150",
        "MILEPOST": "0832.410",
        "TYPEXING": "Public",
        "POSXING": "At Grade",
        "PRVCAT": "14",
        "INIT": "1",
        "LATITUDE": 32.022557,
        "LONGITUD": -97.126441,
        "LLSOURCE": "1",
        "WHISTBAN": "0",
        "RRCONT": "4025443721",
        "POLCONT": "8008488715",
        "INV_LINK": "https://safetydata.fra.dot.gov/OfficeofSafety/PublicSite/Crossing/Crossing.aspx?phasetype=C&rpttype=I&txtcrossingnum=415819C",
        "ACC_LINK": "https://safetydata.fra.dot.gov/OfficeofSafety/PublicSite/Crossing/Crossing.aspx?phasetype=C&rpttype=A&txtcrossingnum=415819C",
        "TTSTNNAM": "",
        "XPURPOSE": "1",
        "OPERATINGR": "UP",
        "OPERATIN_1": "Primary",
        "DAYTHRU": 2,
        "NGHTTHRU": 2,
        "MAINTRK": 0,
        "SIDINGTRK": 0,
        "YARDTRK": 0,
        "TRANSITTRK": 0,
        "INDUSTRYTR": 1,
        "OTHRTRK": 1,
        "WDCODE": "Crossbucks",
        "REVISIONDA": "1975/01/01 00:00:00",
        "LASTUPDATE": "9/29/2025",
        "AADT": "5400",
        "AADTYEAR": "2003",
        "STATENAME": "TEXAS",
        "STATEAB": "TX",
        "COUNTYNAME": "HILL",
        "CITYNAME": "HILLSBORO",
        "LATDD": 32.022557,
        "LONGDD": -97.126441,
        "gridlyProductionCertified": true,
        "gridlyClassification": "PUBLIC_ROADWAY",
        "gridlyDisplayName": "LB FOSTER",
        "gridlyId": "FRA-415819C"
      }
    },
    {
      "type": "Feature",
      "id": 212811,
      "geometry": {
        "type": "Point",
        "coordinates": [
          -97.1259420003861,
          32.0228100002754
        ]
      },
      "properties": {
        "OBJECTID": 212811,
        "CROSSING": "415816G",
        "EFFDATE": 1759968000000,
        "REASON": "14",
        "StateCode": "48",
        "CountyCode": "48217",
        "STCYFIPS": "48217",
        "CITYCD": "482173210",
        "RAILROAD": "UP",
        "RRDIV": "TEXOMA",
        "RRSUBDIV": "Hillsboro Ind Ld",
        "HIGHWAY": "sh0081",
        "STREET": "sh0081",
        "TTSTN": "669150",
        "MILEPOST": "0832.376",
        "TYPEXING": "Public",
        "POSXING": "RR Over",
        "PRVCAT": "14",
        "INIT": "2",
        "LATITUDE": 32.02281,
        "LONGITUD": -97.125942,
        "LLSOURCE": "1",
        "WHISTBAN": "0",
        "RRCONT": "4025443721",
        "POLCONT": "8008488715",
        "INV_LINK": "https://safetydata.fra.dot.gov/OfficeofSafety/PublicSite/Crossing/Crossing.aspx?phasetype=C&rpttype=I&txtcrossingnum=415816G",
        "ACC_LINK": "https://safetydata.fra.dot.gov/OfficeofSafety/PublicSite/Crossing/Crossing.aspx?phasetype=C&rpttype=A&txtcrossingnum=415816G",
        "TTSTNNAM": "",
        "XPURPOSE": "1",
        "OPERATINGR": "UP",
        "OPERATIN_1": "Primary",
        "DAYTHRU": 0,
        "NGHTTHRU": 0,
        "MAINTRK": 0,
        "SIDINGTRK": 0,
        "YARDTRK": 0,
        "TRANSITTRK": 0,
        "INDUSTRYTR": 1,
        "OTHRTRK": 0,
        "WDCODE": "",
        "REVISIONDA": "1975/01/01 00:00:00",
        "LASTUPDATE": "10/9/2025",
        "AADT": "6893",
        "AADTYEAR": "2024",
        "STATENAME": "TEXAS",
        "STATEAB": "TX",
        "COUNTYNAME": "HILL",
        "CITYNAME": "HILLSBORO",
        "LATDD": 32.02281,
        "LONGDD": -97.125942,
        "gridlyProductionCertified": true,
        "gridlyClassification": "PUBLIC_ROADWAY",
        "gridlyDisplayName": "sh0081",
        "gridlyId": "FRA-415816G"
      }
    },
    {
      "type": "Feature",
      "id": 212812,
      "geometry": {
        "type": "Point",
        "coordinates": [
          -97.1301438000589,
          32.0180809996814
        ]
      },
      "properties": {
        "OBJECTID": 212812,
        "CROSSING": "416041G",
        "EFFDATE": 1759968000000,
        "REASON": "14",
        "StateCode": "48",
        "CountyCode": "48217",
        "STCYFIPS": "48217",
        "CITYCD": "482173210",
        "RAILROAD": "UP",
        "RRDIV": "TEXOMA",
        "RRSUBDIV": "FT. WORTH SUB",
        "HIGHWAY": "Cr4281",
        "STREET": "itasca road",
        "TTSTN": "669150",
        "MILEPOST": "0196.738",
        "TYPEXING": "Public",
        "POSXING": "RR Over",
        "PRVCAT": "14",
        "INIT": "2",
        "LATITUDE": 32.018081,
        "LONGITUD": -97.1301438,
        "LLSOURCE": "1",
        "WHISTBAN": "0",
        "RRCONT": "4025443721",
        "POLCONT": "8008488715",
        "INV_LINK": "https://safetydata.fra.dot.gov/OfficeofSafety/PublicSite/Crossing/Crossing.aspx?phasetype=C&rpttype=I&txtcrossingnum=416041G",
        "ACC_LINK": "https://safetydata.fra.dot.gov/OfficeofSafety/PublicSite/Crossing/Crossing.aspx?phasetype=C&rpttype=A&txtcrossingnum=416041G",
        "TTSTNNAM": "",
        "XPURPOSE": "1",
        "OPERATINGR": "UP",
        "OPERATIN_1": "Primary",
        "DAYTHRU": 12,
        "NGHTTHRU": 12,
        "MAINTRK": 1,
        "SIDINGTRK": 0,
        "YARDTRK": 0,
        "TRANSITTRK": 0,
        "INDUSTRYTR": 0,
        "OTHRTRK": 0,
        "WDCODE": "",
        "REVISIONDA": "1975/01/01 00:00:00",
        "LASTUPDATE": "10/9/2025",
        "AADT": "66",
        "AADTYEAR": "2020",
        "STATENAME": "TEXAS",
        "STATEAB": "TX",
        "COUNTYNAME": "HILL",
        "CITYNAME": "HILLSBORO",
        "LATDD": 32.018081,
        "LONGDD": -97.1301438,
        "gridlyProductionCertified": true,
        "gridlyClassification": "PUBLIC_ROADWAY",
        "gridlyDisplayName": "itasca road",
        "gridlyId": "FRA-416041G"
      }
    },
    {
      "type": "Feature",
      "id": 212828,
      "geometry": {
        "type": "Point",
        "coordinates": [
          -97.131400100272,
          32.002260099644
        ]
      },
      "properties": {
        "OBJECTID": 212828,
        "CROSSING": "416048E",
        "EFFDATE": 1759968000000,
        "REASON": "14",
        "StateCode": "48",
        "CountyCode": "48217",
        "STCYFIPS": "48217",
        "CITYCD": "482173210",
        "RAILROAD": "UP",
        "RRDIV": "TEXOMA",
        "RRSUBDIV": "FT. WORTH SUB",
        "HIGHWAY": "SH0081",
        "STREET": "sh0081 / abbott avenue",
        "TTSTN": "669150",
        "MILEPOST": "0195.525",
        "TYPEXING": "Public",
        "POSXING": "RR Over",
        "PRVCAT": "14",
        "INIT": "2",
        "LATITUDE": 32.0022601,
        "LONGITUD": -97.1314001,
        "LLSOURCE": "1",
        "WHISTBAN": "0",
        "RRCONT": "4025443721",
        "POLCONT": "8008488715",
        "INV_LINK": "https://safetydata.fra.dot.gov/OfficeofSafety/PublicSite/Crossing/Crossing.aspx?phasetype=C&rpttype=I&txtcrossingnum=416048E",
        "ACC_LINK": "https://safetydata.fra.dot.gov/OfficeofSafety/PublicSite/Crossing/Crossing.aspx?phasetype=C&rpttype=A&txtcrossingnum=416048E",
        "TTSTNNAM": "",
        "XPURPOSE": "1",
        "OPERATINGR": "UP",
        "OPERATIN_1": "Primary",
        "DAYTHRU": 12,
        "NGHTTHRU": 12,
        "MAINTRK": 1,
        "SIDINGTRK": 1,
        "YARDTRK": 0,
        "TRANSITTRK": 0,
        "INDUSTRYTR": 0,
        "OTHRTRK": 0,
        "WDCODE": "",
        "REVISIONDA": "1975/01/01 00:00:00",
        "LASTUPDATE": "10/9/2025",
        "AADT": "6712",
        "AADTYEAR": "2024",
        "STATENAME": "TEXAS",
        "STATEAB": "TX",
        "COUNTYNAME": "HILL",
        "CITYNAME": "HILLSBORO",
        "LATDD": 32.0022601,
        "LONGDD": -97.1314001,
        "gridlyProductionCertified": true,
        "gridlyClassification": "PUBLIC_ROADWAY",
        "gridlyDisplayName": "sh0081 / abbott avenue",
        "gridlyId": "FRA-416048E"
      }
    },
    {
      "type": "Feature",
      "id": 213506,
      "geometry": {
        "type": "Point",
        "coordinates": [
          -97.1124400000689,
          32.028168000303
        ]
      },
      "properties": {
        "OBJECTID": 213506,
        "CROSSING": "972537V",
        "EFFDATE": 1758585600000,
        "REASON": "14",
        "StateCode": "48",
        "CountyCode": "48217",
        "STCYFIPS": "48217",
        "CITYCD": "482173210",
        "RAILROAD": "UP",
        "RRDIV": "TEXOMA",
        "RRSUBDIV": "HILLSBORO IND LD",
        "HIGHWAY": "NA",
        "STREET": "ALL PRIVATE IN Industry - CLAYTON SUPPLY OF TEXAS",
        "TTSTN": "",
        "MILEPOST": "0831.497",
        "TYPEXING": "Private",
        "POSXING": "At Grade",
        "PRVCAT": "14",
        "INIT": "1",
        "LATITUDE": 32.028168,
        "LONGITUD": -97.11244,
        "LLSOURCE": "1",
        "WHISTBAN": "",
        "RRCONT": "4025443721",
        "POLCONT": "8008488715",
        "INV_LINK": "https://safetydata.fra.dot.gov/OfficeofSafety/PublicSite/Crossing/Crossing.aspx?phasetype=C&rpttype=I&txtcrossingnum=972537V",
        "ACC_LINK": "https://safetydata.fra.dot.gov/OfficeofSafety/PublicSite/Crossing/Crossing.aspx?phasetype=C&rpttype=A&txtcrossingnum=972537V",
        "TTSTNNAM": "",
        "XPURPOSE": "1",
        "OPERATINGR": "UP",
        "OPERATIN_1": "Primary",
        "DAYTHRU": 0,
        "NGHTTHRU": 0,
        "MAINTRK": 0,
        "SIDINGTRK": 0,
        "YARDTRK": 0,
        "TRANSITTRK": 0,
        "INDUSTRYTR": 1,
        "OTHRTRK": 0,
        "WDCODE": "",
        "REVISIONDA": "1975/01/01 00:00:00",
        "LASTUPDATE": "9/23/2025",
        "AADT": "",
        "AADTYEAR": "",
        "STATENAME": "TEXAS",
        "STATEAB": "TX",
        "COUNTYNAME": "HILL",
        "CITYNAME": "HILLSBORO",
        "LATDD": 32.028168,
        "LONGDD": -97.11244,
        "gridlyProductionCertified": true,
        "gridlyClassification": "PUBLIC_ROADWAY",
        "gridlyDisplayName": "ALL PRIVATE IN Industry - CLAYTON SUPPLY OF TEXAS",
        "gridlyId": "FRA-972537V"
      }
    },
    {
      "type": "Feature",
      "id": 215208,
      "geometry": {
        "type": "Point",
        "coordinates": [
          -97.1268776002461,
          32.0513843003523
        ]
      },
      "properties": {
        "OBJECTID": 215208,
        "CROSSING": "416038Y",
        "EFFDATE": 1768176000000,
        "REASON": "14",
        "StateCode": "48",
        "CountyCode": "48217",
        "STCYFIPS": "48217",
        "CITYCD": "482173210",
        "RAILROAD": "UP",
        "RRDIV": "TEXOMA",
        "RRSUBDIV": "FT. WORTH SUB",
        "HIGHWAY": "cr42300",
        "STREET": "old fort worth road",
        "TTSTN": "669150",
        "MILEPOST": "0199.020",
        "TYPEXING": "Public",
        "POSXING": "At Grade",
        "PRVCAT": "14",
        "INIT": "2",
        "LATITUDE": 32.0513843,
        "LONGITUD": -97.1268776,
        "LLSOURCE": "1",
        "WHISTBAN": "0",
        "RRCONT": "4025443721",
        "POLCONT": "8008488715",
        "INV_LINK": "https://safetydata.fra.dot.gov/OfficeofSafety/PublicSite/Crossing/Crossing.aspx?phasetype=C&rpttype=I&txtcrossingnum=416038Y",
        "ACC_LINK": "https://safetydata.fra.dot.gov/OfficeofSafety/PublicSite/Crossing/Crossing.aspx?phasetype=C&rpttype=A&txtcrossingnum=416038Y",
        "TTSTNNAM": "",
        "XPURPOSE": "1",
        "OPERATINGR": "UP",
        "OPERATIN_1": "Primary",
        "DAYTHRU": 9,
        "NGHTTHRU": 8,
        "MAINTRK": 1,
        "SIDINGTRK": 0,
        "YARDTRK": 0,
        "TRANSITTRK": 0,
        "INDUSTRYTR": 0,
        "OTHRTRK": 0,
        "WDCODE": "All other Gates",
        "REVISIONDA": "1975/01/01 00:00:00",
        "LASTUPDATE": "1/12/2026",
        "AADT": "49",
        "AADTYEAR": "2020",
        "STATENAME": "TEXAS",
        "STATEAB": "TX",
        "COUNTYNAME": "HILL",
        "CITYNAME": "HILLSBORO",
        "LATDD": 32.0513843,
        "LONGDD": -97.1268776,
        "gridlyProductionCertified": true,
        "gridlyClassification": "PUBLIC_ROADWAY",
        "gridlyDisplayName": "old fort worth road",
        "gridlyId": "FRA-416038Y"
      }
    },
    {
      "type": "Feature",
      "id": 215214,
      "geometry": {
        "type": "Point",
        "coordinates": [
          -97.377457499608,
          32.1922816000723
        ]
      },
      "properties": {
        "OBJECTID": 215214,
        "CROSSING": "023156N",
        "EFFDATE": 1768176000000,
        "REASON": "14",
        "StateCode": "48",
        "CountyCode": "48217",
        "STCYFIPS": "48217",
        "CITYCD": "482515791",
        "RAILROAD": "BNSF",
        "RRDIV": "RED RIVER",
        "RRSUBDIV": "FT WORTH",
        "HIGHWAY": "Cr1136",
        "STREET": "County Road 1136",
        "TTSTN": "669118",
        "MILEPOST": "0306.768",
        "TYPEXING": "Public",
        "POSXING": "At Grade",
        "PRVCAT": "14",
        "INIT": "2",
        "LATITUDE": 32.1922816,
        "LONGITUD": -97.3774575,
        "LLSOURCE": "1",
        "WHISTBAN": "0",
        "RRCONT": "8173521549",
        "POLCONT": "8008325452",
        "INV_LINK": "https://safetydata.fra.dot.gov/OfficeofSafety/PublicSite/Crossing/Crossing.aspx?phasetype=C&rpttype=I&txtcrossingnum=023156N",
        "ACC_LINK": "https://safetydata.fra.dot.gov/OfficeofSafety/PublicSite/Crossing/Crossing.aspx?phasetype=C&rpttype=A&txtcrossingnum=023156N",
        "TTSTNNAM": "BLUM",
        "XPURPOSE": "1",
        "OPERATINGR": "BNSF",
        "OPERATIN_1": "Primary",
        "DAYTHRU": 11,
        "NGHTTHRU": 11,
        "MAINTRK": 1,
        "SIDINGTRK": 0,
        "YARDTRK": 0,
        "TRANSITTRK": 0,
        "INDUSTRYTR": 0,
        "OTHRTRK": 0,
        "WDCODE": "All other Gates",
        "REVISIONDA": "1996/01/01 00:00:00",
        "LASTUPDATE": "1/12/2026",
        "AADT": "80",
        "AADTYEAR": "2020",
        "STATENAME": "TEXAS",
        "STATEAB": "TX",
        "COUNTYNAME": "HILL",
        "CITYNAME": "RIO VISTA",
        "LATDD": 32.1922816,
        "LONGDD": -97.3774575,
        "gridlyProductionCertified": true,
        "gridlyClassification": "PUBLIC_ROADWAY",
        "gridlyDisplayName": "County Road 1136",
        "gridlyId": "FRA-023156N"
      }
    },
    {
      "type": "Feature",
      "id": 215235,
      "geometry": {
        "type": "Point",
        "coordinates": [
          -97.1281706002317,
          32.0872045000695
        ]
      },
      "properties": {
        "OBJECTID": 215235,
        "CROSSING": "416037S",
        "EFFDATE": 1768176000000,
        "REASON": "14",
        "StateCode": "48",
        "CountyCode": "48217",
        "STCYFIPS": "48217",
        "CITYCD": "482173210",
        "RAILROAD": "UP",
        "RRDIV": "TEXOMA",
        "RRSUBDIV": "FT. WORTH SUB",
        "HIGHWAY": "Cr4240",
        "STREET": "County Road 4240",
        "TTSTN": "669150",
        "MILEPOST": "0201.510",
        "TYPEXING": "Public",
        "POSXING": "At Grade",
        "PRVCAT": "14",
        "INIT": "2",
        "LATITUDE": 32.0872045,
        "LONGITUD": -97.1281706,
        "LLSOURCE": "1",
        "WHISTBAN": "0",
        "RRCONT": "4025443721",
        "POLCONT": "8008488715",
        "INV_LINK": "https://safetydata.fra.dot.gov/OfficeofSafety/PublicSite/Crossing/Crossing.aspx?phasetype=C&rpttype=I&txtcrossingnum=416037S",
        "ACC_LINK": "https://safetydata.fra.dot.gov/OfficeofSafety/PublicSite/Crossing/Crossing.aspx?phasetype=C&rpttype=A&txtcrossingnum=416037S",
        "TTSTNNAM": "",
        "XPURPOSE": "1",
        "OPERATINGR": "UP",
        "OPERATIN_1": "Primary",
        "DAYTHRU": 9,
        "NGHTTHRU": 8,
        "MAINTRK": 1,
        "SIDINGTRK": 0,
        "YARDTRK": 0,
        "TRANSITTRK": 0,
        "INDUSTRYTR": 0,
        "OTHRTRK": 0,
        "WDCODE": "All other Gates",
        "REVISIONDA": "1975/01/01 00:00:00",
        "LASTUPDATE": "1/12/2026",
        "AADT": "18",
        "AADTYEAR": "2020",
        "STATENAME": "TEXAS",
        "STATEAB": "TX",
        "COUNTYNAME": "HILL",
        "CITYNAME": "HILLSBORO",
        "LATDD": 32.0872045,
        "LONGDD": -97.1281706,
        "gridlyProductionCertified": true,
        "gridlyClassification": "PUBLIC_ROADWAY",
        "gridlyDisplayName": "County Road 4240",
        "gridlyId": "FRA-416037S"
      }
    },
    {
      "type": "Feature",
      "id": 215236,
      "geometry": {
        "type": "Point",
        "coordinates": [
          -97.1334455003935,
          32.0107976997785
        ]
      },
      "properties": {
        "OBJECTID": 215236,
        "CROSSING": "416044C",
        "EFFDATE": 1768176000000,
        "REASON": "14",
        "StateCode": "48",
        "CountyCode": "48217",
        "STCYFIPS": "48217",
        "CITYCD": "482173210",
        "RAILROAD": "UP",
        "RRDIV": "TEXOMA",
        "RRSUBDIV": "FT. WORTH SUB",
        "HIGHWAY": "SH0022",
        "STREET": "sh0022 / texas lake trail",
        "TTSTN": "669150",
        "MILEPOST": "0196.160",
        "TYPEXING": "Public",
        "POSXING": "At Grade",
        "PRVCAT": "14",
        "INIT": "2",
        "LATITUDE": 32.0107977,
        "LONGITUD": -97.1334455,
        "LLSOURCE": "1",
        "WHISTBAN": "0",
        "RRCONT": "4025443721",
        "POLCONT": "8008488715",
        "INV_LINK": "https://safetydata.fra.dot.gov/OfficeofSafety/PublicSite/Crossing/Crossing.aspx?phasetype=C&rpttype=I&txtcrossingnum=416044C",
        "ACC_LINK": "https://safetydata.fra.dot.gov/OfficeofSafety/PublicSite/Crossing/Crossing.aspx?phasetype=C&rpttype=A&txtcrossingnum=416044C",
        "TTSTNNAM": "",
        "XPURPOSE": "1",
        "OPERATINGR": "UP",
        "OPERATIN_1": "Primary",
        "DAYTHRU": 9,
        "NGHTTHRU": 8,
        "MAINTRK": 1,
        "SIDINGTRK": 0,
        "YARDTRK": 0,
        "TRANSITTRK": 0,
        "INDUSTRYTR": 0,
        "OTHRTRK": 0,
        "WDCODE": "All other Gates",
        "REVISIONDA": "1975/01/01 00:00:00",
        "LASTUPDATE": "1/12/2026",
        "AADT": "5989",
        "AADTYEAR": "2023",
        "STATENAME": "TEXAS",
        "STATEAB": "TX",
        "COUNTYNAME": "HILL",
        "CITYNAME": "HILLSBORO",
        "LATDD": 32.0107977,
        "LONGDD": -97.1334455,
        "gridlyProductionCertified": true,
        "gridlyClassification": "PUBLIC_ROADWAY",
        "gridlyDisplayName": "sh0022 / texas lake trail",
        "gridlyId": "FRA-416044C"
      }
    },
    {
      "type": "Feature",
      "id": 215243,
      "geometry": {
        "type": "Point",
        "coordinates": [
          -97.3974578004011,
          32.1616558997222
        ]
      },
      "properties": {
        "OBJECTID": 215243,
        "CROSSING": "023152L",
        "EFFDATE": 1768176000000,
        "REASON": "14",
        "StateCode": "48",
        "CountyCode": "48217",
        "STCYFIPS": "48217",
        "CITYCD": "482170730",
        "RAILROAD": "BNSF",
        "RRDIV": "RED RIVER",
        "RRSUBDIV": "FT WORTH",
        "HIGHWAY": "CR1125",
        "STREET": "County Road 1125",
        "TTSTN": "669118",
        "MILEPOST": "0304.030",
        "TYPEXING": "Public",
        "POSXING": "At Grade",
        "PRVCAT": "14",
        "INIT": "2",
        "LATITUDE": 32.1616559,
        "LONGITUD": -97.3974578,
        "LLSOURCE": "1",
        "WHISTBAN": "0",
        "RRCONT": "8173521549",
        "POLCONT": "8008325452",
        "INV_LINK": "https://safetydata.fra.dot.gov/OfficeofSafety/PublicSite/Crossing/Crossing.aspx?phasetype=C&rpttype=I&txtcrossingnum=023152L",
        "ACC_LINK": "https://safetydata.fra.dot.gov/OfficeofSafety/PublicSite/Crossing/Crossing.aspx?phasetype=C&rpttype=A&txtcrossingnum=023152L",
        "TTSTNNAM": "BLUM",
        "XPURPOSE": "1",
        "OPERATINGR": "BNSF",
        "OPERATIN_1": "Primary",
        "DAYTHRU": 10,
        "NGHTTHRU": 9,
        "MAINTRK": 1,
        "SIDINGTRK": 1,
        "YARDTRK": 0,
        "TRANSITTRK": 0,
        "INDUSTRYTR": 0,
        "OTHRTRK": 1,
        "WDCODE": "All other Gates",
        "REVISIONDA": "1996/01/01 00:00:00",
        "LASTUPDATE": "1/12/2026",
        "AADT": "16",
        "AADTYEAR": "2020",
        "STATENAME": "TEXAS",
        "STATEAB": "TX",
        "COUNTYNAME": "HILL",
        "CITYNAME": "BLUM",
        "LATDD": 32.1616559,
        "LONGDD": -97.3974578,
        "gridlyProductionCertified": true,
        "gridlyClassification": "PUBLIC_ROADWAY",
        "gridlyDisplayName": "County Road 1125",
        "gridlyId": "FRA-023152L"
      }
    },
    {
      "type": "Feature",
      "id": 215249,
      "geometry": {
        "type": "Point",
        "coordinates": [
          -97.1285650001673,
          31.9997680999653
        ]
      },
      "properties": {
        "OBJECTID": 215249,
        "CROSSING": "416050F",
        "EFFDATE": 1768176000000,
        "REASON": "14",
        "StateCode": "48",
        "CountyCode": "48217",
        "STCYFIPS": "48217",
        "CITYCD": "482173210",
        "RAILROAD": "UP",
        "RRDIV": "TEXOMA",
        "RRSUBDIV": "FT. WORTH SUB",
        "HIGHWAY": "lS0000",
        "STREET": "Mark Street",
        "TTSTN": "669111",
        "MILEPOST": "0195.290",
        "TYPEXING": "Public",
        "POSXING": "At Grade",
        "PRVCAT": "14",
        "INIT": "2",
        "LATITUDE": 31.9997681,
        "LONGITUD": -97.128565,
        "LLSOURCE": "1",
        "WHISTBAN": "0",
        "RRCONT": "4025443721",
        "POLCONT": "8008488715",
        "INV_LINK": "https://safetydata.fra.dot.gov/OfficeofSafety/PublicSite/Crossing/Crossing.aspx?phasetype=C&rpttype=I&txtcrossingnum=416050F",
        "ACC_LINK": "https://safetydata.fra.dot.gov/OfficeofSafety/PublicSite/Crossing/Crossing.aspx?phasetype=C&rpttype=A&txtcrossingnum=416050F",
        "TTSTNNAM": "",
        "XPURPOSE": "1",
        "OPERATINGR": "UP",
        "OPERATIN_1": "Primary",
        "DAYTHRU": 9,
        "NGHTTHRU": 8,
        "MAINTRK": 1,
        "SIDINGTRK": 1,
        "YARDTRK": 0,
        "TRANSITTRK": 0,
        "INDUSTRYTR": 0,
        "OTHRTRK": 2,
        "WDCODE": "All other Gates",
        "REVISIONDA": "1975/01/01 00:00:00",
        "LASTUPDATE": "1/12/2026",
        "AADT": "372",
        "AADTYEAR": "2020",
        "STATENAME": "TEXAS",
        "STATEAB": "TX",
        "COUNTYNAME": "HILL",
        "CITYNAME": "HILLSBORO",
        "LATDD": 31.9997681,
        "LONGDD": -97.128565,
        "gridlyProductionCertified": true,
        "gridlyClassification": "PUBLIC_ROADWAY",
        "gridlyDisplayName": "Mark Street",
        "gridlyId": "FRA-416050F"
      }
    },
    {
      "type": "Feature",
      "id": 215265,
      "geometry": {
        "type": "Point",
        "coordinates": [
          -97.4044650997917,
          32.1529895999817
        ]
      },
      "properties": {
        "OBJECTID": 215265,
        "CROSSING": "023151E",
        "EFFDATE": 1768176000000,
        "REASON": "14",
        "StateCode": "48",
        "CountyCode": "48217",
        "STCYFIPS": "48217",
        "CITYCD": "482170730",
        "RAILROAD": "BNSF",
        "RRDIV": "RED RIVER",
        "RRSUBDIV": "FT WORTH",
        "HIGHWAY": "FM0933",
        "STREET": "FM0933",
        "TTSTN": "669118",
        "MILEPOST": "0303.301",
        "TYPEXING": "Public",
        "POSXING": "At Grade",
        "PRVCAT": "14",
        "INIT": "2",
        "LATITUDE": 32.1529896,
        "LONGITUD": -97.4044651,
        "LLSOURCE": "1",
        "WHISTBAN": "0",
        "RRCONT": "8173521549",
        "POLCONT": "8008325452",
        "INV_LINK": "https://safetydata.fra.dot.gov/OfficeofSafety/PublicSite/Crossing/Crossing.aspx?phasetype=C&rpttype=I&txtcrossingnum=023151E",
        "ACC_LINK": "https://safetydata.fra.dot.gov/OfficeofSafety/PublicSite/Crossing/Crossing.aspx?phasetype=C&rpttype=A&txtcrossingnum=023151E",
        "TTSTNNAM": "BLUM",
        "XPURPOSE": "1",
        "OPERATINGR": "BNSF",
        "OPERATIN_1": "Primary",
        "DAYTHRU": 10,
        "NGHTTHRU": 9,
        "MAINTRK": 1,
        "SIDINGTRK": 1,
        "YARDTRK": 0,
        "TRANSITTRK": 0,
        "INDUSTRYTR": 0,
        "OTHRTRK": 1,
        "WDCODE": "All other Gates",
        "REVISIONDA": "1996/01/01 00:00:00",
        "LASTUPDATE": "1/12/2026",
        "AADT": "4289",
        "AADTYEAR": "2023",
        "STATENAME": "TEXAS",
        "STATEAB": "TX",
        "COUNTYNAME": "HILL",
        "CITYNAME": "BLUM",
        "LATDD": 32.1529896,
        "LONGDD": -97.4044651,
        "gridlyProductionCertified": true,
        "gridlyClassification": "PUBLIC_ROADWAY",
        "gridlyDisplayName": "FM0933",
        "gridlyId": "FRA-023151E"
      }
    },
    {
      "type": "Feature",
      "id": 215268,
      "geometry": {
        "type": "Point",
        "coordinates": [
          -97.1335433996915,
          32.0087649002379
        ]
      },
      "properties": {
        "OBJECTID": 215268,
        "CROSSING": "416045J",
        "EFFDATE": 1768176000000,
        "REASON": "14",
        "StateCode": "48",
        "CountyCode": "48217",
        "STCYFIPS": "48217",
        "CITYCD": "482173210",
        "RAILROAD": "UP",
        "RRDIV": "TEXOMA",
        "RRSUBDIV": "FT. WORTH SUB",
        "HIGHWAY": "lS0000",
        "STREET": "WEST WALNUT STREET",
        "TTSTN": "669150",
        "MILEPOST": "0196.020",
        "TYPEXING": "Public",
        "POSXING": "At Grade",
        "PRVCAT": "14",
        "INIT": "2",
        "LATITUDE": 32.0087649,
        "LONGITUD": -97.1335434,
        "LLSOURCE": "1",
        "WHISTBAN": "0",
        "RRCONT": "4025443721",
        "POLCONT": "8008488715",
        "INV_LINK": "https://safetydata.fra.dot.gov/OfficeofSafety/PublicSite/Crossing/Crossing.aspx?phasetype=C&rpttype=I&txtcrossingnum=416045J",
        "ACC_LINK": "https://safetydata.fra.dot.gov/OfficeofSafety/PublicSite/Crossing/Crossing.aspx?phasetype=C&rpttype=A&txtcrossingnum=416045J",
        "TTSTNNAM": "",
        "XPURPOSE": "1",
        "OPERATINGR": "UP",
        "OPERATIN_1": "Primary",
        "DAYTHRU": 9,
        "NGHTTHRU": 8,
        "MAINTRK": 1,
        "SIDINGTRK": 0,
        "YARDTRK": 0,
        "TRANSITTRK": 0,
        "INDUSTRYTR": 0,
        "OTHRTRK": 4,
        "WDCODE": "All other Gates",
        "REVISIONDA": "1975/01/01 00:00:00",
        "LASTUPDATE": "1/12/2026",
        "AADT": "1179",
        "AADTYEAR": "2020",
        "STATENAME": "TEXAS",
        "STATEAB": "TX",
        "COUNTYNAME": "HILL",
        "CITYNAME": "HILLSBORO",
        "LATDD": 32.0087649,
        "LONGDD": -97.1335434,
        "gridlyProductionCertified": true,
        "gridlyClassification": "PUBLIC_ROADWAY",
        "gridlyDisplayName": "WEST WALNUT STREET",
        "gridlyId": "FRA-416045J"
      }
    },
    {
      "type": "Feature",
      "id": 215276,
      "geometry": {
        "type": "Point",
        "coordinates": [
          -97.3914095999,
          32.1690818999129
        ]
      },
      "properties": {
        "OBJECTID": 215276,
        "CROSSING": "023153T",
        "EFFDATE": 1768176000000,
        "REASON": "14",
        "StateCode": "48",
        "CountyCode": "48217",
        "STCYFIPS": "48217",
        "CITYCD": "482170730",
        "RAILROAD": "BNSF",
        "RRDIV": "RED RIVER",
        "RRSUBDIV": "FT WORTH",
        "HIGHWAY": "cr1130",
        "STREET": "County Road 1130 south",
        "TTSTN": "669118",
        "MILEPOST": "0304.664",
        "TYPEXING": "Public",
        "POSXING": "At Grade",
        "PRVCAT": "14",
        "INIT": "2",
        "LATITUDE": 32.1690819,
        "LONGITUD": -97.3914096,
        "LLSOURCE": "1",
        "WHISTBAN": "0",
        "RRCONT": "8173521549",
        "POLCONT": "8008325452",
        "INV_LINK": "https://safetydata.fra.dot.gov/OfficeofSafety/PublicSite/Crossing/Crossing.aspx?phasetype=C&rpttype=I&txtcrossingnum=023153T",
        "ACC_LINK": "https://safetydata.fra.dot.gov/OfficeofSafety/PublicSite/Crossing/Crossing.aspx?phasetype=C&rpttype=A&txtcrossingnum=023153T",
        "TTSTNNAM": "BLUM",
        "XPURPOSE": "1",
        "OPERATINGR": "BNSF",
        "OPERATIN_1": "Primary",
        "DAYTHRU": 10,
        "NGHTTHRU": 10,
        "MAINTRK": 1,
        "SIDINGTRK": 0,
        "YARDTRK": 0,
        "TRANSITTRK": 0,
        "INDUSTRYTR": 0,
        "OTHRTRK": 0,
        "WDCODE": "All other Gates",
        "REVISIONDA": "1996/01/01 00:00:00",
        "LASTUPDATE": "1/12/2026",
        "AADT": "76",
        "AADTYEAR": "2020",
        "STATENAME": "TEXAS",
        "STATEAB": "TX",
        "COUNTYNAME": "HILL",
        "CITYNAME": "BLUM",
        "LATDD": 32.1690819,
        "LONGDD": -97.3914096,
        "gridlyProductionCertified": true,
        "gridlyClassification": "PUBLIC_ROADWAY",
        "gridlyDisplayName": "County Road 1130 south",
        "gridlyId": "FRA-023153T"
      }
    },
    {
      "type": "Feature",
      "id": 215281,
      "geometry": {
        "type": "Point",
        "coordinates": [
          -97.1332907000088,
          32.0118059002844
        ]
      },
      "properties": {
        "OBJECTID": 215281,
        "CROSSING": "416043V",
        "EFFDATE": 1768176000000,
        "REASON": "14",
        "StateCode": "48",
        "CountyCode": "48217",
        "STCYFIPS": "48217",
        "CITYCD": "482173210",
        "RAILROAD": "UP",
        "RRDIV": "TEXOMA",
        "RRSUBDIV": "FT. WORTH SUB",
        "HIGHWAY": "lS0000",
        "STREET": "west FRANKLIN STREET",
        "TTSTN": "669150",
        "MILEPOST": "0196.240",
        "TYPEXING": "Public",
        "POSXING": "At Grade",
        "PRVCAT": "14",
        "INIT": "2",
        "LATITUDE": 32.0118059,
        "LONGITUD": -97.1332907,
        "LLSOURCE": "1",
        "WHISTBAN": "0",
        "RRCONT": "4025443721",
        "POLCONT": "8008488715",
        "INV_LINK": "https://safetydata.fra.dot.gov/OfficeofSafety/PublicSite/Crossing/Crossing.aspx?phasetype=C&rpttype=I&txtcrossingnum=416043V",
        "ACC_LINK": "https://safetydata.fra.dot.gov/OfficeofSafety/PublicSite/Crossing/Crossing.aspx?phasetype=C&rpttype=A&txtcrossingnum=416043V",
        "TTSTNNAM": "",
        "XPURPOSE": "1",
        "OPERATINGR": "UP",
        "OPERATIN_1": "Primary",
        "DAYTHRU": 9,
        "NGHTTHRU": 8,
        "MAINTRK": 1,
        "SIDINGTRK": 0,
        "YARDTRK": 0,
        "TRANSITTRK": 0,
        "INDUSTRYTR": 0,
        "OTHRTRK": 3,
        "WDCODE": "All other Gates",
        "REVISIONDA": "1975/01/01 00:00:00",
        "LASTUPDATE": "1/12/2026",
        "AADT": "2147",
        "AADTYEAR": "2020",
        "STATENAME": "TEXAS",
        "STATEAB": "TX",
        "COUNTYNAME": "HILL",
        "CITYNAME": "HILLSBORO",
        "LATDD": 32.0118059,
        "LONGDD": -97.1332907,
        "gridlyProductionCertified": true,
        "gridlyClassification": "PUBLIC_ROADWAY",
        "gridlyDisplayName": "west FRANKLIN STREET",
        "gridlyId": "FRA-416043V"
      }
    },
    {
      "type": "Feature",
      "id": 215290,
      "geometry": {
        "type": "Point",
        "coordinates": [
          -97.0730090004414,
          31.8851116002542
        ]
      },
      "properties": {
        "OBJECTID": 215290,
        "CROSSING": "416060L",
        "EFFDATE": 1768176000000,
        "REASON": "14",
        "StateCode": "48",
        "CountyCode": "48217",
        "STCYFIPS": "48217",
        "CITYCD": "482170010",
        "RAILROAD": "UP",
        "RRDIV": "TEXOMA",
        "RRSUBDIV": "FT. WORTH SUB",
        "HIGHWAY": "FM1242",
        "STREET": "FM1242 / east walnut street",
        "TTSTN": "669711",
        "MILEPOST": "0186.480",
        "TYPEXING": "Public",
        "POSXING": "At Grade",
        "PRVCAT": "14",
        "INIT": "2",
        "LATITUDE": 31.8851116,
        "LONGITUD": -97.073009,
        "LLSOURCE": "1",
        "WHISTBAN": "0",
        "RRCONT": "4025443721",
        "POLCONT": "8008488715",
        "INV_LINK": "https://safetydata.fra.dot.gov/OfficeofSafety/PublicSite/Crossing/Crossing.aspx?phasetype=C&rpttype=I&txtcrossingnum=416060L",
        "ACC_LINK": "https://safetydata.fra.dot.gov/OfficeofSafety/PublicSite/Crossing/Crossing.aspx?phasetype=C&rpttype=A&txtcrossingnum=416060L",
        "TTSTNNAM": "",
        "XPURPOSE": "1",
        "OPERATINGR": "UP",
        "OPERATIN_1": "Primary",
        "DAYTHRU": 9,
        "NGHTTHRU": 8,
        "MAINTRK": 1,
        "SIDINGTRK": 0,
        "YARDTRK": 0,
        "TRANSITTRK": 0,
        "INDUSTRYTR": 0,
        "OTHRTRK": 0,
        "WDCODE": "All other Gates",
        "REVISIONDA": "1975/01/01 00:00:00",
        "LASTUPDATE": "1/12/2026",
        "AADT": "1220",
        "AADTYEAR": "2024",
        "STATENAME": "TEXAS",
        "STATEAB": "TX",
        "COUNTYNAME": "HILL",
        "CITYNAME": "ABBOTT",
        "LATDD": 31.8851116,
        "LONGDD": -97.073009,
        "gridlyProductionCertified": true,
        "gridlyClassification": "PUBLIC_ROADWAY",
        "gridlyDisplayName": "FM1242 / east walnut street",
        "gridlyId": "FRA-416060L"
      }
    },
    {
      "type": "Feature",
      "id": 215329,
      "geometry": {
        "type": "Point",
        "coordinates": [
          -97.0811019003782,
          31.8419516000614
        ]
      },
      "properties": {
        "OBJECTID": 215329,
        "CROSSING": "416065V",
        "EFFDATE": 1768176000000,
        "REASON": "14",
        "StateCode": "48",
        "CountyCode": "48217",
        "STCYFIPS": "48217",
        "CITYCD": "483097340",
        "RAILROAD": "UP",
        "RRDIV": "TEXOMA",
        "RRSUBDIV": "FT. WORTH SUB",
        "HIGHWAY": "cr0109",
        "STREET": "East County Line east",
        "TTSTN": "669711",
        "MILEPOST": "0183.500",
        "TYPEXING": "Public",
        "POSXING": "At Grade",
        "PRVCAT": "14",
        "INIT": "2",
        "LATITUDE": 31.8419516,
        "LONGITUD": -97.0811019,
        "LLSOURCE": "1",
        "WHISTBAN": "0",
        "RRCONT": "4025443721",
        "POLCONT": "8008488715",
        "INV_LINK": "https://safetydata.fra.dot.gov/OfficeofSafety/PublicSite/Crossing/Crossing.aspx?phasetype=C&rpttype=I&txtcrossingnum=416065V",
        "ACC_LINK": "https://safetydata.fra.dot.gov/OfficeofSafety/PublicSite/Crossing/Crossing.aspx?phasetype=C&rpttype=A&txtcrossingnum=416065V",
        "TTSTNNAM": "",
        "XPURPOSE": "1",
        "OPERATINGR": "UP",
        "OPERATIN_1": "Primary",
        "DAYTHRU": 9,
        "NGHTTHRU": 8,
        "MAINTRK": 1,
        "SIDINGTRK": 0,
        "YARDTRK": 0,
        "TRANSITTRK": 0,
        "INDUSTRYTR": 0,
        "OTHRTRK": 0,
        "WDCODE": "All other Gates",
        "REVISIONDA": "1975/01/01 00:00:00",
        "LASTUPDATE": "1/12/2026",
        "AADT": "100",
        "AADTYEAR": "2019",
        "STATENAME": "TEXAS",
        "STATEAB": "TX",
        "COUNTYNAME": "HILL",
        "CITYNAME": "WEST",
        "LATDD": 31.8419516,
        "LONGDD": -97.0811019,
        "gridlyProductionCertified": true,
        "gridlyClassification": "PUBLIC_ROADWAY",
        "gridlyDisplayName": "East County Line east",
        "gridlyId": "FRA-416065V"
      }
    },
    {
      "type": "Feature",
      "id": 215343,
      "geometry": {
        "type": "Point",
        "coordinates": [
          -97.149494500324,
          32.1536708997333
        ]
      },
      "properties": {
        "OBJECTID": 215343,
        "CROSSING": "416029A",
        "EFFDATE": 1768176000000,
        "REASON": "14",
        "StateCode": "48",
        "CountyCode": "48217",
        "STCYFIPS": "48217",
        "CITYCD": "482173440",
        "RAILROAD": "UP",
        "RRDIV": "TEXOMA",
        "RRSUBDIV": "FT. WORTH SUB",
        "HIGHWAY": "lS0000",
        "STREET": "w SPURGEON STREET",
        "TTSTN": "668570",
        "MILEPOST": "0206.290",
        "TYPEXING": "Public",
        "POSXING": "At Grade",
        "PRVCAT": "14",
        "INIT": "2",
        "LATITUDE": 32.1536709,
        "LONGITUD": -97.1494945,
        "LLSOURCE": "1",
        "WHISTBAN": "0",
        "RRCONT": "4025443721",
        "POLCONT": "8008488715",
        "INV_LINK": "https://safetydata.fra.dot.gov/OfficeofSafety/PublicSite/Crossing/Crossing.aspx?phasetype=C&rpttype=I&txtcrossingnum=416029A",
        "ACC_LINK": "https://safetydata.fra.dot.gov/OfficeofSafety/PublicSite/Crossing/Crossing.aspx?phasetype=C&rpttype=A&txtcrossingnum=416029A",
        "TTSTNNAM": "",
        "XPURPOSE": "1",
        "OPERATINGR": "UP",
        "OPERATIN_1": "Primary",
        "DAYTHRU": 9,
        "NGHTTHRU": 8,
        "MAINTRK": 1,
        "SIDINGTRK": 0,
        "YARDTRK": 0,
        "TRANSITTRK": 0,
        "INDUSTRYTR": 0,
        "OTHRTRK": 0,
        "WDCODE": "All other Gates",
        "REVISIONDA": "1975/01/01 00:00:00",
        "LASTUPDATE": "1/12/2026",
        "AADT": "259",
        "AADTYEAR": "2020",
        "STATENAME": "TEXAS",
        "STATEAB": "TX",
        "COUNTYNAME": "HILL",
        "CITYNAME": "ITASCA",
        "LATDD": 32.1536709,
        "LONGDD": -97.1494945,
        "gridlyProductionCertified": true,
        "gridlyClassification": "PUBLIC_ROADWAY",
        "gridlyDisplayName": "w SPURGEON STREET",
        "gridlyId": "FRA-416029A"
      }
    },
    {
      "type": "Feature",
      "id": 215411,
      "geometry": {
        "type": "Point",
        "coordinates": [
          -97.0730683000299,
          31.8829866997999
        ]
      },
      "properties": {
        "OBJECTID": 215411,
        "CROSSING": "416062A",
        "EFFDATE": 1768176000000,
        "REASON": "14",
        "StateCode": "48",
        "CountyCode": "48217",
        "STCYFIPS": "48217",
        "CITYCD": "482170010",
        "RAILROAD": "UP",
        "RRDIV": "TEXOMA",
        "RRSUBDIV": "FT. WORTH SUB",
        "HIGHWAY": "lS0000",
        "STREET": "Mesquite Street",
        "TTSTN": "669711",
        "MILEPOST": "0186.350",
        "TYPEXING": "Public",
        "POSXING": "At Grade",
        "PRVCAT": "14",
        "INIT": "2",
        "LATITUDE": 31.8829867,
        "LONGITUD": -97.0730683,
        "LLSOURCE": "1",
        "WHISTBAN": "0",
        "RRCONT": "4025443721",
        "POLCONT": "8008488715",
        "INV_LINK": "https://safetydata.fra.dot.gov/OfficeofSafety/PublicSite/Crossing/Crossing.aspx?phasetype=C&rpttype=I&txtcrossingnum=416062A",
        "ACC_LINK": "https://safetydata.fra.dot.gov/OfficeofSafety/PublicSite/Crossing/Crossing.aspx?phasetype=C&rpttype=A&txtcrossingnum=416062A",
        "TTSTNNAM": "",
        "XPURPOSE": "1",
        "OPERATINGR": "UP",
        "OPERATIN_1": "Primary",
        "DAYTHRU": 9,
        "NGHTTHRU": 8,
        "MAINTRK": 1,
        "SIDINGTRK": 0,
        "YARDTRK": 0,
        "TRANSITTRK": 0,
        "INDUSTRYTR": 0,
        "OTHRTRK": 0,
        "WDCODE": "All other Gates",
        "REVISIONDA": "1975/01/01 00:00:00",
        "LASTUPDATE": "1/12/2026",
        "AADT": "74",
        "AADTYEAR": "2020",
        "STATENAME": "TEXAS",
        "STATEAB": "TX",
        "COUNTYNAME": "HILL",
        "CITYNAME": "ABBOTT",
        "LATDD": 31.8829867,
        "LONGDD": -97.0730683,
        "gridlyProductionCertified": true,
        "gridlyClassification": "PUBLIC_ROADWAY",
        "gridlyDisplayName": "Mesquite Street",
        "gridlyId": "FRA-416062A"
      }
    }
  ]
}
