{
  "type": "FeatureCollection",
  "features": [
    {
      "type": "Feature",
      "id": 210176,
      "geometry": {
        "type": "Point",
        "coordinates": [
          -102.605419099619,
          33.5962824002815
        ]
      },
      "properties": {
        "OBJECTID": 210176,
        "CROSSING": "017653C",
        "EFFDATE": 1770768000000,
        "REASON": "14",
        "StateCode": "48",
        "CountyCode": "48079",
        "STCYFIPS": "48079",
        "CITYCD": "480797440",
        "RAILROAD": "LBWR",
        "RRDIV": "PLAINS",
        "RRSUBDIV": "WHITEFACE",
        "HIGHWAY": "CR0257",
        "STREET": "COUNTY ROAD 257",
        "TTSTN": "677540",
        "MILEPOST": "0038.71",
        "TYPEXING": "Public",
        "POSXING": "At Grade",
        "PRVCAT": "14",
        "INIT": "2",
        "LATITUDE": 33.5962824,
        "LONGITUD": -102.6054191,
        "LLSOURCE": "1",
        "WHISTBAN": "0",
        "RRCONT": "8068550079",
        "POLCONT": "8663869321",
        "INV_LINK": "https://safetydata.fra.dot.gov/OfficeofSafety/PublicSite/Crossing/Crossing.aspx?phasetype=C&rpttype=I&txtcrossingnum=017653C",
        "ACC_LINK": "https://safetydata.fra.dot.gov/OfficeofSafety/PublicSite/Crossing/Crossing.aspx?phasetype=C&rpttype=A&txtcrossingnum=017653C",
        "TTSTNNAM": "WHITEFACE",
        "XPURPOSE": "1",
        "OPERATINGR": "LBWR",
        "OPERATIN_1": "Primary",
        "DAYTHRU": 0,
        "NGHTTHRU": 0,
        "MAINTRK": 1,
        "SIDINGTRK": 0,
        "YARDTRK": 0,
        "TRANSITTRK": 0,
        "INDUSTRYTR": 0,
        "OTHRTRK": 0,
        "WDCODE": "Crossbucks",
        "REVISIONDA": "2015/06/18 00:00:00",
        "LASTUPDATE": "2/11/2026",
        "AADT": "18",
        "AADTYEAR": "2022",
        "STATENAME": "TEXAS",
        "STATEAB": "TX",
        "COUNTYNAME": "COCHRAN",
        "CITYNAME": "WHITEFACE",
        "LATDD": 33.5962824,
        "LONGDD": -102.6054191,
        "gridlyProductionCertified": true,
        "gridlyClassification": "PUBLIC_ROADWAY",
        "gridlyDisplayName": "COUNTY ROAD 257",
        "gridlyId": "FRA-017653C"
      }
    },
    {
      "type": "Feature",
      "id": 215039,
      "geometry": {
        "type": "Point",
        "coordinates": [
          -102.614908199798,
          33.5985842001489
        ]
      },
      "properties": {
        "OBJECTID": 215039,
        "CROSSING": "017655R",
        "EFFDATE": 1771804800000,
        "REASON": "14",
        "StateCode": "48",
        "CountyCode": "48079",
        "STCYFIPS": "48079",
        "CITYCD": "480797440",
        "RAILROAD": "LBWR",
        "RRDIV": "PLAINS",
        "RRSUBDIV": "WHITEFACE",
        "HIGHWAY": "LS0000",
        "STREET": "FILMORE STREET",
        "TTSTN": "677540",
        "MILEPOST": "0039.28",
        "TYPEXING": "Public",
        "POSXING": "At Grade",
        "PRVCAT": "14",
        "INIT": "2",
        "LATITUDE": 33.5985842,
        "LONGITUD": -102.6149082,
        "LLSOURCE": "1",
        "WHISTBAN": "0",
        "RRCONT": "8068550079",
        "POLCONT": "8663869321",
        "INV_LINK": "https://safetydata.fra.dot.gov/OfficeofSafety/PublicSite/Crossing/Crossing.aspx?phasetype=C&rpttype=I&txtcrossingnum=017655R",
        "ACC_LINK": "https://safetydata.fra.dot.gov/OfficeofSafety/PublicSite/Crossing/Crossing.aspx?phasetype=C&rpttype=A&txtcrossingnum=017655R",
        "TTSTNNAM": "WHITEFACE",
        "XPURPOSE": "1",
        "OPERATINGR": "LBWR",
        "OPERATIN_1": "Primary",
        "DAYTHRU": 0,
        "NGHTTHRU": 0,
        "MAINTRK": 1,
        "SIDINGTRK": 0,
        "YARDTRK": 0,
        "TRANSITTRK": 0,
        "INDUSTRYTR": 0,
        "OTHRTRK": 2,
        "WDCODE": "Crossbucks",
        "REVISIONDA": "2015/06/18 00:00:00",
        "LASTUPDATE": "2/23/2026",
        "AADT": "51",
        "AADTYEAR": "2022",
        "STATENAME": "TEXAS",
        "STATEAB": "TX",
        "COUNTYNAME": "COCHRAN",
        "CITYNAME": "WHITEFACE",
        "LATDD": 33.5985842,
        "LONGDD": -102.6149082,
        "gridlyProductionCertified": true,
        "gridlyClassification": "PUBLIC_ROADWAY",
        "gridlyDisplayName": "FILMORE STREET",
        "gridlyId": "FRA-017655R"
      }
    },
    {
      "type": "Feature",
      "id": 215040,
      "geometry": {
        "type": "Point",
        "coordinates": [
          -102.619346600445,
          33.5997089997926
        ]
      },
      "properties": {
        "OBJECTID": 215040,
        "CROSSING": "017656X",
        "EFFDATE": 1771804800000,
        "REASON": "14",
        "StateCode": "48",
        "CountyCode": "48079",
        "STCYFIPS": "48079",
        "CITYCD": "480797440",
        "RAILROAD": "LBWR",
        "RRDIV": "PLAINS",
        "RRSUBDIV": "WHITEFACE",
        "HIGHWAY": "LS0000",
        "STREET": "CEMETERY ROAD",
        "TTSTN": "677540",
        "MILEPOST": "0039.55",
        "TYPEXING": "Public",
        "POSXING": "At Grade",
        "PRVCAT": "14",
        "INIT": "2",
        "LATITUDE": 33.599709,
        "LONGITUD": -102.6193466,
        "LLSOURCE": "1",
        "WHISTBAN": "0",
        "RRCONT": "8068550079",
        "POLCONT": "8663869321",
        "INV_LINK": "https://safetydata.fra.dot.gov/OfficeofSafety/PublicSite/Crossing/Crossing.aspx?phasetype=C&rpttype=I&txtcrossingnum=017656X",
        "ACC_LINK": "https://safetydata.fra.dot.gov/OfficeofSafety/PublicSite/Crossing/Crossing.aspx?phasetype=C&rpttype=A&txtcrossingnum=017656X",
        "TTSTNNAM": "WHITEFACE",
        "XPURPOSE": "1",
        "OPERATINGR": "LBWR",
        "OPERATIN_1": "Primary",
        "DAYTHRU": 0,
        "NGHTTHRU": 0,
        "MAINTRK": 0,
        "SIDINGTRK": 0,
        "YARDTRK": 0,
        "TRANSITTRK": 0,
        "INDUSTRYTR": 0,
        "OTHRTRK": 0,
        "WDCODE": "No signs or signals",
        "REVISIONDA": "2015/06/18 00:00:00",
        "LASTUPDATE": "2/23/2026",
        "AADT": "557",
        "AADTYEAR": "2024",
        "STATENAME": "TEXAS",
        "STATEAB": "TX",
        "COUNTYNAME": "COCHRAN",
        "CITYNAME": "WHITEFACE",
        "LATDD": 33.599709,
        "LONGDD": -102.6193466,
        "gridlyProductionCertified": true,
        "gridlyClassification": "PUBLIC_ROADWAY",
        "gridlyDisplayName": "CEMETERY ROAD",
        "gridlyId": "FRA-017656X"
      }
    },
    {
      "type": "Feature",
      "id": 215779,
      "geometry": {
        "type": "Point",
        "coordinates": [
          -102.613665700402,
          33.5982729003362
        ]
      },
      "properties": {
        "OBJECTID": 215779,
        "CROSSING": "017654J",
        "EFFDATE": 1770681600000,
        "REASON": "14",
        "StateCode": "48",
        "CountyCode": "48079",
        "STCYFIPS": "48079",
        "CITYCD": "480797440",
        "RAILROAD": "LBWR",
        "RRDIV": "PLAINS",
        "RRSUBDIV": "WHITEFACE",
        "HIGHWAY": "FM1780",
        "STREET": "FM1780 / TAYLOR STREET",
        "TTSTN": "677540",
        "MILEPOST": "0039.20",
        "TYPEXING": "Public",
        "POSXING": "At Grade",
        "PRVCAT": "14",
        "INIT": "2",
        "LATITUDE": 33.5982729,
        "LONGITUD": -102.6136657,
        "LLSOURCE": "1",
        "WHISTBAN": "0",
        "RRCONT": "8068550079",
        "POLCONT": "8663869321",
        "INV_LINK": "https://safetydata.fra.dot.gov/OfficeofSafety/PublicSite/Crossing/Crossing.aspx?phasetype=C&rpttype=I&txtcrossingnum=017654J",
        "ACC_LINK": "https://safetydata.fra.dot.gov/OfficeofSafety/PublicSite/Crossing/Crossing.aspx?phasetype=C&rpttype=A&txtcrossingnum=017654J",
        "TTSTNNAM": "WHITEFACE",
        "XPURPOSE": "1",
        "OPERATINGR": "LBWR",
        "OPERATIN_1": "Primary",
        "DAYTHRU": 0,
        "NGHTTHRU": 0,
        "MAINTRK": 1,
        "SIDINGTRK": 0,
        "YARDTRK": 0,
        "TRANSITTRK": 0,
        "INDUSTRYTR": 0,
        "OTHRTRK": 2,
        "WDCODE": "Crossbucks",
        "REVISIONDA": "2015/06/18 00:00:00",
        "LASTUPDATE": "2/10/2026",
        "AADT": "838",
        "AADTYEAR": "2023",
        "STATENAME": "TEXAS",
        "STATEAB": "TX",
        "COUNTYNAME": "COCHRAN",
        "CITYNAME": "WHITEFACE",
        "LATDD": 33.5982729,
        "LONGDD": -102.6136657,
        "gridlyProductionCertified": true,
        "gridlyClassification": "PUBLIC_ROADWAY",
        "gridlyDisplayName": "FM1780 / TAYLOR STREET",
        "gridlyId": "FRA-017654J"
      }
    }
  ]
}
