{
  "type": "FeatureCollection",
  "features": [
    {
      "type": "Feature",
      "id": 201363,
      "geometry": {
        "type": "Point",
        "coordinates": [
          -95.5566199997634,
          33.6942600001879
        ]
      },
      "properties": {
        "OBJECTID": 201363,
        "CROSSING": "671504B",
        "EFFDATE": 1769644800000,
        "REASON": "14",
        "StateCode": "48",
        "CountyCode": "48277",
        "STCYFIPS": "48277",
        "CITYCD": "482775220",
        "RAILROAD": "KRR",
        "RRDIV": "american region",
        "RRSUBDIV": "PARIS YARD",
        "HIGHWAY": "private road",
        "STREET": "CAMPBELLS SOUP",
        "TTSTN": "662127",
        "MILEPOST": "0581.72",
        "TYPEXING": "Private",
        "POSXING": "At Grade",
        "PRVCAT": "14",
        "INIT": "1",
        "LATITUDE": 33.69426,
        "LONGITUD": -95.55662,
        "LLSOURCE": "1",
        "WHISTBAN": "0",
        "RRCONT": "8025273508",
        "POLCONT": "8665273498",
        "INV_LINK": "https://safetydata.fra.dot.gov/OfficeofSafety/PublicSite/Crossing/Crossing.aspx?phasetype=C&rpttype=I&txtcrossingnum=671504B",
        "ACC_LINK": "https://safetydata.fra.dot.gov/OfficeofSafety/PublicSite/Crossing/Crossing.aspx?phasetype=C&rpttype=A&txtcrossingnum=671504B",
        "TTSTNNAM": "BETNER",
        "XPURPOSE": "1",
        "OPERATINGR": "KRR",
        "OPERATIN_1": "Primary",
        "DAYTHRU": 2,
        "NGHTTHRU": 3,
        "MAINTRK": 1,
        "SIDINGTRK": 0,
        "YARDTRK": 0,
        "TRANSITTRK": 0,
        "INDUSTRYTR": 0,
        "OTHRTRK": 0,
        "WDCODE": "",
        "REVISIONDA": "1988/01/01 00:00:00",
        "LASTUPDATE": "1/29/2026",
        "AADT": "",
        "AADTYEAR": "1970",
        "STATENAME": "TEXAS",
        "STATEAB": "TX",
        "COUNTYNAME": "LAMAR",
        "CITYNAME": "PARIS",
        "LATDD": 33.69426,
        "LONGDD": -95.55662,
        "gridlyProductionCertified": true,
        "gridlyClassification": "PUBLIC_ROADWAY",
        "gridlyDisplayName": "CAMPBELLS SOUP",
        "gridlyId": "FRA-671504B"
      }
    },
    {
      "type": "Feature",
      "id": 201364,
      "geometry": {
        "type": "Point",
        "coordinates": [
          -95.5496119996868,
          33.7380509997794
        ]
      },
      "properties": {
        "OBJECTID": 201364,
        "CROSSING": "671501F",
        "EFFDATE": 1769644800000,
        "REASON": "14",
        "StateCode": "48",
        "CountyCode": "48277",
        "STCYFIPS": "48277",
        "CITYCD": "482775220",
        "RAILROAD": "KRR",
        "RRDIV": "american region",
        "RRSUBDIV": "PARIS",
        "HIGHWAY": "FM 1499",
        "STREET": "FM 1499",
        "TTSTN": "662127",
        "MILEPOST": "0578.56",
        "TYPEXING": "Public",
        "POSXING": "At Grade",
        "PRVCAT": "14",
        "INIT": "1",
        "LATITUDE": 33.738051,
        "LONGITUD": -95.549612,
        "LLSOURCE": "1",
        "WHISTBAN": "0",
        "RRCONT": "8008003490",
        "POLCONT": "8008003490",
        "INV_LINK": "https://safetydata.fra.dot.gov/OfficeofSafety/PublicSite/Crossing/Crossing.aspx?phasetype=C&rpttype=I&txtcrossingnum=671501F",
        "ACC_LINK": "https://safetydata.fra.dot.gov/OfficeofSafety/PublicSite/Crossing/Crossing.aspx?phasetype=C&rpttype=A&txtcrossingnum=671501F",
        "TTSTNNAM": "BETNER",
        "XPURPOSE": "1",
        "OPERATINGR": "KRR",
        "OPERATIN_1": "Primary",
        "DAYTHRU": 1,
        "NGHTTHRU": 1,
        "MAINTRK": 1,
        "SIDINGTRK": 0,
        "YARDTRK": 0,
        "TRANSITTRK": 0,
        "INDUSTRYTR": 0,
        "OTHRTRK": 0,
        "WDCODE": "All other Gates",
        "REVISIONDA": "1988/01/01 00:00:00",
        "LASTUPDATE": "1/29/2026",
        "AADT": "1689",
        "AADTYEAR": "2019",
        "STATENAME": "TEXAS",
        "STATEAB": "TX",
        "COUNTYNAME": "LAMAR",
        "CITYNAME": "PARIS",
        "LATDD": 33.738051,
        "LONGDD": -95.549612,
        "gridlyProductionCertified": true,
        "gridlyClassification": "PUBLIC_ROADWAY",
        "gridlyDisplayName": "FM 1499",
        "gridlyId": "FRA-671501F"
      }
    },
    {
      "type": "Feature",
      "id": 201425,
      "geometry": {
        "type": "Point",
        "coordinates": [
          -95.5258709999646,
          33.8080440000328
        ]
      },
      "properties": {
        "OBJECTID": 201425,
        "CROSSING": "671498A",
        "EFFDATE": 1769644800000,
        "REASON": "14",
        "StateCode": "48",
        "CountyCode": "48277",
        "STCYFIPS": "48277",
        "CITYCD": "482775220",
        "RAILROAD": "KRR",
        "RRDIV": "american region",
        "RRSUBDIV": "PARIS",
        "HIGHWAY": "CR34070",
        "STREET": "CR 34070",
        "TTSTN": "662124",
        "MILEPOST": "0573.53",
        "TYPEXING": "Public",
        "POSXING": "At Grade",
        "PRVCAT": "14",
        "INIT": "1",
        "LATITUDE": 33.808044,
        "LONGITUD": -95.525871,
        "LLSOURCE": "1",
        "WHISTBAN": "0",
        "RRCONT": "8008003490",
        "POLCONT": "8008003490",
        "INV_LINK": "https://safetydata.fra.dot.gov/OfficeofSafety/PublicSite/Crossing/Crossing.aspx?phasetype=C&rpttype=I&txtcrossingnum=671498A",
        "ACC_LINK": "https://safetydata.fra.dot.gov/OfficeofSafety/PublicSite/Crossing/Crossing.aspx?phasetype=C&rpttype=A&txtcrossingnum=671498A",
        "TTSTNNAM": "POWDERLY",
        "XPURPOSE": "1",
        "OPERATINGR": "KRR",
        "OPERATIN_1": "Primary",
        "DAYTHRU": 0,
        "NGHTTHRU": 2,
        "MAINTRK": 1,
        "SIDINGTRK": 0,
        "YARDTRK": 0,
        "TRANSITTRK": 0,
        "INDUSTRYTR": 0,
        "OTHRTRK": 0,
        "WDCODE": "Crossbucks",
        "REVISIONDA": "1988/01/01 00:00:00",
        "LASTUPDATE": "1/29/2026",
        "AADT": "69",
        "AADTYEAR": "2019",
        "STATENAME": "TEXAS",
        "STATEAB": "TX",
        "COUNTYNAME": "LAMAR",
        "CITYNAME": "PARIS",
        "LATDD": 33.808044,
        "LONGDD": -95.525871,
        "gridlyProductionCertified": true,
        "gridlyClassification": "PUBLIC_ROADWAY",
        "gridlyDisplayName": "CR 34070",
        "gridlyId": "FRA-671498A"
      }
    },
    {
      "type": "Feature",
      "id": 201426,
      "geometry": {
        "type": "Point",
        "coordinates": [
          -95.5694640003046,
          33.6785519996287
        ]
      },
      "properties": {
        "OBJECTID": 201426,
        "CROSSING": "977915F",
        "EFFDATE": 1769644800000,
        "REASON": "14",
        "StateCode": "48",
        "CountyCode": "48277",
        "STCYFIPS": "48277",
        "CITYCD": "482775220",
        "RAILROAD": "KRR",
        "RRDIV": "american region",
        "RRSUBDIV": "paris sub",
        "HIGHWAY": "private road",
        "STREET": "private road",
        "TTSTN": "",
        "MILEPOST": "0582.86",
        "TYPEXING": "Private",
        "POSXING": "At Grade",
        "PRVCAT": "14",
        "INIT": "1",
        "LATITUDE": 33.678552,
        "LONGITUD": -95.569464,
        "LLSOURCE": "1",
        "WHISTBAN": "",
        "RRCONT": "8008003490",
        "POLCONT": "8008003490",
        "INV_LINK": "https://safetydata.fra.dot.gov/OfficeofSafety/PublicSite/Crossing/Crossing.aspx?phasetype=C&rpttype=I&txtcrossingnum=977915F",
        "ACC_LINK": "https://safetydata.fra.dot.gov/OfficeofSafety/PublicSite/Crossing/Crossing.aspx?phasetype=C&rpttype=A&txtcrossingnum=977915F",
        "TTSTNNAM": "",
        "XPURPOSE": "1",
        "OPERATINGR": "KRR",
        "OPERATIN_1": "Primary",
        "DAYTHRU": 0,
        "NGHTTHRU": 0,
        "MAINTRK": 0,
        "SIDINGTRK": 0,
        "YARDTRK": 0,
        "TRANSITTRK": 0,
        "INDUSTRYTR": 1,
        "OTHRTRK": 0,
        "WDCODE": "",
        "REVISIONDA": "1988/01/01 00:00:00",
        "LASTUPDATE": "1/29/2026",
        "AADT": "1",
        "AADTYEAR": "1900",
        "STATENAME": "TEXAS",
        "STATEAB": "TX",
        "COUNTYNAME": "LAMAR",
        "CITYNAME": "PARIS",
        "LATDD": 33.678552,
        "LONGDD": -95.569464,
        "gridlyProductionCertified": true,
        "gridlyClassification": "PUBLIC_ROADWAY",
        "gridlyDisplayName": "private road",
        "gridlyId": "FRA-977915F"
      }
    },
    {
      "type": "Feature",
      "id": 201430,
      "geometry": {
        "type": "Point",
        "coordinates": [
          -95.5145019998822,
          33.8418359996423
        ]
      },
      "properties": {
        "OBJECTID": 201430,
        "CROSSING": "671493R",
        "EFFDATE": 1769644800000,
        "REASON": "14",
        "StateCode": "48",
        "CountyCode": "48277",
        "STCYFIPS": "48277",
        "CITYCD": "482770276",
        "RAILROAD": "KRR",
        "RRDIV": "american region",
        "RRSUBDIV": "PARIS",
        "HIGHWAY": "FM 0906",
        "STREET": "FM 906",
        "TTSTN": "662121",
        "MILEPOST": "0571.11",
        "TYPEXING": "Public",
        "POSXING": "At Grade",
        "PRVCAT": "14",
        "INIT": "1",
        "LATITUDE": 33.841836,
        "LONGITUD": -95.514502,
        "LLSOURCE": "1",
        "WHISTBAN": "0",
        "RRCONT": "8025273508",
        "POLCONT": "8665273498",
        "INV_LINK": "https://safetydata.fra.dot.gov/OfficeofSafety/PublicSite/Crossing/Crossing.aspx?phasetype=C&rpttype=I&txtcrossingnum=671493R",
        "ACC_LINK": "https://safetydata.fra.dot.gov/OfficeofSafety/PublicSite/Crossing/Crossing.aspx?phasetype=C&rpttype=A&txtcrossingnum=671493R",
        "TTSTNNAM": "ARTHUR CITY",
        "XPURPOSE": "1",
        "OPERATINGR": "KRR",
        "OPERATIN_1": "Primary",
        "DAYTHRU": 1,
        "NGHTTHRU": 1,
        "MAINTRK": 1,
        "SIDINGTRK": 0,
        "YARDTRK": 0,
        "TRANSITTRK": 0,
        "INDUSTRYTR": 0,
        "OTHRTRK": 0,
        "WDCODE": "All other Gates",
        "REVISIONDA": "1988/01/01 00:00:00",
        "LASTUPDATE": "1/29/2026",
        "AADT": "1955",
        "AADTYEAR": "2019",
        "STATENAME": "TEXAS",
        "STATEAB": "TX",
        "COUNTYNAME": "LAMAR",
        "CITYNAME": "ARTHUR CITY",
        "LATDD": 33.841836,
        "LONGDD": -95.514502,
        "gridlyProductionCertified": true,
        "gridlyClassification": "PUBLIC_ROADWAY",
        "gridlyDisplayName": "FM 906",
        "gridlyId": "FRA-671493R"
      }
    },
    {
      "type": "Feature",
      "id": 201431,
      "geometry": {
        "type": "Point",
        "coordinates": [
          -95.5165730001927,
          33.8357700000194
        ]
      },
      "properties": {
        "OBJECTID": 201431,
        "CROSSING": "671494X",
        "EFFDATE": 1769644800000,
        "REASON": "14",
        "StateCode": "48",
        "CountyCode": "48277",
        "STCYFIPS": "48277",
        "CITYCD": "482770276",
        "RAILROAD": "KRR",
        "RRDIV": "american region",
        "RRSUBDIV": "PARIS",
        "HIGHWAY": "private road",
        "STREET": "private road",
        "TTSTN": "662121",
        "MILEPOST": "0571.60",
        "TYPEXING": "Private",
        "POSXING": "At Grade",
        "PRVCAT": "14",
        "INIT": "1",
        "LATITUDE": 33.83577,
        "LONGITUD": -95.516573,
        "LLSOURCE": "1",
        "WHISTBAN": "0",
        "RRCONT": "8025273508",
        "POLCONT": "8665273498",
        "INV_LINK": "https://safetydata.fra.dot.gov/OfficeofSafety/PublicSite/Crossing/Crossing.aspx?phasetype=C&rpttype=I&txtcrossingnum=671494X",
        "ACC_LINK": "https://safetydata.fra.dot.gov/OfficeofSafety/PublicSite/Crossing/Crossing.aspx?phasetype=C&rpttype=A&txtcrossingnum=671494X",
        "TTSTNNAM": "ARTHUR CITY",
        "XPURPOSE": "1",
        "OPERATINGR": "KRR",
        "OPERATIN_1": "Primary",
        "DAYTHRU": 0,
        "NGHTTHRU": 2,
        "MAINTRK": 1,
        "SIDINGTRK": 0,
        "YARDTRK": 0,
        "TRANSITTRK": 0,
        "INDUSTRYTR": 0,
        "OTHRTRK": 0,
        "WDCODE": "",
        "REVISIONDA": "1988/01/01 00:00:00",
        "LASTUPDATE": "1/29/2026",
        "AADT": "1",
        "AADTYEAR": "1970",
        "STATENAME": "TEXAS",
        "STATEAB": "TX",
        "COUNTYNAME": "LAMAR",
        "CITYNAME": "ARTHUR CITY",
        "LATDD": 33.83577,
        "LONGDD": -95.516573,
        "gridlyProductionCertified": true,
        "gridlyClassification": "PUBLIC_ROADWAY",
        "gridlyDisplayName": "private road",
        "gridlyId": "FRA-671494X"
      }
    },
    {
      "type": "Feature",
      "id": 201432,
      "geometry": {
        "type": "Point",
        "coordinates": [
          -95.5637669997571,
          33.6772810001076
        ]
      },
      "properties": {
        "OBJECTID": 201432,
        "CROSSING": "671507W",
        "EFFDATE": 1769644800000,
        "REASON": "14",
        "StateCode": "48",
        "CountyCode": "48277",
        "STCYFIPS": "48277",
        "CITYCD": "482775220",
        "RAILROAD": "KRR",
        "RRDIV": "american region",
        "RRSUBDIV": "PARIS YARD",
        "HIGHWAY": "city street",
        "STREET": "W CENTER ST",
        "TTSTN": "662127",
        "MILEPOST": "0582.88",
        "TYPEXING": "Public",
        "POSXING": "At Grade",
        "PRVCAT": "14",
        "INIT": "1",
        "LATITUDE": 33.677281,
        "LONGITUD": -95.563767,
        "LLSOURCE": "1",
        "WHISTBAN": "0",
        "RRCONT": "8025273508",
        "POLCONT": "8665273498",
        "INV_LINK": "https://safetydata.fra.dot.gov/OfficeofSafety/PublicSite/Crossing/Crossing.aspx?phasetype=C&rpttype=I&txtcrossingnum=671507W",
        "ACC_LINK": "https://safetydata.fra.dot.gov/OfficeofSafety/PublicSite/Crossing/Crossing.aspx?phasetype=C&rpttype=A&txtcrossingnum=671507W",
        "TTSTNNAM": "BETNER",
        "XPURPOSE": "1",
        "OPERATINGR": "KRR",
        "OPERATIN_1": "Primary",
        "DAYTHRU": 2,
        "NGHTTHRU": 0,
        "MAINTRK": 1,
        "SIDINGTRK": 0,
        "YARDTRK": 0,
        "TRANSITTRK": 0,
        "INDUSTRYTR": 0,
        "OTHRTRK": 1,
        "WDCODE": "All other Gates",
        "REVISIONDA": "1988/01/01 00:00:00",
        "LASTUPDATE": "1/29/2026",
        "AADT": "1867",
        "AADTYEAR": "2019",
        "STATENAME": "TEXAS",
        "STATEAB": "TX",
        "COUNTYNAME": "LAMAR",
        "CITYNAME": "PARIS",
        "LATDD": 33.677281,
        "LONGDD": -95.563767,
        "gridlyProductionCertified": true,
        "gridlyClassification": "PUBLIC_ROADWAY",
        "gridlyDisplayName": "W CENTER ST",
        "gridlyId": "FRA-671507W"
      }
    },
    {
      "type": "Feature",
      "id": 201433,
      "geometry": {
        "type": "Point",
        "coordinates": [
          -95.5538360003236,
          33.719001999853
        ]
      },
      "properties": {
        "OBJECTID": 201433,
        "CROSSING": "671502M",
        "EFFDATE": 1769644800000,
        "REASON": "14",
        "StateCode": "48",
        "CountyCode": "48277",
        "STCYFIPS": "48277",
        "CITYCD": "482775220",
        "RAILROAD": "KRR",
        "RRDIV": "american region",
        "RRSUBDIV": "PARIS",
        "HIGHWAY": "CO 3290",
        "STREET": "CR 3290",
        "TTSTN": "662127",
        "MILEPOST": "0579.94",
        "TYPEXING": "Public",
        "POSXING": "At Grade",
        "PRVCAT": "14",
        "INIT": "1",
        "LATITUDE": 33.719002,
        "LONGITUD": -95.553836,
        "LLSOURCE": "1",
        "WHISTBAN": "0",
        "RRCONT": "8008003490",
        "POLCONT": "8008003490",
        "INV_LINK": "https://safetydata.fra.dot.gov/OfficeofSafety/PublicSite/Crossing/Crossing.aspx?phasetype=C&rpttype=I&txtcrossingnum=671502M",
        "ACC_LINK": "https://safetydata.fra.dot.gov/OfficeofSafety/PublicSite/Crossing/Crossing.aspx?phasetype=C&rpttype=A&txtcrossingnum=671502M",
        "TTSTNNAM": "BETNER",
        "XPURPOSE": "1",
        "OPERATINGR": "KRR",
        "OPERATIN_1": "Primary",
        "DAYTHRU": 0,
        "NGHTTHRU": 2,
        "MAINTRK": 1,
        "SIDINGTRK": 0,
        "YARDTRK": 0,
        "TRANSITTRK": 0,
        "INDUSTRYTR": 0,
        "OTHRTRK": 0,
        "WDCODE": "Crossbucks",
        "REVISIONDA": "1988/01/01 00:00:00",
        "LASTUPDATE": "1/29/2026",
        "AADT": "86",
        "AADTYEAR": "2019",
        "STATENAME": "TEXAS",
        "STATEAB": "TX",
        "COUNTYNAME": "LAMAR",
        "CITYNAME": "PARIS",
        "LATDD": 33.719002,
        "LONGDD": -95.553836,
        "gridlyProductionCertified": true,
        "gridlyClassification": "PUBLIC_ROADWAY",
        "gridlyDisplayName": "CR 3290",
        "gridlyId": "FRA-671502M"
      }
    },
    {
      "type": "Feature",
      "id": 201764,
      "geometry": {
        "type": "Point",
        "coordinates": [
          -95.5592149999555,
          33.6501160003483
        ]
      },
      "properties": {
        "OBJECTID": 201764,
        "CROSSING": "795976S",
        "EFFDATE": 1665705600000,
        "REASON": "14",
        "StateCode": "48",
        "CountyCode": "48277",
        "STCYFIPS": "48277",
        "CITYCD": "482775220",
        "RAILROAD": "TNER",
        "RRDIV": "southern region",
        "RRSUBDIV": "paris",
        "HIGHWAY": "city street",
        "STREET": "sw 3rd street",
        "TTSTN": "662130",
        "MILEPOST": "0091.27",
        "TYPEXING": "Public",
        "POSXING": "At Grade",
        "PRVCAT": "14",
        "INIT": "2",
        "LATITUDE": 33.650116,
        "LONGITUD": -95.559215,
        "LLSOURCE": "1",
        "WHISTBAN": "0",
        "RRCONT": "8005456248",
        "POLCONT": "8008003490",
        "INV_LINK": "https://safetydata.fra.dot.gov/OfficeofSafety/PublicSite/Crossing/Crossing.aspx?phasetype=C&rpttype=I&txtcrossingnum=795976S",
        "ACC_LINK": "https://safetydata.fra.dot.gov/OfficeofSafety/PublicSite/Crossing/Crossing.aspx?phasetype=C&rpttype=A&txtcrossingnum=795976S",
        "TTSTNNAM": "PARIS",
        "XPURPOSE": "1",
        "OPERATINGR": "DGNO",
        "OPERATIN_1": "Primary",
        "DAYTHRU": 0,
        "NGHTTHRU": 1,
        "MAINTRK": 0,
        "SIDINGTRK": 0,
        "YARDTRK": 2,
        "TRANSITTRK": 0,
        "INDUSTRYTR": 0,
        "OTHRTRK": 2,
        "WDCODE": "Crossbucks",
        "REVISIONDA": "1990/01/01 00:00:00",
        "LASTUPDATE": "10/14/2022",
        "AADT": "122",
        "AADTYEAR": "2016",
        "STATENAME": "TEXAS",
        "STATEAB": "TX",
        "COUNTYNAME": "LAMAR",
        "CITYNAME": "PARIS",
        "LATDD": 33.650116,
        "LONGDD": -95.559215,
        "gridlyProductionCertified": true,
        "gridlyClassification": "PUBLIC_ROADWAY",
        "gridlyDisplayName": "sw 3rd street",
        "gridlyId": "FRA-795976S"
      }
    },
    {
      "type": "Feature",
      "id": 201776,
      "geometry": {
        "type": "Point",
        "coordinates": [
          -95.5504760002254,
          33.6499829996749
        ]
      },
      "properties": {
        "OBJECTID": 201776,
        "CROSSING": "795973W",
        "EFFDATE": 1665705600000,
        "REASON": "14",
        "StateCode": "48",
        "CountyCode": "48277",
        "STCYFIPS": "48277",
        "CITYCD": "482775220",
        "RAILROAD": "TNER",
        "RRDIV": "southern region",
        "RRSUBDIV": "parks",
        "HIGHWAY": "city street",
        "STREET": "se 6th street",
        "TTSTN": "662130",
        "MILEPOST": "0090.76",
        "TYPEXING": "Public",
        "POSXING": "At Grade",
        "PRVCAT": "14",
        "INIT": "2",
        "LATITUDE": 33.649983,
        "LONGITUD": -95.550476,
        "LLSOURCE": "1",
        "WHISTBAN": "0",
        "RRCONT": "8005456248",
        "POLCONT": "8008003490",
        "INV_LINK": "https://safetydata.fra.dot.gov/OfficeofSafety/PublicSite/Crossing/Crossing.aspx?phasetype=C&rpttype=I&txtcrossingnum=795973W",
        "ACC_LINK": "https://safetydata.fra.dot.gov/OfficeofSafety/PublicSite/Crossing/Crossing.aspx?phasetype=C&rpttype=A&txtcrossingnum=795973W",
        "TTSTNNAM": "PARIS",
        "XPURPOSE": "1",
        "OPERATINGR": "DGNO",
        "OPERATIN_1": "Primary",
        "DAYTHRU": 0,
        "NGHTTHRU": 1,
        "MAINTRK": 0,
        "SIDINGTRK": 0,
        "YARDTRK": 2,
        "TRANSITTRK": 0,
        "INDUSTRYTR": 0,
        "OTHRTRK": 2,
        "WDCODE": "Crossbucks",
        "REVISIONDA": "1990/01/01 00:00:00",
        "LASTUPDATE": "10/14/2022",
        "AADT": "547",
        "AADTYEAR": "2019",
        "STATENAME": "TEXAS",
        "STATEAB": "TX",
        "COUNTYNAME": "LAMAR",
        "CITYNAME": "PARIS",
        "LATDD": 33.649983,
        "LONGDD": -95.550476,
        "gridlyProductionCertified": true,
        "gridlyClassification": "PUBLIC_ROADWAY",
        "gridlyDisplayName": "se 6th street",
        "gridlyId": "FRA-795973W"
      }
    },
    {
      "type": "Feature",
      "id": 201777,
      "geometry": {
        "type": "Point",
        "coordinates": [
          -95.5571880000259,
          33.6501360000101
        ]
      },
      "properties": {
        "OBJECTID": 201777,
        "CROSSING": "795975K",
        "EFFDATE": 1665705600000,
        "REASON": "14",
        "StateCode": "48",
        "CountyCode": "48277",
        "STCYFIPS": "48277",
        "CITYCD": "482775220",
        "RAILROAD": "TNER",
        "RRDIV": "southern region",
        "RRSUBDIV": "paris",
        "HIGHWAY": "city street",
        "STREET": "sw 1st st",
        "TTSTN": "662130",
        "MILEPOST": "0091.16",
        "TYPEXING": "Public",
        "POSXING": "At Grade",
        "PRVCAT": "14",
        "INIT": "2",
        "LATITUDE": 33.650136,
        "LONGITUD": -95.557188,
        "LLSOURCE": "1",
        "WHISTBAN": "0",
        "RRCONT": "8005456248",
        "POLCONT": "8008003490",
        "INV_LINK": "https://safetydata.fra.dot.gov/OfficeofSafety/PublicSite/Crossing/Crossing.aspx?phasetype=C&rpttype=I&txtcrossingnum=795975K",
        "ACC_LINK": "https://safetydata.fra.dot.gov/OfficeofSafety/PublicSite/Crossing/Crossing.aspx?phasetype=C&rpttype=A&txtcrossingnum=795975K",
        "TTSTNNAM": "PARIS",
        "XPURPOSE": "1",
        "OPERATINGR": "DGNO",
        "OPERATIN_1": "Primary",
        "DAYTHRU": 0,
        "NGHTTHRU": 1,
        "MAINTRK": 0,
        "SIDINGTRK": 0,
        "YARDTRK": 2,
        "TRANSITTRK": 0,
        "INDUSTRYTR": 0,
        "OTHRTRK": 2,
        "WDCODE": "Crossbucks",
        "REVISIONDA": "1990/01/01 00:00:00",
        "LASTUPDATE": "10/14/2022",
        "AADT": "182",
        "AADTYEAR": "2019",
        "STATENAME": "TEXAS",
        "STATEAB": "TX",
        "COUNTYNAME": "LAMAR",
        "CITYNAME": "PARIS",
        "LATDD": 33.650136,
        "LONGDD": -95.557188,
        "gridlyProductionCertified": true,
        "gridlyClassification": "PUBLIC_ROADWAY",
        "gridlyDisplayName": "sw 1st st",
        "gridlyId": "FRA-795975K"
      }
    },
    {
      "type": "Feature",
      "id": 201935,
      "geometry": {
        "type": "Point",
        "coordinates": [
          -95.55465589987,
          33.6501712000018
        ]
      },
      "properties": {
        "OBJECTID": 201935,
        "CROSSING": "795974D",
        "EFFDATE": 1665705600000,
        "REASON": "14",
        "StateCode": "48",
        "CountyCode": "48277",
        "STCYFIPS": "48277",
        "CITYCD": "482775220",
        "RAILROAD": "TNER",
        "RRDIV": "southern region",
        "RRSUBDIV": "tner",
        "HIGHWAY": "SH 0019",
        "STREET": "CHURCH ST - tner yard",
        "TTSTN": "662130",
        "MILEPOST": "0091.700",
        "TYPEXING": "Public",
        "POSXING": "At Grade",
        "PRVCAT": "14",
        "INIT": "2",
        "LATITUDE": 33.6501712,
        "LONGITUD": -95.5546559,
        "LLSOURCE": "2",
        "WHISTBAN": "0",
        "RRCONT": "8008003490",
        "POLCONT": "8008003490",
        "INV_LINK": "https://safetydata.fra.dot.gov/OfficeofSafety/PublicSite/Crossing/Crossing.aspx?phasetype=C&rpttype=I&txtcrossingnum=795974D",
        "ACC_LINK": "https://safetydata.fra.dot.gov/OfficeofSafety/PublicSite/Crossing/Crossing.aspx?phasetype=C&rpttype=A&txtcrossingnum=795974D",
        "TTSTNNAM": "PARIS",
        "XPURPOSE": "1",
        "OPERATINGR": "DGNO",
        "OPERATIN_1": "Primary",
        "DAYTHRU": 2,
        "NGHTTHRU": 0,
        "MAINTRK": 1,
        "SIDINGTRK": 0,
        "YARDTRK": 5,
        "TRANSITTRK": 0,
        "INDUSTRYTR": 0,
        "OTHRTRK": 5,
        "WDCODE": "Flashing lights",
        "REVISIONDA": "1990/01/01 00:00:00",
        "LASTUPDATE": "10/14/2022",
        "AADT": "4625",
        "AADTYEAR": "2019",
        "STATENAME": "TEXAS",
        "STATEAB": "TX",
        "COUNTYNAME": "LAMAR",
        "CITYNAME": "PARIS",
        "LATDD": 33.6501712,
        "LONGDD": -95.5546559,
        "gridlyProductionCertified": true,
        "gridlyClassification": "PUBLIC_ROADWAY",
        "gridlyDisplayName": "CHURCH ST - tner yard",
        "gridlyId": "FRA-795974D"
      }
    },
    {
      "type": "Feature",
      "id": 202040,
      "geometry": {
        "type": "Point",
        "coordinates": [
          -95.5348759998335,
          33.7815919999154
        ]
      },
      "properties": {
        "OBJECTID": 202040,
        "CROSSING": "671499G",
        "EFFDATE": 1769644800000,
        "REASON": "14",
        "StateCode": "48",
        "CountyCode": "48277",
        "STCYFIPS": "48277",
        "CITYCD": "482775220",
        "RAILROAD": "KRR",
        "RRDIV": "american region",
        "RRSUBDIV": "PARIS",
        "HIGHWAY": "private road",
        "STREET": "private -CAMP MAXEY",
        "TTSTN": "662124",
        "MILEPOST": "0575.30",
        "TYPEXING": "Private",
        "POSXING": "At Grade",
        "PRVCAT": "14",
        "INIT": "1",
        "LATITUDE": 33.781592,
        "LONGITUD": -95.534876,
        "LLSOURCE": "1",
        "WHISTBAN": "0",
        "RRCONT": "8008003490",
        "POLCONT": "8008003490",
        "INV_LINK": "https://safetydata.fra.dot.gov/OfficeofSafety/PublicSite/Crossing/Crossing.aspx?phasetype=C&rpttype=I&txtcrossingnum=671499G",
        "ACC_LINK": "https://safetydata.fra.dot.gov/OfficeofSafety/PublicSite/Crossing/Crossing.aspx?phasetype=C&rpttype=A&txtcrossingnum=671499G",
        "TTSTNNAM": "POWDERLY",
        "XPURPOSE": "1",
        "OPERATINGR": "KRR",
        "OPERATIN_1": "Primary",
        "DAYTHRU": 0,
        "NGHTTHRU": 2,
        "MAINTRK": 1,
        "SIDINGTRK": 0,
        "YARDTRK": 0,
        "TRANSITTRK": 0,
        "INDUSTRYTR": 0,
        "OTHRTRK": 0,
        "WDCODE": "",
        "REVISIONDA": "1988/01/01 00:00:00",
        "LASTUPDATE": "1/29/2026",
        "AADT": "",
        "AADTYEAR": "1970",
        "STATENAME": "TEXAS",
        "STATEAB": "TX",
        "COUNTYNAME": "LAMAR",
        "CITYNAME": "PARIS",
        "LATDD": 33.781592,
        "LONGDD": -95.534876,
        "gridlyProductionCertified": true,
        "gridlyClassification": "PUBLIC_ROADWAY",
        "gridlyDisplayName": "private -CAMP MAXEY",
        "gridlyId": "FRA-671499G"
      }
    },
    {
      "type": "Feature",
      "id": 202041,
      "geometry": {
        "type": "Point",
        "coordinates": [
          -95.5420909995993,
          33.7603069997949
        ]
      },
      "properties": {
        "OBJECTID": 202041,
        "CROSSING": "671500Y",
        "EFFDATE": 1769644800000,
        "REASON": "14",
        "StateCode": "48",
        "CountyCode": "48277",
        "STCYFIPS": "48277",
        "CITYCD": "482775511",
        "RAILROAD": "KRR",
        "RRDIV": "american region",
        "RRSUBDIV": "PARIS",
        "HIGHWAY": "county road",
        "STREET": "CR 33900",
        "TTSTN": "662124",
        "MILEPOST": "0576.83",
        "TYPEXING": "Public",
        "POSXING": "At Grade",
        "PRVCAT": "14",
        "INIT": "1",
        "LATITUDE": 33.760307,
        "LONGITUD": -95.542091,
        "LLSOURCE": "1",
        "WHISTBAN": "0",
        "RRCONT": "8025273508",
        "POLCONT": "8665273498",
        "INV_LINK": "https://safetydata.fra.dot.gov/OfficeofSafety/PublicSite/Crossing/Crossing.aspx?phasetype=C&rpttype=I&txtcrossingnum=671500Y",
        "ACC_LINK": "https://safetydata.fra.dot.gov/OfficeofSafety/PublicSite/Crossing/Crossing.aspx?phasetype=C&rpttype=A&txtcrossingnum=671500Y",
        "TTSTNNAM": "POWDERLY",
        "XPURPOSE": "1",
        "OPERATINGR": "KRR",
        "OPERATIN_1": "Primary",
        "DAYTHRU": 1,
        "NGHTTHRU": 1,
        "MAINTRK": 1,
        "SIDINGTRK": 0,
        "YARDTRK": 0,
        "TRANSITTRK": 0,
        "INDUSTRYTR": 0,
        "OTHRTRK": 0,
        "WDCODE": "All other Gates",
        "REVISIONDA": "1988/01/01 00:00:00",
        "LASTUPDATE": "1/29/2026",
        "AADT": "35",
        "AADTYEAR": "2019",
        "STATENAME": "TEXAS",
        "STATEAB": "TX",
        "COUNTYNAME": "LAMAR",
        "CITYNAME": "POWDERLY",
        "LATDD": 33.760307,
        "LONGDD": -95.542091,
        "gridlyProductionCertified": true,
        "gridlyClassification": "PUBLIC_ROADWAY",
        "gridlyDisplayName": "CR 33900",
        "gridlyId": "FRA-671500Y"
      }
    },
    {
      "type": "Feature",
      "id": 202233,
      "geometry": {
        "type": "Point",
        "coordinates": [
          -95.8508070003203,
          33.5912400002238
        ]
      },
      "properties": {
        "OBJECTID": 202233,
        "CROSSING": "796003U",
        "EFFDATE": 1690416000000,
        "REASON": "24",
        "StateCode": "48",
        "CountyCode": "48147",
        "STCYFIPS": "48147",
        "CITYCD": "481473260",
        "RAILROAD": "TNER",
        "RRDIV": "american region",
        "RRSUBDIV": "BONHAM",
        "HIGHWAY": "county road",
        "STREET": "PRIVATE CROSSING",
        "TTSTN": "662130",
        "MILEPOST": "0108.89",
        "TYPEXING": "Private",
        "POSXING": "At Grade",
        "PRVCAT": "24",
        "INIT": "1",
        "LATITUDE": 33.59124,
        "LONGITUD": -95.850807,
        "LLSOURCE": "2",
        "WHISTBAN": "0",
        "RRCONT": "8008003490",
        "POLCONT": "8008003490",
        "INV_LINK": "https://safetydata.fra.dot.gov/OfficeofSafety/PublicSite/Crossing/Crossing.aspx?phasetype=C&rpttype=I&txtcrossingnum=796003U",
        "ACC_LINK": "https://safetydata.fra.dot.gov/OfficeofSafety/PublicSite/Crossing/Crossing.aspx?phasetype=C&rpttype=A&txtcrossingnum=796003U",
        "TTSTNNAM": "PARIS",
        "XPURPOSE": "1",
        "OPERATINGR": "DGNO",
        "OPERATIN_1": "Primary",
        "DAYTHRU": 0,
        "NGHTTHRU": 0,
        "MAINTRK": 0,
        "SIDINGTRK": 0,
        "YARDTRK": 0,
        "TRANSITTRK": 0,
        "INDUSTRYTR": 0,
        "OTHRTRK": 0,
        "WDCODE": "",
        "REVISIONDA": "1990/01/01 00:00:00",
        "LASTUPDATE": "7/27/2023",
        "AADT": "",
        "AADTYEAR": "1970",
        "STATENAME": "TEXAS",
        "STATEAB": "TX",
        "COUNTYNAME": "FANNIN",
        "CITYNAME": "HONEY GROVE",
        "LATDD": 33.59124,
        "LONGDD": -95.850807,
        "gridlyProductionCertified": true,
        "gridlyClassification": "PUBLIC_ROADWAY",
        "gridlyDisplayName": "PRIVATE CROSSING",
        "gridlyId": "FRA-796003U"
      }
    },
    {
      "type": "Feature",
      "id": 202418,
      "geometry": {
        "type": "Point",
        "coordinates": [
          -95.5450849999996,
          33.7514400000442
        ]
      },
      "properties": {
        "OBJECTID": 202418,
        "CROSSING": "923759W",
        "EFFDATE": 1769644800000,
        "REASON": "14",
        "StateCode": "48",
        "CountyCode": "48277",
        "STCYFIPS": "48277",
        "CITYCD": "482775511",
        "RAILROAD": "KRR",
        "RRDIV": "american region",
        "RRSUBDIV": "PARIS",
        "HIGHWAY": "CO 3386",
        "STREET": "CR 3386",
        "TTSTN": "662127",
        "MILEPOST": "0577.40",
        "TYPEXING": "Public",
        "POSXING": "At Grade",
        "PRVCAT": "14",
        "INIT": "1",
        "LATITUDE": 33.75144,
        "LONGITUD": -95.545085,
        "LLSOURCE": "1",
        "WHISTBAN": "0",
        "RRCONT": "8025273508",
        "POLCONT": "8665273498",
        "INV_LINK": "https://safetydata.fra.dot.gov/OfficeofSafety/PublicSite/Crossing/Crossing.aspx?phasetype=C&rpttype=I&txtcrossingnum=923759W",
        "ACC_LINK": "https://safetydata.fra.dot.gov/OfficeofSafety/PublicSite/Crossing/Crossing.aspx?phasetype=C&rpttype=A&txtcrossingnum=923759W",
        "TTSTNNAM": "BETNER",
        "XPURPOSE": "1",
        "OPERATINGR": "KRR",
        "OPERATIN_1": "Primary",
        "DAYTHRU": 1,
        "NGHTTHRU": 1,
        "MAINTRK": 1,
        "SIDINGTRK": 0,
        "YARDTRK": 0,
        "TRANSITTRK": 0,
        "INDUSTRYTR": 0,
        "OTHRTRK": 0,
        "WDCODE": "All other Gates",
        "REVISIONDA": "1988/01/01 00:00:00",
        "LASTUPDATE": "1/29/2026",
        "AADT": "1366",
        "AADTYEAR": "2006",
        "STATENAME": "TEXAS",
        "STATEAB": "TX",
        "COUNTYNAME": "LAMAR",
        "CITYNAME": "POWDERLY",
        "LATDD": 33.75144,
        "LONGDD": -95.545085,
        "gridlyProductionCertified": true,
        "gridlyClassification": "PUBLIC_ROADWAY",
        "gridlyDisplayName": "CR 3386",
        "gridlyId": "FRA-923759W"
      }
    },
    {
      "type": "Feature",
      "id": 204469,
      "geometry": {
        "type": "Point",
        "coordinates": [
          -95.629427999892,
          33.6368559997714
        ]
      },
      "properties": {
        "OBJECTID": 204469,
        "CROSSING": "983089V",
        "EFFDATE": 1724284800000,
        "REASON": "24",
        "StateCode": "48",
        "CountyCode": "48277",
        "STCYFIPS": "48277",
        "CITYCD": "482775220",
        "RAILROAD": "UNK",
        "RRDIV": "redriver",
        "RRSUBDIV": "bonham",
        "HIGHWAY": "co 22900",
        "STREET": "cord 22900",
        "TTSTN": "",
        "MILEPOST": "0095.400",
        "TYPEXING": "Private",
        "POSXING": "At Grade",
        "PRVCAT": "24",
        "INIT": "4",
        "LATITUDE": 33.636856,
        "LONGITUD": -95.629428,
        "LLSOURCE": "1",
        "WHISTBAN": "0",
        "RRCONT": "8888888888",
        "POLCONT": "",
        "INV_LINK": "https://safetydata.fra.dot.gov/OfficeofSafety/PublicSite/Crossing/Crossing.aspx?phasetype=C&rpttype=I&txtcrossingnum=983089V",
        "ACC_LINK": "https://safetydata.fra.dot.gov/OfficeofSafety/PublicSite/Crossing/Crossing.aspx?phasetype=C&rpttype=A&txtcrossingnum=983089V",
        "TTSTNNAM": "paris",
        "XPURPOSE": "2",
        "OPERATINGR": "UNK",
        "OPERATIN_1": "Primary",
        "DAYTHRU": 0,
        "NGHTTHRU": 0,
        "MAINTRK": 1,
        "SIDINGTRK": 0,
        "YARDTRK": 0,
        "TRANSITTRK": 0,
        "INDUSTRYTR": 0,
        "OTHRTRK": 0,
        "WDCODE": "",
        "REVISIONDA": "2017/11/14 00:00:00",
        "LASTUPDATE": "8/22/2024",
        "AADT": "",
        "AADTYEAR": "",
        "STATENAME": "TEXAS",
        "STATEAB": "TX",
        "COUNTYNAME": "LAMAR",
        "CITYNAME": "PARIS",
        "LATDD": 33.636856,
        "LONGDD": -95.629428,
        "gridlyProductionCertified": true,
        "gridlyClassification": "PUBLIC_ROADWAY",
        "gridlyDisplayName": "cord 22900",
        "gridlyId": "FRA-983089V"
      }
    },
    {
      "type": "Feature",
      "id": 205330,
      "geometry": {
        "type": "Point",
        "coordinates": [
          -95.5680164999715,
          33.6655577998771
        ]
      },
      "properties": {
        "OBJECTID": 205330,
        "CROSSING": "671513A",
        "EFFDATE": 1741564800000,
        "REASON": "14",
        "StateCode": "48",
        "CountyCode": "48277",
        "STCYFIPS": "48277",
        "CITYCD": "482775220",
        "RAILROAD": "KRR",
        "RRDIV": "American region",
        "RRSUBDIV": "PARIS YARD",
        "HIGHWAY": "city street",
        "STREET": "W CHERRY ST",
        "TTSTN": "662127",
        "MILEPOST": "0583.74",
        "TYPEXING": "Public",
        "POSXING": "At Grade",
        "PRVCAT": "14",
        "INIT": "1",
        "LATITUDE": 33.6655578,
        "LONGITUD": -95.5680165,
        "LLSOURCE": "1",
        "WHISTBAN": "0",
        "RRCONT": "8005456248",
        "POLCONT": "8665273499",
        "INV_LINK": "https://safetydata.fra.dot.gov/OfficeofSafety/PublicSite/Crossing/Crossing.aspx?phasetype=C&rpttype=I&txtcrossingnum=671513A",
        "ACC_LINK": "https://safetydata.fra.dot.gov/OfficeofSafety/PublicSite/Crossing/Crossing.aspx?phasetype=C&rpttype=A&txtcrossingnum=671513A",
        "TTSTNNAM": "BETNER",
        "XPURPOSE": "1",
        "OPERATINGR": "KRR",
        "OPERATIN_1": "Primary",
        "DAYTHRU": 0,
        "NGHTTHRU": 1,
        "MAINTRK": 1,
        "SIDINGTRK": 0,
        "YARDTRK": 0,
        "TRANSITTRK": 0,
        "INDUSTRYTR": 0,
        "OTHRTRK": 0,
        "WDCODE": "Crossbucks",
        "REVISIONDA": "1988/01/01 00:00:00",
        "LASTUPDATE": "3/10/2025",
        "AADT": "212",
        "AADTYEAR": "2019",
        "STATENAME": "TEXAS",
        "STATEAB": "TX",
        "COUNTYNAME": "LAMAR",
        "CITYNAME": "PARIS",
        "LATDD": 33.6655578,
        "LONGDD": -95.5680165,
        "gridlyProductionCertified": true,
        "gridlyClassification": "PUBLIC_ROADWAY",
        "gridlyDisplayName": "W CHERRY ST",
        "gridlyId": "FRA-671513A"
      }
    },
    {
      "type": "Feature",
      "id": 206364,
      "geometry": {
        "type": "Point",
        "coordinates": [
          -95.5603017997526,
          33.6502175001729
        ]
      },
      "properties": {
        "OBJECTID": 206364,
        "CROSSING": "795977Y",
        "EFFDATE": 1768521600000,
        "REASON": "14",
        "StateCode": "48",
        "CountyCode": "48277",
        "STCYFIPS": "48277",
        "CITYCD": "482775220",
        "RAILROAD": "TNER",
        "RRDIV": "AMERICAN",
        "RRSUBDIV": "PARIS",
        "HIGHWAY": "CITY STREET",
        "STREET": "4TH ST",
        "TTSTN": "662130",
        "MILEPOST": "0091.380",
        "TYPEXING": "Public",
        "POSXING": "At Grade",
        "PRVCAT": "14",
        "INIT": "1",
        "LATITUDE": 33.6502175,
        "LONGITUD": -95.5603018,
        "LLSOURCE": "1",
        "WHISTBAN": "0",
        "RRCONT": "8665273499",
        "POLCONT": "8665273499",
        "INV_LINK": "https://safetydata.fra.dot.gov/OfficeofSafety/PublicSite/Crossing/Crossing.aspx?phasetype=C&rpttype=I&txtcrossingnum=795977Y",
        "ACC_LINK": "https://safetydata.fra.dot.gov/OfficeofSafety/PublicSite/Crossing/Crossing.aspx?phasetype=C&rpttype=A&txtcrossingnum=795977Y",
        "TTSTNNAM": "PARIS",
        "XPURPOSE": "1",
        "OPERATINGR": "DGNO",
        "OPERATIN_1": "Primary",
        "DAYTHRU": 0,
        "NGHTTHRU": 1,
        "MAINTRK": 1,
        "SIDINGTRK": 0,
        "YARDTRK": 0,
        "TRANSITTRK": 0,
        "INDUSTRYTR": 0,
        "OTHRTRK": 1,
        "WDCODE": "Crossbucks",
        "REVISIONDA": "1990/01/01 00:00:00",
        "LASTUPDATE": "1/16/2026",
        "AADT": "226",
        "AADTYEAR": "2001",
        "STATENAME": "TEXAS",
        "STATEAB": "TX",
        "COUNTYNAME": "LAMAR",
        "CITYNAME": "PARIS",
        "LATDD": 33.6502175,
        "LONGDD": -95.5603018,
        "gridlyProductionCertified": true,
        "gridlyClassification": "PUBLIC_ROADWAY",
        "gridlyDisplayName": "4TH ST",
        "gridlyId": "FRA-795977Y"
      }
    },
    {
      "type": "Feature",
      "id": 211575,
      "geometry": {
        "type": "Point",
        "coordinates": [
          -95.5673229996739,
          33.6701670001774
        ]
      },
      "properties": {
        "OBJECTID": 211575,
        "CROSSING": "671510E",
        "EFFDATE": 1761782400000,
        "REASON": "14",
        "StateCode": "48",
        "CountyCode": "48277",
        "STCYFIPS": "48277",
        "CITYCD": "482775220",
        "RAILROAD": "KRR",
        "RRDIV": "american region",
        "RRSUBDIV": "paris",
        "HIGHWAY": "city street",
        "STREET": "11th street",
        "TTSTN": "662127",
        "MILEPOST": "0583.40",
        "TYPEXING": "Public",
        "POSXING": "At Grade",
        "PRVCAT": "14",
        "INIT": "1",
        "LATITUDE": 33.670167,
        "LONGITUD": -95.567323,
        "LLSOURCE": "1",
        "WHISTBAN": "0",
        "RRCONT": "8005456248",
        "POLCONT": "8008003490",
        "INV_LINK": "https://safetydata.fra.dot.gov/OfficeofSafety/PublicSite/Crossing/Crossing.aspx?phasetype=C&rpttype=I&txtcrossingnum=671510E",
        "ACC_LINK": "https://safetydata.fra.dot.gov/OfficeofSafety/PublicSite/Crossing/Crossing.aspx?phasetype=C&rpttype=A&txtcrossingnum=671510E",
        "TTSTNNAM": "BETNER",
        "XPURPOSE": "1",
        "OPERATINGR": "KRR",
        "OPERATIN_1": "Primary",
        "DAYTHRU": 0,
        "NGHTTHRU": 2,
        "MAINTRK": 1,
        "SIDINGTRK": 0,
        "YARDTRK": 0,
        "TRANSITTRK": 0,
        "INDUSTRYTR": 0,
        "OTHRTRK": 0,
        "WDCODE": "Crossbucks",
        "REVISIONDA": "1988/01/01 00:00:00",
        "LASTUPDATE": "10/30/2025",
        "AADT": "124",
        "AADTYEAR": "2019",
        "STATENAME": "TEXAS",
        "STATEAB": "TX",
        "COUNTYNAME": "LAMAR",
        "CITYNAME": "PARIS",
        "LATDD": 33.670167,
        "LONGDD": -95.567323,
        "gridlyProductionCertified": true,
        "gridlyClassification": "PUBLIC_ROADWAY",
        "gridlyDisplayName": "11th street",
        "gridlyId": "FRA-671510E"
      }
    },
    {
      "type": "Feature",
      "id": 211576,
      "geometry": {
        "type": "Point",
        "coordinates": [
          -95.5676559997598,
          33.6696019998428
        ]
      },
      "properties": {
        "OBJECTID": 211576,
        "CROSSING": "671511L",
        "EFFDATE": 1761782400000,
        "REASON": "14",
        "StateCode": "48",
        "CountyCode": "48277",
        "STCYFIPS": "48277",
        "CITYCD": "482775220",
        "RAILROAD": "KRR",
        "RRDIV": "american region",
        "RRSUBDIV": "paris",
        "HIGHWAY": "city street",
        "STREET": "CAMPBELL ST",
        "TTSTN": "662127",
        "MILEPOST": "0583.46",
        "TYPEXING": "Public",
        "POSXING": "At Grade",
        "PRVCAT": "14",
        "INIT": "1",
        "LATITUDE": 33.669602,
        "LONGITUD": -95.567656,
        "LLSOURCE": "1",
        "WHISTBAN": "0",
        "RRCONT": "8005456248",
        "POLCONT": "8008003490",
        "INV_LINK": "https://safetydata.fra.dot.gov/OfficeofSafety/PublicSite/Crossing/Crossing.aspx?phasetype=C&rpttype=I&txtcrossingnum=671511L",
        "ACC_LINK": "https://safetydata.fra.dot.gov/OfficeofSafety/PublicSite/Crossing/Crossing.aspx?phasetype=C&rpttype=A&txtcrossingnum=671511L",
        "TTSTNNAM": "BETNER",
        "XPURPOSE": "1",
        "OPERATINGR": "KRR",
        "OPERATIN_1": "Primary",
        "DAYTHRU": 0,
        "NGHTTHRU": 2,
        "MAINTRK": 1,
        "SIDINGTRK": 0,
        "YARDTRK": 0,
        "TRANSITTRK": 0,
        "INDUSTRYTR": 0,
        "OTHRTRK": 0,
        "WDCODE": "Crossbucks",
        "REVISIONDA": "1988/01/01 00:00:00",
        "LASTUPDATE": "10/30/2025",
        "AADT": "517",
        "AADTYEAR": "2019",
        "STATENAME": "TEXAS",
        "STATEAB": "TX",
        "COUNTYNAME": "LAMAR",
        "CITYNAME": "PARIS",
        "LATDD": 33.669602,
        "LONGDD": -95.567656,
        "gridlyProductionCertified": true,
        "gridlyClassification": "PUBLIC_ROADWAY",
        "gridlyDisplayName": "CAMPBELL ST",
        "gridlyId": "FRA-671511L"
      }
    },
    {
      "type": "Feature",
      "id": 211581,
      "geometry": {
        "type": "Point",
        "coordinates": [
          -95.5703399996405,
          33.6786600001794
        ]
      },
      "properties": {
        "OBJECTID": 211581,
        "CROSSING": "671518J",
        "EFFDATE": 1761782400000,
        "REASON": "14",
        "StateCode": "48",
        "CountyCode": "48277",
        "STCYFIPS": "48277",
        "CITYCD": "482775220",
        "RAILROAD": "KRR",
        "RRDIV": "AMERICAN region",
        "RRSUBDIV": "PARIS YARD",
        "HIGHWAY": "city street",
        "STREET": "CENTER ST",
        "TTSTN": "662127",
        "MILEPOST": "0583.50",
        "TYPEXING": "Public",
        "POSXING": "At Grade",
        "PRVCAT": "14",
        "INIT": "1",
        "LATITUDE": 33.67866,
        "LONGITUD": -95.57034,
        "LLSOURCE": "1",
        "WHISTBAN": "0",
        "RRCONT": "8025273508",
        "POLCONT": "8665273499",
        "INV_LINK": "https://safetydata.fra.dot.gov/OfficeofSafety/PublicSite/Crossing/Crossing.aspx?phasetype=C&rpttype=I&txtcrossingnum=671518J",
        "ACC_LINK": "https://safetydata.fra.dot.gov/OfficeofSafety/PublicSite/Crossing/Crossing.aspx?phasetype=C&rpttype=A&txtcrossingnum=671518J",
        "TTSTNNAM": "BETNER",
        "XPURPOSE": "1",
        "OPERATINGR": "KRR",
        "OPERATIN_1": "Primary",
        "DAYTHRU": 2,
        "NGHTTHRU": 0,
        "MAINTRK": 1,
        "SIDINGTRK": 0,
        "YARDTRK": 0,
        "TRANSITTRK": 0,
        "INDUSTRYTR": 0,
        "OTHRTRK": 1,
        "WDCODE": "Crossbucks",
        "REVISIONDA": "1988/01/01 00:00:00",
        "LASTUPDATE": "10/30/2025",
        "AADT": "1393",
        "AADTYEAR": "2019",
        "STATENAME": "TEXAS",
        "STATEAB": "TX",
        "COUNTYNAME": "LAMAR",
        "CITYNAME": "PARIS",
        "LATDD": 33.67866,
        "LONGDD": -95.57034,
        "gridlyProductionCertified": true,
        "gridlyClassification": "PUBLIC_ROADWAY",
        "gridlyDisplayName": "CENTER ST",
        "gridlyId": "FRA-671518J"
      }
    },
    {
      "type": "Feature",
      "id": 211584,
      "geometry": {
        "type": "Point",
        "coordinates": [
          -95.5676380002165,
          33.6635720003151
        ]
      },
      "properties": {
        "OBJECTID": 211584,
        "CROSSING": "671514G",
        "EFFDATE": 1761782400000,
        "REASON": "14",
        "StateCode": "48",
        "CountyCode": "48277",
        "STCYFIPS": "48277",
        "CITYCD": "482775220",
        "RAILROAD": "KRR",
        "RRDIV": "AMERICAN region",
        "RRSUBDIV": "PARIS YARD",
        "HIGHWAY": "MH 0837",
        "STREET": "GRAHAM ST",
        "TTSTN": "662127",
        "MILEPOST": "0583.86",
        "TYPEXING": "Public",
        "POSXING": "At Grade",
        "PRVCAT": "14",
        "INIT": "1",
        "LATITUDE": 33.663572,
        "LONGITUD": -95.567638,
        "LLSOURCE": "1",
        "WHISTBAN": "0",
        "RRCONT": "8008003490",
        "POLCONT": "8008003490",
        "INV_LINK": "https://safetydata.fra.dot.gov/OfficeofSafety/PublicSite/Crossing/Crossing.aspx?phasetype=C&rpttype=I&txtcrossingnum=671514G",
        "ACC_LINK": "https://safetydata.fra.dot.gov/OfficeofSafety/PublicSite/Crossing/Crossing.aspx?phasetype=C&rpttype=A&txtcrossingnum=671514G",
        "TTSTNNAM": "BETNER",
        "XPURPOSE": "1",
        "OPERATINGR": "KRR",
        "OPERATIN_1": "Primary",
        "DAYTHRU": 2,
        "NGHTTHRU": 0,
        "MAINTRK": 1,
        "SIDINGTRK": 0,
        "YARDTRK": 0,
        "TRANSITTRK": 0,
        "INDUSTRYTR": 0,
        "OTHRTRK": 0,
        "WDCODE": "All other Gates",
        "REVISIONDA": "1988/01/01 00:00:00",
        "LASTUPDATE": "10/30/2025",
        "AADT": "1705",
        "AADTYEAR": "2019",
        "STATENAME": "TEXAS",
        "STATEAB": "TX",
        "COUNTYNAME": "LAMAR",
        "CITYNAME": "PARIS",
        "LATDD": 33.663572,
        "LONGDD": -95.567638,
        "gridlyProductionCertified": true,
        "gridlyClassification": "PUBLIC_ROADWAY",
        "gridlyDisplayName": "GRAHAM ST",
        "gridlyId": "FRA-671514G"
      }
    },
    {
      "type": "Feature",
      "id": 211625,
      "geometry": {
        "type": "Point",
        "coordinates": [
          -95.5667820000738,
          33.6714760002124
        ]
      },
      "properties": {
        "OBJECTID": 211625,
        "CROSSING": "671509K",
        "EFFDATE": 1761782400000,
        "REASON": "14",
        "StateCode": "48",
        "CountyCode": "48277",
        "STCYFIPS": "48277",
        "CITYCD": "482775220",
        "RAILROAD": "KRR",
        "RRDIV": "american region",
        "RRSUBDIV": "PARIS YARD",
        "HIGHWAY": "city street",
        "STREET": "w GARRETT ST",
        "TTSTN": "662127",
        "MILEPOST": "0583.29",
        "TYPEXING": "Public",
        "POSXING": "At Grade",
        "PRVCAT": "14",
        "INIT": "1",
        "LATITUDE": 33.671476,
        "LONGITUD": -95.566782,
        "LLSOURCE": "1",
        "WHISTBAN": "0",
        "RRCONT": "8005456248",
        "POLCONT": "8008003490",
        "INV_LINK": "https://safetydata.fra.dot.gov/OfficeofSafety/PublicSite/Crossing/Crossing.aspx?phasetype=C&rpttype=I&txtcrossingnum=671509K",
        "ACC_LINK": "https://safetydata.fra.dot.gov/OfficeofSafety/PublicSite/Crossing/Crossing.aspx?phasetype=C&rpttype=A&txtcrossingnum=671509K",
        "TTSTNNAM": "BETNER",
        "XPURPOSE": "1",
        "OPERATINGR": "KRR",
        "OPERATIN_1": "Primary",
        "DAYTHRU": 0,
        "NGHTTHRU": 2,
        "MAINTRK": 1,
        "SIDINGTRK": 0,
        "YARDTRK": 0,
        "TRANSITTRK": 0,
        "INDUSTRYTR": 0,
        "OTHRTRK": 0,
        "WDCODE": "Crossbucks",
        "REVISIONDA": "1988/01/01 00:00:00",
        "LASTUPDATE": "10/30/2025",
        "AADT": "3",
        "AADTYEAR": "2019",
        "STATENAME": "TEXAS",
        "STATEAB": "TX",
        "COUNTYNAME": "LAMAR",
        "CITYNAME": "PARIS",
        "LATDD": 33.671476,
        "LONGDD": -95.566782,
        "gridlyProductionCertified": true,
        "gridlyClassification": "PUBLIC_ROADWAY",
        "gridlyDisplayName": "w GARRETT ST",
        "gridlyId": "FRA-671509K"
      }
    },
    {
      "type": "Feature",
      "id": 211627,
      "geometry": {
        "type": "Point",
        "coordinates": [
          -95.5676120002772,
          33.660730000227
        ]
      },
      "properties": {
        "OBJECTID": 211627,
        "CROSSING": "671515N",
        "EFFDATE": 1764028800000,
        "REASON": "14",
        "StateCode": "48",
        "CountyCode": "48277",
        "STCYFIPS": "48277",
        "CITYCD": "482775220",
        "RAILROAD": "KRR",
        "RRDIV": "american region",
        "RRSUBDIV": "PARIS YARD",
        "HIGHWAY": "BU 0082",
        "STREET": "bonhan street",
        "TTSTN": "662127",
        "MILEPOST": "0583.86",
        "TYPEXING": "Public",
        "POSXING": "At Grade",
        "PRVCAT": "14",
        "INIT": "1",
        "LATITUDE": 33.66073,
        "LONGITUD": -95.567612,
        "LLSOURCE": "1",
        "WHISTBAN": "0",
        "RRCONT": "8008003490",
        "POLCONT": "8008003490",
        "INV_LINK": "https://safetydata.fra.dot.gov/OfficeofSafety/PublicSite/Crossing/Crossing.aspx?phasetype=C&rpttype=I&txtcrossingnum=671515N",
        "ACC_LINK": "https://safetydata.fra.dot.gov/OfficeofSafety/PublicSite/Crossing/Crossing.aspx?phasetype=C&rpttype=A&txtcrossingnum=671515N",
        "TTSTNNAM": "BETNER",
        "XPURPOSE": "1",
        "OPERATINGR": "KRR",
        "OPERATIN_1": "Primary",
        "DAYTHRU": 2,
        "NGHTTHRU": 0,
        "MAINTRK": 1,
        "SIDINGTRK": 0,
        "YARDTRK": 0,
        "TRANSITTRK": 0,
        "INDUSTRYTR": 0,
        "OTHRTRK": 0,
        "WDCODE": "All other Gates",
        "REVISIONDA": "1988/01/01 00:00:00",
        "LASTUPDATE": "11/25/2025",
        "AADT": "7975",
        "AADTYEAR": "2019",
        "STATENAME": "TEXAS",
        "STATEAB": "TX",
        "COUNTYNAME": "LAMAR",
        "CITYNAME": "PARIS",
        "LATDD": 33.66073,
        "LONGDD": -95.567612,
        "gridlyProductionCertified": true,
        "gridlyClassification": "PUBLIC_ROADWAY",
        "gridlyDisplayName": "bonhan street",
        "gridlyId": "FRA-671515N"
      }
    },
    {
      "type": "Feature",
      "id": 212156,
      "geometry": {
        "type": "Point",
        "coordinates": [
          -95.5058629997112,
          33.8687359999649
        ]
      },
      "properties": {
        "OBJECTID": 212156,
        "CROSSING": "671492J",
        "EFFDATE": 1769644800000,
        "REASON": "14",
        "StateCode": "48",
        "CountyCode": "48277",
        "STCYFIPS": "48277",
        "CITYCD": "482770276",
        "RAILROAD": "KRR",
        "RRDIV": "american region",
        "RRSUBDIV": "PARIS",
        "HIGHWAY": "FM 0197",
        "STREET": "FM 197",
        "TTSTN": "662121",
        "MILEPOST": "0569.23",
        "TYPEXING": "Public",
        "POSXING": "At Grade",
        "PRVCAT": "14",
        "INIT": "1",
        "LATITUDE": 33.868736,
        "LONGITUD": -95.505863,
        "LLSOURCE": "1",
        "WHISTBAN": "0",
        "RRCONT": "8025273508",
        "POLCONT": "8665273499",
        "INV_LINK": "https://safetydata.fra.dot.gov/OfficeofSafety/PublicSite/Crossing/Crossing.aspx?phasetype=C&rpttype=I&txtcrossingnum=671492J",
        "ACC_LINK": "https://safetydata.fra.dot.gov/OfficeofSafety/PublicSite/Crossing/Crossing.aspx?phasetype=C&rpttype=A&txtcrossingnum=671492J",
        "TTSTNNAM": "ARTHUR CITY",
        "XPURPOSE": "1",
        "OPERATINGR": "KRR",
        "OPERATIN_1": "Primary",
        "DAYTHRU": 1,
        "NGHTTHRU": 1,
        "MAINTRK": 1,
        "SIDINGTRK": 0,
        "YARDTRK": 0,
        "TRANSITTRK": 0,
        "INDUSTRYTR": 0,
        "OTHRTRK": 0,
        "WDCODE": "Flashing lights",
        "REVISIONDA": "1988/01/01 00:00:00",
        "LASTUPDATE": "1/29/2026",
        "AADT": "655",
        "AADTYEAR": "2019",
        "STATENAME": "TEXAS",
        "STATEAB": "TX",
        "COUNTYNAME": "LAMAR",
        "CITYNAME": "ARTHUR CITY",
        "LATDD": 33.868736,
        "LONGDD": -95.505863,
        "gridlyProductionCertified": true,
        "gridlyClassification": "PUBLIC_ROADWAY",
        "gridlyDisplayName": "FM 197",
        "gridlyId": "FRA-671492J"
      }
    },
    {
      "type": "Feature",
      "id": 214219,
      "geometry": {
        "type": "Point",
        "coordinates": [
          -95.5770869996011,
          33.6785669998379
        ]
      },
      "properties": {
        "OBJECTID": 214219,
        "CROSSING": "671517C",
        "EFFDATE": 1769644800000,
        "REASON": "14",
        "StateCode": "48",
        "CountyCode": "48277",
        "STCYFIPS": "48277",
        "CITYCD": "482775220",
        "RAILROAD": "KRR",
        "RRDIV": "american REGION",
        "RRSUBDIV": "PARIS YARD",
        "HIGHWAY": "FM 0079",
        "STREET": "FM 79 / nw 19TH ST",
        "TTSTN": "662127",
        "MILEPOST": "0582.86",
        "TYPEXING": "Public",
        "POSXING": "At Grade",
        "PRVCAT": "14",
        "INIT": "1",
        "LATITUDE": 33.678567,
        "LONGITUD": -95.577087,
        "LLSOURCE": "1",
        "WHISTBAN": "0",
        "RRCONT": "8005456248",
        "POLCONT": "8008003490",
        "INV_LINK": "https://safetydata.fra.dot.gov/OfficeofSafety/PublicSite/Crossing/Crossing.aspx?phasetype=C&rpttype=I&txtcrossingnum=671517C",
        "ACC_LINK": "https://safetydata.fra.dot.gov/OfficeofSafety/PublicSite/Crossing/Crossing.aspx?phasetype=C&rpttype=A&txtcrossingnum=671517C",
        "TTSTNNAM": "PARIS",
        "XPURPOSE": "1",
        "OPERATINGR": "KRR",
        "OPERATIN_1": "Primary",
        "DAYTHRU": 0,
        "NGHTTHRU": 0,
        "MAINTRK": 0,
        "SIDINGTRK": 0,
        "YARDTRK": 0,
        "TRANSITTRK": 0,
        "INDUSTRYTR": 1,
        "OTHRTRK": 1,
        "WDCODE": "Crossbucks",
        "REVISIONDA": "1988/01/01 00:00:00",
        "LASTUPDATE": "1/29/2026",
        "AADT": "4717",
        "AADTYEAR": "2019",
        "STATENAME": "TEXAS",
        "STATEAB": "TX",
        "COUNTYNAME": "LAMAR",
        "CITYNAME": "PARIS",
        "LATDD": 33.678567,
        "LONGDD": -95.577087,
        "gridlyProductionCertified": true,
        "gridlyClassification": "PUBLIC_ROADWAY",
        "gridlyDisplayName": "FM 79 / nw 19TH ST",
        "gridlyId": "FRA-671517C"
      }
    },
    {
      "type": "Feature",
      "id": 214221,
      "geometry": {
        "type": "Point",
        "coordinates": [
          -95.5691329998685,
          33.6786339998931
        ]
      },
      "properties": {
        "OBJECTID": 214221,
        "CROSSING": "977916M",
        "EFFDATE": 1769644800000,
        "REASON": "14",
        "StateCode": "48",
        "CountyCode": "48277",
        "STCYFIPS": "48277",
        "CITYCD": "482775220",
        "RAILROAD": "KRR",
        "RRDIV": "american region",
        "RRSUBDIV": "paris",
        "HIGHWAY": "private drive",
        "STREET": "cemetery private",
        "TTSTN": "",
        "MILEPOST": "0582.860",
        "TYPEXING": "Private",
        "POSXING": "At Grade",
        "PRVCAT": "14",
        "INIT": "1",
        "LATITUDE": 33.678634,
        "LONGITUD": -95.569133,
        "LLSOURCE": "1",
        "WHISTBAN": "",
        "RRCONT": "8008003490",
        "POLCONT": "8008003490",
        "INV_LINK": "https://safetydata.fra.dot.gov/OfficeofSafety/PublicSite/Crossing/Crossing.aspx?phasetype=C&rpttype=I&txtcrossingnum=977916M",
        "ACC_LINK": "https://safetydata.fra.dot.gov/OfficeofSafety/PublicSite/Crossing/Crossing.aspx?phasetype=C&rpttype=A&txtcrossingnum=977916M",
        "TTSTNNAM": "",
        "XPURPOSE": "1",
        "OPERATINGR": "KRR",
        "OPERATIN_1": "Primary",
        "DAYTHRU": 0,
        "NGHTTHRU": 0,
        "MAINTRK": 0,
        "SIDINGTRK": 0,
        "YARDTRK": 0,
        "TRANSITTRK": 0,
        "INDUSTRYTR": 1,
        "OTHRTRK": 0,
        "WDCODE": "",
        "REVISIONDA": "1988/01/01 00:00:00",
        "LASTUPDATE": "1/29/2026",
        "AADT": "1",
        "AADTYEAR": "1900",
        "STATENAME": "TEXAS",
        "STATEAB": "TX",
        "COUNTYNAME": "LAMAR",
        "CITYNAME": "PARIS",
        "LATDD": 33.678634,
        "LONGDD": -95.569133,
        "gridlyProductionCertified": true,
        "gridlyClassification": "PUBLIC_ROADWAY",
        "gridlyDisplayName": "cemetery private",
        "gridlyId": "FRA-977916M"
      }
    },
    {
      "type": "Feature",
      "id": 214223,
      "geometry": {
        "type": "Point",
        "coordinates": [
          -95.5592199999784,
          33.6860889999239
        ]
      },
      "properties": {
        "OBJECTID": 214223,
        "CROSSING": "671505H",
        "EFFDATE": 1769644800000,
        "REASON": "14",
        "StateCode": "48",
        "CountyCode": "48277",
        "STCYFIPS": "48277",
        "CITYCD": "482775220",
        "RAILROAD": "KRR",
        "RRDIV": "american region",
        "RRSUBDIV": "paris",
        "HIGHWAY": "286 bypass west",
        "STREET": "NW LOOP 286",
        "TTSTN": "662127",
        "MILEPOST": "0582.26",
        "TYPEXING": "Public",
        "POSXING": "RR Over",
        "PRVCAT": "14",
        "INIT": "1",
        "LATITUDE": 33.686089,
        "LONGITUD": -95.55922,
        "LLSOURCE": "1",
        "WHISTBAN": "0",
        "RRCONT": "8005456248",
        "POLCONT": "8008003490",
        "INV_LINK": "https://safetydata.fra.dot.gov/OfficeofSafety/PublicSite/Crossing/Crossing.aspx?phasetype=C&rpttype=I&txtcrossingnum=671505H",
        "ACC_LINK": "https://safetydata.fra.dot.gov/OfficeofSafety/PublicSite/Crossing/Crossing.aspx?phasetype=C&rpttype=A&txtcrossingnum=671505H",
        "TTSTNNAM": "BETNER",
        "XPURPOSE": "1",
        "OPERATINGR": "KRR",
        "OPERATIN_1": "Primary",
        "DAYTHRU": 0,
        "NGHTTHRU": 2,
        "MAINTRK": 1,
        "SIDINGTRK": 0,
        "YARDTRK": 0,
        "TRANSITTRK": 0,
        "INDUSTRYTR": 0,
        "OTHRTRK": 0,
        "WDCODE": "",
        "REVISIONDA": "1988/01/01 00:00:00",
        "LASTUPDATE": "1/29/2026",
        "AADT": "009440",
        "AADTYEAR": "2010",
        "STATENAME": "TEXAS",
        "STATEAB": "TX",
        "COUNTYNAME": "LAMAR",
        "CITYNAME": "PARIS",
        "LATDD": 33.686089,
        "LONGDD": -95.55922,
        "gridlyProductionCertified": true,
        "gridlyClassification": "PUBLIC_ROADWAY",
        "gridlyDisplayName": "NW LOOP 286",
        "gridlyId": "FRA-671505H"
      }
    },
    {
      "type": "Feature",
      "id": 214225,
      "geometry": {
        "type": "Point",
        "coordinates": [
          -95.5558499998345,
          33.7012099998535
        ]
      },
      "properties": {
        "OBJECTID": 214225,
        "CROSSING": "671503U",
        "EFFDATE": 1769644800000,
        "REASON": "14",
        "StateCode": "48",
        "CountyCode": "48277",
        "STCYFIPS": "48277",
        "CITYCD": "482775220",
        "RAILROAD": "KRR",
        "RRDIV": "american region",
        "RRSUBDIV": "PARIS YARD",
        "HIGHWAY": "county road 3710",
        "STREET": "LAKE CROOK RD",
        "TTSTN": "662127",
        "MILEPOST": "0581.14",
        "TYPEXING": "Public",
        "POSXING": "RR Over",
        "PRVCAT": "14",
        "INIT": "1",
        "LATITUDE": 33.70121,
        "LONGITUD": -95.55585,
        "LLSOURCE": "1",
        "WHISTBAN": "0",
        "RRCONT": "8025273508",
        "POLCONT": "8008003490",
        "INV_LINK": "https://safetydata.fra.dot.gov/OfficeofSafety/PublicSite/Crossing/Crossing.aspx?phasetype=C&rpttype=I&txtcrossingnum=671503U",
        "ACC_LINK": "https://safetydata.fra.dot.gov/OfficeofSafety/PublicSite/Crossing/Crossing.aspx?phasetype=C&rpttype=A&txtcrossingnum=671503U",
        "TTSTNNAM": "BETNER",
        "XPURPOSE": "1",
        "OPERATINGR": "KRR",
        "OPERATIN_1": "Primary",
        "DAYTHRU": 1,
        "NGHTTHRU": 1,
        "MAINTRK": 1,
        "SIDINGTRK": 0,
        "YARDTRK": 0,
        "TRANSITTRK": 0,
        "INDUSTRYTR": 0,
        "OTHRTRK": 0,
        "WDCODE": "",
        "REVISIONDA": "1988/01/01 00:00:00",
        "LASTUPDATE": "1/29/2026",
        "AADT": "",
        "AADTYEAR": "1970",
        "STATENAME": "TEXAS",
        "STATEAB": "TX",
        "COUNTYNAME": "LAMAR",
        "CITYNAME": "PARIS",
        "LATDD": 33.70121,
        "LONGDD": -95.55585,
        "gridlyProductionCertified": true,
        "gridlyClassification": "PUBLIC_ROADWAY",
        "gridlyDisplayName": "LAKE CROOK RD",
        "gridlyId": "FRA-671503U"
      }
    },
    {
      "type": "Feature",
      "id": 214227,
      "geometry": {
        "type": "Point",
        "coordinates": [
          -95.5359479998862,
          33.7783469997848
        ]
      },
      "properties": {
        "OBJECTID": 214227,
        "CROSSING": "977917U",
        "EFFDATE": 1769644800000,
        "REASON": "14",
        "StateCode": "48",
        "CountyCode": "48277",
        "STCYFIPS": "48277",
        "CITYCD": "482775220",
        "RAILROAD": "KRR",
        "RRDIV": "american region",
        "RRSUBDIV": "paris",
        "HIGHWAY": "private road",
        "STREET": "private road",
        "TTSTN": "",
        "MILEPOST": "0575.450",
        "TYPEXING": "Private",
        "POSXING": "At Grade",
        "PRVCAT": "14",
        "INIT": "1",
        "LATITUDE": 33.778347,
        "LONGITUD": -95.535948,
        "LLSOURCE": "1",
        "WHISTBAN": "",
        "RRCONT": "8008003490",
        "POLCONT": "8008003490",
        "INV_LINK": "https://safetydata.fra.dot.gov/OfficeofSafety/PublicSite/Crossing/Crossing.aspx?phasetype=C&rpttype=I&txtcrossingnum=977917U",
        "ACC_LINK": "https://safetydata.fra.dot.gov/OfficeofSafety/PublicSite/Crossing/Crossing.aspx?phasetype=C&rpttype=A&txtcrossingnum=977917U",
        "TTSTNNAM": "",
        "XPURPOSE": "1",
        "OPERATINGR": "KRR",
        "OPERATIN_1": "Primary",
        "DAYTHRU": 0,
        "NGHTTHRU": 2,
        "MAINTRK": 1,
        "SIDINGTRK": 0,
        "YARDTRK": 0,
        "TRANSITTRK": 0,
        "INDUSTRYTR": 0,
        "OTHRTRK": 0,
        "WDCODE": "",
        "REVISIONDA": "1988/01/01 00:00:00",
        "LASTUPDATE": "1/29/2026",
        "AADT": "1",
        "AADTYEAR": "1900",
        "STATENAME": "TEXAS",
        "STATEAB": "TX",
        "COUNTYNAME": "LAMAR",
        "CITYNAME": "PARIS",
        "LATDD": 33.778347,
        "LONGDD": -95.535948,
        "gridlyProductionCertified": true,
        "gridlyClassification": "PUBLIC_ROADWAY",
        "gridlyDisplayName": "private road",
        "gridlyId": "FRA-977917U"
      }
    },
    {
      "type": "Feature",
      "id": 214228,
      "geometry": {
        "type": "Point",
        "coordinates": [
          -95.5661610001078,
          33.6771139999675
        ]
      },
      "properties": {
        "OBJECTID": 214228,
        "CROSSING": "671520K",
        "EFFDATE": 1769644800000,
        "REASON": "14",
        "StateCode": "48",
        "CountyCode": "48277",
        "STCYFIPS": "48277",
        "CITYCD": "482775220",
        "RAILROAD": "KRR",
        "RRDIV": "american region",
        "RRSUBDIV": "paris",
        "HIGHWAY": "city street",
        "STREET": "10TH NW ST",
        "TTSTN": "662127",
        "MILEPOST": "0583.25",
        "TYPEXING": "Public",
        "POSXING": "At Grade",
        "PRVCAT": "14",
        "INIT": "1",
        "LATITUDE": 33.677114,
        "LONGITUD": -95.566161,
        "LLSOURCE": "1",
        "WHISTBAN": "0",
        "RRCONT": "8005456248",
        "POLCONT": "8008003490",
        "INV_LINK": "https://safetydata.fra.dot.gov/OfficeofSafety/PublicSite/Crossing/Crossing.aspx?phasetype=C&rpttype=I&txtcrossingnum=671520K",
        "ACC_LINK": "https://safetydata.fra.dot.gov/OfficeofSafety/PublicSite/Crossing/Crossing.aspx?phasetype=C&rpttype=A&txtcrossingnum=671520K",
        "TTSTNNAM": "BETNER",
        "XPURPOSE": "1",
        "OPERATINGR": "KRR",
        "OPERATIN_1": "Primary",
        "DAYTHRU": 0,
        "NGHTTHRU": 0,
        "MAINTRK": 0,
        "SIDINGTRK": 0,
        "YARDTRK": 0,
        "TRANSITTRK": 0,
        "INDUSTRYTR": 1,
        "OTHRTRK": 1,
        "WDCODE": "Crossbucks",
        "REVISIONDA": "1988/01/01 00:00:00",
        "LASTUPDATE": "1/29/2026",
        "AADT": "178",
        "AADTYEAR": "2019",
        "STATENAME": "TEXAS",
        "STATEAB": "TX",
        "COUNTYNAME": "LAMAR",
        "CITYNAME": "PARIS",
        "LATDD": 33.677114,
        "LONGDD": -95.566161,
        "gridlyProductionCertified": true,
        "gridlyClassification": "PUBLIC_ROADWAY",
        "gridlyDisplayName": "10TH NW ST",
        "gridlyId": "FRA-671520K"
      }
    },
    {
      "type": "Feature",
      "id": 214229,
      "geometry": {
        "type": "Point",
        "coordinates": [
          -95.5619549999127,
          33.6807730000663
        ]
      },
      "properties": {
        "OBJECTID": 214229,
        "CROSSING": "671506P",
        "EFFDATE": 1769644800000,
        "REASON": "14",
        "StateCode": "48",
        "CountyCode": "48277",
        "STCYFIPS": "48277",
        "CITYCD": "482775220",
        "RAILROAD": "KRR",
        "RRDIV": "american region",
        "RRSUBDIV": "paris",
        "HIGHWAY": "private road",
        "STREET": "private road / CITY OF PARIS",
        "TTSTN": "662127",
        "MILEPOST": "0582.62",
        "TYPEXING": "Private",
        "POSXING": "At Grade",
        "PRVCAT": "14",
        "INIT": "1",
        "LATITUDE": 33.680773,
        "LONGITUD": -95.561955,
        "LLSOURCE": "1",
        "WHISTBAN": "0",
        "RRCONT": "8005456248",
        "POLCONT": "8008003490",
        "INV_LINK": "https://safetydata.fra.dot.gov/OfficeofSafety/PublicSite/Crossing/Crossing.aspx?phasetype=C&rpttype=I&txtcrossingnum=671506P",
        "ACC_LINK": "https://safetydata.fra.dot.gov/OfficeofSafety/PublicSite/Crossing/Crossing.aspx?phasetype=C&rpttype=A&txtcrossingnum=671506P",
        "TTSTNNAM": "BETNER",
        "XPURPOSE": "1",
        "OPERATINGR": "KRR",
        "OPERATIN_1": "Primary",
        "DAYTHRU": 0,
        "NGHTTHRU": 2,
        "MAINTRK": 1,
        "SIDINGTRK": 0,
        "YARDTRK": 0,
        "TRANSITTRK": 0,
        "INDUSTRYTR": 0,
        "OTHRTRK": 0,
        "WDCODE": "",
        "REVISIONDA": "1988/01/01 00:00:00",
        "LASTUPDATE": "1/29/2026",
        "AADT": "1",
        "AADTYEAR": "1977",
        "STATENAME": "TEXAS",
        "STATEAB": "TX",
        "COUNTYNAME": "LAMAR",
        "CITYNAME": "PARIS",
        "LATDD": 33.680773,
        "LONGDD": -95.561955,
        "gridlyProductionCertified": true,
        "gridlyClassification": "PUBLIC_ROADWAY",
        "gridlyDisplayName": "private road / CITY OF PARIS",
        "gridlyId": "FRA-671506P"
      }
    },
    {
      "type": "Feature",
      "id": 214231,
      "geometry": {
        "type": "Point",
        "coordinates": [
          -95.5191700000347,
          33.8278899999198
        ]
      },
      "properties": {
        "OBJECTID": 214231,
        "CROSSING": "671495E",
        "EFFDATE": 1769644800000,
        "REASON": "14",
        "StateCode": "48",
        "CountyCode": "48277",
        "STCYFIPS": "48277",
        "CITYCD": "482775220",
        "RAILROAD": "KRR",
        "RRDIV": "american region",
        "RRSUBDIV": "PARIS",
        "HIGHWAY": "county road 35080",
        "STREET": "CR 35080",
        "TTSTN": "662121",
        "MILEPOST": "0572.17",
        "TYPEXING": "Public",
        "POSXING": "At Grade",
        "PRVCAT": "14",
        "INIT": "1",
        "LATITUDE": 33.82789,
        "LONGITUD": -95.51917,
        "LLSOURCE": "1",
        "WHISTBAN": "0",
        "RRCONT": "8025273508",
        "POLCONT": "8665273498",
        "INV_LINK": "https://safetydata.fra.dot.gov/OfficeofSafety/PublicSite/Crossing/Crossing.aspx?phasetype=C&rpttype=I&txtcrossingnum=671495E",
        "ACC_LINK": "https://safetydata.fra.dot.gov/OfficeofSafety/PublicSite/Crossing/Crossing.aspx?phasetype=C&rpttype=A&txtcrossingnum=671495E",
        "TTSTNNAM": "ARTHUR CITY",
        "XPURPOSE": "1",
        "OPERATINGR": "KRR",
        "OPERATIN_1": "Primary",
        "DAYTHRU": 0,
        "NGHTTHRU": 2,
        "MAINTRK": 1,
        "SIDINGTRK": 0,
        "YARDTRK": 0,
        "TRANSITTRK": 0,
        "INDUSTRYTR": 0,
        "OTHRTRK": 0,
        "WDCODE": "Crossbucks",
        "REVISIONDA": "1988/01/01 00:00:00",
        "LASTUPDATE": "1/29/2026",
        "AADT": "67",
        "AADTYEAR": "2019",
        "STATENAME": "TEXAS",
        "STATEAB": "TX",
        "COUNTYNAME": "LAMAR",
        "CITYNAME": "PARIS",
        "LATDD": 33.82789,
        "LONGDD": -95.51917,
        "gridlyProductionCertified": true,
        "gridlyClassification": "PUBLIC_ROADWAY",
        "gridlyDisplayName": "CR 35080",
        "gridlyId": "FRA-671495E"
      }
    },
    {
      "type": "Feature",
      "id": 214233,
      "geometry": {
        "type": "Point",
        "coordinates": [
          -95.5676145002886,
          33.6573988998527
        ]
      },
      "properties": {
        "OBJECTID": 214233,
        "CROSSING": "671516V",
        "EFFDATE": 1769644800000,
        "REASON": "14",
        "StateCode": "48",
        "CountyCode": "48277",
        "STCYFIPS": "48277",
        "CITYCD": "482775220",
        "RAILROAD": "KRR",
        "RRDIV": "american REGION",
        "RRSUBDIV": "PARIS",
        "HIGHWAY": "CITY STREET",
        "STREET": "SHERMAN ST",
        "TTSTN": "662127",
        "MILEPOST": "0584.10",
        "TYPEXING": "Public",
        "POSXING": "At Grade",
        "PRVCAT": "14",
        "INIT": "1",
        "LATITUDE": 33.6573989,
        "LONGITUD": -95.5676145,
        "LLSOURCE": "1",
        "WHISTBAN": "0",
        "RRCONT": "8008003490",
        "POLCONT": "8008003490",
        "INV_LINK": "https://safetydata.fra.dot.gov/OfficeofSafety/PublicSite/Crossing/Crossing.aspx?phasetype=C&rpttype=I&txtcrossingnum=671516V",
        "ACC_LINK": "https://safetydata.fra.dot.gov/OfficeofSafety/PublicSite/Crossing/Crossing.aspx?phasetype=C&rpttype=A&txtcrossingnum=671516V",
        "TTSTNNAM": "BETNER",
        "XPURPOSE": "1",
        "OPERATINGR": "KRR",
        "OPERATIN_1": "Primary",
        "DAYTHRU": 0,
        "NGHTTHRU": 1,
        "MAINTRK": 1,
        "SIDINGTRK": 1,
        "YARDTRK": 0,
        "TRANSITTRK": 0,
        "INDUSTRYTR": 0,
        "OTHRTRK": 1,
        "WDCODE": "Crossbucks",
        "REVISIONDA": "1988/01/01 00:00:00",
        "LASTUPDATE": "1/29/2026",
        "AADT": "000800",
        "AADTYEAR": "1983",
        "STATENAME": "TEXAS",
        "STATEAB": "TX",
        "COUNTYNAME": "LAMAR",
        "CITYNAME": "PARIS",
        "LATDD": 33.6573989,
        "LONGDD": -95.5676145,
        "gridlyProductionCertified": true,
        "gridlyClassification": "PUBLIC_ROADWAY",
        "gridlyDisplayName": "SHERMAN ST",
        "gridlyId": "FRA-671516V"
      }
    },
    {
      "type": "Feature",
      "id": 214239,
      "geometry": {
        "type": "Point",
        "coordinates": [
          -95.5676030000564,
          33.6538199997746
        ]
      },
      "properties": {
        "OBJECTID": 214239,
        "CROSSING": "977939U",
        "EFFDATE": 1769644800000,
        "REASON": "14",
        "StateCode": "48",
        "CountyCode": "48277",
        "STCYFIPS": "48277",
        "CITYCD": "482775220",
        "RAILROAD": "KRR",
        "RRDIV": "american region",
        "RRSUBDIV": "paris sub",
        "HIGHWAY": "City street",
        "STREET": "washington st",
        "TTSTN": "",
        "MILEPOST": "0584.800",
        "TYPEXING": "Public",
        "POSXING": "At Grade",
        "PRVCAT": "14",
        "INIT": "1",
        "LATITUDE": 33.65382,
        "LONGITUD": -95.567603,
        "LLSOURCE": "1",
        "WHISTBAN": "",
        "RRCONT": "8665273499",
        "POLCONT": "8665273499",
        "INV_LINK": "https://safetydata.fra.dot.gov/OfficeofSafety/PublicSite/Crossing/Crossing.aspx?phasetype=C&rpttype=I&txtcrossingnum=977939U",
        "ACC_LINK": "https://safetydata.fra.dot.gov/OfficeofSafety/PublicSite/Crossing/Crossing.aspx?phasetype=C&rpttype=A&txtcrossingnum=977939U",
        "TTSTNNAM": "",
        "XPURPOSE": "1",
        "OPERATINGR": "KRR",
        "OPERATIN_1": "Primary",
        "DAYTHRU": 0,
        "NGHTTHRU": 4,
        "MAINTRK": 1,
        "SIDINGTRK": 1,
        "YARDTRK": 0,
        "TRANSITTRK": 0,
        "INDUSTRYTR": 0,
        "OTHRTRK": 0,
        "WDCODE": "Crossbucks",
        "REVISIONDA": "1988/01/01 00:00:00",
        "LASTUPDATE": "1/29/2026",
        "AADT": "1",
        "AADTYEAR": "1900",
        "STATENAME": "TEXAS",
        "STATEAB": "TX",
        "COUNTYNAME": "LAMAR",
        "CITYNAME": "PARIS",
        "LATDD": 33.65382,
        "LONGDD": -95.567603,
        "gridlyProductionCertified": true,
        "gridlyClassification": "PUBLIC_ROADWAY",
        "gridlyDisplayName": "washington st",
        "gridlyId": "FRA-977939U"
      }
    },
    {
      "type": "Feature",
      "id": 214240,
      "geometry": {
        "type": "Point",
        "coordinates": [
          -95.5659700003121,
          33.6730049998789
        ]
      },
      "properties": {
        "OBJECTID": 214240,
        "CROSSING": "671508D",
        "EFFDATE": 1769644800000,
        "REASON": "14",
        "StateCode": "48",
        "CountyCode": "48277",
        "STCYFIPS": "48277",
        "CITYCD": "482775220",
        "RAILROAD": "KRR",
        "RRDIV": "american region",
        "RRSUBDIV": "paris",
        "HIGHWAY": "city street",
        "STREET": "W HENDERSON ST",
        "TTSTN": "662127",
        "MILEPOST": "0583.17",
        "TYPEXING": "Public",
        "POSXING": "At Grade",
        "PRVCAT": "14",
        "INIT": "1",
        "LATITUDE": 33.673005,
        "LONGITUD": -95.56597,
        "LLSOURCE": "1",
        "WHISTBAN": "0",
        "RRCONT": "8005456248",
        "POLCONT": "8008003490",
        "INV_LINK": "https://safetydata.fra.dot.gov/OfficeofSafety/PublicSite/Crossing/Crossing.aspx?phasetype=C&rpttype=I&txtcrossingnum=671508D",
        "ACC_LINK": "https://safetydata.fra.dot.gov/OfficeofSafety/PublicSite/Crossing/Crossing.aspx?phasetype=C&rpttype=A&txtcrossingnum=671508D",
        "TTSTNNAM": "BETNER",
        "XPURPOSE": "1",
        "OPERATINGR": "KRR",
        "OPERATIN_1": "Primary",
        "DAYTHRU": 0,
        "NGHTTHRU": 2,
        "MAINTRK": 1,
        "SIDINGTRK": 0,
        "YARDTRK": 0,
        "TRANSITTRK": 0,
        "INDUSTRYTR": 0,
        "OTHRTRK": 0,
        "WDCODE": "Crossbucks",
        "REVISIONDA": "1988/01/01 00:00:00",
        "LASTUPDATE": "1/29/2026",
        "AADT": "360",
        "AADTYEAR": "2019",
        "STATENAME": "TEXAS",
        "STATEAB": "TX",
        "COUNTYNAME": "LAMAR",
        "CITYNAME": "PARIS",
        "LATDD": 33.673005,
        "LONGDD": -95.56597,
        "gridlyProductionCertified": true,
        "gridlyClassification": "PUBLIC_ROADWAY",
        "gridlyDisplayName": "W HENDERSON ST",
        "gridlyId": "FRA-671508D"
      }
    },
    {
      "type": "Feature",
      "id": 214328,
      "geometry": {
        "type": "Point",
        "coordinates": [
          -95.5681372003081,
          33.6678660001173
        ]
      },
      "properties": {
        "OBJECTID": 214328,
        "CROSSING": "671512T",
        "EFFDATE": 1769644800000,
        "REASON": "14",
        "StateCode": "48",
        "CountyCode": "48277",
        "STCYFIPS": "48277",
        "CITYCD": "482775220",
        "RAILROAD": "KRR",
        "RRDIV": "AMERICAN REGION",
        "RRSUBDIV": "PARIS",
        "HIGHWAY": "CITY STREET",
        "STREET": "SHILOH ST",
        "TTSTN": "662127",
        "MILEPOST": "0583.56",
        "TYPEXING": "Public",
        "POSXING": "At Grade",
        "PRVCAT": "14",
        "INIT": "1",
        "LATITUDE": 33.667866,
        "LONGITUD": -95.5681372,
        "LLSOURCE": "1",
        "WHISTBAN": "0",
        "RRCONT": "8005456248",
        "POLCONT": "8665273499",
        "INV_LINK": "https://safetydata.fra.dot.gov/OfficeofSafety/PublicSite/Crossing/Crossing.aspx?phasetype=C&rpttype=I&txtcrossingnum=671512T",
        "ACC_LINK": "https://safetydata.fra.dot.gov/OfficeofSafety/PublicSite/Crossing/Crossing.aspx?phasetype=C&rpttype=A&txtcrossingnum=671512T",
        "TTSTNNAM": "BETNER",
        "XPURPOSE": "1",
        "OPERATINGR": "KRR",
        "OPERATIN_1": "Primary",
        "DAYTHRU": 0,
        "NGHTTHRU": 1,
        "MAINTRK": 1,
        "SIDINGTRK": 0,
        "YARDTRK": 0,
        "TRANSITTRK": 0,
        "INDUSTRYTR": 0,
        "OTHRTRK": 0,
        "WDCODE": "Crossbucks",
        "REVISIONDA": "1988/01/01 00:00:00",
        "LASTUPDATE": "1/29/2026",
        "AADT": "74",
        "AADTYEAR": "2019",
        "STATENAME": "TEXAS",
        "STATEAB": "TX",
        "COUNTYNAME": "LAMAR",
        "CITYNAME": "PARIS",
        "LATDD": 33.667866,
        "LONGDD": -95.5681372,
        "gridlyProductionCertified": true,
        "gridlyClassification": "PUBLIC_ROADWAY",
        "gridlyDisplayName": "SHILOH ST",
        "gridlyId": "FRA-671512T"
      }
    },
    {
      "type": "Feature",
      "id": 214703,
      "geometry": {
        "type": "Point",
        "coordinates": [
          -95.5817461998571,
          33.6369933002362
        ]
      },
      "properties": {
        "OBJECTID": 214703,
        "CROSSING": "022343T",
        "EFFDATE": 1775433600000,
        "REASON": "14",
        "StateCode": "48",
        "CountyCode": "48277",
        "STCYFIPS": "48277",
        "CITYCD": "482775220",
        "RAILROAD": "KRR",
        "RRDIV": "AMERICAN REGION",
        "RRSUBDIV": "PARIS",
        "HIGHWAY": "LP 0286",
        "STREET": "SL 0286",
        "TTSTN": "662130",
        "MILEPOST": "0149.09",
        "TYPEXING": "Public",
        "POSXING": "At Grade",
        "PRVCAT": "14",
        "INIT": "2",
        "LATITUDE": 33.6369933,
        "LONGITUD": -95.5817462,
        "LLSOURCE": "1",
        "WHISTBAN": "0",
        "RRCONT": "8008003490",
        "POLCONT": "8008003490",
        "INV_LINK": "https://safetydata.fra.dot.gov/OfficeofSafety/PublicSite/Crossing/Crossing.aspx?phasetype=C&rpttype=I&txtcrossingnum=022343T",
        "ACC_LINK": "https://safetydata.fra.dot.gov/OfficeofSafety/PublicSite/Crossing/Crossing.aspx?phasetype=C&rpttype=A&txtcrossingnum=022343T",
        "TTSTNNAM": "PARIS",
        "XPURPOSE": "1",
        "OPERATINGR": "KRR",
        "OPERATIN_1": "Primary",
        "DAYTHRU": 0,
        "NGHTTHRU": 0,
        "MAINTRK": 1,
        "SIDINGTRK": 0,
        "YARDTRK": 0,
        "TRANSITTRK": 0,
        "INDUSTRYTR": 0,
        "OTHRTRK": 0,
        "WDCODE": "Flashing lights",
        "REVISIONDA": "1988/01/01 00:00:00",
        "LASTUPDATE": "4/6/2026",
        "AADT": "8682",
        "AADTYEAR": "2024",
        "STATENAME": "TEXAS",
        "STATEAB": "TX",
        "COUNTYNAME": "LAMAR",
        "CITYNAME": "PARIS",
        "LATDD": 33.6369933,
        "LONGDD": -95.5817462,
        "gridlyProductionCertified": true,
        "gridlyClassification": "PUBLIC_ROADWAY",
        "gridlyDisplayName": "SL 0286",
        "gridlyId": "FRA-022343T"
      }
    },
    {
      "type": "Feature",
      "id": 214733,
      "geometry": {
        "type": "Point",
        "coordinates": [
          -95.5247930000641,
          33.8111670000858
        ]
      },
      "properties": {
        "OBJECTID": 214733,
        "CROSSING": "671497T",
        "EFFDATE": 1769644800000,
        "REASON": "14",
        "StateCode": "48",
        "CountyCode": "48277",
        "STCYFIPS": "48277",
        "CITYCD": "482775220",
        "RAILROAD": "KRR",
        "RRDIV": "american region",
        "RRSUBDIV": "PARIS",
        "HIGHWAY": "county road 34950",
        "STREET": "CR 34950",
        "TTSTN": "662124",
        "MILEPOST": "0573.43",
        "TYPEXING": "Public",
        "POSXING": "At Grade",
        "PRVCAT": "14",
        "INIT": "1",
        "LATITUDE": 33.811167,
        "LONGITUD": -95.524793,
        "LLSOURCE": "1",
        "WHISTBAN": "0",
        "RRCONT": "8025273508",
        "POLCONT": "8665273498",
        "INV_LINK": "https://safetydata.fra.dot.gov/OfficeofSafety/PublicSite/Crossing/Crossing.aspx?phasetype=C&rpttype=I&txtcrossingnum=671497T",
        "ACC_LINK": "https://safetydata.fra.dot.gov/OfficeofSafety/PublicSite/Crossing/Crossing.aspx?phasetype=C&rpttype=A&txtcrossingnum=671497T",
        "TTSTNNAM": "POWDERLY",
        "XPURPOSE": "1",
        "OPERATINGR": "KRR",
        "OPERATIN_1": "Primary",
        "DAYTHRU": 0,
        "NGHTTHRU": 2,
        "MAINTRK": 1,
        "SIDINGTRK": 0,
        "YARDTRK": 0,
        "TRANSITTRK": 0,
        "INDUSTRYTR": 0,
        "OTHRTRK": 0,
        "WDCODE": "Crossbucks",
        "REVISIONDA": "1988/01/01 00:00:00",
        "LASTUPDATE": "1/29/2026",
        "AADT": "112",
        "AADTYEAR": "2019",
        "STATENAME": "TEXAS",
        "STATEAB": "TX",
        "COUNTYNAME": "LAMAR",
        "CITYNAME": "PARIS",
        "LATDD": 33.811167,
        "LONGDD": -95.524793,
        "gridlyProductionCertified": true,
        "gridlyClassification": "PUBLIC_ROADWAY",
        "gridlyDisplayName": "CR 34950",
        "gridlyId": "FRA-671497T"
      }
    },
    {
      "type": "Feature",
      "id": 216069,
      "geometry": {
        "type": "Point",
        "coordinates": [
          -95.5240309996328,
          33.8134330000082
        ]
      },
      "properties": {
        "OBJECTID": 216069,
        "CROSSING": "671496L",
        "EFFDATE": 1769644800000,
        "REASON": "14",
        "StateCode": "48",
        "CountyCode": "48277",
        "STCYFIPS": "48277",
        "CITYCD": "482775220",
        "RAILROAD": "KRR",
        "RRDIV": "american region",
        "RRSUBDIV": "PARIS",
        "HIGHWAY": "county road 34958",
        "STREET": "CR 34958",
        "TTSTN": "662124",
        "MILEPOST": "0573.17",
        "TYPEXING": "Public",
        "POSXING": "At Grade",
        "PRVCAT": "14",
        "INIT": "1",
        "LATITUDE": 33.813433,
        "LONGITUD": -95.524031,
        "LLSOURCE": "1",
        "WHISTBAN": "0",
        "RRCONT": "8025273508",
        "POLCONT": "8665273498",
        "INV_LINK": "https://safetydata.fra.dot.gov/OfficeofSafety/PublicSite/Crossing/Crossing.aspx?phasetype=C&rpttype=I&txtcrossingnum=671496L",
        "ACC_LINK": "https://safetydata.fra.dot.gov/OfficeofSafety/PublicSite/Crossing/Crossing.aspx?phasetype=C&rpttype=A&txtcrossingnum=671496L",
        "TTSTNNAM": "POWDERLY",
        "XPURPOSE": "1",
        "OPERATINGR": "KRR",
        "OPERATIN_1": "Primary",
        "DAYTHRU": 0,
        "NGHTTHRU": 2,
        "MAINTRK": 1,
        "SIDINGTRK": 0,
        "YARDTRK": 0,
        "TRANSITTRK": 0,
        "INDUSTRYTR": 0,
        "OTHRTRK": 0,
        "WDCODE": "Crossbucks",
        "REVISIONDA": "1988/01/01 00:00:00",
        "LASTUPDATE": "1/29/2026",
        "AADT": "262",
        "AADTYEAR": "2019",
        "STATENAME": "TEXAS",
        "STATEAB": "TX",
        "COUNTYNAME": "LAMAR",
        "CITYNAME": "PARIS",
        "LATDD": 33.813433,
        "LONGDD": -95.524031,
        "gridlyProductionCertified": true,
        "gridlyClassification": "PUBLIC_ROADWAY",
        "gridlyDisplayName": "CR 34958",
        "gridlyId": "FRA-671496L"
      }
    },
    {
      "type": "Feature",
      "id": 216070,
      "geometry": {
        "type": "Point",
        "coordinates": [
          -95.5694600001067,
          33.6785400000575
        ]
      },
      "properties": {
        "OBJECTID": 216070,
        "CROSSING": "671519R",
        "EFFDATE": 1769644800000,
        "REASON": "14",
        "StateCode": "48",
        "CountyCode": "48277",
        "STCYFIPS": "48277",
        "CITYCD": "482775220",
        "RAILROAD": "KRR",
        "RRDIV": "american region",
        "RRSUBDIV": "PARIS YARD",
        "HIGHWAY": "private road",
        "STREET": "private road",
        "TTSTN": "662127",
        "MILEPOST": "0583.45",
        "TYPEXING": "Private",
        "POSXING": "At Grade",
        "PRVCAT": "14",
        "INIT": "1",
        "LATITUDE": 33.67854,
        "LONGITUD": -95.56946,
        "LLSOURCE": "1",
        "WHISTBAN": "0",
        "RRCONT": "8025273508",
        "POLCONT": "8665273499",
        "INV_LINK": "https://safetydata.fra.dot.gov/OfficeofSafety/PublicSite/Crossing/Crossing.aspx?phasetype=C&rpttype=I&txtcrossingnum=671519R",
        "ACC_LINK": "https://safetydata.fra.dot.gov/OfficeofSafety/PublicSite/Crossing/Crossing.aspx?phasetype=C&rpttype=A&txtcrossingnum=671519R",
        "TTSTNNAM": "BETNER",
        "XPURPOSE": "1",
        "OPERATINGR": "KRR",
        "OPERATIN_1": "Primary",
        "DAYTHRU": 1,
        "NGHTTHRU": 2,
        "MAINTRK": 1,
        "SIDINGTRK": 0,
        "YARDTRK": 0,
        "TRANSITTRK": 0,
        "INDUSTRYTR": 0,
        "OTHRTRK": 0,
        "WDCODE": "",
        "REVISIONDA": "1988/01/01 00:00:00",
        "LASTUPDATE": "1/29/2026",
        "AADT": "",
        "AADTYEAR": "1970",
        "STATENAME": "TEXAS",
        "STATEAB": "TX",
        "COUNTYNAME": "LAMAR",
        "CITYNAME": "PARIS",
        "LATDD": 33.67854,
        "LONGDD": -95.56946,
        "gridlyProductionCertified": true,
        "gridlyClassification": "PUBLIC_ROADWAY",
        "gridlyDisplayName": "private road",
        "gridlyId": "FRA-671519R"
      }
    }
  ]
}
