{
  "type": "FeatureCollection",
  "features": [
    {
      "type": "Feature",
      "id": 203820,
      "geometry": {
        "type": "Point",
        "coordinates": [
          -101.898549000418,
          34.8534693001598
        ]
      },
      "properties": {
        "OBJECTID": 203820,
        "CROSSING": "017194J",
        "EFFDATE": 1734393600000,
        "REASON": "14",
        "StateCode": "48",
        "CountyCode": "48381",
        "STCYFIPS": "48381",
        "CITYCD": "484373020",
        "RAILROAD": "BNSF",
        "RRDIV": "RED RIVER",
        "RRSUBDIV": "PLAINVIEW",
        "HIGHWAY": "Not Yet Reported by State",
        "STREET": "W LAWRENCE RD",
        "TTSTN": "674185",
        "MILEPOST": "0580.435",
        "TYPEXING": "Private",
        "POSXING": "At Grade",
        "PRVCAT": "14",
        "INIT": "1",
        "LATITUDE": 34.8534693,
        "LONGITUD": -101.898549,
        "LLSOURCE": "1",
        "WHISTBAN": "0",
        "RRCONT": "8173521549",
        "POLCONT": "8008325452",
        "INV_LINK": "https://safetydata.fra.dot.gov/OfficeofSafety/PublicSite/Crossing/Crossing.aspx?phasetype=C&rpttype=I&txtcrossingnum=017194J",
        "ACC_LINK": "https://safetydata.fra.dot.gov/OfficeofSafety/PublicSite/Crossing/Crossing.aspx?phasetype=C&rpttype=A&txtcrossingnum=017194J",
        "TTSTNNAM": "OGG",
        "XPURPOSE": "1",
        "OPERATINGR": "BNSF",
        "OPERATIN_1": "Primary",
        "DAYTHRU": 3,
        "NGHTTHRU": 2,
        "MAINTRK": 1,
        "SIDINGTRK": 0,
        "YARDTRK": 0,
        "TRANSITTRK": 0,
        "INDUSTRYTR": 0,
        "OTHRTRK": 0,
        "WDCODE": "",
        "REVISIONDA": "1996/01/01 00:00:00",
        "LASTUPDATE": "12/17/2024",
        "AADT": "",
        "AADTYEAR": "1970",
        "STATENAME": "TEXAS",
        "STATEAB": "TX",
        "COUNTYNAME": "RANDALL",
        "CITYNAME": "HAPPY",
        "LATDD": 34.8534693,
        "LONGDD": -101.898549,
        "gridlyProductionCertified": true,
        "gridlyClassification": "PUBLIC_ROADWAY",
        "gridlyDisplayName": "W LAWRENCE RD",
        "gridlyId": "FRA-017194J"
      }
    },
    {
      "type": "Feature",
      "id": 203821,
      "geometry": {
        "type": "Point",
        "coordinates": [
          -101.884548000334,
          34.8216922003668
        ]
      },
      "properties": {
        "OBJECTID": 203821,
        "CROSSING": "017196X",
        "EFFDATE": 1734393600000,
        "REASON": "14",
        "StateCode": "48",
        "CountyCode": "48381",
        "STCYFIPS": "48381",
        "CITYCD": "484373020",
        "RAILROAD": "BNSF",
        "RRDIV": "RED RIVER",
        "RRSUBDIV": "PLAINVIEW",
        "HIGHWAY": "Not Yet Reported by State",
        "STREET": "PRIVATE",
        "TTSTN": "674185",
        "MILEPOST": "0582.760",
        "TYPEXING": "Private",
        "POSXING": "At Grade",
        "PRVCAT": "14",
        "INIT": "1",
        "LATITUDE": 34.8216922,
        "LONGITUD": -101.884548,
        "LLSOURCE": "1",
        "WHISTBAN": "0",
        "RRCONT": "8173521549",
        "POLCONT": "8008325452",
        "INV_LINK": "https://safetydata.fra.dot.gov/OfficeofSafety/PublicSite/Crossing/Crossing.aspx?phasetype=C&rpttype=I&txtcrossingnum=017196X",
        "ACC_LINK": "https://safetydata.fra.dot.gov/OfficeofSafety/PublicSite/Crossing/Crossing.aspx?phasetype=C&rpttype=A&txtcrossingnum=017196X",
        "TTSTNNAM": "OGG",
        "XPURPOSE": "1",
        "OPERATINGR": "BNSF",
        "OPERATIN_1": "Primary",
        "DAYTHRU": 3,
        "NGHTTHRU": 2,
        "MAINTRK": 1,
        "SIDINGTRK": 0,
        "YARDTRK": 0,
        "TRANSITTRK": 0,
        "INDUSTRYTR": 0,
        "OTHRTRK": 0,
        "WDCODE": "",
        "REVISIONDA": "1996/01/01 00:00:00",
        "LASTUPDATE": "12/17/2024",
        "AADT": "",
        "AADTYEAR": "1970",
        "STATENAME": "TEXAS",
        "STATEAB": "TX",
        "COUNTYNAME": "RANDALL",
        "CITYNAME": "HAPPY",
        "LATDD": 34.8216922,
        "LONGDD": -101.884548,
        "gridlyProductionCertified": true,
        "gridlyClassification": "PUBLIC_ROADWAY",
        "gridlyDisplayName": "PRIVATE",
        "gridlyId": "FRA-017196X"
      }
    },
    {
      "type": "Feature",
      "id": 204428,
      "geometry": {
        "type": "Point",
        "coordinates": [
          -102.061438999921,
          34.9677687998544
        ]
      },
      "properties": {
        "OBJECTID": 204428,
        "CROSSING": "014713Y",
        "EFFDATE": 1734393600000,
        "REASON": "14",
        "StateCode": "48",
        "CountyCode": "48381",
        "STCYFIPS": "48381",
        "CITYCD": "483811160",
        "RAILROAD": "BNSF",
        "RRDIV": "KANSAS",
        "RRSUBDIV": "HEREFORD",
        "HIGHWAY": "CO 0000",
        "STREET": "BUSHLAND RD",
        "TTSTN": "674160",
        "MILEPOST": "0577.700",
        "TYPEXING": "Private",
        "POSXING": "At Grade",
        "PRVCAT": "14",
        "INIT": "1",
        "LATITUDE": 34.9677688,
        "LONGITUD": -102.061439,
        "LLSOURCE": "1",
        "WHISTBAN": "0",
        "RRCONT": "8173521549",
        "POLCONT": "8008325452",
        "INV_LINK": "https://safetydata.fra.dot.gov/OfficeofSafety/PublicSite/Crossing/Crossing.aspx?phasetype=C&rpttype=I&txtcrossingnum=014713Y",
        "ACC_LINK": "https://safetydata.fra.dot.gov/OfficeofSafety/PublicSite/Crossing/Crossing.aspx?phasetype=C&rpttype=A&txtcrossingnum=014713Y",
        "TTSTNNAM": "MCCRACKEN",
        "XPURPOSE": "1",
        "OPERATINGR": "BNSF",
        "OPERATIN_1": "Primary",
        "DAYTHRU": 33,
        "NGHTTHRU": 33,
        "MAINTRK": 2,
        "SIDINGTRK": 0,
        "YARDTRK": 0,
        "TRANSITTRK": 0,
        "INDUSTRYTR": 0,
        "OTHRTRK": 0,
        "WDCODE": "",
        "REVISIONDA": "1996/01/01 00:00:00",
        "LASTUPDATE": "12/17/2024",
        "AADT": "000010",
        "AADTYEAR": "1987",
        "STATENAME": "TEXAS",
        "STATEAB": "TX",
        "COUNTYNAME": "RANDALL",
        "CITYNAME": "CANYON",
        "LATDD": 34.9677688,
        "LONGDD": -102.061439,
        "gridlyProductionCertified": true,
        "gridlyClassification": "PUBLIC_ROADWAY",
        "gridlyDisplayName": "BUSHLAND RD",
        "gridlyId": "FRA-014713Y"
      }
    },
    {
      "type": "Feature",
      "id": 204465,
      "geometry": {
        "type": "Point",
        "coordinates": [
          -102.131009999975,
          34.9419498003639
        ]
      },
      "properties": {
        "OBJECTID": 204465,
        "CROSSING": "014719P",
        "EFFDATE": 1734393600000,
        "REASON": "14",
        "StateCode": "48",
        "CountyCode": "48381",
        "STCYFIPS": "48381",
        "CITYCD": "483811160",
        "RAILROAD": "BNSF",
        "RRDIV": "KANSAS",
        "RRSUBDIV": "HEREFORD",
        "HIGHWAY": "Not Yet Reported by State",
        "STREET": "PRIVATE",
        "TTSTN": "674160",
        "MILEPOST": "0582.080",
        "TYPEXING": "Private",
        "POSXING": "At Grade",
        "PRVCAT": "14",
        "INIT": "1",
        "LATITUDE": 34.9419498,
        "LONGITUD": -102.13101,
        "LLSOURCE": "1",
        "WHISTBAN": "0",
        "RRCONT": "8173521549",
        "POLCONT": "8008325452",
        "INV_LINK": "https://safetydata.fra.dot.gov/OfficeofSafety/PublicSite/Crossing/Crossing.aspx?phasetype=C&rpttype=I&txtcrossingnum=014719P",
        "ACC_LINK": "https://safetydata.fra.dot.gov/OfficeofSafety/PublicSite/Crossing/Crossing.aspx?phasetype=C&rpttype=A&txtcrossingnum=014719P",
        "TTSTNNAM": "MCCRACKEN",
        "XPURPOSE": "1",
        "OPERATINGR": "BNSF",
        "OPERATIN_1": "Primary",
        "DAYTHRU": 33,
        "NGHTTHRU": 32,
        "MAINTRK": 2,
        "SIDINGTRK": 0,
        "YARDTRK": 0,
        "TRANSITTRK": 0,
        "INDUSTRYTR": 0,
        "OTHRTRK": 0,
        "WDCODE": "",
        "REVISIONDA": "1996/01/01 00:00:00",
        "LASTUPDATE": "12/17/2024",
        "AADT": "",
        "AADTYEAR": "1970",
        "STATENAME": "TEXAS",
        "STATEAB": "TX",
        "COUNTYNAME": "RANDALL",
        "CITYNAME": "CANYON",
        "LATDD": 34.9419498,
        "LONGDD": -102.13101,
        "gridlyProductionCertified": true,
        "gridlyClassification": "PUBLIC_ROADWAY",
        "gridlyDisplayName": "PRIVATE",
        "gridlyId": "FRA-014719P"
      }
    },
    {
      "type": "Feature",
      "id": 204477,
      "geometry": {
        "type": "Point",
        "coordinates": [
          -102.142343999898,
          34.9365840996469
        ]
      },
      "properties": {
        "OBJECTID": 204477,
        "CROSSING": "014720J",
        "EFFDATE": 1734393600000,
        "REASON": "14",
        "StateCode": "48",
        "CountyCode": "48381",
        "STCYFIPS": "48381",
        "CITYCD": "483811160",
        "RAILROAD": "BNSF",
        "RRDIV": "KANSAS",
        "RRSUBDIV": "HEREFORD",
        "HIGHWAY": "Not Yet Reported by State",
        "STREET": "PRIVATE",
        "TTSTN": "674160",
        "MILEPOST": "0582.800",
        "TYPEXING": "Private",
        "POSXING": "At Grade",
        "PRVCAT": "14",
        "INIT": "1",
        "LATITUDE": 34.9365841,
        "LONGITUD": -102.142344,
        "LLSOURCE": "1",
        "WHISTBAN": "0",
        "RRCONT": "8173521549",
        "POLCONT": "8008325452",
        "INV_LINK": "https://safetydata.fra.dot.gov/OfficeofSafety/PublicSite/Crossing/Crossing.aspx?phasetype=C&rpttype=I&txtcrossingnum=014720J",
        "ACC_LINK": "https://safetydata.fra.dot.gov/OfficeofSafety/PublicSite/Crossing/Crossing.aspx?phasetype=C&rpttype=A&txtcrossingnum=014720J",
        "TTSTNNAM": "MCCRACKEN",
        "XPURPOSE": "1",
        "OPERATINGR": "BNSF",
        "OPERATIN_1": "Primary",
        "DAYTHRU": 33,
        "NGHTTHRU": 32,
        "MAINTRK": 2,
        "SIDINGTRK": 0,
        "YARDTRK": 0,
        "TRANSITTRK": 0,
        "INDUSTRYTR": 0,
        "OTHRTRK": 0,
        "WDCODE": "",
        "REVISIONDA": "1996/01/01 00:00:00",
        "LASTUPDATE": "12/17/2024",
        "AADT": "",
        "AADTYEAR": "1970",
        "STATENAME": "TEXAS",
        "STATEAB": "TX",
        "COUNTYNAME": "RANDALL",
        "CITYNAME": "CANYON",
        "LATDD": 34.9365841,
        "LONGDD": -102.142344,
        "gridlyProductionCertified": true,
        "gridlyClassification": "PUBLIC_ROADWAY",
        "gridlyDisplayName": "PRIVATE",
        "gridlyId": "FRA-014720J"
      }
    },
    {
      "type": "Feature",
      "id": 204593,
      "geometry": {
        "type": "Point",
        "coordinates": [
          -102.151312999782,
          34.9323346001828
        ]
      },
      "properties": {
        "OBJECTID": 204593,
        "CROSSING": "014721R",
        "EFFDATE": 1734393600000,
        "REASON": "14",
        "StateCode": "48",
        "CountyCode": "48381",
        "STCYFIPS": "48381",
        "CITYCD": "483811160",
        "RAILROAD": "BNSF",
        "RRDIV": "KANSAS",
        "RRSUBDIV": "HEREFORD",
        "HIGHWAY": "Not Yet Reported by State",
        "STREET": "PRIVATE",
        "TTSTN": "674160",
        "MILEPOST": "0583.390",
        "TYPEXING": "Private",
        "POSXING": "At Grade",
        "PRVCAT": "14",
        "INIT": "1",
        "LATITUDE": 34.9323346,
        "LONGITUD": -102.151313,
        "LLSOURCE": "1",
        "WHISTBAN": "0",
        "RRCONT": "8173521549",
        "POLCONT": "8008325452",
        "INV_LINK": "https://safetydata.fra.dot.gov/OfficeofSafety/PublicSite/Crossing/Crossing.aspx?phasetype=C&rpttype=I&txtcrossingnum=014721R",
        "ACC_LINK": "https://safetydata.fra.dot.gov/OfficeofSafety/PublicSite/Crossing/Crossing.aspx?phasetype=C&rpttype=A&txtcrossingnum=014721R",
        "TTSTNNAM": "MCCRACKEN",
        "XPURPOSE": "1",
        "OPERATINGR": "BNSF",
        "OPERATIN_1": "Primary",
        "DAYTHRU": 33,
        "NGHTTHRU": 32,
        "MAINTRK": 2,
        "SIDINGTRK": 0,
        "YARDTRK": 0,
        "TRANSITTRK": 0,
        "INDUSTRYTR": 0,
        "OTHRTRK": 0,
        "WDCODE": "",
        "REVISIONDA": "1996/01/01 00:00:00",
        "LASTUPDATE": "12/17/2024",
        "AADT": "",
        "AADTYEAR": "1970",
        "STATENAME": "TEXAS",
        "STATEAB": "TX",
        "COUNTYNAME": "RANDALL",
        "CITYNAME": "CANYON",
        "LATDD": 34.9323346,
        "LONGDD": -102.151313,
        "gridlyProductionCertified": true,
        "gridlyClassification": "PUBLIC_ROADWAY",
        "gridlyDisplayName": "PRIVATE",
        "gridlyId": "FRA-014721R"
      }
    },
    {
      "type": "Feature",
      "id": 205268,
      "geometry": {
        "type": "Point",
        "coordinates": [
          -101.909853199629,
          35.0128777000576
        ]
      },
      "properties": {
        "OBJECTID": 205268,
        "CROSSING": "014803X",
        "EFFDATE": 1766361600000,
        "REASON": "14",
        "StateCode": "48",
        "CountyCode": "48381",
        "STCYFIPS": "48381",
        "CITYCD": "483811160",
        "RAILROAD": "BNSF",
        "RRDIV": "KANSAS",
        "RRSUBDIV": "HEREFORD",
        "HIGHWAY": "ih0027",
        "STREET": "ih0027 / MARSHALL FORMBY MEMORIAL HIGHWAY",
        "TTSTN": "",
        "MILEPOST": "0567.414",
        "TYPEXING": "Public",
        "POSXING": "RR Over",
        "PRVCAT": "14",
        "INIT": "2",
        "LATITUDE": 35.0128777,
        "LONGITUD": -101.9098532,
        "LLSOURCE": "1",
        "WHISTBAN": "",
        "RRCONT": "8173521549",
        "POLCONT": "8008325452",
        "INV_LINK": "https://safetydata.fra.dot.gov/OfficeofSafety/PublicSite/Crossing/Crossing.aspx?phasetype=C&rpttype=I&txtcrossingnum=014803X",
        "ACC_LINK": "https://safetydata.fra.dot.gov/OfficeofSafety/PublicSite/Crossing/Crossing.aspx?phasetype=C&rpttype=A&txtcrossingnum=014803X",
        "TTSTNNAM": "",
        "XPURPOSE": "1",
        "OPERATINGR": "BNSF",
        "OPERATIN_1": "Primary",
        "DAYTHRU": 36,
        "NGHTTHRU": 35,
        "MAINTRK": 2,
        "SIDINGTRK": 0,
        "YARDTRK": 0,
        "TRANSITTRK": 0,
        "INDUSTRYTR": 0,
        "OTHRTRK": 0,
        "WDCODE": "",
        "REVISIONDA": "1996/01/01 00:00:00",
        "LASTUPDATE": "12/22/2025",
        "AADT": "13338",
        "AADTYEAR": "2024",
        "STATENAME": "TEXAS",
        "STATEAB": "TX",
        "COUNTYNAME": "RANDALL",
        "CITYNAME": "CANYON",
        "LATDD": 35.0128777,
        "LONGDD": -101.9098532,
        "gridlyProductionCertified": true,
        "gridlyClassification": "PUBLIC_ROADWAY",
        "gridlyDisplayName": "ih0027 / MARSHALL FORMBY MEMORIAL HIGHWAY",
        "gridlyId": "FRA-014803X"
      }
    },
    {
      "type": "Feature",
      "id": 205548,
      "geometry": {
        "type": "Point",
        "coordinates": [
          -101.852503000176,
          35.1360650001549
        ]
      },
      "properties": {
        "OBJECTID": 205548,
        "CROSSING": "930285F",
        "EFFDATE": 1736985600000,
        "REASON": "14",
        "StateCode": "48",
        "CountyCode": "48381",
        "STCYFIPS": "48381",
        "CITYCD": "483811160",
        "RAILROAD": "BNSF",
        "RRDIV": "KANSAS",
        "RRSUBDIV": "HEREFORD",
        "HIGHWAY": "Not Yet Reported by State",
        "STREET": "PRIVATE",
        "TTSTN": "674123",
        "MILEPOST": "0558.272",
        "TYPEXING": "Private",
        "POSXING": "At Grade",
        "PRVCAT": "14",
        "INIT": "1",
        "LATITUDE": 35.136065,
        "LONGITUD": -101.852503,
        "LLSOURCE": "2",
        "WHISTBAN": "0",
        "RRCONT": "8173521549",
        "POLCONT": "8008325452",
        "INV_LINK": "https://safetydata.fra.dot.gov/OfficeofSafety/PublicSite/Crossing/Crossing.aspx?phasetype=C&rpttype=I&txtcrossingnum=930285F",
        "ACC_LINK": "https://safetydata.fra.dot.gov/OfficeofSafety/PublicSite/Crossing/Crossing.aspx?phasetype=C&rpttype=A&txtcrossingnum=930285F",
        "TTSTNNAM": "ZITA YARD",
        "XPURPOSE": "1",
        "OPERATINGR": "BNSF",
        "OPERATIN_1": "Primary",
        "DAYTHRU": 0,
        "NGHTTHRU": 0,
        "MAINTRK": 0,
        "SIDINGTRK": 0,
        "YARDTRK": 0,
        "TRANSITTRK": 0,
        "INDUSTRYTR": 1,
        "OTHRTRK": 1,
        "WDCODE": "",
        "REVISIONDA": "1996/01/01 00:00:00",
        "LASTUPDATE": "1/16/2025",
        "AADT": "",
        "AADTYEAR": "",
        "STATENAME": "TEXAS",
        "STATEAB": "TX",
        "COUNTYNAME": "RANDALL",
        "CITYNAME": "CANYON",
        "LATDD": 35.136065,
        "LONGDD": -101.852503,
        "gridlyProductionCertified": true,
        "gridlyClassification": "PUBLIC_ROADWAY",
        "gridlyDisplayName": "PRIVATE",
        "gridlyId": "FRA-930285F"
      }
    },
    {
      "type": "Feature",
      "id": 208539,
      "geometry": {
        "type": "Point",
        "coordinates": [
          -102.079299999696,
          34.9635901002958
        ]
      },
      "properties": {
        "OBJECTID": 208539,
        "CROSSING": "014714F",
        "EFFDATE": 1765843200000,
        "REASON": "14",
        "StateCode": "48",
        "CountyCode": "48381",
        "STCYFIPS": "48381",
        "CITYCD": "483811160",
        "RAILROAD": "BNSF",
        "RRDIV": "KANSAS",
        "RRSUBDIV": "HEREFORD",
        "HIGHWAY": "PRIVATE",
        "STREET": "PRIVATE ROAD",
        "TTSTN": "674160",
        "MILEPOST": "0578.760",
        "TYPEXING": "Private",
        "POSXING": "At Grade",
        "PRVCAT": "14",
        "INIT": "2",
        "LATITUDE": 34.9635901,
        "LONGITUD": -102.0793,
        "LLSOURCE": "1",
        "WHISTBAN": "0",
        "RRCONT": "8173521549",
        "POLCONT": "8008325452",
        "INV_LINK": "https://safetydata.fra.dot.gov/OfficeofSafety/PublicSite/Crossing/Crossing.aspx?phasetype=C&rpttype=I&txtcrossingnum=014714F",
        "ACC_LINK": "https://safetydata.fra.dot.gov/OfficeofSafety/PublicSite/Crossing/Crossing.aspx?phasetype=C&rpttype=A&txtcrossingnum=014714F",
        "TTSTNNAM": "MCCRACKEN",
        "XPURPOSE": "1",
        "OPERATINGR": "BNSF",
        "OPERATIN_1": "Primary",
        "DAYTHRU": 33,
        "NGHTTHRU": 33,
        "MAINTRK": 2,
        "SIDINGTRK": 0,
        "YARDTRK": 0,
        "TRANSITTRK": 0,
        "INDUSTRYTR": 0,
        "OTHRTRK": 0,
        "WDCODE": "",
        "REVISIONDA": "1996/01/01 00:00:00",
        "LASTUPDATE": "12/16/2025",
        "AADT": "240",
        "AADTYEAR": "2019",
        "STATENAME": "TEXAS",
        "STATEAB": "TX",
        "COUNTYNAME": "RANDALL",
        "CITYNAME": "CANYON",
        "LATDD": 34.9635901,
        "LONGDD": -102.0793,
        "gridlyProductionCertified": true,
        "gridlyClassification": "PUBLIC_ROADWAY",
        "gridlyDisplayName": "PRIVATE ROAD",
        "gridlyId": "FRA-014714F"
      }
    },
    {
      "type": "Feature",
      "id": 208704,
      "geometry": {
        "type": "Point",
        "coordinates": [
          -101.919258499569,
          34.9862755999934
        ]
      },
      "properties": {
        "OBJECTID": 208704,
        "CROSSING": "014703T",
        "EFFDATE": 1765843200000,
        "REASON": "14",
        "StateCode": "48",
        "CountyCode": "48381",
        "STCYFIPS": "48381",
        "CITYCD": "483811160",
        "RAILROAD": "BNSF",
        "RRDIV": "KANSAS",
        "RRSUBDIV": "HEREFORD",
        "HIGHWAY": "us0087",
        "STREET": "US0087 / twenty third street",
        "TTSTN": "674150",
        "MILEPOST": "0569.430",
        "TYPEXING": "Public",
        "POSXING": "RR Over",
        "PRVCAT": "14",
        "INIT": "2",
        "LATITUDE": 34.9862756,
        "LONGITUD": -101.9192585,
        "LLSOURCE": "1",
        "WHISTBAN": "0",
        "RRCONT": "8173521549",
        "POLCONT": "8008325452",
        "INV_LINK": "https://safetydata.fra.dot.gov/OfficeofSafety/PublicSite/Crossing/Crossing.aspx?phasetype=C&rpttype=I&txtcrossingnum=014703T",
        "ACC_LINK": "https://safetydata.fra.dot.gov/OfficeofSafety/PublicSite/Crossing/Crossing.aspx?phasetype=C&rpttype=A&txtcrossingnum=014703T",
        "TTSTNNAM": "CANYON",
        "XPURPOSE": "1",
        "OPERATINGR": "BNSF",
        "OPERATIN_1": "Primary",
        "DAYTHRU": 36,
        "NGHTTHRU": 35,
        "MAINTRK": 1,
        "SIDINGTRK": 0,
        "YARDTRK": 0,
        "TRANSITTRK": 0,
        "INDUSTRYTR": 0,
        "OTHRTRK": 0,
        "WDCODE": "",
        "REVISIONDA": "1996/01/01 00:00:00",
        "LASTUPDATE": "12/16/2025",
        "AADT": "13452",
        "AADTYEAR": "2024",
        "STATENAME": "TEXAS",
        "STATEAB": "TX",
        "COUNTYNAME": "RANDALL",
        "CITYNAME": "CANYON",
        "LATDD": 34.9862756,
        "LONGDD": -101.9192585,
        "gridlyProductionCertified": true,
        "gridlyClassification": "PUBLIC_ROADWAY",
        "gridlyDisplayName": "US0087 / twenty third street",
        "gridlyId": "FRA-014703T"
      }
    },
    {
      "type": "Feature",
      "id": 211569,
      "geometry": {
        "type": "Point",
        "coordinates": [
          -101.87195330025,
          34.7926780996507
        ]
      },
      "properties": {
        "OBJECTID": 211569,
        "CROSSING": "017198L",
        "EFFDATE": 1761004800000,
        "REASON": "14",
        "StateCode": "48",
        "CountyCode": "48381",
        "STCYFIPS": "48381",
        "CITYCD": "484373020",
        "RAILROAD": "BNSF",
        "RRDIV": "RED RIVER",
        "RRSUBDIV": "PLAINVIEW",
        "HIGHWAY": "cr0418",
        "STREET": "rawley road",
        "TTSTN": "674185",
        "MILEPOST": "0584.890",
        "TYPEXING": "Public",
        "POSXING": "At Grade",
        "PRVCAT": "14",
        "INIT": "2",
        "LATITUDE": 34.7926781,
        "LONGITUD": -101.8719533,
        "LLSOURCE": "1",
        "WHISTBAN": "0",
        "RRCONT": "8173521549",
        "POLCONT": "8008325452",
        "INV_LINK": "https://safetydata.fra.dot.gov/OfficeofSafety/PublicSite/Crossing/Crossing.aspx?phasetype=C&rpttype=I&txtcrossingnum=017198L",
        "ACC_LINK": "https://safetydata.fra.dot.gov/OfficeofSafety/PublicSite/Crossing/Crossing.aspx?phasetype=C&rpttype=A&txtcrossingnum=017198L",
        "TTSTNNAM": "OGG",
        "XPURPOSE": "1",
        "OPERATINGR": "BNSF",
        "OPERATIN_1": "Primary",
        "DAYTHRU": 3,
        "NGHTTHRU": 2,
        "MAINTRK": 1,
        "SIDINGTRK": 0,
        "YARDTRK": 0,
        "TRANSITTRK": 0,
        "INDUSTRYTR": 0,
        "OTHRTRK": 0,
        "WDCODE": "Crossbucks",
        "REVISIONDA": "1996/01/01 00:00:00",
        "LASTUPDATE": "10/21/2025",
        "AADT": "19",
        "AADTYEAR": "2020",
        "STATENAME": "TEXAS",
        "STATEAB": "TX",
        "COUNTYNAME": "RANDALL",
        "CITYNAME": "HAPPY",
        "LATDD": 34.7926781,
        "LONGDD": -101.8719533,
        "gridlyProductionCertified": true,
        "gridlyClassification": "PUBLIC_ROADWAY",
        "gridlyDisplayName": "rawley road",
        "gridlyId": "FRA-017198L"
      }
    },
    {
      "type": "Feature",
      "id": 211574,
      "geometry": {
        "type": "Point",
        "coordinates": [
          -101.926417800194,
          34.9262436003439
        ]
      },
      "properties": {
        "OBJECTID": 211574,
        "CROSSING": "017190G",
        "EFFDATE": 1761091200000,
        "REASON": "14",
        "StateCode": "48",
        "CountyCode": "48381",
        "STCYFIPS": "48381",
        "CITYCD": "483811160",
        "RAILROAD": "BNSF",
        "RRDIV": "RED RIVER",
        "RRSUBDIV": "PLAINVIEW",
        "HIGHWAY": "cr0283",
        "STREET": "west COUNTY ROAD 283",
        "TTSTN": "674182",
        "MILEPOST": "0575.110",
        "TYPEXING": "Public",
        "POSXING": "At Grade",
        "PRVCAT": "14",
        "INIT": "2",
        "LATITUDE": 34.9262436,
        "LONGITUD": -101.9264178,
        "LLSOURCE": "1",
        "WHISTBAN": "0",
        "RRCONT": "8173521549",
        "POLCONT": "8008325452",
        "INV_LINK": "https://safetydata.fra.dot.gov/OfficeofSafety/PublicSite/Crossing/Crossing.aspx?phasetype=C&rpttype=I&txtcrossingnum=017190G",
        "ACC_LINK": "https://safetydata.fra.dot.gov/OfficeofSafety/PublicSite/Crossing/Crossing.aspx?phasetype=C&rpttype=A&txtcrossingnum=017190G",
        "TTSTNNAM": "CLETA",
        "XPURPOSE": "1",
        "OPERATINGR": "BNSF",
        "OPERATIN_1": "Primary",
        "DAYTHRU": 3,
        "NGHTTHRU": 2,
        "MAINTRK": 1,
        "SIDINGTRK": 0,
        "YARDTRK": 0,
        "TRANSITTRK": 0,
        "INDUSTRYTR": 0,
        "OTHRTRK": 0,
        "WDCODE": "Crossbucks",
        "REVISIONDA": "1996/01/01 00:00:00",
        "LASTUPDATE": "10/22/2025",
        "AADT": "33",
        "AADTYEAR": "2022",
        "STATENAME": "TEXAS",
        "STATEAB": "TX",
        "COUNTYNAME": "RANDALL",
        "CITYNAME": "CANYON",
        "LATDD": 34.9262436,
        "LONGDD": -101.9264178,
        "gridlyProductionCertified": true,
        "gridlyClassification": "PUBLIC_ROADWAY",
        "gridlyDisplayName": "west COUNTY ROAD 283",
        "gridlyId": "FRA-017190G"
      }
    },
    {
      "type": "Feature",
      "id": 211580,
      "geometry": {
        "type": "Point",
        "coordinates": [
          -101.910436199961,
          34.8825149002848
        ]
      },
      "properties": {
        "OBJECTID": 211580,
        "CROSSING": "017193C",
        "EFFDATE": 1761091200000,
        "REASON": "14",
        "StateCode": "48",
        "CountyCode": "48381",
        "STCYFIPS": "48381",
        "CITYCD": "483811160",
        "RAILROAD": "BNSF",
        "RRDIV": "RED RIVER",
        "RRSUBDIV": "PLAINVIEW",
        "HIGHWAY": "Cr0622",
        "STREET": "HUNGATE RoiaD",
        "TTSTN": "674185",
        "MILEPOST": "0578.310",
        "TYPEXING": "Public",
        "POSXING": "At Grade",
        "PRVCAT": "14",
        "INIT": "2",
        "LATITUDE": 34.8825149,
        "LONGITUD": -101.9104362,
        "LLSOURCE": "1",
        "WHISTBAN": "0",
        "RRCONT": "8173521549",
        "POLCONT": "8008325452",
        "INV_LINK": "https://safetydata.fra.dot.gov/OfficeofSafety/PublicSite/Crossing/Crossing.aspx?phasetype=C&rpttype=I&txtcrossingnum=017193C",
        "ACC_LINK": "https://safetydata.fra.dot.gov/OfficeofSafety/PublicSite/Crossing/Crossing.aspx?phasetype=C&rpttype=A&txtcrossingnum=017193C",
        "TTSTNNAM": "OGG",
        "XPURPOSE": "1",
        "OPERATINGR": "BNSF",
        "OPERATIN_1": "Primary",
        "DAYTHRU": 3,
        "NGHTTHRU": 2,
        "MAINTRK": 1,
        "SIDINGTRK": 0,
        "YARDTRK": 0,
        "TRANSITTRK": 0,
        "INDUSTRYTR": 0,
        "OTHRTRK": 0,
        "WDCODE": "Crossbucks",
        "REVISIONDA": "1996/01/01 00:00:00",
        "LASTUPDATE": "10/22/2025",
        "AADT": "72",
        "AADTYEAR": "2022",
        "STATENAME": "TEXAS",
        "STATEAB": "TX",
        "COUNTYNAME": "RANDALL",
        "CITYNAME": "CANYON",
        "LATDD": 34.8825149,
        "LONGDD": -101.9104362,
        "gridlyProductionCertified": true,
        "gridlyClassification": "PUBLIC_ROADWAY",
        "gridlyDisplayName": "HUNGATE RoiaD",
        "gridlyId": "FRA-017193C"
      }
    },
    {
      "type": "Feature",
      "id": 211604,
      "geometry": {
        "type": "Point",
        "coordinates": [
          -101.892144899978,
          34.838962400365
        ]
      },
      "properties": {
        "OBJECTID": 211604,
        "CROSSING": "017195R",
        "EFFDATE": 1761091200000,
        "REASON": "14",
        "StateCode": "48",
        "CountyCode": "48381",
        "STCYFIPS": "48381",
        "CITYCD": "484373020",
        "RAILROAD": "BNSF",
        "RRDIV": "RED RIVER",
        "RRSUBDIV": "PLAINVIEW",
        "HIGHWAY": "Cr0616",
        "STREET": "DOWLEN RoaD",
        "TTSTN": "674185",
        "MILEPOST": "0581.500",
        "TYPEXING": "Public",
        "POSXING": "At Grade",
        "PRVCAT": "14",
        "INIT": "2",
        "LATITUDE": 34.8389624,
        "LONGITUD": -101.8921449,
        "LLSOURCE": "1",
        "WHISTBAN": "0",
        "RRCONT": "8173521549",
        "POLCONT": "8008325452",
        "INV_LINK": "https://safetydata.fra.dot.gov/OfficeofSafety/PublicSite/Crossing/Crossing.aspx?phasetype=C&rpttype=I&txtcrossingnum=017195R",
        "ACC_LINK": "https://safetydata.fra.dot.gov/OfficeofSafety/PublicSite/Crossing/Crossing.aspx?phasetype=C&rpttype=A&txtcrossingnum=017195R",
        "TTSTNNAM": "OGG",
        "XPURPOSE": "1",
        "OPERATINGR": "BNSF",
        "OPERATIN_1": "Primary",
        "DAYTHRU": 3,
        "NGHTTHRU": 2,
        "MAINTRK": 1,
        "SIDINGTRK": 0,
        "YARDTRK": 0,
        "TRANSITTRK": 0,
        "INDUSTRYTR": 0,
        "OTHRTRK": 0,
        "WDCODE": "Crossbucks",
        "REVISIONDA": "1996/01/01 00:00:00",
        "LASTUPDATE": "10/22/2025",
        "AADT": "93",
        "AADTYEAR": "2022",
        "STATENAME": "TEXAS",
        "STATEAB": "TX",
        "COUNTYNAME": "RANDALL",
        "CITYNAME": "HAPPY",
        "LATDD": 34.8389624,
        "LONGDD": -101.8921449,
        "gridlyProductionCertified": true,
        "gridlyClassification": "PUBLIC_ROADWAY",
        "gridlyDisplayName": "DOWLEN RoaD",
        "gridlyId": "FRA-017195R"
      }
    },
    {
      "type": "Feature",
      "id": 211605,
      "geometry": {
        "type": "Point",
        "coordinates": [
          -101.878281800273,
          34.8074702997754
        ]
      },
      "properties": {
        "OBJECTID": 211605,
        "CROSSING": "017197E",
        "EFFDATE": 1761091200000,
        "REASON": "14",
        "StateCode": "48",
        "CountyCode": "48381",
        "STCYFIPS": "48381",
        "CITYCD": "484373020",
        "RAILROAD": "BNSF",
        "RRDIV": "RED RIVER",
        "RRSUBDIV": "PLAINVIEW",
        "HIGHWAY": "Cr0610",
        "STREET": "JOWELL RoaD",
        "TTSTN": "674185",
        "MILEPOST": "0583.810",
        "TYPEXING": "Public",
        "POSXING": "At Grade",
        "PRVCAT": "14",
        "INIT": "2",
        "LATITUDE": 34.8074703,
        "LONGITUD": -101.8782818,
        "LLSOURCE": "1",
        "WHISTBAN": "0",
        "RRCONT": "8173521549",
        "POLCONT": "8008325452",
        "INV_LINK": "https://safetydata.fra.dot.gov/OfficeofSafety/PublicSite/Crossing/Crossing.aspx?phasetype=C&rpttype=I&txtcrossingnum=017197E",
        "ACC_LINK": "https://safetydata.fra.dot.gov/OfficeofSafety/PublicSite/Crossing/Crossing.aspx?phasetype=C&rpttype=A&txtcrossingnum=017197E",
        "TTSTNNAM": "OGG",
        "XPURPOSE": "1",
        "OPERATINGR": "BNSF",
        "OPERATIN_1": "Primary",
        "DAYTHRU": 3,
        "NGHTTHRU": 2,
        "MAINTRK": 1,
        "SIDINGTRK": 0,
        "YARDTRK": 0,
        "TRANSITTRK": 0,
        "INDUSTRYTR": 0,
        "OTHRTRK": 0,
        "WDCODE": "Crossbucks",
        "REVISIONDA": "1996/01/01 00:00:00",
        "LASTUPDATE": "10/22/2025",
        "AADT": "125",
        "AADTYEAR": "2023",
        "STATENAME": "TEXAS",
        "STATEAB": "TX",
        "COUNTYNAME": "RANDALL",
        "CITYNAME": "HAPPY",
        "LATDD": 34.8074703,
        "LONGDD": -101.8782818,
        "gridlyProductionCertified": true,
        "gridlyClassification": "PUBLIC_ROADWAY",
        "gridlyDisplayName": "JOWELL RoaD",
        "gridlyId": "FRA-017197E"
      }
    },
    {
      "type": "Feature",
      "id": 211611,
      "geometry": {
        "type": "Point",
        "coordinates": [
          -101.911774200152,
          34.8969542999357
        ]
      },
      "properties": {
        "OBJECTID": 211611,
        "CROSSING": "017192V",
        "EFFDATE": 1761091200000,
        "REASON": "14",
        "StateCode": "48",
        "CountyCode": "48381",
        "STCYFIPS": "48381",
        "CITYCD": "483811160",
        "RAILROAD": "BNSF",
        "RRDIV": "RED RIVER",
        "RRSUBDIV": "PLAINVIEW",
        "HIGHWAY": "Cr0623",
        "STREET": "BURTZ RoaD",
        "TTSTN": "674185",
        "MILEPOST": "0577.270",
        "TYPEXING": "Public",
        "POSXING": "At Grade",
        "PRVCAT": "14",
        "INIT": "2",
        "LATITUDE": 34.8969543,
        "LONGITUD": -101.9117742,
        "LLSOURCE": "1",
        "WHISTBAN": "0",
        "RRCONT": "8173521549",
        "POLCONT": "8008325452",
        "INV_LINK": "https://safetydata.fra.dot.gov/OfficeofSafety/PublicSite/Crossing/Crossing.aspx?phasetype=C&rpttype=I&txtcrossingnum=017192V",
        "ACC_LINK": "https://safetydata.fra.dot.gov/OfficeofSafety/PublicSite/Crossing/Crossing.aspx?phasetype=C&rpttype=A&txtcrossingnum=017192V",
        "TTSTNNAM": "OGG",
        "XPURPOSE": "1",
        "OPERATINGR": "BNSF",
        "OPERATIN_1": "Primary",
        "DAYTHRU": 3,
        "NGHTTHRU": 2,
        "MAINTRK": 1,
        "SIDINGTRK": 0,
        "YARDTRK": 0,
        "TRANSITTRK": 0,
        "INDUSTRYTR": 0,
        "OTHRTRK": 0,
        "WDCODE": "Stop signs",
        "REVISIONDA": "1996/01/01 00:00:00",
        "LASTUPDATE": "10/22/2025",
        "AADT": "8",
        "AADTYEAR": "2022",
        "STATENAME": "TEXAS",
        "STATEAB": "TX",
        "COUNTYNAME": "RANDALL",
        "CITYNAME": "CANYON",
        "LATDD": 34.8969543,
        "LONGDD": -101.9117742,
        "gridlyProductionCertified": true,
        "gridlyClassification": "PUBLIC_ROADWAY",
        "gridlyDisplayName": "BURTZ RoaD",
        "gridlyId": "FRA-017192V"
      }
    },
    {
      "type": "Feature",
      "id": 213782,
      "geometry": {
        "type": "Point",
        "coordinates": [
          -101.837204000083,
          35.1783117997756
        ]
      },
      "properties": {
        "OBJECTID": 213782,
        "CROSSING": "014692H",
        "EFFDATE": 1765843200000,
        "REASON": "14",
        "StateCode": "48",
        "CountyCode": "48381",
        "STCYFIPS": "48381",
        "CITYCD": "483810150",
        "RAILROAD": "BNSF",
        "RRDIV": "KANSAS",
        "RRSUBDIV": "HEREFORD",
        "HIGHWAY": "MH0513",
        "STREET": "southeast thirty fourth avenue",
        "TTSTN": "672700",
        "MILEPOST": "0555.230",
        "TYPEXING": "Public",
        "POSXING": "RR Under",
        "PRVCAT": "14",
        "INIT": "2",
        "LATITUDE": 35.1783118,
        "LONGITUD": -101.837204,
        "LLSOURCE": "1",
        "WHISTBAN": "0",
        "RRCONT": "8173521549",
        "POLCONT": "8008325452",
        "INV_LINK": "https://safetydata.fra.dot.gov/OfficeofSafety/PublicSite/Crossing/Crossing.aspx?phasetype=C&rpttype=I&txtcrossingnum=014692H",
        "ACC_LINK": "https://safetydata.fra.dot.gov/OfficeofSafety/PublicSite/Crossing/Crossing.aspx?phasetype=C&rpttype=A&txtcrossingnum=014692H",
        "TTSTNNAM": "AMARILLO YARD",
        "XPURPOSE": "1",
        "OPERATINGR": "BNSF",
        "OPERATIN_1": "Primary",
        "DAYTHRU": 1,
        "NGHTTHRU": 0,
        "MAINTRK": 1,
        "SIDINGTRK": 0,
        "YARDTRK": 0,
        "TRANSITTRK": 0,
        "INDUSTRYTR": 0,
        "OTHRTRK": 0,
        "WDCODE": "",
        "REVISIONDA": "1996/01/01 00:00:00",
        "LASTUPDATE": "12/16/2025",
        "AADT": "15848",
        "AADTYEAR": "2020",
        "STATENAME": "TEXAS",
        "STATEAB": "TX",
        "COUNTYNAME": "RANDALL",
        "CITYNAME": "AMARILLO",
        "LATDD": 35.1783118,
        "LONGDD": -101.837204,
        "gridlyProductionCertified": true,
        "gridlyClassification": "PUBLIC_ROADWAY",
        "gridlyDisplayName": "southeast thirty fourth avenue",
        "gridlyId": "FRA-014692H"
      }
    },
    {
      "type": "Feature",
      "id": 213791,
      "geometry": {
        "type": "Point",
        "coordinates": [
          -101.91342280004,
          34.9994940000142
        ]
      },
      "properties": {
        "OBJECTID": 213791,
        "CROSSING": "014801J",
        "EFFDATE": 1765929600000,
        "REASON": "14",
        "StateCode": "48",
        "CountyCode": "48381",
        "STCYFIPS": "48381",
        "CITYCD": "483811160",
        "RAILROAD": "BNSF",
        "RRDIV": "KANSAS",
        "RRSUBDIV": "HEREFORD",
        "HIGHWAY": "FM3331",
        "STREET": "fm3331 / HUNSLEY RoaD",
        "TTSTN": "674150",
        "MILEPOST": "0568.370",
        "TYPEXING": "Public",
        "POSXING": "RR Over",
        "PRVCAT": "14",
        "INIT": "2",
        "LATITUDE": 34.999494,
        "LONGITUD": -101.9134228,
        "LLSOURCE": "1",
        "WHISTBAN": "0",
        "RRCONT": "8173521549",
        "POLCONT": "8008325452",
        "INV_LINK": "https://safetydata.fra.dot.gov/OfficeofSafety/PublicSite/Crossing/Crossing.aspx?phasetype=C&rpttype=I&txtcrossingnum=014801J",
        "ACC_LINK": "https://safetydata.fra.dot.gov/OfficeofSafety/PublicSite/Crossing/Crossing.aspx?phasetype=C&rpttype=A&txtcrossingnum=014801J",
        "TTSTNNAM": "CANYON",
        "XPURPOSE": "1",
        "OPERATINGR": "BNSF",
        "OPERATIN_1": "Primary",
        "DAYTHRU": 18,
        "NGHTTHRU": 17,
        "MAINTRK": 1,
        "SIDINGTRK": 0,
        "YARDTRK": 0,
        "TRANSITTRK": 0,
        "INDUSTRYTR": 0,
        "OTHRTRK": 0,
        "WDCODE": "",
        "REVISIONDA": "1996/01/01 00:00:00",
        "LASTUPDATE": "12/17/2025",
        "AADT": "3565",
        "AADTYEAR": "2024",
        "STATENAME": "TEXAS",
        "STATEAB": "TX",
        "COUNTYNAME": "RANDALL",
        "CITYNAME": "CANYON",
        "LATDD": 34.999494,
        "LONGDD": -101.9134228,
        "gridlyProductionCertified": true,
        "gridlyClassification": "PUBLIC_ROADWAY",
        "gridlyDisplayName": "fm3331 / HUNSLEY RoaD",
        "gridlyId": "FRA-014801J"
      }
    },
    {
      "type": "Feature",
      "id": 213813,
      "geometry": {
        "type": "Point",
        "coordinates": [
          -101.858639300254,
          35.1201275999009
        ]
      },
      "properties": {
        "OBJECTID": 213813,
        "CROSSING": "014696K",
        "EFFDATE": 1765843200000,
        "REASON": "14",
        "StateCode": "48",
        "CountyCode": "48381",
        "STCYFIPS": "48381",
        "CITYCD": "483750150",
        "RAILROAD": "BNSF",
        "RRDIV": "KANSAS",
        "RRSUBDIV": "HEREFORD",
        "HIGHWAY": "sl0335",
        "STREET": "sl0335",
        "TTSTN": "674123",
        "MILEPOST": "0559.420",
        "TYPEXING": "Public",
        "POSXING": "RR Under",
        "PRVCAT": "14",
        "INIT": "2",
        "LATITUDE": 35.1201276,
        "LONGITUD": -101.8586393,
        "LLSOURCE": "1",
        "WHISTBAN": "0",
        "RRCONT": "8173521549",
        "POLCONT": "8008325452",
        "INV_LINK": "https://safetydata.fra.dot.gov/OfficeofSafety/PublicSite/Crossing/Crossing.aspx?phasetype=C&rpttype=I&txtcrossingnum=014696K",
        "ACC_LINK": "https://safetydata.fra.dot.gov/OfficeofSafety/PublicSite/Crossing/Crossing.aspx?phasetype=C&rpttype=A&txtcrossingnum=014696K",
        "TTSTNNAM": "ZITA YARD",
        "XPURPOSE": "1",
        "OPERATINGR": "BNSF",
        "OPERATIN_1": "Primary",
        "DAYTHRU": 15,
        "NGHTTHRU": 14,
        "MAINTRK": 1,
        "SIDINGTRK": 0,
        "YARDTRK": 0,
        "TRANSITTRK": 0,
        "INDUSTRYTR": 0,
        "OTHRTRK": 0,
        "WDCODE": "",
        "REVISIONDA": "1996/01/01 00:00:00",
        "LASTUPDATE": "12/16/2025",
        "AADT": "13009",
        "AADTYEAR": "2024",
        "STATENAME": "TEXAS",
        "STATEAB": "TX",
        "COUNTYNAME": "RANDALL",
        "CITYNAME": "AMARILLO",
        "LATDD": 35.1201276,
        "LONGDD": -101.8586393,
        "gridlyProductionCertified": true,
        "gridlyClassification": "PUBLIC_ROADWAY",
        "gridlyDisplayName": "sl0335",
        "gridlyId": "FRA-014696K"
      }
    },
    {
      "type": "Feature",
      "id": 213819,
      "geometry": {
        "type": "Point",
        "coordinates": [
          -101.933881399731,
          34.9825811999886
        ]
      },
      "properties": {
        "OBJECTID": 213819,
        "CROSSING": "014705G",
        "EFFDATE": 1765843200000,
        "REASON": "14",
        "StateCode": "48",
        "CountyCode": "48381",
        "STCYFIPS": "48381",
        "CITYCD": "483811160",
        "RAILROAD": "BNSF",
        "RRDIV": "KANSAS",
        "RRSUBDIV": "HEREFORD",
        "HIGHWAY": "sh0217",
        "STREET": "SH0217 / north eleventh street",
        "TTSTN": "674150",
        "MILEPOST": "0570.320",
        "TYPEXING": "Public",
        "POSXING": "RR Over",
        "PRVCAT": "14",
        "INIT": "2",
        "LATITUDE": 34.9825812,
        "LONGITUD": -101.9338814,
        "LLSOURCE": "1",
        "WHISTBAN": "0",
        "RRCONT": "8173521549",
        "POLCONT": "8008325452",
        "INV_LINK": "https://safetydata.fra.dot.gov/OfficeofSafety/PublicSite/Crossing/Crossing.aspx?phasetype=C&rpttype=I&txtcrossingnum=014705G",
        "ACC_LINK": "https://safetydata.fra.dot.gov/OfficeofSafety/PublicSite/Crossing/Crossing.aspx?phasetype=C&rpttype=A&txtcrossingnum=014705G",
        "TTSTNNAM": "CANYON",
        "XPURPOSE": "1",
        "OPERATINGR": "BNSF",
        "OPERATIN_1": "Primary",
        "DAYTHRU": 16,
        "NGHTTHRU": 16,
        "MAINTRK": 1,
        "SIDINGTRK": 0,
        "YARDTRK": 0,
        "TRANSITTRK": 0,
        "INDUSTRYTR": 0,
        "OTHRTRK": 0,
        "WDCODE": "",
        "REVISIONDA": "1996/01/01 00:00:00",
        "LASTUPDATE": "12/16/2025",
        "AADT": "4478",
        "AADTYEAR": "2024",
        "STATENAME": "TEXAS",
        "STATEAB": "TX",
        "COUNTYNAME": "RANDALL",
        "CITYNAME": "CANYON",
        "LATDD": 34.9825812,
        "LONGDD": -101.9338814,
        "gridlyProductionCertified": true,
        "gridlyClassification": "PUBLIC_ROADWAY",
        "gridlyDisplayName": "SH0217 / north eleventh street",
        "gridlyId": "FRA-014705G"
      }
    },
    {
      "type": "Feature",
      "id": 213979,
      "geometry": {
        "type": "Point",
        "coordinates": [
          -101.853243699756,
          35.1348948000458
        ]
      },
      "properties": {
        "OBJECTID": 213979,
        "CROSSING": "014695D",
        "EFFDATE": 1767830400000,
        "REASON": "14",
        "StateCode": "48",
        "CountyCode": "48381",
        "STCYFIPS": "48381",
        "CITYCD": "483750150",
        "RAILROAD": "BNSF",
        "RRDIV": "KANSAS",
        "RRSUBDIV": "HEREFORD",
        "HIGHWAY": "cr0783",
        "STREET": "FARMERS AVEnue",
        "TTSTN": "674123",
        "MILEPOST": "0558.365",
        "TYPEXING": "Public",
        "POSXING": "At Grade",
        "PRVCAT": "14",
        "INIT": "2",
        "LATITUDE": 35.1348948,
        "LONGITUD": -101.8532437,
        "LLSOURCE": "1",
        "WHISTBAN": "0",
        "RRCONT": "8173521549",
        "POLCONT": "8008325452",
        "INV_LINK": "https://safetydata.fra.dot.gov/OfficeofSafety/PublicSite/Crossing/Crossing.aspx?phasetype=C&rpttype=I&txtcrossingnum=014695D",
        "ACC_LINK": "https://safetydata.fra.dot.gov/OfficeofSafety/PublicSite/Crossing/Crossing.aspx?phasetype=C&rpttype=A&txtcrossingnum=014695D",
        "TTSTNNAM": "ZITA YARD",
        "XPURPOSE": "1",
        "OPERATINGR": "BNSF",
        "OPERATIN_1": "Primary",
        "DAYTHRU": 36,
        "NGHTTHRU": 35,
        "MAINTRK": 2,
        "SIDINGTRK": 0,
        "YARDTRK": 2,
        "TRANSITTRK": 0,
        "INDUSTRYTR": 1,
        "OTHRTRK": 3,
        "WDCODE": "All other Gates",
        "REVISIONDA": "1996/01/01 00:00:00",
        "LASTUPDATE": "1/8/2026",
        "AADT": "3318",
        "AADTYEAR": "2023",
        "STATENAME": "TEXAS",
        "STATEAB": "TX",
        "COUNTYNAME": "RANDALL",
        "CITYNAME": "AMARILLO",
        "LATDD": 35.1348948,
        "LONGDD": -101.8532437,
        "gridlyProductionCertified": true,
        "gridlyClassification": "PUBLIC_ROADWAY",
        "gridlyDisplayName": "FARMERS AVEnue",
        "gridlyId": "FRA-014695D"
      }
    },
    {
      "type": "Feature",
      "id": 213983,
      "geometry": {
        "type": "Point",
        "coordinates": [
          -101.863839700434,
          35.1059598001854
        ]
      },
      "properties": {
        "OBJECTID": 213983,
        "CROSSING": "014697S",
        "EFFDATE": 1767830400000,
        "REASON": "14",
        "StateCode": "48",
        "CountyCode": "48381",
        "STCYFIPS": "48381",
        "CITYCD": "483750150",
        "RAILROAD": "BNSF",
        "RRDIV": "KANSAS",
        "RRSUBDIV": "HEREFORD",
        "HIGHWAY": "CR0875",
        "STREET": "SUNDOWN LaNe",
        "TTSTN": "674123",
        "MILEPOST": "0560.449",
        "TYPEXING": "Public",
        "POSXING": "At Grade",
        "PRVCAT": "14",
        "INIT": "2",
        "LATITUDE": 35.1059598,
        "LONGITUD": -101.8638397,
        "LLSOURCE": "1",
        "WHISTBAN": "0",
        "RRCONT": "8173521549",
        "POLCONT": "8008325452",
        "INV_LINK": "https://safetydata.fra.dot.gov/OfficeofSafety/PublicSite/Crossing/Crossing.aspx?phasetype=C&rpttype=I&txtcrossingnum=014697S",
        "ACC_LINK": "https://safetydata.fra.dot.gov/OfficeofSafety/PublicSite/Crossing/Crossing.aspx?phasetype=C&rpttype=A&txtcrossingnum=014697S",
        "TTSTNNAM": "ZITA YARD",
        "XPURPOSE": "1",
        "OPERATINGR": "BNSF",
        "OPERATIN_1": "Primary",
        "DAYTHRU": 36,
        "NGHTTHRU": 35,
        "MAINTRK": 2,
        "SIDINGTRK": 0,
        "YARDTRK": 0,
        "TRANSITTRK": 0,
        "INDUSTRYTR": 0,
        "OTHRTRK": 0,
        "WDCODE": "All other Gates",
        "REVISIONDA": "1996/01/01 00:00:00",
        "LASTUPDATE": "1/8/2026",
        "AADT": "570",
        "AADTYEAR": "2020",
        "STATENAME": "TEXAS",
        "STATEAB": "TX",
        "COUNTYNAME": "RANDALL",
        "CITYNAME": "AMARILLO",
        "LATDD": 35.1059598,
        "LONGDD": -101.8638397,
        "gridlyProductionCertified": true,
        "gridlyClassification": "PUBLIC_ROADWAY",
        "gridlyDisplayName": "SUNDOWN LaNe",
        "gridlyId": "FRA-014697S"
      }
    },
    {
      "type": "Feature",
      "id": 213989,
      "geometry": {
        "type": "Point",
        "coordinates": [
          -101.870807800041,
          35.0869132997715
        ]
      },
      "properties": {
        "OBJECTID": 213989,
        "CROSSING": "014699F",
        "EFFDATE": 1767830400000,
        "REASON": "14",
        "StateCode": "48",
        "CountyCode": "48381",
        "STCYFIPS": "48381",
        "CITYCD": "483750150",
        "RAILROAD": "BNSF",
        "RRDIV": "KANSAS",
        "RRSUBDIV": "HEREFORD",
        "HIGHWAY": "cr0882",
        "STREET": "MACK RoaD",
        "TTSTN": "674127",
        "MILEPOST": "0561.821",
        "TYPEXING": "Public",
        "POSXING": "At Grade",
        "PRVCAT": "14",
        "INIT": "2",
        "LATITUDE": 35.0869133,
        "LONGITUD": -101.8708078,
        "LLSOURCE": "1",
        "WHISTBAN": "0",
        "RRCONT": "8173521549",
        "POLCONT": "8008325452",
        "INV_LINK": "https://safetydata.fra.dot.gov/OfficeofSafety/PublicSite/Crossing/Crossing.aspx?phasetype=C&rpttype=I&txtcrossingnum=014699F",
        "ACC_LINK": "https://safetydata.fra.dot.gov/OfficeofSafety/PublicSite/Crossing/Crossing.aspx?phasetype=C&rpttype=A&txtcrossingnum=014699F",
        "TTSTNNAM": "HANEY",
        "XPURPOSE": "1",
        "OPERATINGR": "BNSF",
        "OPERATIN_1": "Primary",
        "DAYTHRU": 36,
        "NGHTTHRU": 35,
        "MAINTRK": 2,
        "SIDINGTRK": 0,
        "YARDTRK": 1,
        "TRANSITTRK": 0,
        "INDUSTRYTR": 0,
        "OTHRTRK": 1,
        "WDCODE": "All other Gates",
        "REVISIONDA": "1996/01/01 00:00:00",
        "LASTUPDATE": "1/8/2026",
        "AADT": "201",
        "AADTYEAR": "2020",
        "STATENAME": "TEXAS",
        "STATEAB": "TX",
        "COUNTYNAME": "RANDALL",
        "CITYNAME": "AMARILLO",
        "LATDD": 35.0869133,
        "LONGDD": -101.8708078,
        "gridlyProductionCertified": true,
        "gridlyClassification": "PUBLIC_ROADWAY",
        "gridlyDisplayName": "MACK RoaD",
        "gridlyId": "FRA-014699F"
      }
    },
    {
      "type": "Feature",
      "id": 213995,
      "geometry": {
        "type": "Point",
        "coordinates": [
          -101.866040500117,
          35.1000127001845
        ]
      },
      "properties": {
        "OBJECTID": 213995,
        "CROSSING": "014698Y",
        "EFFDATE": 1767830400000,
        "REASON": "14",
        "StateCode": "48",
        "CountyCode": "48381",
        "STCYFIPS": "48381",
        "CITYCD": "483750150",
        "RAILROAD": "BNSF",
        "RRDIV": "KANSAS",
        "RRSUBDIV": "HEREFORD",
        "HIGHWAY": "cr0735",
        "STREET": "S GEORGIA STreet",
        "TTSTN": "674123",
        "MILEPOST": "0560.864",
        "TYPEXING": "Public",
        "POSXING": "At Grade",
        "PRVCAT": "14",
        "INIT": "2",
        "LATITUDE": 35.1000127,
        "LONGITUD": -101.8660405,
        "LLSOURCE": "1",
        "WHISTBAN": "0",
        "RRCONT": "8173521549",
        "POLCONT": "8008325452",
        "INV_LINK": "https://safetydata.fra.dot.gov/OfficeofSafety/PublicSite/Crossing/Crossing.aspx?phasetype=C&rpttype=I&txtcrossingnum=014698Y",
        "ACC_LINK": "https://safetydata.fra.dot.gov/OfficeofSafety/PublicSite/Crossing/Crossing.aspx?phasetype=C&rpttype=A&txtcrossingnum=014698Y",
        "TTSTNNAM": "ZITA YARD",
        "XPURPOSE": "1",
        "OPERATINGR": "BNSF",
        "OPERATIN_1": "Primary",
        "DAYTHRU": 36,
        "NGHTTHRU": 35,
        "MAINTRK": 2,
        "SIDINGTRK": 0,
        "YARDTRK": 0,
        "TRANSITTRK": 0,
        "INDUSTRYTR": 0,
        "OTHRTRK": 0,
        "WDCODE": "All other Gates",
        "REVISIONDA": "1996/01/01 00:00:00",
        "LASTUPDATE": "1/8/2026",
        "AADT": "1880",
        "AADTYEAR": "2020",
        "STATENAME": "TEXAS",
        "STATEAB": "TX",
        "COUNTYNAME": "RANDALL",
        "CITYNAME": "AMARILLO",
        "LATDD": 35.1000127,
        "LONGDD": -101.8660405,
        "gridlyProductionCertified": true,
        "gridlyClassification": "PUBLIC_ROADWAY",
        "gridlyDisplayName": "S GEORGIA STreet",
        "gridlyId": "FRA-014698Y"
      }
    },
    {
      "type": "Feature",
      "id": 214002,
      "geometry": {
        "type": "Point",
        "coordinates": [
          -101.84262190036,
          35.1638412999483
        ]
      },
      "properties": {
        "OBJECTID": 214002,
        "CROSSING": "014693P",
        "EFFDATE": 1767830400000,
        "REASON": "14",
        "StateCode": "48",
        "CountyCode": "48381",
        "STCYFIPS": "48381",
        "CITYCD": "483810150",
        "RAILROAD": "BNSF",
        "RRDIV": "KANSAS",
        "RRSUBDIV": "HEREFORD",
        "HIGHWAY": "LS0000",
        "STREET": "EAST FOURTY SIXTH STREET",
        "TTSTN": "672700",
        "MILEPOST": "0556.281",
        "TYPEXING": "Public",
        "POSXING": "At Grade",
        "PRVCAT": "14",
        "INIT": "2",
        "LATITUDE": 35.1638413,
        "LONGITUD": -101.8426219,
        "LLSOURCE": "1",
        "WHISTBAN": "0",
        "RRCONT": "8173521549",
        "POLCONT": "8008325452",
        "INV_LINK": "https://safetydata.fra.dot.gov/OfficeofSafety/PublicSite/Crossing/Crossing.aspx?phasetype=C&rpttype=I&txtcrossingnum=014693P",
        "ACC_LINK": "https://safetydata.fra.dot.gov/OfficeofSafety/PublicSite/Crossing/Crossing.aspx?phasetype=C&rpttype=A&txtcrossingnum=014693P",
        "TTSTNNAM": "AMARILLO YARD",
        "XPURPOSE": "1",
        "OPERATINGR": "BNSF",
        "OPERATIN_1": "Primary",
        "DAYTHRU": 50,
        "NGHTTHRU": 50,
        "MAINTRK": 3,
        "SIDINGTRK": 0,
        "YARDTRK": 0,
        "TRANSITTRK": 0,
        "INDUSTRYTR": 0,
        "OTHRTRK": 0,
        "WDCODE": "All other Gates",
        "REVISIONDA": "1996/01/01 00:00:00",
        "LASTUPDATE": "1/8/2026",
        "AADT": "3073",
        "AADTYEAR": "2020",
        "STATENAME": "TEXAS",
        "STATEAB": "TX",
        "COUNTYNAME": "RANDALL",
        "CITYNAME": "AMARILLO",
        "LATDD": 35.1638413,
        "LONGDD": -101.8426219,
        "gridlyProductionCertified": true,
        "gridlyClassification": "PUBLIC_ROADWAY",
        "gridlyDisplayName": "EAST FOURTY SIXTH STREET",
        "gridlyId": "FRA-014693P"
      }
    },
    {
      "type": "Feature",
      "id": 214003,
      "geometry": {
        "type": "Point",
        "coordinates": [
          -101.919288199669,
          34.912059800334
        ]
      },
      "properties": {
        "OBJECTID": 214003,
        "CROSSING": "017191N",
        "EFFDATE": 1767830400000,
        "REASON": "14",
        "StateCode": "48",
        "CountyCode": "48381",
        "STCYFIPS": "48381",
        "CITYCD": "483811160",
        "RAILROAD": "BNSF",
        "RRDIV": "RED RIVER",
        "RRSUBDIV": "PLAINVIEW",
        "HIGHWAY": "FM1714",
        "STREET": "FM1714 / BUFFALO LAKE ROAD",
        "TTSTN": "674182",
        "MILEPOST": "0576.180",
        "TYPEXING": "Public",
        "POSXING": "At Grade",
        "PRVCAT": "14",
        "INIT": "2",
        "LATITUDE": 34.9120598,
        "LONGITUD": -101.9192882,
        "LLSOURCE": "1",
        "WHISTBAN": "0",
        "RRCONT": "8173521549",
        "POLCONT": "8008325452",
        "INV_LINK": "https://safetydata.fra.dot.gov/OfficeofSafety/PublicSite/Crossing/Crossing.aspx?phasetype=C&rpttype=I&txtcrossingnum=017191N",
        "ACC_LINK": "https://safetydata.fra.dot.gov/OfficeofSafety/PublicSite/Crossing/Crossing.aspx?phasetype=C&rpttype=A&txtcrossingnum=017191N",
        "TTSTNNAM": "CLETA",
        "XPURPOSE": "1",
        "OPERATINGR": "BNSF",
        "OPERATIN_1": "Primary",
        "DAYTHRU": 3,
        "NGHTTHRU": 2,
        "MAINTRK": 1,
        "SIDINGTRK": 0,
        "YARDTRK": 0,
        "TRANSITTRK": 0,
        "INDUSTRYTR": 0,
        "OTHRTRK": 0,
        "WDCODE": "All other Gates",
        "REVISIONDA": "1996/01/01 00:00:00",
        "LASTUPDATE": "1/8/2026",
        "AADT": "1",
        "AADTYEAR": "2023",
        "STATENAME": "TEXAS",
        "STATEAB": "TX",
        "COUNTYNAME": "RANDALL",
        "CITYNAME": "CANYON",
        "LATDD": 34.9120598,
        "LONGDD": -101.9192882,
        "gridlyProductionCertified": true,
        "gridlyClassification": "PUBLIC_ROADWAY",
        "gridlyDisplayName": "FM1714 / BUFFALO LAKE ROAD",
        "gridlyId": "FRA-017191N"
      }
    },
    {
      "type": "Feature",
      "id": 214004,
      "geometry": {
        "type": "Point",
        "coordinates": [
          -101.947319399576,
          34.9799780999773
        ]
      },
      "properties": {
        "OBJECTID": 214004,
        "CROSSING": "017186S",
        "EFFDATE": 1767830400000,
        "REASON": "14",
        "StateCode": "48",
        "CountyCode": "48381",
        "STCYFIPS": "48381",
        "CITYCD": "483811160",
        "RAILROAD": "BNSF",
        "RRDIV": "RED RIVER",
        "RRSUBDIV": "PLAINVIEW",
        "HIGHWAY": "ls0000",
        "STREET": "fourTH AVEnue",
        "TTSTN": "674150",
        "MILEPOST": "0571.200",
        "TYPEXING": "Public",
        "POSXING": "At Grade",
        "PRVCAT": "14",
        "INIT": "2",
        "LATITUDE": 34.9799781,
        "LONGITUD": -101.9473194,
        "LLSOURCE": "1",
        "WHISTBAN": "0",
        "RRCONT": "8173521549",
        "POLCONT": "8008325452",
        "INV_LINK": "https://safetydata.fra.dot.gov/OfficeofSafety/PublicSite/Crossing/Crossing.aspx?phasetype=C&rpttype=I&txtcrossingnum=017186S",
        "ACC_LINK": "https://safetydata.fra.dot.gov/OfficeofSafety/PublicSite/Crossing/Crossing.aspx?phasetype=C&rpttype=A&txtcrossingnum=017186S",
        "TTSTNNAM": "CANYON",
        "XPURPOSE": "1",
        "OPERATINGR": "BNSF",
        "OPERATIN_1": "Primary",
        "DAYTHRU": 3,
        "NGHTTHRU": 2,
        "MAINTRK": 1,
        "SIDINGTRK": 0,
        "YARDTRK": 1,
        "TRANSITTRK": 0,
        "INDUSTRYTR": 0,
        "OTHRTRK": 1,
        "WDCODE": "All other Gates",
        "REVISIONDA": "1996/01/01 00:00:00",
        "LASTUPDATE": "1/8/2026",
        "AADT": "574",
        "AADTYEAR": "2020",
        "STATENAME": "TEXAS",
        "STATEAB": "TX",
        "COUNTYNAME": "RANDALL",
        "CITYNAME": "CANYON",
        "LATDD": 34.9799781,
        "LONGDD": -101.9473194,
        "gridlyProductionCertified": true,
        "gridlyClassification": "PUBLIC_ROADWAY",
        "gridlyDisplayName": "fourTH AVEnue",
        "gridlyId": "FRA-017186S"
      }
    },
    {
      "type": "Feature",
      "id": 214005,
      "geometry": {
        "type": "Point",
        "coordinates": [
          -101.876219400433,
          35.0722799000938
        ]
      },
      "properties": {
        "OBJECTID": 214005,
        "CROSSING": "014700X",
        "EFFDATE": 1767830400000,
        "REASON": "14",
        "StateCode": "48",
        "CountyCode": "48381",
        "STCYFIPS": "48381",
        "CITYCD": "483811160",
        "RAILROAD": "BNSF",
        "RRDIV": "KANSAS",
        "RRSUBDIV": "HEREFORD",
        "HIGHWAY": "cr0882",
        "STREET": "w MCCORMICK RoaD",
        "TTSTN": "674127",
        "MILEPOST": "0562.868",
        "TYPEXING": "Public",
        "POSXING": "At Grade",
        "PRVCAT": "14",
        "INIT": "2",
        "LATITUDE": 35.0722799,
        "LONGITUD": -101.8762194,
        "LLSOURCE": "1",
        "WHISTBAN": "0",
        "RRCONT": "8173521549",
        "POLCONT": "8008325452",
        "INV_LINK": "https://safetydata.fra.dot.gov/OfficeofSafety/PublicSite/Crossing/Crossing.aspx?phasetype=C&rpttype=I&txtcrossingnum=014700X",
        "ACC_LINK": "https://safetydata.fra.dot.gov/OfficeofSafety/PublicSite/Crossing/Crossing.aspx?phasetype=C&rpttype=A&txtcrossingnum=014700X",
        "TTSTNNAM": "HANEY",
        "XPURPOSE": "1",
        "OPERATINGR": "BNSF",
        "OPERATIN_1": "Primary",
        "DAYTHRU": 36,
        "NGHTTHRU": 35,
        "MAINTRK": 2,
        "SIDINGTRK": 0,
        "YARDTRK": 0,
        "TRANSITTRK": 0,
        "INDUSTRYTR": 0,
        "OTHRTRK": 0,
        "WDCODE": "All other Gates",
        "REVISIONDA": "1996/01/01 00:00:00",
        "LASTUPDATE": "1/8/2026",
        "AADT": "2696",
        "AADTYEAR": "2020",
        "STATENAME": "TEXAS",
        "STATEAB": "TX",
        "COUNTYNAME": "RANDALL",
        "CITYNAME": "CANYON",
        "LATDD": 35.0722799,
        "LONGDD": -101.8762194,
        "gridlyProductionCertified": true,
        "gridlyClassification": "PUBLIC_ROADWAY",
        "gridlyDisplayName": "w MCCORMICK RoaD",
        "gridlyId": "FRA-014700X"
      }
    },
    {
      "type": "Feature",
      "id": 214006,
      "geometry": {
        "type": "Point",
        "coordinates": [
          -101.937274299728,
          34.9477521998927
        ]
      },
      "properties": {
        "OBJECTID": 214006,
        "CROSSING": "017188F",
        "EFFDATE": 1767830400000,
        "REASON": "14",
        "StateCode": "48",
        "CountyCode": "48381",
        "STCYFIPS": "48381",
        "CITYCD": "483811160",
        "RAILROAD": "BNSF",
        "RRDIV": "RED RIVER",
        "RRSUBDIV": "PLAINVIEW",
        "HIGHWAY": "cr0626",
        "STREET": "s SONCY RoaD / eighth street",
        "TTSTN": "674182",
        "MILEPOST": "0573.510",
        "TYPEXING": "Public",
        "POSXING": "At Grade",
        "PRVCAT": "14",
        "INIT": "2",
        "LATITUDE": 34.9477522,
        "LONGITUD": -101.9372743,
        "LLSOURCE": "1",
        "WHISTBAN": "0",
        "RRCONT": "8173521549",
        "POLCONT": "8008325452",
        "INV_LINK": "https://safetydata.fra.dot.gov/OfficeofSafety/PublicSite/Crossing/Crossing.aspx?phasetype=C&rpttype=I&txtcrossingnum=017188F",
        "ACC_LINK": "https://safetydata.fra.dot.gov/OfficeofSafety/PublicSite/Crossing/Crossing.aspx?phasetype=C&rpttype=A&txtcrossingnum=017188F",
        "TTSTNNAM": "CLETA",
        "XPURPOSE": "1",
        "OPERATINGR": "BNSF",
        "OPERATIN_1": "Primary",
        "DAYTHRU": 3,
        "NGHTTHRU": 2,
        "MAINTRK": 1,
        "SIDINGTRK": 0,
        "YARDTRK": 0,
        "TRANSITTRK": 0,
        "INDUSTRYTR": 0,
        "OTHRTRK": 0,
        "WDCODE": "All other Gates",
        "REVISIONDA": "1996/01/01 00:00:00",
        "LASTUPDATE": "1/8/2026",
        "AADT": "1",
        "AADTYEAR": "2022",
        "STATENAME": "TEXAS",
        "STATEAB": "TX",
        "COUNTYNAME": "RANDALL",
        "CITYNAME": "CANYON",
        "LATDD": 34.9477522,
        "LONGDD": -101.9372743,
        "gridlyProductionCertified": true,
        "gridlyClassification": "PUBLIC_ROADWAY",
        "gridlyDisplayName": "s SONCY RoaD / eighth street",
        "gridlyId": "FRA-017188F"
      }
    },
    {
      "type": "Feature",
      "id": 214007,
      "geometry": {
        "type": "Point",
        "coordinates": [
          -101.89185620031,
          35.0432469999965
        ]
      },
      "properties": {
        "OBJECTID": 214007,
        "CROSSING": "014701E",
        "EFFDATE": 1767830400000,
        "REASON": "14",
        "StateCode": "48",
        "CountyCode": "48381",
        "STCYFIPS": "48381",
        "CITYCD": "483811160",
        "RAILROAD": "BNSF",
        "RRDIV": "KANSAS",
        "RRSUBDIV": "HEREFORD",
        "HIGHWAY": "Cr0711",
        "STREET": "ROCKWELL RoaD",
        "TTSTN": "674127",
        "MILEPOST": "0565.064",
        "TYPEXING": "Public",
        "POSXING": "At Grade",
        "PRVCAT": "14",
        "INIT": "2",
        "LATITUDE": 35.043247,
        "LONGITUD": -101.8918562,
        "LLSOURCE": "1",
        "WHISTBAN": "0",
        "RRCONT": "8173521549",
        "POLCONT": "8008325452",
        "INV_LINK": "https://safetydata.fra.dot.gov/OfficeofSafety/PublicSite/Crossing/Crossing.aspx?phasetype=C&rpttype=I&txtcrossingnum=014701E",
        "ACC_LINK": "https://safetydata.fra.dot.gov/OfficeofSafety/PublicSite/Crossing/Crossing.aspx?phasetype=C&rpttype=A&txtcrossingnum=014701E",
        "TTSTNNAM": "HANEY",
        "XPURPOSE": "1",
        "OPERATINGR": "BNSF",
        "OPERATIN_1": "Primary",
        "DAYTHRU": 36,
        "NGHTTHRU": 35,
        "MAINTRK": 2,
        "SIDINGTRK": 0,
        "YARDTRK": 0,
        "TRANSITTRK": 0,
        "INDUSTRYTR": 0,
        "OTHRTRK": 0,
        "WDCODE": "All other Gates",
        "REVISIONDA": "1996/01/01 00:00:00",
        "LASTUPDATE": "1/8/2026",
        "AADT": "1084",
        "AADTYEAR": "2020",
        "STATENAME": "TEXAS",
        "STATEAB": "TX",
        "COUNTYNAME": "RANDALL",
        "CITYNAME": "CANYON",
        "LATDD": 35.043247,
        "LONGDD": -101.8918562,
        "gridlyProductionCertified": true,
        "gridlyClassification": "PUBLIC_ROADWAY",
        "gridlyDisplayName": "ROCKWELL RoaD",
        "gridlyId": "FRA-014701E"
      }
    },
    {
      "type": "Feature",
      "id": 214008,
      "geometry": {
        "type": "Point",
        "coordinates": [
          -101.933774699638,
          34.9408778001039
        ]
      },
      "properties": {
        "OBJECTID": 214008,
        "CROSSING": "017189M",
        "EFFDATE": 1767830400000,
        "REASON": "14",
        "StateCode": "48",
        "CountyCode": "48381",
        "STCYFIPS": "48381",
        "CITYCD": "483811160",
        "RAILROAD": "BNSF",
        "RRDIV": "RED RIVER",
        "RRSUBDIV": "PLAINVIEW",
        "HIGHWAY": "cr0630",
        "STREET": "west CEMETERY RoaD",
        "TTSTN": "674182",
        "MILEPOST": "0574.020",
        "TYPEXING": "Public",
        "POSXING": "At Grade",
        "PRVCAT": "14",
        "INIT": "2",
        "LATITUDE": 34.9408778,
        "LONGITUD": -101.9337747,
        "LLSOURCE": "1",
        "WHISTBAN": "0",
        "RRCONT": "8173521549",
        "POLCONT": "8008325452",
        "INV_LINK": "https://safetydata.fra.dot.gov/OfficeofSafety/PublicSite/Crossing/Crossing.aspx?phasetype=C&rpttype=I&txtcrossingnum=017189M",
        "ACC_LINK": "https://safetydata.fra.dot.gov/OfficeofSafety/PublicSite/Crossing/Crossing.aspx?phasetype=C&rpttype=A&txtcrossingnum=017189M",
        "TTSTNNAM": "CLETA",
        "XPURPOSE": "1",
        "OPERATINGR": "BNSF",
        "OPERATIN_1": "Primary",
        "DAYTHRU": 3,
        "NGHTTHRU": 2,
        "MAINTRK": 1,
        "SIDINGTRK": 0,
        "YARDTRK": 0,
        "TRANSITTRK": 0,
        "INDUSTRYTR": 0,
        "OTHRTRK": 0,
        "WDCODE": "All other Gates",
        "REVISIONDA": "1996/01/01 00:00:00",
        "LASTUPDATE": "1/8/2026",
        "AADT": "288",
        "AADTYEAR": "2020",
        "STATENAME": "TEXAS",
        "STATEAB": "TX",
        "COUNTYNAME": "RANDALL",
        "CITYNAME": "CANYON",
        "LATDD": 34.9408778,
        "LONGDD": -101.9337747,
        "gridlyProductionCertified": true,
        "gridlyClassification": "PUBLIC_ROADWAY",
        "gridlyDisplayName": "west CEMETERY RoaD",
        "gridlyId": "FRA-017189M"
      }
    },
    {
      "type": "Feature",
      "id": 214009,
      "geometry": {
        "type": "Point",
        "coordinates": [
          -101.954656200114,
          34.9826478997048
        ]
      },
      "properties": {
        "OBJECTID": 214009,
        "CROSSING": "014707V",
        "EFFDATE": 1767830400000,
        "REASON": "14",
        "StateCode": "48",
        "CountyCode": "48381",
        "STCYFIPS": "48381",
        "CITYCD": "483811160",
        "RAILROAD": "BNSF",
        "RRDIV": "KANSAS",
        "RRSUBDIV": "HEREFORD",
        "HIGHWAY": "Cr0625",
        "STREET": "BROWN RoaD",
        "TTSTN": "674150",
        "MILEPOST": "0571.502",
        "TYPEXING": "Public",
        "POSXING": "At Grade",
        "PRVCAT": "14",
        "INIT": "2",
        "LATITUDE": 34.9826479,
        "LONGITUD": -101.9546562,
        "LLSOURCE": "1",
        "WHISTBAN": "0",
        "RRCONT": "8173521549",
        "POLCONT": "8008325452",
        "INV_LINK": "https://safetydata.fra.dot.gov/OfficeofSafety/PublicSite/Crossing/Crossing.aspx?phasetype=C&rpttype=I&txtcrossingnum=014707V",
        "ACC_LINK": "https://safetydata.fra.dot.gov/OfficeofSafety/PublicSite/Crossing/Crossing.aspx?phasetype=C&rpttype=A&txtcrossingnum=014707V",
        "TTSTNNAM": "CANYON",
        "XPURPOSE": "1",
        "OPERATINGR": "BNSF",
        "OPERATIN_1": "Primary",
        "DAYTHRU": 34,
        "NGHTTHRU": 33,
        "MAINTRK": 2,
        "SIDINGTRK": 0,
        "YARDTRK": 0,
        "TRANSITTRK": 0,
        "INDUSTRYTR": 0,
        "OTHRTRK": 0,
        "WDCODE": "All other Gates",
        "REVISIONDA": "1996/01/01 00:00:00",
        "LASTUPDATE": "1/8/2026",
        "AADT": "1598",
        "AADTYEAR": "2020",
        "STATENAME": "TEXAS",
        "STATEAB": "TX",
        "COUNTYNAME": "RANDALL",
        "CITYNAME": "CANYON",
        "LATDD": 34.9826479,
        "LONGDD": -101.9546562,
        "gridlyProductionCertified": true,
        "gridlyClassification": "PUBLIC_ROADWAY",
        "gridlyDisplayName": "BROWN RoaD",
        "gridlyId": "FRA-014707V"
      }
    },
    {
      "type": "Feature",
      "id": 214010,
      "geometry": {
        "type": "Point",
        "coordinates": [
          -102.00768969998,
          34.9805018996342
        ]
      },
      "properties": {
        "OBJECTID": 214010,
        "CROSSING": "014710D",
        "EFFDATE": 1767830400000,
        "REASON": "14",
        "StateCode": "48",
        "CountyCode": "48381",
        "STCYFIPS": "48381",
        "CITYCD": "483811160",
        "RAILROAD": "BNSF",
        "RRDIV": "KANSAS",
        "RRSUBDIV": "HEREFORD",
        "HIGHWAY": "cr0706",
        "STREET": "ARNOT RoaD",
        "TTSTN": "674150",
        "MILEPOST": "0574.520",
        "TYPEXING": "Public",
        "POSXING": "At Grade",
        "PRVCAT": "14",
        "INIT": "2",
        "LATITUDE": 34.9805019,
        "LONGITUD": -102.0076897,
        "LLSOURCE": "1",
        "WHISTBAN": "0",
        "RRCONT": "8173521549",
        "POLCONT": "8008325452",
        "INV_LINK": "https://safetydata.fra.dot.gov/OfficeofSafety/PublicSite/Crossing/Crossing.aspx?phasetype=C&rpttype=I&txtcrossingnum=014710D",
        "ACC_LINK": "https://safetydata.fra.dot.gov/OfficeofSafety/PublicSite/Crossing/Crossing.aspx?phasetype=C&rpttype=A&txtcrossingnum=014710D",
        "TTSTNNAM": "CANYON",
        "XPURPOSE": "1",
        "OPERATINGR": "BNSF",
        "OPERATIN_1": "Primary",
        "DAYTHRU": 33,
        "NGHTTHRU": 33,
        "MAINTRK": 2,
        "SIDINGTRK": 0,
        "YARDTRK": 0,
        "TRANSITTRK": 0,
        "INDUSTRYTR": 0,
        "OTHRTRK": 0,
        "WDCODE": "All other Gates",
        "REVISIONDA": "1996/01/01 00:00:00",
        "LASTUPDATE": "1/8/2026",
        "AADT": "256",
        "AADTYEAR": "2020",
        "STATENAME": "TEXAS",
        "STATEAB": "TX",
        "COUNTYNAME": "RANDALL",
        "CITYNAME": "CANYON",
        "LATDD": 34.9805019,
        "LONGDD": -102.0076897,
        "gridlyProductionCertified": true,
        "gridlyClassification": "PUBLIC_ROADWAY",
        "gridlyDisplayName": "ARNOT RoaD",
        "gridlyId": "FRA-014710D"
      }
    },
    {
      "type": "Feature",
      "id": 214011,
      "geometry": {
        "type": "Point",
        "coordinates": [
          -101.989995699711,
          34.9828924999495
        ]
      },
      "properties": {
        "OBJECTID": 214011,
        "CROSSING": "014709J",
        "EFFDATE": 1767830400000,
        "REASON": "14",
        "StateCode": "48",
        "CountyCode": "48381",
        "STCYFIPS": "48381",
        "CITYCD": "483811160",
        "RAILROAD": "BNSF",
        "RRDIV": "KANSAS",
        "RRSUBDIV": "HEREFORD",
        "HIGHWAY": "cr0703",
        "STREET": "DOWELL RoaD",
        "TTSTN": "674150",
        "MILEPOST": "0573.500",
        "TYPEXING": "Public",
        "POSXING": "At Grade",
        "PRVCAT": "14",
        "INIT": "2",
        "LATITUDE": 34.9828925,
        "LONGITUD": -101.9899957,
        "LLSOURCE": "1",
        "WHISTBAN": "0",
        "RRCONT": "8173521549",
        "POLCONT": "8008325452",
        "INV_LINK": "https://safetydata.fra.dot.gov/OfficeofSafety/PublicSite/Crossing/Crossing.aspx?phasetype=C&rpttype=I&txtcrossingnum=014709J",
        "ACC_LINK": "https://safetydata.fra.dot.gov/OfficeofSafety/PublicSite/Crossing/Crossing.aspx?phasetype=C&rpttype=A&txtcrossingnum=014709J",
        "TTSTNNAM": "CANYON",
        "XPURPOSE": "1",
        "OPERATINGR": "BNSF",
        "OPERATIN_1": "Primary",
        "DAYTHRU": 33,
        "NGHTTHRU": 33,
        "MAINTRK": 2,
        "SIDINGTRK": 0,
        "YARDTRK": 0,
        "TRANSITTRK": 0,
        "INDUSTRYTR": 0,
        "OTHRTRK": 0,
        "WDCODE": "All other Gates",
        "REVISIONDA": "1996/01/01 00:00:00",
        "LASTUPDATE": "1/8/2026",
        "AADT": "300",
        "AADTYEAR": "2020",
        "STATENAME": "TEXAS",
        "STATEAB": "TX",
        "COUNTYNAME": "RANDALL",
        "CITYNAME": "CANYON",
        "LATDD": 34.9828925,
        "LONGDD": -101.9899957,
        "gridlyProductionCertified": true,
        "gridlyClassification": "PUBLIC_ROADWAY",
        "gridlyDisplayName": "DOWELL RoaD",
        "gridlyId": "FRA-014709J"
      }
    },
    {
      "type": "Feature",
      "id": 214012,
      "geometry": {
        "type": "Point",
        "coordinates": [
          -102.105465500268,
          34.9540246998177
        ]
      },
      "properties": {
        "OBJECTID": 214012,
        "CROSSING": "014716U",
        "EFFDATE": 1767830400000,
        "REASON": "14",
        "StateCode": "48",
        "CountyCode": "48381",
        "STCYFIPS": "48381",
        "CITYCD": "483811160",
        "RAILROAD": "BNSF",
        "RRDIV": "KANSAS",
        "RRSUBDIV": "HEREFORD",
        "HIGHWAY": "FM0168",
        "STREET": "FM0168",
        "TTSTN": "674160",
        "MILEPOST": "0580.395",
        "TYPEXING": "Public",
        "POSXING": "At Grade",
        "PRVCAT": "14",
        "INIT": "2",
        "LATITUDE": 34.9540247,
        "LONGITUD": -102.1054655,
        "LLSOURCE": "1",
        "WHISTBAN": "0",
        "RRCONT": "8173521549",
        "POLCONT": "8008325452",
        "INV_LINK": "https://safetydata.fra.dot.gov/OfficeofSafety/PublicSite/Crossing/Crossing.aspx?phasetype=C&rpttype=I&txtcrossingnum=014716U",
        "ACC_LINK": "https://safetydata.fra.dot.gov/OfficeofSafety/PublicSite/Crossing/Crossing.aspx?phasetype=C&rpttype=A&txtcrossingnum=014716U",
        "TTSTNNAM": "MCCRACKEN",
        "XPURPOSE": "1",
        "OPERATINGR": "BNSF",
        "OPERATIN_1": "Primary",
        "DAYTHRU": 33,
        "NGHTTHRU": 32,
        "MAINTRK": 2,
        "SIDINGTRK": 0,
        "YARDTRK": 0,
        "TRANSITTRK": 0,
        "INDUSTRYTR": 0,
        "OTHRTRK": 0,
        "WDCODE": "All other Gates",
        "REVISIONDA": "1996/01/01 00:00:00",
        "LASTUPDATE": "1/8/2026",
        "AADT": "791",
        "AADTYEAR": "2023",
        "STATENAME": "TEXAS",
        "STATEAB": "TX",
        "COUNTYNAME": "RANDALL",
        "CITYNAME": "CANYON",
        "LATDD": 34.9540247,
        "LONGDD": -102.1054655,
        "gridlyProductionCertified": true,
        "gridlyClassification": "PUBLIC_ROADWAY",
        "gridlyDisplayName": "FM0168",
        "gridlyId": "FRA-014716U"
      }
    },
    {
      "type": "Feature",
      "id": 214013,
      "geometry": {
        "type": "Point",
        "coordinates": [
          -101.946844300385,
          34.9778921001899
        ]
      },
      "properties": {
        "OBJECTID": 214013,
        "CROSSING": "017187Y",
        "EFFDATE": 1767830400000,
        "REASON": "14",
        "StateCode": "48",
        "CountyCode": "48381",
        "STCYFIPS": "48381",
        "CITYCD": "483811160",
        "RAILROAD": "BNSF",
        "RRDIV": "RED RIVER",
        "RRSUBDIV": "PLAINVIEW",
        "HIGHWAY": "ls0000",
        "STREET": "west sixTH AVEnue",
        "TTSTN": "674150",
        "MILEPOST": "0571.350",
        "TYPEXING": "Public",
        "POSXING": "At Grade",
        "PRVCAT": "14",
        "INIT": "2",
        "LATITUDE": 34.9778921,
        "LONGITUD": -101.9468443,
        "LLSOURCE": "1",
        "WHISTBAN": "0",
        "RRCONT": "8173521549",
        "POLCONT": "8008325452",
        "INV_LINK": "https://safetydata.fra.dot.gov/OfficeofSafety/PublicSite/Crossing/Crossing.aspx?phasetype=C&rpttype=I&txtcrossingnum=017187Y",
        "ACC_LINK": "https://safetydata.fra.dot.gov/OfficeofSafety/PublicSite/Crossing/Crossing.aspx?phasetype=C&rpttype=A&txtcrossingnum=017187Y",
        "TTSTNNAM": "CANYON",
        "XPURPOSE": "1",
        "OPERATINGR": "BNSF",
        "OPERATIN_1": "Primary",
        "DAYTHRU": 3,
        "NGHTTHRU": 2,
        "MAINTRK": 1,
        "SIDINGTRK": 0,
        "YARDTRK": 0,
        "TRANSITTRK": 0,
        "INDUSTRYTR": 0,
        "OTHRTRK": 0,
        "WDCODE": "All other Gates",
        "REVISIONDA": "1996/01/01 00:00:00",
        "LASTUPDATE": "1/8/2026",
        "AADT": "191",
        "AADTYEAR": "2020",
        "STATENAME": "TEXAS",
        "STATEAB": "TX",
        "COUNTYNAME": "RANDALL",
        "CITYNAME": "CANYON",
        "LATDD": 34.9778921,
        "LONGDD": -101.9468443,
        "gridlyProductionCertified": true,
        "gridlyClassification": "PUBLIC_ROADWAY",
        "gridlyDisplayName": "west sixTH AVEnue",
        "gridlyId": "FRA-017187Y"
      }
    },
    {
      "type": "Feature",
      "id": 214014,
      "geometry": {
        "type": "Point",
        "coordinates": [
          -102.115245899839,
          34.9493921000899
        ]
      },
      "properties": {
        "OBJECTID": 214014,
        "CROSSING": "014718H",
        "EFFDATE": 1767830400000,
        "REASON": "14",
        "StateCode": "48",
        "CountyCode": "48381",
        "STCYFIPS": "48381",
        "CITYCD": "483811160",
        "RAILROAD": "BNSF",
        "RRDIV": "KANSAS",
        "RRSUBDIV": "HEREFORD",
        "HIGHWAY": "Cr0768",
        "STREET": "ADKISSON RoaD",
        "TTSTN": "674160",
        "MILEPOST": "0581.030",
        "TYPEXING": "Public",
        "POSXING": "At Grade",
        "PRVCAT": "14",
        "INIT": "2",
        "LATITUDE": 34.9493921,
        "LONGITUD": -102.1152459,
        "LLSOURCE": "1",
        "WHISTBAN": "0",
        "RRCONT": "8173521549",
        "POLCONT": "8008325452",
        "INV_LINK": "https://safetydata.fra.dot.gov/OfficeofSafety/PublicSite/Crossing/Crossing.aspx?phasetype=C&rpttype=I&txtcrossingnum=014718H",
        "ACC_LINK": "https://safetydata.fra.dot.gov/OfficeofSafety/PublicSite/Crossing/Crossing.aspx?phasetype=C&rpttype=A&txtcrossingnum=014718H",
        "TTSTNNAM": "MCCRACKEN",
        "XPURPOSE": "1",
        "OPERATINGR": "BNSF",
        "OPERATIN_1": "Primary",
        "DAYTHRU": 33,
        "NGHTTHRU": 32,
        "MAINTRK": 2,
        "SIDINGTRK": 0,
        "YARDTRK": 0,
        "TRANSITTRK": 0,
        "INDUSTRYTR": 0,
        "OTHRTRK": 0,
        "WDCODE": "All other Gates",
        "REVISIONDA": "1996/01/01 00:00:00",
        "LASTUPDATE": "1/8/2026",
        "AADT": "80",
        "AADTYEAR": "2022",
        "STATENAME": "TEXAS",
        "STATEAB": "TX",
        "COUNTYNAME": "RANDALL",
        "CITYNAME": "CANYON",
        "LATDD": 34.9493921,
        "LONGDD": -102.1152459,
        "gridlyProductionCertified": true,
        "gridlyClassification": "PUBLIC_ROADWAY",
        "gridlyDisplayName": "ADKISSON RoaD",
        "gridlyId": "FRA-014718H"
      }
    },
    {
      "type": "Feature",
      "id": 214015,
      "geometry": {
        "type": "Point",
        "coordinates": [
          -101.942047300361,
          34.98260049973
        ]
      },
      "properties": {
        "OBJECTID": 214015,
        "CROSSING": "014706N",
        "EFFDATE": 1767830400000,
        "REASON": "14",
        "StateCode": "48",
        "CountyCode": "48381",
        "STCYFIPS": "48381",
        "CITYCD": "483811160",
        "RAILROAD": "BNSF",
        "RRDIV": "KANSAS",
        "RRSUBDIV": "HEREFORD",
        "HIGHWAY": "ls0000",
        "STREET": "fourth street",
        "TTSTN": "674150",
        "MILEPOST": "0570.780",
        "TYPEXING": "Public",
        "POSXING": "At Grade",
        "PRVCAT": "14",
        "INIT": "2",
        "LATITUDE": 34.9826005,
        "LONGITUD": -101.9420473,
        "LLSOURCE": "1",
        "WHISTBAN": "1",
        "RRCONT": "8173521549",
        "POLCONT": "8008325452",
        "INV_LINK": "https://safetydata.fra.dot.gov/OfficeofSafety/PublicSite/Crossing/Crossing.aspx?phasetype=C&rpttype=I&txtcrossingnum=014706N",
        "ACC_LINK": "https://safetydata.fra.dot.gov/OfficeofSafety/PublicSite/Crossing/Crossing.aspx?phasetype=C&rpttype=A&txtcrossingnum=014706N",
        "TTSTNNAM": "CANYON",
        "XPURPOSE": "1",
        "OPERATINGR": "BNSF",
        "OPERATIN_1": "Primary",
        "DAYTHRU": 36,
        "NGHTTHRU": 35,
        "MAINTRK": 2,
        "SIDINGTRK": 0,
        "YARDTRK": 0,
        "TRANSITTRK": 0,
        "INDUSTRYTR": 0,
        "OTHRTRK": 0,
        "WDCODE": "All other Gates",
        "REVISIONDA": "1996/01/01 00:00:00",
        "LASTUPDATE": "1/8/2026",
        "AADT": "1193",
        "AADTYEAR": "2020",
        "STATENAME": "TEXAS",
        "STATEAB": "TX",
        "COUNTYNAME": "RANDALL",
        "CITYNAME": "CANYON",
        "LATDD": 34.9826005,
        "LONGDD": -101.9420473,
        "gridlyProductionCertified": true,
        "gridlyClassification": "PUBLIC_ROADWAY",
        "gridlyDisplayName": "fourth street",
        "gridlyId": "FRA-014706N"
      }
    },
    {
      "type": "Feature",
      "id": 214016,
      "geometry": {
        "type": "Point",
        "coordinates": [
          -101.909108899602,
          35.0140035996656
        ]
      },
      "properties": {
        "OBJECTID": 214016,
        "CROSSING": "014702L",
        "EFFDATE": 1767830400000,
        "REASON": "14",
        "StateCode": "48",
        "CountyCode": "48381",
        "STCYFIPS": "48381",
        "CITYCD": "483811160",
        "RAILROAD": "BNSF",
        "RRDIV": "KANSAS",
        "RRSUBDIV": "HEREFORD",
        "HIGHWAY": "Cr0710",
        "STREET": "BUFFALO STADIUM road",
        "TTSTN": "674150",
        "MILEPOST": "0567.322",
        "TYPEXING": "Public",
        "POSXING": "At Grade",
        "PRVCAT": "14",
        "INIT": "2",
        "LATITUDE": 35.0140036,
        "LONGITUD": -101.9091089,
        "LLSOURCE": "1",
        "WHISTBAN": "0",
        "RRCONT": "8173521549",
        "POLCONT": "8008325452",
        "INV_LINK": "https://safetydata.fra.dot.gov/OfficeofSafety/PublicSite/Crossing/Crossing.aspx?phasetype=C&rpttype=I&txtcrossingnum=014702L",
        "ACC_LINK": "https://safetydata.fra.dot.gov/OfficeofSafety/PublicSite/Crossing/Crossing.aspx?phasetype=C&rpttype=A&txtcrossingnum=014702L",
        "TTSTNNAM": "CANYON",
        "XPURPOSE": "1",
        "OPERATINGR": "BNSF",
        "OPERATIN_1": "Primary",
        "DAYTHRU": 36,
        "NGHTTHRU": 35,
        "MAINTRK": 2,
        "SIDINGTRK": 0,
        "YARDTRK": 0,
        "TRANSITTRK": 0,
        "INDUSTRYTR": 0,
        "OTHRTRK": 0,
        "WDCODE": "All other Gates",
        "REVISIONDA": "1996/01/01 00:00:00",
        "LASTUPDATE": "1/8/2026",
        "AADT": "678",
        "AADTYEAR": "2020",
        "STATENAME": "TEXAS",
        "STATEAB": "TX",
        "COUNTYNAME": "RANDALL",
        "CITYNAME": "CANYON",
        "LATDD": 35.0140036,
        "LONGDD": -101.9091089,
        "gridlyProductionCertified": true,
        "gridlyClassification": "PUBLIC_ROADWAY",
        "gridlyDisplayName": "BUFFALO STADIUM road",
        "gridlyId": "FRA-014702L"
      }
    },
    {
      "type": "Feature",
      "id": 214017,
      "geometry": {
        "type": "Point",
        "coordinates": [
          -102.043387499814,
          34.9719980998709
        ]
      },
      "properties": {
        "OBJECTID": 214017,
        "CROSSING": "014712S",
        "EFFDATE": 1767830400000,
        "REASON": "14",
        "StateCode": "48",
        "CountyCode": "48381",
        "STCYFIPS": "48381",
        "CITYCD": "483811160",
        "RAILROAD": "BNSF",
        "RRDIV": "KANSAS",
        "RRSUBDIV": "HEREFORD",
        "HIGHWAY": "cr0767",
        "STREET": "BLESSEN RoaD",
        "TTSTN": "674160",
        "MILEPOST": "0576.640",
        "TYPEXING": "Public",
        "POSXING": "At Grade",
        "PRVCAT": "14",
        "INIT": "2",
        "LATITUDE": 34.9719981,
        "LONGITUD": -102.0433875,
        "LLSOURCE": "1",
        "WHISTBAN": "0",
        "RRCONT": "8173521549",
        "POLCONT": "8008325452",
        "INV_LINK": "https://safetydata.fra.dot.gov/OfficeofSafety/PublicSite/Crossing/Crossing.aspx?phasetype=C&rpttype=I&txtcrossingnum=014712S",
        "ACC_LINK": "https://safetydata.fra.dot.gov/OfficeofSafety/PublicSite/Crossing/Crossing.aspx?phasetype=C&rpttype=A&txtcrossingnum=014712S",
        "TTSTNNAM": "MCCRACKEN",
        "XPURPOSE": "1",
        "OPERATINGR": "BNSF",
        "OPERATIN_1": "Primary",
        "DAYTHRU": 33,
        "NGHTTHRU": 33,
        "MAINTRK": 2,
        "SIDINGTRK": 0,
        "YARDTRK": 0,
        "TRANSITTRK": 0,
        "INDUSTRYTR": 0,
        "OTHRTRK": 0,
        "WDCODE": "All other Gates",
        "REVISIONDA": "1996/01/01 00:00:00",
        "LASTUPDATE": "1/8/2026",
        "AADT": "185",
        "AADTYEAR": "2020",
        "STATENAME": "TEXAS",
        "STATEAB": "TX",
        "COUNTYNAME": "RANDALL",
        "CITYNAME": "CANYON",
        "LATDD": 34.9719981,
        "LONGDD": -102.0433875,
        "gridlyProductionCertified": true,
        "gridlyClassification": "PUBLIC_ROADWAY",
        "gridlyDisplayName": "BLESSEN RoaD",
        "gridlyId": "FRA-014712S"
      }
    },
    {
      "type": "Feature",
      "id": 214018,
      "geometry": {
        "type": "Point",
        "coordinates": [
          -102.025564799711,
          34.9762498002385
        ]
      },
      "properties": {
        "OBJECTID": 214018,
        "CROSSING": "014711K",
        "EFFDATE": 1767830400000,
        "REASON": "14",
        "StateCode": "48",
        "CountyCode": "48381",
        "STCYFIPS": "48381",
        "CITYCD": "483811160",
        "RAILROAD": "BNSF",
        "RRDIV": "KANSAS",
        "RRSUBDIV": "HEREFORD",
        "HIGHWAY": "CR0746",
        "STREET": "CITY LAKE RoaD",
        "TTSTN": "674160",
        "MILEPOST": "0575.590",
        "TYPEXING": "Public",
        "POSXING": "At Grade",
        "PRVCAT": "14",
        "INIT": "2",
        "LATITUDE": 34.9762498,
        "LONGITUD": -102.0255648,
        "LLSOURCE": "1",
        "WHISTBAN": "0",
        "RRCONT": "8173521549",
        "POLCONT": "8008325452",
        "INV_LINK": "https://safetydata.fra.dot.gov/OfficeofSafety/PublicSite/Crossing/Crossing.aspx?phasetype=C&rpttype=I&txtcrossingnum=014711K",
        "ACC_LINK": "https://safetydata.fra.dot.gov/OfficeofSafety/PublicSite/Crossing/Crossing.aspx?phasetype=C&rpttype=A&txtcrossingnum=014711K",
        "TTSTNNAM": "MCCRACKEN",
        "XPURPOSE": "1",
        "OPERATINGR": "BNSF",
        "OPERATIN_1": "Primary",
        "DAYTHRU": 33,
        "NGHTTHRU": 33,
        "MAINTRK": 2,
        "SIDINGTRK": 0,
        "YARDTRK": 0,
        "TRANSITTRK": 0,
        "INDUSTRYTR": 0,
        "OTHRTRK": 0,
        "WDCODE": "All other Gates",
        "REVISIONDA": "1996/01/01 00:00:00",
        "LASTUPDATE": "1/8/2026",
        "AADT": "132",
        "AADTYEAR": "2020",
        "STATENAME": "TEXAS",
        "STATEAB": "TX",
        "COUNTYNAME": "RANDALL",
        "CITYNAME": "CANYON",
        "LATDD": 34.9762498,
        "LONGDD": -102.0255648,
        "gridlyProductionCertified": true,
        "gridlyClassification": "PUBLIC_ROADWAY",
        "gridlyDisplayName": "CITY LAKE RoaD",
        "gridlyId": "FRA-014711K"
      }
    },
    {
      "type": "Feature",
      "id": 214019,
      "geometry": {
        "type": "Point",
        "coordinates": [
          -101.928769199739,
          34.9828385996665
        ]
      },
      "properties": {
        "OBJECTID": 214019,
        "CROSSING": "014704A",
        "EFFDATE": 1767830400000,
        "REASON": "14",
        "StateCode": "48",
        "CountyCode": "48381",
        "STCYFIPS": "48381",
        "CITYCD": "483811160",
        "RAILROAD": "BNSF",
        "RRDIV": "KANSAS",
        "RRSUBDIV": "HEREFORD",
        "HIGHWAY": "ls0000",
        "STREET": "fifthteenth street",
        "TTSTN": "880319",
        "MILEPOST": "0570.032",
        "TYPEXING": "Public",
        "POSXING": "At Grade",
        "PRVCAT": "14",
        "INIT": "2",
        "LATITUDE": 34.9828386,
        "LONGITUD": -101.9287692,
        "LLSOURCE": "1",
        "WHISTBAN": "1",
        "RRCONT": "8173521549",
        "POLCONT": "8008325452",
        "INV_LINK": "https://safetydata.fra.dot.gov/OfficeofSafety/PublicSite/Crossing/Crossing.aspx?phasetype=C&rpttype=I&txtcrossingnum=014704A",
        "ACC_LINK": "https://safetydata.fra.dot.gov/OfficeofSafety/PublicSite/Crossing/Crossing.aspx?phasetype=C&rpttype=A&txtcrossingnum=014704A",
        "TTSTNNAM": "",
        "XPURPOSE": "1",
        "OPERATINGR": "BNSF",
        "OPERATIN_1": "Primary",
        "DAYTHRU": 36,
        "NGHTTHRU": 35,
        "MAINTRK": 2,
        "SIDINGTRK": 0,
        "YARDTRK": 1,
        "TRANSITTRK": 0,
        "INDUSTRYTR": 0,
        "OTHRTRK": 1,
        "WDCODE": "All other Gates",
        "REVISIONDA": "1996/01/01 00:00:00",
        "LASTUPDATE": "1/8/2026",
        "AADT": "2851",
        "AADTYEAR": "2020",
        "STATENAME": "TEXAS",
        "STATEAB": "TX",
        "COUNTYNAME": "RANDALL",
        "CITYNAME": "CANYON",
        "LATDD": 34.9828386,
        "LONGDD": -101.9287692,
        "gridlyProductionCertified": true,
        "gridlyClassification": "PUBLIC_ROADWAY",
        "gridlyDisplayName": "fifthteenth street",
        "gridlyId": "FRA-014704A"
      }
    },
    {
      "type": "Feature",
      "id": 214020,
      "geometry": {
        "type": "Point",
        "coordinates": [
          -101.855926999849,
          34.7490180999645
        ]
      },
      "properties": {
        "OBJECTID": 214020,
        "CROSSING": "017200K",
        "EFFDATE": 1767830400000,
        "REASON": "14",
        "StateCode": "48",
        "CountyCode": "48381",
        "STCYFIPS": "48381",
        "CITYCD": "483813020",
        "RAILROAD": "BNSF",
        "RRDIV": "RED RIVER",
        "RRSUBDIV": "PLAINVIEW",
        "HIGHWAY": "ls0000",
        "STREET": "northern avenue",
        "TTSTN": "674423",
        "MILEPOST": "0588.035",
        "TYPEXING": "Public",
        "POSXING": "At Grade",
        "PRVCAT": "14",
        "INIT": "2",
        "LATITUDE": 34.7490181,
        "LONGITUD": -101.855927,
        "LLSOURCE": "1",
        "WHISTBAN": "0",
        "RRCONT": "8173521549",
        "POLCONT": "8008325452",
        "INV_LINK": "https://safetydata.fra.dot.gov/OfficeofSafety/PublicSite/Crossing/Crossing.aspx?phasetype=C&rpttype=I&txtcrossingnum=017200K",
        "ACC_LINK": "https://safetydata.fra.dot.gov/OfficeofSafety/PublicSite/Crossing/Crossing.aspx?phasetype=C&rpttype=A&txtcrossingnum=017200K",
        "TTSTNNAM": "HAPPY",
        "XPURPOSE": "1",
        "OPERATINGR": "BNSF",
        "OPERATIN_1": "Primary",
        "DAYTHRU": 3,
        "NGHTTHRU": 2,
        "MAINTRK": 1,
        "SIDINGTRK": 0,
        "YARDTRK": 0,
        "TRANSITTRK": 0,
        "INDUSTRYTR": 0,
        "OTHRTRK": 0,
        "WDCODE": "All other Gates",
        "REVISIONDA": "1996/01/01 00:00:00",
        "LASTUPDATE": "1/8/2026",
        "AADT": "597",
        "AADTYEAR": "2023",
        "STATENAME": "TEXAS",
        "STATEAB": "TX",
        "COUNTYNAME": "RANDALL",
        "CITYNAME": "HAPPY",
        "LATDD": 34.7490181,
        "LONGDD": -101.855927,
        "gridlyProductionCertified": true,
        "gridlyClassification": "PUBLIC_ROADWAY",
        "gridlyDisplayName": "northern avenue",
        "gridlyId": "FRA-017200K"
      }
    },
    {
      "type": "Feature",
      "id": 214055,
      "geometry": {
        "type": "Point",
        "coordinates": [
          -101.865457100035,
          34.7782799998679
        ]
      },
      "properties": {
        "OBJECTID": 214055,
        "CROSSING": "017199T",
        "EFFDATE": 1767830400000,
        "REASON": "14",
        "StateCode": "48",
        "CountyCode": "48381",
        "STCYFIPS": "48381",
        "CITYCD": "484373020",
        "RAILROAD": "BNSF",
        "RRDIV": "RED RIVER",
        "RRSUBDIV": "PLAINVIEW",
        "HIGHWAY": "FM1705",
        "STREET": "FM1705",
        "TTSTN": "674423",
        "MILEPOST": "0585.940",
        "TYPEXING": "Public",
        "POSXING": "At Grade",
        "PRVCAT": "14",
        "INIT": "2",
        "LATITUDE": 34.77828,
        "LONGITUD": -101.8654571,
        "LLSOURCE": "1",
        "WHISTBAN": "0",
        "RRCONT": "8173521549",
        "POLCONT": "8008325452",
        "INV_LINK": "https://safetydata.fra.dot.gov/OfficeofSafety/PublicSite/Crossing/Crossing.aspx?phasetype=C&rpttype=I&txtcrossingnum=017199T",
        "ACC_LINK": "https://safetydata.fra.dot.gov/OfficeofSafety/PublicSite/Crossing/Crossing.aspx?phasetype=C&rpttype=A&txtcrossingnum=017199T",
        "TTSTNNAM": "HAPPY",
        "XPURPOSE": "1",
        "OPERATINGR": "BNSF",
        "OPERATIN_1": "Primary",
        "DAYTHRU": 3,
        "NGHTTHRU": 2,
        "MAINTRK": 1,
        "SIDINGTRK": 0,
        "YARDTRK": 0,
        "TRANSITTRK": 0,
        "INDUSTRYTR": 0,
        "OTHRTRK": 0,
        "WDCODE": "All other Gates",
        "REVISIONDA": "1996/01/01 00:00:00",
        "LASTUPDATE": "1/8/2026",
        "AADT": "109",
        "AADTYEAR": "2023",
        "STATENAME": "TEXAS",
        "STATEAB": "TX",
        "COUNTYNAME": "RANDALL",
        "CITYNAME": "HAPPY",
        "LATDD": 34.77828,
        "LONGDD": -101.8654571,
        "gridlyProductionCertified": true,
        "gridlyClassification": "PUBLIC_ROADWAY",
        "gridlyDisplayName": "FM1705",
        "gridlyId": "FRA-017199T"
      }
    },
    {
      "type": "Feature",
      "id": 214652,
      "geometry": {
        "type": "Point",
        "coordinates": [
          -101.849090799875,
          35.1461188999505
        ]
      },
      "properties": {
        "OBJECTID": 214652,
        "CROSSING": "014694W",
        "EFFDATE": 1765843200000,
        "REASON": "14",
        "StateCode": "48",
        "CountyCode": "48381",
        "STCYFIPS": "48381",
        "CITYCD": "483750150",
        "RAILROAD": "BNSF",
        "RRDIV": "KANSAS",
        "RRSUBDIV": "HEREFORD",
        "HIGHWAY": "FM1541",
        "STREET": "FM1541 / SOUTH WASHINGTON STREET",
        "TTSTN": "674123",
        "MILEPOST": "0557.557",
        "TYPEXING": "Public",
        "POSXING": "RR Under",
        "PRVCAT": "14",
        "INIT": "2",
        "LATITUDE": 35.1461189,
        "LONGITUD": -101.8490908,
        "LLSOURCE": "1",
        "WHISTBAN": "0",
        "RRCONT": "8173521549",
        "POLCONT": "8008325452",
        "INV_LINK": "https://safetydata.fra.dot.gov/OfficeofSafety/PublicSite/Crossing/Crossing.aspx?phasetype=C&rpttype=I&txtcrossingnum=014694W",
        "ACC_LINK": "https://safetydata.fra.dot.gov/OfficeofSafety/PublicSite/Crossing/Crossing.aspx?phasetype=C&rpttype=A&txtcrossingnum=014694W",
        "TTSTNNAM": "ZITA YARD",
        "XPURPOSE": "1",
        "OPERATINGR": "BNSF",
        "OPERATIN_1": "Primary",
        "DAYTHRU": 66,
        "NGHTTHRU": 66,
        "MAINTRK": 1,
        "SIDINGTRK": 0,
        "YARDTRK": 0,
        "TRANSITTRK": 0,
        "INDUSTRYTR": 0,
        "OTHRTRK": 0,
        "WDCODE": "",
        "REVISIONDA": "1996/01/01 00:00:00",
        "LASTUPDATE": "12/16/2025",
        "AADT": "13866",
        "AADTYEAR": "2024",
        "STATENAME": "TEXAS",
        "STATEAB": "TX",
        "COUNTYNAME": "RANDALL",
        "CITYNAME": "AMARILLO",
        "LATDD": 35.1461189,
        "LONGDD": -101.8490908,
        "gridlyProductionCertified": true,
        "gridlyClassification": "PUBLIC_ROADWAY",
        "gridlyDisplayName": "FM1541 / SOUTH WASHINGTON STREET",
        "gridlyId": "FRA-014694W"
      }
    }
  ]
}
