{
  "type": "FeatureCollection",
  "features": [
    {
      "type": "Feature",
      "id": 205249,
      "geometry": {
        "type": "Point",
        "coordinates": [
          -100.498306999766,
          28.708603000102
        ]
      },
      "properties": {
        "OBJECTID": 205249,
        "CROSSING": "764108U",
        "EFFDATE": 1770336000000,
        "REASON": "14",
        "StateCode": "48",
        "CountyCode": "48323",
        "STCYFIPS": "48323",
        "CITYCD": "483232030",
        "RAILROAD": "UP",
        "RRDIV": "South Texas",
        "RRSUBDIV": "Eagle Pass Sub",
        "HIGHWAY": "BU0277N",
        "STREET": "Main Street",
        "TTSTN": "698350",
        "MILEPOST": "0033.713",
        "TYPEXING": "Public",
        "POSXING": "At Grade",
        "PRVCAT": "14",
        "INIT": "2",
        "LATITUDE": 28.708603,
        "LONGITUD": -100.498307,
        "LLSOURCE": "1",
        "WHISTBAN": "0",
        "RRCONT": "4025443721",
        "POLCONT": "8008488715",
        "INV_LINK": "https://safetydata.fra.dot.gov/OfficeofSafety/PublicSite/Crossing/Crossing.aspx?phasetype=C&rpttype=I&txtcrossingnum=764108U",
        "ACC_LINK": "https://safetydata.fra.dot.gov/OfficeofSafety/PublicSite/Crossing/Crossing.aspx?phasetype=C&rpttype=A&txtcrossingnum=764108U",
        "TTSTNNAM": "",
        "XPURPOSE": "1",
        "OPERATINGR": "UP",
        "OPERATIN_1": "Primary",
        "DAYTHRU": 9,
        "NGHTTHRU": 9,
        "MAINTRK": 1,
        "SIDINGTRK": 0,
        "YARDTRK": 1,
        "TRANSITTRK": 0,
        "INDUSTRYTR": 0,
        "OTHRTRK": 1,
        "WDCODE": "All other Gates",
        "REVISIONDA": "1975/01/01 00:00:00",
        "LASTUPDATE": "2/6/2026",
        "AADT": "6096",
        "AADTYEAR": "2024",
        "STATENAME": "TEXAS",
        "STATEAB": "TX",
        "COUNTYNAME": "MAVERICK",
        "CITYNAME": "EAGLE PASS",
        "LATDD": 28.708603,
        "LONGDD": -100.498307,
        "gridlyProductionCertified": true,
        "gridlyClassification": "PUBLIC_ROADWAY",
        "gridlyDisplayName": "Main Street",
        "gridlyId": "FRA-764108U"
      }
    },
    {
      "type": "Feature",
      "id": 205467,
      "geometry": {
        "type": "Point",
        "coordinates": [
          -100.498442000383,
          28.691761999909
        ]
      },
      "properties": {
        "OBJECTID": 205467,
        "CROSSING": "764113R",
        "EFFDATE": 1770336000000,
        "REASON": "14",
        "StateCode": "48",
        "CountyCode": "48323",
        "STCYFIPS": "48323",
        "CITYCD": "483232030",
        "RAILROAD": "UP",
        "RRDIV": "SOUTH TEXAS",
        "RRSUBDIV": "Eagle Pass Sub",
        "HIGHWAY": "ST 0000",
        "STREET": "INDUSTRIAL PARK BOULEVARD",
        "TTSTN": "698350",
        "MILEPOST": "0034.857",
        "TYPEXING": "Public",
        "POSXING": "At Grade",
        "PRVCAT": "14",
        "INIT": "2",
        "LATITUDE": 28.691762,
        "LONGITUD": -100.498442,
        "LLSOURCE": "1",
        "WHISTBAN": "0",
        "RRCONT": "4025443721",
        "POLCONT": "8008488715",
        "INV_LINK": "https://safetydata.fra.dot.gov/OfficeofSafety/PublicSite/Crossing/Crossing.aspx?phasetype=C&rpttype=I&txtcrossingnum=764113R",
        "ACC_LINK": "https://safetydata.fra.dot.gov/OfficeofSafety/PublicSite/Crossing/Crossing.aspx?phasetype=C&rpttype=A&txtcrossingnum=764113R",
        "TTSTNNAM": "",
        "XPURPOSE": "1",
        "OPERATINGR": "UP",
        "OPERATIN_1": "Primary",
        "DAYTHRU": 0,
        "NGHTTHRU": 0,
        "MAINTRK": 0,
        "SIDINGTRK": 0,
        "YARDTRK": 3,
        "TRANSITTRK": 0,
        "INDUSTRYTR": 0,
        "OTHRTRK": 2,
        "WDCODE": "Crossbucks",
        "REVISIONDA": "1975/01/01 00:00:00",
        "LASTUPDATE": "2/6/2026",
        "AADT": "3166",
        "AADTYEAR": "2023",
        "STATENAME": "TEXAS",
        "STATEAB": "TX",
        "COUNTYNAME": "MAVERICK",
        "CITYNAME": "EAGLE PASS",
        "LATDD": 28.691762,
        "LONGDD": -100.498442,
        "gridlyProductionCertified": true,
        "gridlyClassification": "PUBLIC_ROADWAY",
        "gridlyDisplayName": "INDUSTRIAL PARK BOULEVARD",
        "gridlyId": "FRA-764113R"
      }
    },
    {
      "type": "Feature",
      "id": 206384,
      "geometry": {
        "type": "Point",
        "coordinates": [
          -100.45187730032,
          28.8063816002531
        ]
      },
      "properties": {
        "OBJECTID": 206384,
        "CROSSING": "974013R",
        "EFFDATE": 1775692800000,
        "REASON": "14",
        "StateCode": "48",
        "CountyCode": "48323",
        "STCYFIPS": "48323",
        "CITYCD": "483232030",
        "RAILROAD": "UP",
        "RRDIV": "South Texas",
        "RRSUBDIV": "Eagle Pass Sub",
        "HIGHWAY": "NA",
        "STREET": "Private",
        "TTSTN": "",
        "MILEPOST": "0026.040",
        "TYPEXING": "Private",
        "POSXING": "At Grade",
        "PRVCAT": "14",
        "INIT": "1",
        "LATITUDE": 28.8063816,
        "LONGITUD": -100.4518773,
        "LLSOURCE": "1",
        "WHISTBAN": "",
        "RRCONT": "4025443721",
        "POLCONT": "8008488719",
        "INV_LINK": "https://safetydata.fra.dot.gov/OfficeofSafety/PublicSite/Crossing/Crossing.aspx?phasetype=C&rpttype=I&txtcrossingnum=974013R",
        "ACC_LINK": "https://safetydata.fra.dot.gov/OfficeofSafety/PublicSite/Crossing/Crossing.aspx?phasetype=C&rpttype=A&txtcrossingnum=974013R",
        "TTSTNNAM": "",
        "XPURPOSE": "1",
        "OPERATINGR": "UP",
        "OPERATIN_1": "Primary",
        "DAYTHRU": 0,
        "NGHTTHRU": 0,
        "MAINTRK": 0,
        "SIDINGTRK": 0,
        "YARDTRK": 0,
        "TRANSITTRK": 0,
        "INDUSTRYTR": 1,
        "OTHRTRK": 0,
        "WDCODE": "",
        "REVISIONDA": "1975/01/01 00:00:00",
        "LASTUPDATE": "4/9/2026",
        "AADT": "",
        "AADTYEAR": "",
        "STATENAME": "TEXAS",
        "STATEAB": "TX",
        "COUNTYNAME": "MAVERICK",
        "CITYNAME": "EAGLE PASS",
        "LATDD": 28.8063816,
        "LONGDD": -100.4518773,
        "gridlyProductionCertified": true,
        "gridlyClassification": "PUBLIC_ROADWAY",
        "gridlyDisplayName": "Private",
        "gridlyId": "FRA-974013R"
      }
    },
    {
      "type": "Feature",
      "id": 207676,
      "geometry": {
        "type": "Point",
        "coordinates": [
          -100.405917499718,
          28.9262068998616
        ]
      },
      "properties": {
        "OBJECTID": 207676,
        "CROSSING": "742941U",
        "EFFDATE": 1757894400000,
        "REASON": "14",
        "StateCode": "48",
        "CountyCode": "48323",
        "STCYFIPS": "48323",
        "CITYCD": "483232030",
        "RAILROAD": "UP",
        "RRDIV": "SOUTH TEXAS",
        "RRSUBDIV": "EAGLE PASS SUB",
        "HIGHWAY": "PRIVATE",
        "STREET": "PRIVATE",
        "TTSTN": "698350",
        "MILEPOST": "0017.110",
        "TYPEXING": "Private",
        "POSXING": "At Grade",
        "PRVCAT": "14",
        "INIT": "1",
        "LATITUDE": 28.9262069,
        "LONGITUD": -100.4059175,
        "LLSOURCE": "1",
        "WHISTBAN": "0",
        "RRCONT": "4025443721",
        "POLCONT": "8008488715",
        "INV_LINK": "https://safetydata.fra.dot.gov/OfficeofSafety/PublicSite/Crossing/Crossing.aspx?phasetype=C&rpttype=I&txtcrossingnum=742941U",
        "ACC_LINK": "https://safetydata.fra.dot.gov/OfficeofSafety/PublicSite/Crossing/Crossing.aspx?phasetype=C&rpttype=A&txtcrossingnum=742941U",
        "TTSTNNAM": "",
        "XPURPOSE": "1",
        "OPERATINGR": "UP",
        "OPERATIN_1": "Primary",
        "DAYTHRU": 9,
        "NGHTTHRU": 9,
        "MAINTRK": 1,
        "SIDINGTRK": 0,
        "YARDTRK": 0,
        "TRANSITTRK": 0,
        "INDUSTRYTR": 0,
        "OTHRTRK": 0,
        "WDCODE": "",
        "REVISIONDA": "1975/01/01 00:00:00",
        "LASTUPDATE": "9/15/2025",
        "AADT": "1",
        "AADTYEAR": "1970",
        "STATENAME": "TEXAS",
        "STATEAB": "TX",
        "COUNTYNAME": "MAVERICK",
        "CITYNAME": "EAGLE PASS",
        "LATDD": 28.9262069,
        "LONGDD": -100.4059175,
        "gridlyProductionCertified": true,
        "gridlyClassification": "PUBLIC_ROADWAY",
        "gridlyDisplayName": "PRIVATE",
        "gridlyId": "FRA-742941U"
      }
    },
    {
      "type": "Feature",
      "id": 207753,
      "geometry": {
        "type": "Point",
        "coordinates": [
          -100.400104300291,
          28.9903964997549
        ]
      },
      "properties": {
        "OBJECTID": 207753,
        "CROSSING": "921057U",
        "EFFDATE": 1757894400000,
        "REASON": "14",
        "StateCode": "48",
        "CountyCode": "48323",
        "STCYFIPS": "48323",
        "CITYCD": "483232030",
        "RAILROAD": "UP",
        "RRDIV": "SOUTH TEXAS",
        "RRSUBDIV": "EAGLE PASS SUB",
        "HIGHWAY": "NA",
        "STREET": "Private UPRR",
        "TTSTN": "698350",
        "MILEPOST": "0012.620",
        "TYPEXING": "Private",
        "POSXING": "At Grade",
        "PRVCAT": "14",
        "INIT": "1",
        "LATITUDE": 28.9903965,
        "LONGITUD": -100.4001043,
        "LLSOURCE": "1",
        "WHISTBAN": "0",
        "RRCONT": "4025443721",
        "POLCONT": "8008488715",
        "INV_LINK": "https://safetydata.fra.dot.gov/OfficeofSafety/PublicSite/Crossing/Crossing.aspx?phasetype=C&rpttype=I&txtcrossingnum=921057U",
        "ACC_LINK": "https://safetydata.fra.dot.gov/OfficeofSafety/PublicSite/Crossing/Crossing.aspx?phasetype=C&rpttype=A&txtcrossingnum=921057U",
        "TTSTNNAM": "",
        "XPURPOSE": "1",
        "OPERATINGR": "UP",
        "OPERATIN_1": "Primary",
        "DAYTHRU": 9,
        "NGHTTHRU": 9,
        "MAINTRK": 1,
        "SIDINGTRK": 1,
        "YARDTRK": 0,
        "TRANSITTRK": 0,
        "INDUSTRYTR": 0,
        "OTHRTRK": 0,
        "WDCODE": "",
        "REVISIONDA": "1975/01/01 00:00:00",
        "LASTUPDATE": "9/15/2025",
        "AADT": "1",
        "AADTYEAR": "",
        "STATENAME": "TEXAS",
        "STATEAB": "TX",
        "COUNTYNAME": "MAVERICK",
        "CITYNAME": "EAGLE PASS",
        "LATDD": 28.9903965,
        "LONGDD": -100.4001043,
        "gridlyProductionCertified": true,
        "gridlyClassification": "PUBLIC_ROADWAY",
        "gridlyDisplayName": "Private UPRR",
        "gridlyId": "FRA-921057U"
      }
    },
    {
      "type": "Feature",
      "id": 210913,
      "geometry": {
        "type": "Point",
        "coordinates": [
          -100.498316999811,
          28.7061849998407
        ]
      },
      "properties": {
        "OBJECTID": 210913,
        "CROSSING": "972478V",
        "EFFDATE": 1756339200000,
        "REASON": "14",
        "StateCode": "48",
        "CountyCode": "48323",
        "STCYFIPS": "48323",
        "CITYCD": "483232030",
        "RAILROAD": "UP",
        "RRDIV": "SOUTH TEXAS",
        "RRSUBDIV": "EAGLE PASS SUB",
        "HIGHWAY": "TBD",
        "STREET": "US 57/GARRISON STREET",
        "TTSTN": "",
        "MILEPOST": "0033.880",
        "TYPEXING": "Public",
        "POSXING": "RR Under",
        "PRVCAT": "14",
        "INIT": "1",
        "LATITUDE": 28.706185,
        "LONGITUD": -100.498317,
        "LLSOURCE": "1",
        "WHISTBAN": "",
        "RRCONT": "4025443721",
        "POLCONT": "8008488715",
        "INV_LINK": "https://safetydata.fra.dot.gov/OfficeofSafety/PublicSite/Crossing/Crossing.aspx?phasetype=C&rpttype=I&txtcrossingnum=972478V",
        "ACC_LINK": "https://safetydata.fra.dot.gov/OfficeofSafety/PublicSite/Crossing/Crossing.aspx?phasetype=C&rpttype=A&txtcrossingnum=972478V",
        "TTSTNNAM": "",
        "XPURPOSE": "1",
        "OPERATINGR": "UP",
        "OPERATIN_1": "Primary",
        "DAYTHRU": 6,
        "NGHTTHRU": 6,
        "MAINTRK": 1,
        "SIDINGTRK": 0,
        "YARDTRK": 0,
        "TRANSITTRK": 0,
        "INDUSTRYTR": 0,
        "OTHRTRK": 0,
        "WDCODE": "",
        "REVISIONDA": "1975/01/01 00:00:00",
        "LASTUPDATE": "8/28/2025",
        "AADT": "",
        "AADTYEAR": "",
        "STATENAME": "TEXAS",
        "STATEAB": "TX",
        "COUNTYNAME": "MAVERICK",
        "CITYNAME": "EAGLE PASS",
        "LATDD": 28.706185,
        "LONGDD": -100.498317,
        "gridlyProductionCertified": true,
        "gridlyClassification": "PUBLIC_ROADWAY",
        "gridlyDisplayName": "US 57/GARRISON STREET",
        "gridlyId": "FRA-972478V"
      }
    },
    {
      "type": "Feature",
      "id": 210914,
      "geometry": {
        "type": "Point",
        "coordinates": [
          -100.48954049991,
          28.7473193003706
        ]
      },
      "properties": {
        "OBJECTID": 210914,
        "CROSSING": "742938L",
        "EFFDATE": 1756339200000,
        "REASON": "14",
        "StateCode": "48",
        "CountyCode": "48323",
        "STCYFIPS": "48323",
        "CITYCD": "483232030",
        "RAILROAD": "UP",
        "RRDIV": "SOUTH TEXAS",
        "RRSUBDIV": "EAGLE PASS SUB",
        "HIGHWAY": "PRIVATE",
        "STREET": "DOCTOR GATES DRIVE",
        "TTSTN": "698350",
        "MILEPOST": "0030.960",
        "TYPEXING": "Private",
        "POSXING": "At Grade",
        "PRVCAT": "14",
        "INIT": "1",
        "LATITUDE": 28.7473193,
        "LONGITUD": -100.4895405,
        "LLSOURCE": "1",
        "WHISTBAN": "0",
        "RRCONT": "4025443721",
        "POLCONT": "8008488715",
        "INV_LINK": "https://safetydata.fra.dot.gov/OfficeofSafety/PublicSite/Crossing/Crossing.aspx?phasetype=C&rpttype=I&txtcrossingnum=742938L",
        "ACC_LINK": "https://safetydata.fra.dot.gov/OfficeofSafety/PublicSite/Crossing/Crossing.aspx?phasetype=C&rpttype=A&txtcrossingnum=742938L",
        "TTSTNNAM": "",
        "XPURPOSE": "1",
        "OPERATINGR": "UP",
        "OPERATIN_1": "Primary",
        "DAYTHRU": 9,
        "NGHTTHRU": 9,
        "MAINTRK": 1,
        "SIDINGTRK": 0,
        "YARDTRK": 1,
        "TRANSITTRK": 0,
        "INDUSTRYTR": 0,
        "OTHRTRK": 0,
        "WDCODE": "",
        "REVISIONDA": "1975/01/01 00:00:00",
        "LASTUPDATE": "8/28/2025",
        "AADT": "1",
        "AADTYEAR": "1970",
        "STATENAME": "TEXAS",
        "STATEAB": "TX",
        "COUNTYNAME": "MAVERICK",
        "CITYNAME": "EAGLE PASS",
        "LATDD": 28.7473193,
        "LONGDD": -100.4895405,
        "gridlyProductionCertified": true,
        "gridlyClassification": "PUBLIC_ROADWAY",
        "gridlyDisplayName": "DOCTOR GATES DRIVE",
        "gridlyId": "FRA-742938L"
      }
    },
    {
      "type": "Feature",
      "id": 210915,
      "geometry": {
        "type": "Point",
        "coordinates": [
          -100.470806299949,
          28.7794659996187
        ]
      },
      "properties": {
        "OBJECTID": 210915,
        "CROSSING": "742939T",
        "EFFDATE": 1756339200000,
        "REASON": "14",
        "StateCode": "48",
        "CountyCode": "48323",
        "STCYFIPS": "48323",
        "CITYCD": "483232030",
        "RAILROAD": "UP",
        "RRDIV": "SOUTH TEXAS",
        "RRSUBDIV": "Eagle Pass SUB",
        "HIGHWAY": "NA",
        "STREET": "PRIVATE UPRR",
        "TTSTN": "698350",
        "MILEPOST": "0028.402",
        "TYPEXING": "Private",
        "POSXING": "At Grade",
        "PRVCAT": "14",
        "INIT": "1",
        "LATITUDE": 28.779466,
        "LONGITUD": -100.4708063,
        "LLSOURCE": "1",
        "WHISTBAN": "0",
        "RRCONT": "4025443721",
        "POLCONT": "8008488715",
        "INV_LINK": "https://safetydata.fra.dot.gov/OfficeofSafety/PublicSite/Crossing/Crossing.aspx?phasetype=C&rpttype=I&txtcrossingnum=742939T",
        "ACC_LINK": "https://safetydata.fra.dot.gov/OfficeofSafety/PublicSite/Crossing/Crossing.aspx?phasetype=C&rpttype=A&txtcrossingnum=742939T",
        "TTSTNNAM": "",
        "XPURPOSE": "1",
        "OPERATINGR": "UP",
        "OPERATIN_1": "Primary",
        "DAYTHRU": 9,
        "NGHTTHRU": 9,
        "MAINTRK": 1,
        "SIDINGTRK": 0,
        "YARDTRK": 5,
        "TRANSITTRK": 0,
        "INDUSTRYTR": 1,
        "OTHRTRK": 0,
        "WDCODE": "",
        "REVISIONDA": "1975/01/01 00:00:00",
        "LASTUPDATE": "8/28/2025",
        "AADT": "1",
        "AADTYEAR": "1970",
        "STATENAME": "TEXAS",
        "STATEAB": "TX",
        "COUNTYNAME": "MAVERICK",
        "CITYNAME": "EAGLE PASS",
        "LATDD": 28.779466,
        "LONGDD": -100.4708063,
        "gridlyProductionCertified": true,
        "gridlyClassification": "PUBLIC_ROADWAY",
        "gridlyDisplayName": "PRIVATE UPRR",
        "gridlyId": "FRA-742939T"
      }
    },
    {
      "type": "Feature",
      "id": 210916,
      "geometry": {
        "type": "Point",
        "coordinates": [
          -100.471033400342,
          28.7859696996572
        ]
      },
      "properties": {
        "OBJECTID": 210916,
        "CROSSING": "742940M",
        "EFFDATE": 1756339200000,
        "REASON": "14",
        "StateCode": "48",
        "CountyCode": "48323",
        "STCYFIPS": "48323",
        "CITYCD": "483232030",
        "RAILROAD": "UP",
        "RRDIV": "SOUTH TEXAS",
        "RRSUBDIV": "EAGLE PASS SUB",
        "HIGHWAY": "PRIVATE",
        "STREET": "PRIVATE",
        "TTSTN": "698350",
        "MILEPOST": "0027.930",
        "TYPEXING": "Private",
        "POSXING": "At Grade",
        "PRVCAT": "14",
        "INIT": "1",
        "LATITUDE": 28.7859697,
        "LONGITUD": -100.4710334,
        "LLSOURCE": "1",
        "WHISTBAN": "0",
        "RRCONT": "4025443721",
        "POLCONT": "8008488715",
        "INV_LINK": "https://safetydata.fra.dot.gov/OfficeofSafety/PublicSite/Crossing/Crossing.aspx?phasetype=C&rpttype=I&txtcrossingnum=742940M",
        "ACC_LINK": "https://safetydata.fra.dot.gov/OfficeofSafety/PublicSite/Crossing/Crossing.aspx?phasetype=C&rpttype=A&txtcrossingnum=742940M",
        "TTSTNNAM": "",
        "XPURPOSE": "1",
        "OPERATINGR": "UP",
        "OPERATIN_1": "Primary",
        "DAYTHRU": 9,
        "NGHTTHRU": 9,
        "MAINTRK": 1,
        "SIDINGTRK": 0,
        "YARDTRK": 0,
        "TRANSITTRK": 0,
        "INDUSTRYTR": 0,
        "OTHRTRK": 0,
        "WDCODE": "",
        "REVISIONDA": "1975/01/01 00:00:00",
        "LASTUPDATE": "8/28/2025",
        "AADT": "1",
        "AADTYEAR": "1970",
        "STATENAME": "TEXAS",
        "STATEAB": "TX",
        "COUNTYNAME": "MAVERICK",
        "CITYNAME": "EAGLE PASS",
        "LATDD": 28.7859697,
        "LONGDD": -100.4710334,
        "gridlyProductionCertified": true,
        "gridlyClassification": "PUBLIC_ROADWAY",
        "gridlyDisplayName": "PRIVATE",
        "gridlyId": "FRA-742940M"
      }
    },
    {
      "type": "Feature",
      "id": 210917,
      "geometry": {
        "type": "Point",
        "coordinates": [
          -100.457635699819,
          28.8030830000066
        ]
      },
      "properties": {
        "OBJECTID": 210917,
        "CROSSING": "742942B",
        "EFFDATE": 1756339200000,
        "REASON": "14",
        "StateCode": "48",
        "CountyCode": "48323",
        "STCYFIPS": "48323",
        "CITYCD": "483232030",
        "RAILROAD": "UP",
        "RRDIV": "SOUTH TEXAS",
        "RRSUBDIV": "EAGLE PASS SUB",
        "HIGHWAY": "PRIVATE",
        "STREET": "PRIVATE",
        "TTSTN": "698350",
        "MILEPOST": "0026.450",
        "TYPEXING": "Private",
        "POSXING": "At Grade",
        "PRVCAT": "14",
        "INIT": "1",
        "LATITUDE": 28.803083,
        "LONGITUD": -100.4576357,
        "LLSOURCE": "1",
        "WHISTBAN": "0",
        "RRCONT": "4025443721",
        "POLCONT": "8008488715",
        "INV_LINK": "https://safetydata.fra.dot.gov/OfficeofSafety/PublicSite/Crossing/Crossing.aspx?phasetype=C&rpttype=I&txtcrossingnum=742942B",
        "ACC_LINK": "https://safetydata.fra.dot.gov/OfficeofSafety/PublicSite/Crossing/Crossing.aspx?phasetype=C&rpttype=A&txtcrossingnum=742942B",
        "TTSTNNAM": "",
        "XPURPOSE": "1",
        "OPERATINGR": "UP",
        "OPERATIN_1": "Primary",
        "DAYTHRU": 9,
        "NGHTTHRU": 9,
        "MAINTRK": 1,
        "SIDINGTRK": 0,
        "YARDTRK": 0,
        "TRANSITTRK": 0,
        "INDUSTRYTR": 0,
        "OTHRTRK": 0,
        "WDCODE": "",
        "REVISIONDA": "1975/01/01 00:00:00",
        "LASTUPDATE": "8/28/2025",
        "AADT": "1",
        "AADTYEAR": "1970",
        "STATENAME": "TEXAS",
        "STATEAB": "TX",
        "COUNTYNAME": "MAVERICK",
        "CITYNAME": "EAGLE PASS",
        "LATDD": 28.803083,
        "LONGDD": -100.4576357,
        "gridlyProductionCertified": true,
        "gridlyClassification": "PUBLIC_ROADWAY",
        "gridlyDisplayName": "PRIVATE",
        "gridlyId": "FRA-742942B"
      }
    },
    {
      "type": "Feature",
      "id": 210918,
      "geometry": {
        "type": "Point",
        "coordinates": [
          -100.45316070001,
          28.8055671999184
        ]
      },
      "properties": {
        "OBJECTID": 210918,
        "CROSSING": "742943H",
        "EFFDATE": 1756339200000,
        "REASON": "14",
        "StateCode": "48",
        "CountyCode": "48323",
        "STCYFIPS": "48323",
        "CITYCD": "483232030",
        "RAILROAD": "UP",
        "RRDIV": "SOUTH TEXAS",
        "RRSUBDIV": "EAGLE PASS SUB",
        "HIGHWAY": "PRIVATE",
        "STREET": "PRIVATE",
        "TTSTN": "698350",
        "MILEPOST": "0026.150",
        "TYPEXING": "Private",
        "POSXING": "At Grade",
        "PRVCAT": "14",
        "INIT": "1",
        "LATITUDE": 28.8055672,
        "LONGITUD": -100.4531607,
        "LLSOURCE": "1",
        "WHISTBAN": "0",
        "RRCONT": "4025443721",
        "POLCONT": "8008488715",
        "INV_LINK": "https://safetydata.fra.dot.gov/OfficeofSafety/PublicSite/Crossing/Crossing.aspx?phasetype=C&rpttype=I&txtcrossingnum=742943H",
        "ACC_LINK": "https://safetydata.fra.dot.gov/OfficeofSafety/PublicSite/Crossing/Crossing.aspx?phasetype=C&rpttype=A&txtcrossingnum=742943H",
        "TTSTNNAM": "",
        "XPURPOSE": "1",
        "OPERATINGR": "UP",
        "OPERATIN_1": "Primary",
        "DAYTHRU": 9,
        "NGHTTHRU": 9,
        "MAINTRK": 1,
        "SIDINGTRK": 0,
        "YARDTRK": 0,
        "TRANSITTRK": 0,
        "INDUSTRYTR": 0,
        "OTHRTRK": 0,
        "WDCODE": "",
        "REVISIONDA": "1975/01/01 00:00:00",
        "LASTUPDATE": "8/28/2025",
        "AADT": "1",
        "AADTYEAR": "1970",
        "STATENAME": "TEXAS",
        "STATEAB": "TX",
        "COUNTYNAME": "MAVERICK",
        "CITYNAME": "EAGLE PASS",
        "LATDD": 28.8055672,
        "LONGDD": -100.4531607,
        "gridlyProductionCertified": true,
        "gridlyClassification": "PUBLIC_ROADWAY",
        "gridlyDisplayName": "PRIVATE",
        "gridlyId": "FRA-742943H"
      }
    },
    {
      "type": "Feature",
      "id": 210919,
      "geometry": {
        "type": "Point",
        "coordinates": [
          -100.426049600431,
          28.8700827003496
        ]
      },
      "properties": {
        "OBJECTID": 210919,
        "CROSSING": "742946D",
        "EFFDATE": 1756339200000,
        "REASON": "14",
        "StateCode": "48",
        "CountyCode": "48323",
        "STCYFIPS": "48323",
        "CITYCD": "483232030",
        "RAILROAD": "UP",
        "RRDIV": "SOUTH TEXAS",
        "RRSUBDIV": "EAGLE PASS SUB",
        "HIGHWAY": "PRIVATE",
        "STREET": "PRIVATE",
        "TTSTN": "698350",
        "MILEPOST": "0021.300",
        "TYPEXING": "Private",
        "POSXING": "At Grade",
        "PRVCAT": "14",
        "INIT": "1",
        "LATITUDE": 28.8700827,
        "LONGITUD": -100.4260496,
        "LLSOURCE": "1",
        "WHISTBAN": "0",
        "RRCONT": "4025443721",
        "POLCONT": "8008488715",
        "INV_LINK": "https://safetydata.fra.dot.gov/OfficeofSafety/PublicSite/Crossing/Crossing.aspx?phasetype=C&rpttype=I&txtcrossingnum=742946D",
        "ACC_LINK": "https://safetydata.fra.dot.gov/OfficeofSafety/PublicSite/Crossing/Crossing.aspx?phasetype=C&rpttype=A&txtcrossingnum=742946D",
        "TTSTNNAM": "",
        "XPURPOSE": "1",
        "OPERATINGR": "UP",
        "OPERATIN_1": "Primary",
        "DAYTHRU": 9,
        "NGHTTHRU": 9,
        "MAINTRK": 1,
        "SIDINGTRK": 0,
        "YARDTRK": 0,
        "TRANSITTRK": 0,
        "INDUSTRYTR": 0,
        "OTHRTRK": 0,
        "WDCODE": "",
        "REVISIONDA": "1975/01/01 00:00:00",
        "LASTUPDATE": "8/28/2025",
        "AADT": "1",
        "AADTYEAR": "1970",
        "STATENAME": "TEXAS",
        "STATEAB": "TX",
        "COUNTYNAME": "MAVERICK",
        "CITYNAME": "EAGLE PASS",
        "LATDD": 28.8700827,
        "LONGDD": -100.4260496,
        "gridlyProductionCertified": true,
        "gridlyClassification": "PUBLIC_ROADWAY",
        "gridlyDisplayName": "PRIVATE",
        "gridlyId": "FRA-742946D"
      }
    },
    {
      "type": "Feature",
      "id": 210920,
      "geometry": {
        "type": "Point",
        "coordinates": [
          -100.424974900042,
          28.8846511998901
        ]
      },
      "properties": {
        "OBJECTID": 210920,
        "CROSSING": "742947K",
        "EFFDATE": 1756339200000,
        "REASON": "14",
        "StateCode": "48",
        "CountyCode": "48323",
        "STCYFIPS": "48323",
        "CITYCD": "483232030",
        "RAILROAD": "UP",
        "RRDIV": "SOUTH TEXAS",
        "RRSUBDIV": "EAGLE PASS SUB",
        "HIGHWAY": "NA",
        "STREET": "Private",
        "TTSTN": "698350",
        "MILEPOST": "0020.260",
        "TYPEXING": "Private",
        "POSXING": "At Grade",
        "PRVCAT": "14",
        "INIT": "1",
        "LATITUDE": 28.8846512,
        "LONGITUD": -100.4249749,
        "LLSOURCE": "1",
        "WHISTBAN": "0",
        "RRCONT": "4025443721",
        "POLCONT": "8008488715",
        "INV_LINK": "https://safetydata.fra.dot.gov/OfficeofSafety/PublicSite/Crossing/Crossing.aspx?phasetype=C&rpttype=I&txtcrossingnum=742947K",
        "ACC_LINK": "https://safetydata.fra.dot.gov/OfficeofSafety/PublicSite/Crossing/Crossing.aspx?phasetype=C&rpttype=A&txtcrossingnum=742947K",
        "TTSTNNAM": "",
        "XPURPOSE": "1",
        "OPERATINGR": "UP",
        "OPERATIN_1": "Primary",
        "DAYTHRU": 9,
        "NGHTTHRU": 9,
        "MAINTRK": 1,
        "SIDINGTRK": 0,
        "YARDTRK": 0,
        "TRANSITTRK": 0,
        "INDUSTRYTR": 0,
        "OTHRTRK": 0,
        "WDCODE": "",
        "REVISIONDA": "1975/01/01 00:00:00",
        "LASTUPDATE": "8/28/2025",
        "AADT": "1",
        "AADTYEAR": "1970",
        "STATENAME": "TEXAS",
        "STATEAB": "TX",
        "COUNTYNAME": "MAVERICK",
        "CITYNAME": "EAGLE PASS",
        "LATDD": 28.8846512,
        "LONGDD": -100.4249749,
        "gridlyProductionCertified": true,
        "gridlyClassification": "PUBLIC_ROADWAY",
        "gridlyDisplayName": "Private",
        "gridlyId": "FRA-742947K"
      }
    },
    {
      "type": "Feature",
      "id": 210921,
      "geometry": {
        "type": "Point",
        "coordinates": [
          -100.400120999973,
          28.9568393998574
        ]
      },
      "properties": {
        "OBJECTID": 210921,
        "CROSSING": "742949Y",
        "EFFDATE": 1756339200000,
        "REASON": "14",
        "StateCode": "48",
        "CountyCode": "48323",
        "STCYFIPS": "48323",
        "CITYCD": "483232030",
        "RAILROAD": "UP",
        "RRDIV": "SOUTH TEXAS",
        "RRSUBDIV": "EAGLE PASS SUB",
        "HIGHWAY": "PRIVATE",
        "STREET": "PRIVATE",
        "TTSTN": "698350",
        "MILEPOST": "0014.940",
        "TYPEXING": "Private",
        "POSXING": "At Grade",
        "PRVCAT": "14",
        "INIT": "1",
        "LATITUDE": 28.9568394,
        "LONGITUD": -100.400121,
        "LLSOURCE": "1",
        "WHISTBAN": "0",
        "RRCONT": "4025443721",
        "POLCONT": "8008488715",
        "INV_LINK": "https://safetydata.fra.dot.gov/OfficeofSafety/PublicSite/Crossing/Crossing.aspx?phasetype=C&rpttype=I&txtcrossingnum=742949Y",
        "ACC_LINK": "https://safetydata.fra.dot.gov/OfficeofSafety/PublicSite/Crossing/Crossing.aspx?phasetype=C&rpttype=A&txtcrossingnum=742949Y",
        "TTSTNNAM": "",
        "XPURPOSE": "1",
        "OPERATINGR": "UP",
        "OPERATIN_1": "Primary",
        "DAYTHRU": 9,
        "NGHTTHRU": 9,
        "MAINTRK": 1,
        "SIDINGTRK": 0,
        "YARDTRK": 0,
        "TRANSITTRK": 0,
        "INDUSTRYTR": 0,
        "OTHRTRK": 0,
        "WDCODE": "",
        "REVISIONDA": "1975/01/01 00:00:00",
        "LASTUPDATE": "8/28/2025",
        "AADT": "1",
        "AADTYEAR": "1970",
        "STATENAME": "TEXAS",
        "STATEAB": "TX",
        "COUNTYNAME": "MAVERICK",
        "CITYNAME": "EAGLE PASS",
        "LATDD": 28.9568394,
        "LONGDD": -100.400121,
        "gridlyProductionCertified": true,
        "gridlyClassification": "PUBLIC_ROADWAY",
        "gridlyDisplayName": "PRIVATE",
        "gridlyId": "FRA-742949Y"
      }
    },
    {
      "type": "Feature",
      "id": 210922,
      "geometry": {
        "type": "Point",
        "coordinates": [
          -100.433864600246,
          28.8399291996135
        ]
      },
      "properties": {
        "OBJECTID": 210922,
        "CROSSING": "921058B",
        "EFFDATE": 1756339200000,
        "REASON": "14",
        "StateCode": "48",
        "CountyCode": "48323",
        "STCYFIPS": "48323",
        "CITYCD": "483232030",
        "RAILROAD": "UP",
        "RRDIV": "SOUTH TEXAS",
        "RRSUBDIV": "EAGLE PASS SUB",
        "HIGHWAY": "NA",
        "STREET": "PRIVATE",
        "TTSTN": "698350",
        "MILEPOST": "0023.430",
        "TYPEXING": "Private",
        "POSXING": "At Grade",
        "PRVCAT": "14",
        "INIT": "1",
        "LATITUDE": 28.8399292,
        "LONGITUD": -100.4338646,
        "LLSOURCE": "1",
        "WHISTBAN": "0",
        "RRCONT": "4025443721",
        "POLCONT": "8008488715",
        "INV_LINK": "https://safetydata.fra.dot.gov/OfficeofSafety/PublicSite/Crossing/Crossing.aspx?phasetype=C&rpttype=I&txtcrossingnum=921058B",
        "ACC_LINK": "https://safetydata.fra.dot.gov/OfficeofSafety/PublicSite/Crossing/Crossing.aspx?phasetype=C&rpttype=A&txtcrossingnum=921058B",
        "TTSTNNAM": "",
        "XPURPOSE": "1",
        "OPERATINGR": "UP",
        "OPERATIN_1": "Primary",
        "DAYTHRU": 9,
        "NGHTTHRU": 9,
        "MAINTRK": 1,
        "SIDINGTRK": 1,
        "YARDTRK": 1,
        "TRANSITTRK": 0,
        "INDUSTRYTR": 0,
        "OTHRTRK": 0,
        "WDCODE": "",
        "REVISIONDA": "1975/01/01 00:00:00",
        "LASTUPDATE": "8/28/2025",
        "AADT": "1",
        "AADTYEAR": "",
        "STATENAME": "TEXAS",
        "STATEAB": "TX",
        "COUNTYNAME": "MAVERICK",
        "CITYNAME": "EAGLE PASS",
        "LATDD": 28.8399292,
        "LONGDD": -100.4338646,
        "gridlyProductionCertified": true,
        "gridlyClassification": "PUBLIC_ROADWAY",
        "gridlyDisplayName": "PRIVATE",
        "gridlyId": "FRA-921058B"
      }
    },
    {
      "type": "Feature",
      "id": 210923,
      "geometry": {
        "type": "Point",
        "coordinates": [
          -100.498314000337,
          28.7061820002779
        ]
      },
      "properties": {
        "OBJECTID": 210923,
        "CROSSING": "441692J",
        "EFFDATE": 1756339200000,
        "REASON": "14",
        "StateCode": "48",
        "CountyCode": "48323",
        "STCYFIPS": "48323",
        "CITYCD": "483232030",
        "RAILROAD": "UP",
        "RRDIV": "SOUTH TEXAS",
        "RRSUBDIV": "EAGLE PASS SUB",
        "HIGHWAY": "US 0057",
        "STREET": "WARD STREET",
        "TTSTN": "693784",
        "MILEPOST": "0033.880",
        "TYPEXING": "Public",
        "POSXING": "RR Over",
        "PRVCAT": "14",
        "INIT": "1",
        "LATITUDE": 28.706182,
        "LONGITUD": -100.498314,
        "LLSOURCE": "1",
        "WHISTBAN": "0",
        "RRCONT": "4025443721",
        "POLCONT": "8008488715",
        "INV_LINK": "https://safetydata.fra.dot.gov/OfficeofSafety/PublicSite/Crossing/Crossing.aspx?phasetype=C&rpttype=I&txtcrossingnum=441692J",
        "ACC_LINK": "https://safetydata.fra.dot.gov/OfficeofSafety/PublicSite/Crossing/Crossing.aspx?phasetype=C&rpttype=A&txtcrossingnum=441692J",
        "TTSTNNAM": "",
        "XPURPOSE": "1",
        "OPERATINGR": "UP",
        "OPERATIN_1": "Primary",
        "DAYTHRU": 6,
        "NGHTTHRU": 6,
        "MAINTRK": 1,
        "SIDINGTRK": 0,
        "YARDTRK": 0,
        "TRANSITTRK": 0,
        "INDUSTRYTR": 0,
        "OTHRTRK": 0,
        "WDCODE": "",
        "REVISIONDA": "1975/01/01 00:00:00",
        "LASTUPDATE": "8/28/2025",
        "AADT": "13300",
        "AADTYEAR": "2011",
        "STATENAME": "TEXAS",
        "STATEAB": "TX",
        "COUNTYNAME": "MAVERICK",
        "CITYNAME": "EAGLE PASS",
        "LATDD": 28.706182,
        "LONGDD": -100.498314,
        "gridlyProductionCertified": true,
        "gridlyClassification": "PUBLIC_ROADWAY",
        "gridlyDisplayName": "WARD STREET",
        "gridlyId": "FRA-441692J"
      }
    },
    {
      "type": "Feature",
      "id": 210924,
      "geometry": {
        "type": "Point",
        "coordinates": [
          -100.498281999651,
          28.7029019996954
        ]
      },
      "properties": {
        "OBJECTID": 210924,
        "CROSSING": "924238J",
        "EFFDATE": 1756339200000,
        "REASON": "14",
        "StateCode": "48",
        "CountyCode": "48323",
        "STCYFIPS": "48323",
        "CITYCD": "483232030",
        "RAILROAD": "UP",
        "RRDIV": "SOUTH TEXAS",
        "RRSUBDIV": "EAGLE PASS SUB",
        "HIGHWAY": "Na",
        "STREET": "FM 1021/El Indio Highway",
        "TTSTN": "",
        "MILEPOST": "0034.100",
        "TYPEXING": "Public",
        "POSXING": "RR Under",
        "PRVCAT": "14",
        "INIT": "1",
        "LATITUDE": 28.702902,
        "LONGITUD": -100.498282,
        "LLSOURCE": "1",
        "WHISTBAN": "",
        "RRCONT": "4025443721",
        "POLCONT": "8008488715",
        "INV_LINK": "https://safetydata.fra.dot.gov/OfficeofSafety/PublicSite/Crossing/Crossing.aspx?phasetype=C&rpttype=I&txtcrossingnum=924238J",
        "ACC_LINK": "https://safetydata.fra.dot.gov/OfficeofSafety/PublicSite/Crossing/Crossing.aspx?phasetype=C&rpttype=A&txtcrossingnum=924238J",
        "TTSTNNAM": "",
        "XPURPOSE": "1",
        "OPERATINGR": "UP",
        "OPERATIN_1": "Primary",
        "DAYTHRU": 6,
        "NGHTTHRU": 6,
        "MAINTRK": 1,
        "SIDINGTRK": 0,
        "YARDTRK": 0,
        "TRANSITTRK": 0,
        "INDUSTRYTR": 0,
        "OTHRTRK": 0,
        "WDCODE": "",
        "REVISIONDA": "1975/01/01 00:00:00",
        "LASTUPDATE": "8/28/2025",
        "AADT": "",
        "AADTYEAR": "",
        "STATENAME": "TEXAS",
        "STATEAB": "TX",
        "COUNTYNAME": "MAVERICK",
        "CITYNAME": "EAGLE PASS",
        "LATDD": 28.702902,
        "LONGDD": -100.498282,
        "gridlyProductionCertified": true,
        "gridlyClassification": "PUBLIC_ROADWAY",
        "gridlyDisplayName": "FM 1021/El Indio Highway",
        "gridlyId": "FRA-924238J"
      }
    },
    {
      "type": "Feature",
      "id": 210925,
      "geometry": {
        "type": "Point",
        "coordinates": [
          -100.491209199602,
          28.7383346999146
        ]
      },
      "properties": {
        "OBJECTID": 210925,
        "CROSSING": "924239R",
        "EFFDATE": 1756339200000,
        "REASON": "14",
        "StateCode": "48",
        "CountyCode": "48323",
        "STCYFIPS": "48323",
        "CITYCD": "483232030",
        "RAILROAD": "UP",
        "RRDIV": "SOUTH TEXAS",
        "RRSUBDIV": "EAGLE PASS SUB",
        "HIGHWAY": "US 0277",
        "STREET": "US 277/VETERANS BOULEVARD",
        "TTSTN": "698352",
        "MILEPOST": "0031.610",
        "TYPEXING": "Public",
        "POSXING": "RR Under",
        "PRVCAT": "14",
        "INIT": "1",
        "LATITUDE": 28.7383347,
        "LONGITUD": -100.4912092,
        "LLSOURCE": "1",
        "WHISTBAN": "0",
        "RRCONT": "4025443721",
        "POLCONT": "8008488715",
        "INV_LINK": "https://safetydata.fra.dot.gov/OfficeofSafety/PublicSite/Crossing/Crossing.aspx?phasetype=C&rpttype=I&txtcrossingnum=924239R",
        "ACC_LINK": "https://safetydata.fra.dot.gov/OfficeofSafety/PublicSite/Crossing/Crossing.aspx?phasetype=C&rpttype=A&txtcrossingnum=924239R",
        "TTSTNNAM": "",
        "XPURPOSE": "1",
        "OPERATINGR": "UP",
        "OPERATIN_1": "Primary",
        "DAYTHRU": 6,
        "NGHTTHRU": 6,
        "MAINTRK": 1,
        "SIDINGTRK": 0,
        "YARDTRK": 0,
        "TRANSITTRK": 0,
        "INDUSTRYTR": 0,
        "OTHRTRK": 0,
        "WDCODE": "",
        "REVISIONDA": "1975/01/01 00:00:00",
        "LASTUPDATE": "8/28/2025",
        "AADT": "5100",
        "AADTYEAR": "2011",
        "STATENAME": "TEXAS",
        "STATEAB": "TX",
        "COUNTYNAME": "MAVERICK",
        "CITYNAME": "EAGLE PASS",
        "LATDD": 28.7383347,
        "LONGDD": -100.4912092,
        "gridlyProductionCertified": true,
        "gridlyClassification": "PUBLIC_ROADWAY",
        "gridlyDisplayName": "US 277/VETERANS BOULEVARD",
        "gridlyId": "FRA-924239R"
      }
    },
    {
      "type": "Feature",
      "id": 210926,
      "geometry": {
        "type": "Point",
        "coordinates": [
          -100.485964000438,
          28.7594540002247
        ]
      },
      "properties": {
        "OBJECTID": 210926,
        "CROSSING": "441157X",
        "EFFDATE": 1756339200000,
        "REASON": "14",
        "StateCode": "48",
        "CountyCode": "48323",
        "STCYFIPS": "48323",
        "CITYCD": "483232030",
        "RAILROAD": "UP",
        "RRDIV": "SOUTH TEXAS",
        "RRSUBDIV": "Eagle Pass SUB",
        "HIGHWAY": "NA",
        "STREET": "ALL PRIVATE IN Yard - CLARKS PARK",
        "TTSTN": "",
        "MILEPOST": "0030.108",
        "TYPEXING": "Private",
        "POSXING": "At Grade",
        "PRVCAT": "14",
        "INIT": "1",
        "LATITUDE": 28.759454,
        "LONGITUD": -100.485964,
        "LLSOURCE": "1",
        "WHISTBAN": "",
        "RRCONT": "4025443721",
        "POLCONT": "8008488715",
        "INV_LINK": "https://safetydata.fra.dot.gov/OfficeofSafety/PublicSite/Crossing/Crossing.aspx?phasetype=C&rpttype=I&txtcrossingnum=441157X",
        "ACC_LINK": "https://safetydata.fra.dot.gov/OfficeofSafety/PublicSite/Crossing/Crossing.aspx?phasetype=C&rpttype=A&txtcrossingnum=441157X",
        "TTSTNNAM": "",
        "XPURPOSE": "1",
        "OPERATINGR": "UP",
        "OPERATIN_1": "Primary",
        "DAYTHRU": 8,
        "NGHTTHRU": 8,
        "MAINTRK": 0,
        "SIDINGTRK": 0,
        "YARDTRK": 1,
        "TRANSITTRK": 0,
        "INDUSTRYTR": 0,
        "OTHRTRK": 0,
        "WDCODE": "",
        "REVISIONDA": "1975/01/01 00:00:00",
        "LASTUPDATE": "8/28/2025",
        "AADT": "",
        "AADTYEAR": "",
        "STATENAME": "TEXAS",
        "STATEAB": "TX",
        "COUNTYNAME": "MAVERICK",
        "CITYNAME": "EAGLE PASS",
        "LATDD": 28.759454,
        "LONGDD": -100.485964,
        "gridlyProductionCertified": true,
        "gridlyClassification": "PUBLIC_ROADWAY",
        "gridlyDisplayName": "ALL PRIVATE IN Yard - CLARKS PARK",
        "gridlyId": "FRA-441157X"
      }
    },
    {
      "type": "Feature",
      "id": 210971,
      "geometry": {
        "type": "Point",
        "coordinates": [
          -100.49831900036,
          28.7039650003872
        ]
      },
      "properties": {
        "OBJECTID": 210971,
        "CROSSING": "978357T",
        "EFFDATE": 1756339200000,
        "REASON": "14",
        "StateCode": "48",
        "CountyCode": "48323",
        "STCYFIPS": "48323",
        "CITYCD": "483232030",
        "RAILROAD": "UP",
        "RRDIV": "South Texas",
        "RRSUBDIV": "Eagle Pass Sub",
        "HIGHWAY": "TBD",
        "STREET": "Williams Street Pedestrian",
        "TTSTN": "",
        "MILEPOST": "0034.033",
        "TYPEXING": "Public",
        "POSXING": "RR Over",
        "PRVCAT": "14",
        "INIT": "1",
        "LATITUDE": 28.703965,
        "LONGITUD": -100.498319,
        "LLSOURCE": "1",
        "WHISTBAN": "",
        "RRCONT": "4025443721",
        "POLCONT": "8008488715",
        "INV_LINK": "https://safetydata.fra.dot.gov/OfficeofSafety/PublicSite/Crossing/Crossing.aspx?phasetype=C&rpttype=I&txtcrossingnum=978357T",
        "ACC_LINK": "https://safetydata.fra.dot.gov/OfficeofSafety/PublicSite/Crossing/Crossing.aspx?phasetype=C&rpttype=A&txtcrossingnum=978357T",
        "TTSTNNAM": "",
        "XPURPOSE": "2",
        "OPERATINGR": "UP",
        "OPERATIN_1": "Primary",
        "DAYTHRU": 9,
        "NGHTTHRU": 9,
        "MAINTRK": 1,
        "SIDINGTRK": 0,
        "YARDTRK": 0,
        "TRANSITTRK": 0,
        "INDUSTRYTR": 0,
        "OTHRTRK": 0,
        "WDCODE": "",
        "REVISIONDA": "1975/01/01 00:00:00",
        "LASTUPDATE": "8/28/2025",
        "AADT": "",
        "AADTYEAR": "",
        "STATENAME": "TEXAS",
        "STATEAB": "TX",
        "COUNTYNAME": "MAVERICK",
        "CITYNAME": "EAGLE PASS",
        "LATDD": 28.703965,
        "LONGDD": -100.498319,
        "gridlyProductionCertified": true,
        "gridlyClassification": "PUBLIC_ROADWAY",
        "gridlyDisplayName": "Williams Street Pedestrian",
        "gridlyId": "FRA-978357T"
      }
    },
    {
      "type": "Feature",
      "id": 213009,
      "geometry": {
        "type": "Point",
        "coordinates": [
          -100.501979000033,
          28.697125999657
        ]
      },
      "properties": {
        "OBJECTID": 213009,
        "CROSSING": "440968T",
        "EFFDATE": 1758499200000,
        "REASON": "14",
        "StateCode": "48",
        "CountyCode": "48323",
        "STCYFIPS": "48323",
        "CITYCD": "483232030",
        "RAILROAD": "UP",
        "RRDIV": "SOUTH TEXAS",
        "RRSUBDIV": "EAGLE PASS SUB",
        "HIGHWAY": "NA",
        "STREET": "All Private in Yard",
        "TTSTN": "",
        "MILEPOST": "0034.630",
        "TYPEXING": "Private",
        "POSXING": "At Grade",
        "PRVCAT": "14",
        "INIT": "1",
        "LATITUDE": 28.697126,
        "LONGITUD": -100.501979,
        "LLSOURCE": "1",
        "WHISTBAN": "",
        "RRCONT": "4025443721",
        "POLCONT": "8008488715",
        "INV_LINK": "https://safetydata.fra.dot.gov/OfficeofSafety/PublicSite/Crossing/Crossing.aspx?phasetype=C&rpttype=I&txtcrossingnum=440968T",
        "ACC_LINK": "https://safetydata.fra.dot.gov/OfficeofSafety/PublicSite/Crossing/Crossing.aspx?phasetype=C&rpttype=A&txtcrossingnum=440968T",
        "TTSTNNAM": "",
        "XPURPOSE": "1",
        "OPERATINGR": "UP",
        "OPERATIN_1": "Primary",
        "DAYTHRU": 0,
        "NGHTTHRU": 0,
        "MAINTRK": 0,
        "SIDINGTRK": 0,
        "YARDTRK": 0,
        "TRANSITTRK": 0,
        "INDUSTRYTR": 1,
        "OTHRTRK": 0,
        "WDCODE": "",
        "REVISIONDA": "1975/01/01 00:00:00",
        "LASTUPDATE": "9/22/2025",
        "AADT": "",
        "AADTYEAR": "",
        "STATENAME": "TEXAS",
        "STATEAB": "TX",
        "COUNTYNAME": "MAVERICK",
        "CITYNAME": "EAGLE PASS",
        "LATDD": 28.697126,
        "LONGDD": -100.501979,
        "gridlyProductionCertified": true,
        "gridlyClassification": "PUBLIC_ROADWAY",
        "gridlyDisplayName": "All Private in Yard",
        "gridlyId": "FRA-440968T"
      }
    },
    {
      "type": "Feature",
      "id": 213846,
      "geometry": {
        "type": "Point",
        "coordinates": [
          -100.498300000093,
          28.7102149999556
        ]
      },
      "properties": {
        "OBJECTID": 213846,
        "CROSSING": "764107M",
        "EFFDATE": 1770336000000,
        "REASON": "14",
        "StateCode": "48",
        "CountyCode": "48323",
        "STCYFIPS": "48323",
        "CITYCD": "483232030",
        "RAILROAD": "UP",
        "RRDIV": "South Texas",
        "RRSUBDIV": "Eagle Pass Sub",
        "HIGHWAY": "ST 0000",
        "STREET": "Quarry Street",
        "TTSTN": "698350",
        "MILEPOST": "0033.570",
        "TYPEXING": "Public",
        "POSXING": "At Grade",
        "PRVCAT": "14",
        "INIT": "2",
        "LATITUDE": 28.710215,
        "LONGITUD": -100.4983,
        "LLSOURCE": "1",
        "WHISTBAN": "0",
        "RRCONT": "4025443721",
        "POLCONT": "8008488715",
        "INV_LINK": "https://safetydata.fra.dot.gov/OfficeofSafety/PublicSite/Crossing/Crossing.aspx?phasetype=C&rpttype=I&txtcrossingnum=764107M",
        "ACC_LINK": "https://safetydata.fra.dot.gov/OfficeofSafety/PublicSite/Crossing/Crossing.aspx?phasetype=C&rpttype=A&txtcrossingnum=764107M",
        "TTSTNNAM": "",
        "XPURPOSE": "1",
        "OPERATINGR": "UP",
        "OPERATIN_1": "Primary",
        "DAYTHRU": 9,
        "NGHTTHRU": 9,
        "MAINTRK": 1,
        "SIDINGTRK": 0,
        "YARDTRK": 1,
        "TRANSITTRK": 0,
        "INDUSTRYTR": 0,
        "OTHRTRK": 3,
        "WDCODE": "All other Gates",
        "REVISIONDA": "1975/01/01 00:00:00",
        "LASTUPDATE": "2/6/2026",
        "AADT": "1438",
        "AADTYEAR": "2023",
        "STATENAME": "TEXAS",
        "STATEAB": "TX",
        "COUNTYNAME": "MAVERICK",
        "CITYNAME": "EAGLE PASS",
        "LATDD": 28.710215,
        "LONGDD": -100.4983,
        "gridlyProductionCertified": true,
        "gridlyClassification": "PUBLIC_ROADWAY",
        "gridlyDisplayName": "Quarry Street",
        "gridlyId": "FRA-764107M"
      }
    },
    {
      "type": "Feature",
      "id": 213856,
      "geometry": {
        "type": "Point",
        "coordinates": [
          -100.498315000162,
          28.7071770002841
        ]
      },
      "properties": {
        "OBJECTID": 213856,
        "CROSSING": "764109B",
        "EFFDATE": 1770336000000,
        "REASON": "14",
        "StateCode": "48",
        "CountyCode": "48323",
        "STCYFIPS": "48323",
        "CITYCD": "483232030",
        "RAILROAD": "UP",
        "RRDIV": "South Texas",
        "RRSUBDIV": "Eagle Pass Sub",
        "HIGHWAY": "ST 0000",
        "STREET": "Rio Grande Street",
        "TTSTN": "698350",
        "MILEPOST": "0033.810",
        "TYPEXING": "Public",
        "POSXING": "At Grade",
        "PRVCAT": "14",
        "INIT": "2",
        "LATITUDE": 28.707177,
        "LONGITUD": -100.498315,
        "LLSOURCE": "1",
        "WHISTBAN": "0",
        "RRCONT": "4025443721",
        "POLCONT": "8008488715",
        "INV_LINK": "https://safetydata.fra.dot.gov/OfficeofSafety/PublicSite/Crossing/Crossing.aspx?phasetype=C&rpttype=I&txtcrossingnum=764109B",
        "ACC_LINK": "https://safetydata.fra.dot.gov/OfficeofSafety/PublicSite/Crossing/Crossing.aspx?phasetype=C&rpttype=A&txtcrossingnum=764109B",
        "TTSTNNAM": "",
        "XPURPOSE": "1",
        "OPERATINGR": "UP",
        "OPERATIN_1": "Primary",
        "DAYTHRU": 9,
        "NGHTTHRU": 9,
        "MAINTRK": 1,
        "SIDINGTRK": 0,
        "YARDTRK": 1,
        "TRANSITTRK": 0,
        "INDUSTRYTR": 0,
        "OTHRTRK": 2,
        "WDCODE": "All other Gates",
        "REVISIONDA": "1975/01/01 00:00:00",
        "LASTUPDATE": "2/6/2026",
        "AADT": "964",
        "AADTYEAR": "2023",
        "STATENAME": "TEXAS",
        "STATEAB": "TX",
        "COUNTYNAME": "MAVERICK",
        "CITYNAME": "EAGLE PASS",
        "LATDD": 28.707177,
        "LONGDD": -100.498315,
        "gridlyProductionCertified": true,
        "gridlyClassification": "PUBLIC_ROADWAY",
        "gridlyDisplayName": "Rio Grande Street",
        "gridlyId": "FRA-764109B"
      }
    },
    {
      "type": "Feature",
      "id": 214265,
      "geometry": {
        "type": "Point",
        "coordinates": [
          -100.495166999776,
          28.7224129997829
        ]
      },
      "properties": {
        "OBJECTID": 214265,
        "CROSSING": "764104S",
        "EFFDATE": 1770163200000,
        "REASON": "14",
        "StateCode": "48",
        "CountyCode": "48323",
        "STCYFIPS": "48323",
        "CITYCD": "483232030",
        "RAILROAD": "UP",
        "RRDIV": "South Texas",
        "RRSUBDIV": "Eagle Pass Sub",
        "HIGHWAY": "ST 0000",
        "STREET": "5th Street",
        "TTSTN": "698350",
        "MILEPOST": "0032.710",
        "TYPEXING": "Public",
        "POSXING": "At Grade",
        "PRVCAT": "14",
        "INIT": "1",
        "LATITUDE": 28.722413,
        "LONGITUD": -100.495167,
        "LLSOURCE": "1",
        "WHISTBAN": "0",
        "RRCONT": "4025443721",
        "POLCONT": "8008488715",
        "INV_LINK": "https://safetydata.fra.dot.gov/OfficeofSafety/PublicSite/Crossing/Crossing.aspx?phasetype=C&rpttype=I&txtcrossingnum=764104S",
        "ACC_LINK": "https://safetydata.fra.dot.gov/OfficeofSafety/PublicSite/Crossing/Crossing.aspx?phasetype=C&rpttype=A&txtcrossingnum=764104S",
        "TTSTNNAM": "",
        "XPURPOSE": "1",
        "OPERATINGR": "UP",
        "OPERATIN_1": "Primary",
        "DAYTHRU": 9,
        "NGHTTHRU": 9,
        "MAINTRK": 1,
        "SIDINGTRK": 0,
        "YARDTRK": 0,
        "TRANSITTRK": 0,
        "INDUSTRYTR": 0,
        "OTHRTRK": 0,
        "WDCODE": "All other Gates",
        "REVISIONDA": "1975/01/01 00:00:00",
        "LASTUPDATE": "2/4/2026",
        "AADT": "1046",
        "AADTYEAR": "2023",
        "STATENAME": "TEXAS",
        "STATEAB": "TX",
        "COUNTYNAME": "MAVERICK",
        "CITYNAME": "EAGLE PASS",
        "LATDD": 28.722413,
        "LONGDD": -100.495167,
        "gridlyProductionCertified": true,
        "gridlyClassification": "PUBLIC_ROADWAY",
        "gridlyDisplayName": "5th Street",
        "gridlyId": "FRA-764104S"
      }
    },
    {
      "type": "Feature",
      "id": 216114,
      "geometry": {
        "type": "Point",
        "coordinates": [
          -100.497611000355,
          28.7152750002951
        ]
      },
      "properties": {
        "OBJECTID": 216114,
        "CROSSING": "764106F",
        "EFFDATE": 1770249600000,
        "REASON": "14",
        "StateCode": "48",
        "CountyCode": "48323",
        "STCYFIPS": "48323",
        "CITYCD": "483232030",
        "RAILROAD": "UP",
        "RRDIV": "South Texas",
        "RRSUBDIV": "Eagle Pass Sub",
        "HIGHWAY": "ST 0000",
        "STREET": "Ferry Street",
        "TTSTN": "698350",
        "MILEPOST": "0033.220",
        "TYPEXING": "Public",
        "POSXING": "At Grade",
        "PRVCAT": "14",
        "INIT": "2",
        "LATITUDE": 28.715275,
        "LONGITUD": -100.497611,
        "LLSOURCE": "1",
        "WHISTBAN": "0",
        "RRCONT": "4025443721",
        "POLCONT": "8008488715",
        "INV_LINK": "https://safetydata.fra.dot.gov/OfficeofSafety/PublicSite/Crossing/Crossing.aspx?phasetype=C&rpttype=I&txtcrossingnum=764106F",
        "ACC_LINK": "https://safetydata.fra.dot.gov/OfficeofSafety/PublicSite/Crossing/Crossing.aspx?phasetype=C&rpttype=A&txtcrossingnum=764106F",
        "TTSTNNAM": "",
        "XPURPOSE": "1",
        "OPERATINGR": "UP",
        "OPERATIN_1": "Primary",
        "DAYTHRU": 9,
        "NGHTTHRU": 9,
        "MAINTRK": 1,
        "SIDINGTRK": 0,
        "YARDTRK": 0,
        "TRANSITTRK": 0,
        "INDUSTRYTR": 0,
        "OTHRTRK": 0,
        "WDCODE": "All other Gates",
        "REVISIONDA": "1975/01/01 00:00:00",
        "LASTUPDATE": "2/5/2026",
        "AADT": "4683",
        "AADTYEAR": "2023",
        "STATENAME": "TEXAS",
        "STATEAB": "TX",
        "COUNTYNAME": "MAVERICK",
        "CITYNAME": "EAGLE PASS",
        "LATDD": 28.715275,
        "LONGDD": -100.497611,
        "gridlyProductionCertified": true,
        "gridlyClassification": "PUBLIC_ROADWAY",
        "gridlyDisplayName": "Ferry Street",
        "gridlyId": "FRA-764106F"
      }
    },
    {
      "type": "Feature",
      "id": 216277,
      "geometry": {
        "type": "Point",
        "coordinates": [
          -100.495967999667,
          28.7200670001743
        ]
      },
      "properties": {
        "OBJECTID": 216277,
        "CROSSING": "912039X",
        "EFFDATE": 1770940800000,
        "REASON": "14",
        "StateCode": "48",
        "CountyCode": "48323",
        "STCYFIPS": "48323",
        "CITYCD": "483232030",
        "RAILROAD": "UP",
        "RRDIV": "South Texas",
        "RRSUBDIV": "Eagle Pass Sub",
        "HIGHWAY": "ST 0000",
        "STREET": "2nd Street",
        "TTSTN": "698350",
        "MILEPOST": "0032.880",
        "TYPEXING": "Public",
        "POSXING": "At Grade",
        "PRVCAT": "14",
        "INIT": "2",
        "LATITUDE": 28.720067,
        "LONGITUD": -100.495968,
        "LLSOURCE": "1",
        "WHISTBAN": "0",
        "RRCONT": "4025443721",
        "POLCONT": "8008488715",
        "INV_LINK": "https://safetydata.fra.dot.gov/OfficeofSafety/PublicSite/Crossing/Crossing.aspx?phasetype=C&rpttype=I&txtcrossingnum=912039X",
        "ACC_LINK": "https://safetydata.fra.dot.gov/OfficeofSafety/PublicSite/Crossing/Crossing.aspx?phasetype=C&rpttype=A&txtcrossingnum=912039X",
        "TTSTNNAM": "",
        "XPURPOSE": "1",
        "OPERATINGR": "UP",
        "OPERATIN_1": "Primary",
        "DAYTHRU": 9,
        "NGHTTHRU": 9,
        "MAINTRK": 1,
        "SIDINGTRK": 0,
        "YARDTRK": 0,
        "TRANSITTRK": 0,
        "INDUSTRYTR": 0,
        "OTHRTRK": 0,
        "WDCODE": "All other Gates",
        "REVISIONDA": "1975/01/01 00:00:00",
        "LASTUPDATE": "2/13/2026",
        "AADT": "2372",
        "AADTYEAR": "2024",
        "STATENAME": "TEXAS",
        "STATEAB": "TX",
        "COUNTYNAME": "MAVERICK",
        "CITYNAME": "EAGLE PASS",
        "LATDD": 28.720067,
        "LONGDD": -100.495968,
        "gridlyProductionCertified": true,
        "gridlyClassification": "PUBLIC_ROADWAY",
        "gridlyDisplayName": "2nd Street",
        "gridlyId": "FRA-912039X"
      }
    }
  ]
}
