{
  "type": "FeatureCollection",
  "features": [
    {
      "type": "Feature",
      "id": 201506,
      "geometry": {
        "type": "Point",
        "coordinates": [
          -99.0958865998205,
          28.8952683002535
        ]
      },
      "properties": {
        "OBJECTID": 201506,
        "CROSSING": "448479K",
        "EFFDATE": 1771891200000,
        "REASON": "14",
        "StateCode": "48",
        "CountyCode": "48163",
        "STCYFIPS": "48163",
        "CITYCD": "481635260",
        "RAILROAD": "UP",
        "RRDIV": "SOUTH TEXAS",
        "RRSUBDIV": "LAREDO SUB",
        "HIGHWAY": "LS0000",
        "STREET": "WEST TRINITY Street",
        "TTSTN": "698140",
        "MILEPOST": "0312.540",
        "TYPEXING": "Public",
        "POSXING": "At Grade",
        "PRVCAT": "14",
        "INIT": "2",
        "LATITUDE": 28.8952683,
        "LONGITUD": -99.0958866,
        "LLSOURCE": "1",
        "WHISTBAN": "0",
        "RRCONT": "4025443721",
        "POLCONT": "8008488715",
        "INV_LINK": "https://safetydata.fra.dot.gov/OfficeofSafety/PublicSite/Crossing/Crossing.aspx?phasetype=C&rpttype=I&txtcrossingnum=448479K",
        "ACC_LINK": "https://safetydata.fra.dot.gov/OfficeofSafety/PublicSite/Crossing/Crossing.aspx?phasetype=C&rpttype=A&txtcrossingnum=448479K",
        "TTSTNNAM": "",
        "XPURPOSE": "1",
        "OPERATINGR": "UP",
        "OPERATIN_1": "Primary",
        "DAYTHRU": 10,
        "NGHTTHRU": 10,
        "MAINTRK": 1,
        "SIDINGTRK": 0,
        "YARDTRK": 0,
        "TRANSITTRK": 0,
        "INDUSTRYTR": 0,
        "OTHRTRK": 0,
        "WDCODE": "All other Gates",
        "REVISIONDA": "1975/01/01 00:00:00",
        "LASTUPDATE": "2/24/2026",
        "AADT": "4232",
        "AADTYEAR": "2020",
        "STATENAME": "TEXAS",
        "STATEAB": "TX",
        "COUNTYNAME": "FRIO",
        "CITYNAME": "PEARSALL",
        "LATDD": 28.8952683,
        "LONGDD": -99.0958866,
        "gridlyProductionCertified": true,
        "gridlyClassification": "PUBLIC_ROADWAY",
        "gridlyDisplayName": "WEST TRINITY Street",
        "gridlyId": "FRA-448479K"
      }
    },
    {
      "type": "Feature",
      "id": 206090,
      "geometry": {
        "type": "Point",
        "coordinates": [
          -99.1689399999219,
          28.6711034001564
        ]
      },
      "properties": {
        "OBJECTID": 206090,
        "CROSSING": "448499W",
        "EFFDATE": 1771891200000,
        "REASON": "14",
        "StateCode": "48",
        "CountyCode": "48163",
        "STCYFIPS": "48163",
        "CITYCD": "481631930",
        "RAILROAD": "UP",
        "RRDIV": "SOUTH TEXAS",
        "RRSUBDIV": "LAREDO SUB",
        "HIGHWAY": "LS0000",
        "STREET": "WEST CURTIS STREET",
        "TTSTN": "698187",
        "MILEPOST": "0328.600",
        "TYPEXING": "Public",
        "POSXING": "At Grade",
        "PRVCAT": "14",
        "INIT": "2",
        "LATITUDE": 28.6711034,
        "LONGITUD": -99.16894,
        "LLSOURCE": "1",
        "WHISTBAN": "0",
        "RRCONT": "4025443721",
        "POLCONT": "8008488715",
        "INV_LINK": "https://safetydata.fra.dot.gov/OfficeofSafety/PublicSite/Crossing/Crossing.aspx?phasetype=C&rpttype=I&txtcrossingnum=448499W",
        "ACC_LINK": "https://safetydata.fra.dot.gov/OfficeofSafety/PublicSite/Crossing/Crossing.aspx?phasetype=C&rpttype=A&txtcrossingnum=448499W",
        "TTSTNNAM": "",
        "XPURPOSE": "1",
        "OPERATINGR": "UP",
        "OPERATIN_1": "Primary",
        "DAYTHRU": 10,
        "NGHTTHRU": 10,
        "MAINTRK": 1,
        "SIDINGTRK": 0,
        "YARDTRK": 0,
        "TRANSITTRK": 0,
        "INDUSTRYTR": 0,
        "OTHRTRK": 0,
        "WDCODE": "All other Gates",
        "REVISIONDA": "1975/01/01 00:00:00",
        "LASTUPDATE": "2/24/2026",
        "AADT": "1308",
        "AADTYEAR": "2020",
        "STATENAME": "TEXAS",
        "STATEAB": "TX",
        "COUNTYNAME": "FRIO",
        "CITYNAME": "DILLEY",
        "LATDD": 28.6711034,
        "LONGDD": -99.16894,
        "gridlyProductionCertified": true,
        "gridlyClassification": "PUBLIC_ROADWAY",
        "gridlyDisplayName": "WEST CURTIS STREET",
        "gridlyId": "FRA-448499W"
      }
    },
    {
      "type": "Feature",
      "id": 206091,
      "geometry": {
        "type": "Point",
        "coordinates": [
          -99.1659323999264,
          28.6811315996452
        ]
      },
      "properties": {
        "OBJECTID": 206091,
        "CROSSING": "448496B",
        "EFFDATE": 1771891200000,
        "REASON": "14",
        "StateCode": "48",
        "CountyCode": "48163",
        "STCYFIPS": "48163",
        "CITYCD": "481631930",
        "RAILROAD": "UP",
        "RRDIV": "SOUTH TEXAS",
        "RRSUBDIV": "LAREDO SUB",
        "HIGHWAY": "CR3700",
        "STREET": "COUNTY ROAD 3700",
        "TTSTN": "698187",
        "MILEPOST": "0327.930",
        "TYPEXING": "Public",
        "POSXING": "At Grade",
        "PRVCAT": "14",
        "INIT": "2",
        "LATITUDE": 28.6811316,
        "LONGITUD": -99.1659324,
        "LLSOURCE": "1",
        "WHISTBAN": "0",
        "RRCONT": "4025443721",
        "POLCONT": "8008488715",
        "INV_LINK": "https://safetydata.fra.dot.gov/OfficeofSafety/PublicSite/Crossing/Crossing.aspx?phasetype=C&rpttype=I&txtcrossingnum=448496B",
        "ACC_LINK": "https://safetydata.fra.dot.gov/OfficeofSafety/PublicSite/Crossing/Crossing.aspx?phasetype=C&rpttype=A&txtcrossingnum=448496B",
        "TTSTNNAM": "",
        "XPURPOSE": "1",
        "OPERATINGR": "UP",
        "OPERATIN_1": "Primary",
        "DAYTHRU": 10,
        "NGHTTHRU": 10,
        "MAINTRK": 1,
        "SIDINGTRK": 0,
        "YARDTRK": 0,
        "TRANSITTRK": 0,
        "INDUSTRYTR": 0,
        "OTHRTRK": 0,
        "WDCODE": "All other Gates",
        "REVISIONDA": "1975/01/01 00:00:00",
        "LASTUPDATE": "2/24/2026",
        "AADT": "1336",
        "AADTYEAR": "2024",
        "STATENAME": "TEXAS",
        "STATEAB": "TX",
        "COUNTYNAME": "FRIO",
        "CITYNAME": "DILLEY",
        "LATDD": 28.6811316,
        "LONGDD": -99.1659324,
        "gridlyProductionCertified": true,
        "gridlyClassification": "PUBLIC_ROADWAY",
        "gridlyDisplayName": "COUNTY ROAD 3700",
        "gridlyId": "FRA-448496B"
      }
    },
    {
      "type": "Feature",
      "id": 206092,
      "geometry": {
        "type": "Point",
        "coordinates": [
          -99.1695192003794,
          28.6691803998725
        ]
      },
      "properties": {
        "OBJECTID": 206092,
        "CROSSING": "448500N",
        "EFFDATE": 1771891200000,
        "REASON": "14",
        "StateCode": "48",
        "CountyCode": "48163",
        "STCYFIPS": "48163",
        "CITYCD": "481631930",
        "RAILROAD": "UP",
        "RRDIV": "SOUTH TEXAS",
        "RRSUBDIV": "LAREDO SUB",
        "HIGHWAY": "LS0000",
        "STREET": "EAST MILLER Street",
        "TTSTN": "698187",
        "MILEPOST": "0328.730",
        "TYPEXING": "Public",
        "POSXING": "At Grade",
        "PRVCAT": "14",
        "INIT": "2",
        "LATITUDE": 28.6691804,
        "LONGITUD": -99.1695192,
        "LLSOURCE": "1",
        "WHISTBAN": "0",
        "RRCONT": "4025443721",
        "POLCONT": "8008488715",
        "INV_LINK": "https://safetydata.fra.dot.gov/OfficeofSafety/PublicSite/Crossing/Crossing.aspx?phasetype=C&rpttype=I&txtcrossingnum=448500N",
        "ACC_LINK": "https://safetydata.fra.dot.gov/OfficeofSafety/PublicSite/Crossing/Crossing.aspx?phasetype=C&rpttype=A&txtcrossingnum=448500N",
        "TTSTNNAM": "",
        "XPURPOSE": "1",
        "OPERATINGR": "UP",
        "OPERATIN_1": "Primary",
        "DAYTHRU": 10,
        "NGHTTHRU": 10,
        "MAINTRK": 1,
        "SIDINGTRK": 0,
        "YARDTRK": 0,
        "TRANSITTRK": 0,
        "INDUSTRYTR": 0,
        "OTHRTRK": 0,
        "WDCODE": "All other Gates",
        "REVISIONDA": "1975/01/01 00:00:00",
        "LASTUPDATE": "2/24/2026",
        "AADT": "1231",
        "AADTYEAR": "2020",
        "STATENAME": "TEXAS",
        "STATEAB": "TX",
        "COUNTYNAME": "FRIO",
        "CITYNAME": "DILLEY",
        "LATDD": 28.6691804,
        "LONGDD": -99.1695192,
        "gridlyProductionCertified": true,
        "gridlyClassification": "PUBLIC_ROADWAY",
        "gridlyDisplayName": "EAST MILLER Street",
        "gridlyId": "FRA-448500N"
      }
    },
    {
      "type": "Feature",
      "id": 206648,
      "geometry": {
        "type": "Point",
        "coordinates": [
          -99.1279756003589,
          28.7846099997909
        ]
      },
      "properties": {
        "OBJECTID": 206648,
        "CROSSING": "448489R",
        "EFFDATE": 1776643200000,
        "REASON": "14",
        "StateCode": "48",
        "CountyCode": "48163",
        "STCYFIPS": "48163",
        "CITYCD": "481635260",
        "RAILROAD": "UP",
        "RRDIV": "SOUTH TEXAS",
        "RRSUBDIV": "LAREDO SUB",
        "HIGHWAY": "SS0581",
        "STREET": "SS0581",
        "TTSTN": "698183",
        "MILEPOST": "0320.390",
        "TYPEXING": "Public",
        "POSXING": "RR Under",
        "PRVCAT": "14",
        "INIT": "2",
        "LATITUDE": 28.78461,
        "LONGITUD": -99.1279756,
        "LLSOURCE": "1",
        "WHISTBAN": "0",
        "RRCONT": "4025443721",
        "POLCONT": "8008488715",
        "INV_LINK": "https://safetydata.fra.dot.gov/OfficeofSafety/PublicSite/Crossing/Crossing.aspx?phasetype=C&rpttype=I&txtcrossingnum=448489R",
        "ACC_LINK": "https://safetydata.fra.dot.gov/OfficeofSafety/PublicSite/Crossing/Crossing.aspx?phasetype=C&rpttype=A&txtcrossingnum=448489R",
        "TTSTNNAM": "",
        "XPURPOSE": "1",
        "OPERATINGR": "UP",
        "OPERATIN_1": "Primary",
        "DAYTHRU": 6,
        "NGHTTHRU": 6,
        "MAINTRK": 1,
        "SIDINGTRK": 0,
        "YARDTRK": 0,
        "TRANSITTRK": 0,
        "INDUSTRYTR": 0,
        "OTHRTRK": 0,
        "WDCODE": "",
        "REVISIONDA": "1975/01/01 00:00:00",
        "LASTUPDATE": "4/20/2026",
        "AADT": "971",
        "AADTYEAR": "2024",
        "STATENAME": "TEXAS",
        "STATEAB": "TX",
        "COUNTYNAME": "FRIO",
        "CITYNAME": "PEARSALL",
        "LATDD": 28.78461,
        "LONGDD": -99.1279756,
        "gridlyProductionCertified": true,
        "gridlyClassification": "PUBLIC_ROADWAY",
        "gridlyDisplayName": "SS0581",
        "gridlyId": "FRA-448489R"
      }
    },
    {
      "type": "Feature",
      "id": 206654,
      "geometry": {
        "type": "Point",
        "coordinates": [
          -98.9932388000635,
          29.0630532998656
        ]
      },
      "properties": {
        "OBJECTID": 206654,
        "CROSSING": "448464V",
        "EFFDATE": 1756684800000,
        "REASON": "14",
        "StateCode": "48",
        "CountyCode": "48163",
        "STCYFIPS": "48163",
        "CITYCD": "481635260",
        "RAILROAD": "UP",
        "RRDIV": "SOUTH TEXAS",
        "RRSUBDIV": "LAREDO SUB",
        "HIGHWAY": "NA",
        "STREET": "PRIVATE",
        "TTSTN": "692674",
        "MILEPOST": "0298.780",
        "TYPEXING": "Private",
        "POSXING": "At Grade",
        "PRVCAT": "14",
        "INIT": "1",
        "LATITUDE": 29.0630533,
        "LONGITUD": -98.9932388,
        "LLSOURCE": "1",
        "WHISTBAN": "0",
        "RRCONT": "4025443721",
        "POLCONT": "8008488715",
        "INV_LINK": "https://safetydata.fra.dot.gov/OfficeofSafety/PublicSite/Crossing/Crossing.aspx?phasetype=C&rpttype=I&txtcrossingnum=448464V",
        "ACC_LINK": "https://safetydata.fra.dot.gov/OfficeofSafety/PublicSite/Crossing/Crossing.aspx?phasetype=C&rpttype=A&txtcrossingnum=448464V",
        "TTSTNNAM": "",
        "XPURPOSE": "1",
        "OPERATINGR": "UP",
        "OPERATIN_1": "Primary",
        "DAYTHRU": 8,
        "NGHTTHRU": 8,
        "MAINTRK": 1,
        "SIDINGTRK": 0,
        "YARDTRK": 0,
        "TRANSITTRK": 0,
        "INDUSTRYTR": 0,
        "OTHRTRK": 0,
        "WDCODE": "",
        "REVISIONDA": "1975/01/01 00:00:00",
        "LASTUPDATE": "9/1/2025",
        "AADT": "1",
        "AADTYEAR": "1970",
        "STATENAME": "TEXAS",
        "STATEAB": "TX",
        "COUNTYNAME": "FRIO",
        "CITYNAME": "PEARSALL",
        "LATDD": 29.0630533,
        "LONGDD": -98.9932388,
        "gridlyProductionCertified": true,
        "gridlyClassification": "PUBLIC_ROADWAY",
        "gridlyDisplayName": "PRIVATE",
        "gridlyId": "FRA-448464V"
      }
    },
    {
      "type": "Feature",
      "id": 206655,
      "geometry": {
        "type": "Point",
        "coordinates": [
          -99.0481296000165,
          29.0285101998242
        ]
      },
      "properties": {
        "OBJECTID": 206655,
        "CROSSING": "448468X",
        "EFFDATE": 1756684800000,
        "REASON": "14",
        "StateCode": "48",
        "CountyCode": "48163",
        "STCYFIPS": "48163",
        "CITYCD": "481635260",
        "RAILROAD": "UP",
        "RRDIV": "SOUTH TEXAS",
        "RRSUBDIV": "Laredo Sub",
        "HIGHWAY": "NA",
        "STREET": "Private",
        "TTSTN": "692674",
        "MILEPOST": "0302.930",
        "TYPEXING": "Private",
        "POSXING": "At Grade",
        "PRVCAT": "14",
        "INIT": "1",
        "LATITUDE": 29.0285102,
        "LONGITUD": -99.0481296,
        "LLSOURCE": "1",
        "WHISTBAN": "0",
        "RRCONT": "4025443721",
        "POLCONT": "8008488715",
        "INV_LINK": "https://safetydata.fra.dot.gov/OfficeofSafety/PublicSite/Crossing/Crossing.aspx?phasetype=C&rpttype=I&txtcrossingnum=448468X",
        "ACC_LINK": "https://safetydata.fra.dot.gov/OfficeofSafety/PublicSite/Crossing/Crossing.aspx?phasetype=C&rpttype=A&txtcrossingnum=448468X",
        "TTSTNNAM": "",
        "XPURPOSE": "1",
        "OPERATINGR": "UP",
        "OPERATIN_1": "Primary",
        "DAYTHRU": 8,
        "NGHTTHRU": 8,
        "MAINTRK": 1,
        "SIDINGTRK": 0,
        "YARDTRK": 0,
        "TRANSITTRK": 0,
        "INDUSTRYTR": 0,
        "OTHRTRK": 0,
        "WDCODE": "",
        "REVISIONDA": "1975/01/01 00:00:00",
        "LASTUPDATE": "9/1/2025",
        "AADT": "1",
        "AADTYEAR": "1990",
        "STATENAME": "TEXAS",
        "STATEAB": "TX",
        "COUNTYNAME": "FRIO",
        "CITYNAME": "PEARSALL",
        "LATDD": 29.0285102,
        "LONGDD": -99.0481296,
        "gridlyProductionCertified": true,
        "gridlyClassification": "PUBLIC_ROADWAY",
        "gridlyDisplayName": "Private",
        "gridlyId": "FRA-448468X"
      }
    },
    {
      "type": "Feature",
      "id": 207131,
      "geometry": {
        "type": "Point",
        "coordinates": [
          -99.0837897999663,
          28.9369192996708
        ]
      },
      "properties": {
        "OBJECTID": 207131,
        "CROSSING": "448474B",
        "EFFDATE": 1776643200000,
        "REASON": "14",
        "StateCode": "48",
        "CountyCode": "48163",
        "STCYFIPS": "48163",
        "CITYCD": "481635260",
        "RAILROAD": "UP",
        "RRDIV": "SOUTH TEXAS",
        "RRSUBDIV": "LAREDO SUB",
        "HIGHWAY": "BI0035E",
        "STREET": "BI0035E",
        "TTSTN": "698140",
        "MILEPOST": "0309.570",
        "TYPEXING": "Public",
        "POSXING": "RR Over",
        "PRVCAT": "14",
        "INIT": "2",
        "LATITUDE": 28.9369193,
        "LONGITUD": -99.0837898,
        "LLSOURCE": "1",
        "WHISTBAN": "0",
        "RRCONT": "4025443721",
        "POLCONT": "8008488715",
        "INV_LINK": "https://safetydata.fra.dot.gov/OfficeofSafety/PublicSite/Crossing/Crossing.aspx?phasetype=C&rpttype=I&txtcrossingnum=448474B",
        "ACC_LINK": "https://safetydata.fra.dot.gov/OfficeofSafety/PublicSite/Crossing/Crossing.aspx?phasetype=C&rpttype=A&txtcrossingnum=448474B",
        "TTSTNNAM": "",
        "XPURPOSE": "1",
        "OPERATINGR": "UP",
        "OPERATIN_1": "Primary",
        "DAYTHRU": 6,
        "NGHTTHRU": 6,
        "MAINTRK": 1,
        "SIDINGTRK": 0,
        "YARDTRK": 0,
        "TRANSITTRK": 0,
        "INDUSTRYTR": 0,
        "OTHRTRK": 0,
        "WDCODE": "",
        "REVISIONDA": "1975/01/01 00:00:00",
        "LASTUPDATE": "4/20/2026",
        "AADT": "2512",
        "AADTYEAR": "2024",
        "STATENAME": "TEXAS",
        "STATEAB": "TX",
        "COUNTYNAME": "FRIO",
        "CITYNAME": "PEARSALL",
        "LATDD": 28.9369193,
        "LONGDD": -99.0837898,
        "gridlyProductionCertified": true,
        "gridlyClassification": "PUBLIC_ROADWAY",
        "gridlyDisplayName": "BI0035E",
        "gridlyId": "FRA-448474B"
      }
    },
    {
      "type": "Feature",
      "id": 210159,
      "geometry": {
        "type": "Point",
        "coordinates": [
          -99.0102089001469,
          29.0531713999101
        ]
      },
      "properties": {
        "OBJECTID": 210159,
        "CROSSING": "448467R",
        "EFFDATE": 1771891200000,
        "REASON": "14",
        "StateCode": "48",
        "CountyCode": "48163",
        "STCYFIPS": "48163",
        "CITYCD": "481634674",
        "RAILROAD": "UP",
        "RRDIV": "SOUTH TEXAS",
        "RRSUBDIV": "Laredo SUB",
        "HIGHWAY": "Cr2585",
        "STREET": "EAST third STREET",
        "TTSTN": "692674",
        "MILEPOST": "0300.090",
        "TYPEXING": "Public",
        "POSXING": "At Grade",
        "PRVCAT": "14",
        "INIT": "2",
        "LATITUDE": 29.0531714,
        "LONGITUD": -99.0102089,
        "LLSOURCE": "1",
        "WHISTBAN": "0",
        "RRCONT": "4025443721",
        "POLCONT": "8008488715",
        "INV_LINK": "https://safetydata.fra.dot.gov/OfficeofSafety/PublicSite/Crossing/Crossing.aspx?phasetype=C&rpttype=I&txtcrossingnum=448467R",
        "ACC_LINK": "https://safetydata.fra.dot.gov/OfficeofSafety/PublicSite/Crossing/Crossing.aspx?phasetype=C&rpttype=A&txtcrossingnum=448467R",
        "TTSTNNAM": "",
        "XPURPOSE": "1",
        "OPERATINGR": "UP",
        "OPERATIN_1": "Primary",
        "DAYTHRU": 8,
        "NGHTTHRU": 8,
        "MAINTRK": 1,
        "SIDINGTRK": 0,
        "YARDTRK": 0,
        "TRANSITTRK": 0,
        "INDUSTRYTR": 0,
        "OTHRTRK": 0,
        "WDCODE": "All other Gates",
        "REVISIONDA": "1975/01/01 00:00:00",
        "LASTUPDATE": "2/24/2026",
        "AADT": "357",
        "AADTYEAR": "2020",
        "STATENAME": "TEXAS",
        "STATEAB": "TX",
        "COUNTYNAME": "FRIO",
        "CITYNAME": "MOORE",
        "LATDD": 29.0531714,
        "LONGDD": -99.0102089,
        "gridlyProductionCertified": true,
        "gridlyClassification": "PUBLIC_ROADWAY",
        "gridlyDisplayName": "EAST third STREET",
        "gridlyId": "FRA-448467R"
      }
    },
    {
      "type": "Feature",
      "id": 210160,
      "geometry": {
        "type": "Point",
        "coordinates": [
          -99.0020494000133,
          29.0578760001771
        ]
      },
      "properties": {
        "OBJECTID": 210160,
        "CROSSING": "448465C",
        "EFFDATE": 1771891200000,
        "REASON": "14",
        "StateCode": "48",
        "CountyCode": "48163",
        "STCYFIPS": "48163",
        "CITYCD": "481634674",
        "RAILROAD": "UP",
        "RRDIV": "SOUTH TEXAS",
        "RRSUBDIV": "LAREDO SUB",
        "HIGHWAY": "FM0462",
        "STREET": "FM0462",
        "TTSTN": "692674",
        "MILEPOST": "0299.460",
        "TYPEXING": "Public",
        "POSXING": "At Grade",
        "PRVCAT": "14",
        "INIT": "2",
        "LATITUDE": 29.057876,
        "LONGITUD": -99.0020494,
        "LLSOURCE": "1",
        "WHISTBAN": "0",
        "RRCONT": "4025443721",
        "POLCONT": "8008488715",
        "INV_LINK": "https://safetydata.fra.dot.gov/OfficeofSafety/PublicSite/Crossing/Crossing.aspx?phasetype=C&rpttype=I&txtcrossingnum=448465C",
        "ACC_LINK": "https://safetydata.fra.dot.gov/OfficeofSafety/PublicSite/Crossing/Crossing.aspx?phasetype=C&rpttype=A&txtcrossingnum=448465C",
        "TTSTNNAM": "",
        "XPURPOSE": "1",
        "OPERATINGR": "UP",
        "OPERATIN_1": "Primary",
        "DAYTHRU": 8,
        "NGHTTHRU": 8,
        "MAINTRK": 1,
        "SIDINGTRK": 0,
        "YARDTRK": 0,
        "TRANSITTRK": 0,
        "INDUSTRYTR": 0,
        "OTHRTRK": 0,
        "WDCODE": "All other Gates",
        "REVISIONDA": "1975/01/01 00:00:00",
        "LASTUPDATE": "2/24/2026",
        "AADT": "815",
        "AADTYEAR": "2023",
        "STATENAME": "TEXAS",
        "STATEAB": "TX",
        "COUNTYNAME": "FRIO",
        "CITYNAME": "MOORE",
        "LATDD": 29.057876,
        "LONGDD": -99.0020494,
        "gridlyProductionCertified": true,
        "gridlyClassification": "PUBLIC_ROADWAY",
        "gridlyDisplayName": "FM0462",
        "gridlyId": "FRA-448465C"
      }
    },
    {
      "type": "Feature",
      "id": 210943,
      "geometry": {
        "type": "Point",
        "coordinates": [
          -99.0655517997245,
          28.9888185001727
        ]
      },
      "properties": {
        "OBJECTID": 210943,
        "CROSSING": "448470Y",
        "EFFDATE": 1756339200000,
        "REASON": "14",
        "StateCode": "48",
        "CountyCode": "48163",
        "STCYFIPS": "48163",
        "CITYCD": "481635260",
        "RAILROAD": "UP",
        "RRDIV": "SOUTH TEXAS",
        "RRSUBDIV": "LAREDO SUB",
        "HIGHWAY": "NA",
        "STREET": "PRIVATE",
        "TTSTN": "698140",
        "MILEPOST": "0305.860",
        "TYPEXING": "Private",
        "POSXING": "At Grade",
        "PRVCAT": "14",
        "INIT": "1",
        "LATITUDE": 28.9888185,
        "LONGITUD": -99.0655518,
        "LLSOURCE": "1",
        "WHISTBAN": "0",
        "RRCONT": "4025443721",
        "POLCONT": "8008488715",
        "INV_LINK": "https://safetydata.fra.dot.gov/OfficeofSafety/PublicSite/Crossing/Crossing.aspx?phasetype=C&rpttype=I&txtcrossingnum=448470Y",
        "ACC_LINK": "https://safetydata.fra.dot.gov/OfficeofSafety/PublicSite/Crossing/Crossing.aspx?phasetype=C&rpttype=A&txtcrossingnum=448470Y",
        "TTSTNNAM": "",
        "XPURPOSE": "1",
        "OPERATINGR": "UP",
        "OPERATIN_1": "Primary",
        "DAYTHRU": 8,
        "NGHTTHRU": 8,
        "MAINTRK": 1,
        "SIDINGTRK": 0,
        "YARDTRK": 0,
        "TRANSITTRK": 0,
        "INDUSTRYTR": 0,
        "OTHRTRK": 0,
        "WDCODE": "",
        "REVISIONDA": "1975/01/01 00:00:00",
        "LASTUPDATE": "8/28/2025",
        "AADT": "1",
        "AADTYEAR": "1990",
        "STATENAME": "TEXAS",
        "STATEAB": "TX",
        "COUNTYNAME": "FRIO",
        "CITYNAME": "PEARSALL",
        "LATDD": 28.9888185,
        "LONGDD": -99.0655518,
        "gridlyProductionCertified": true,
        "gridlyClassification": "PUBLIC_ROADWAY",
        "gridlyDisplayName": "PRIVATE",
        "gridlyId": "FRA-448470Y"
      }
    },
    {
      "type": "Feature",
      "id": 210944,
      "geometry": {
        "type": "Point",
        "coordinates": [
          -99.0724856995699,
          28.9727373999144
        ]
      },
      "properties": {
        "OBJECTID": 210944,
        "CROSSING": "448471F",
        "EFFDATE": 1756339200000,
        "REASON": "14",
        "StateCode": "48",
        "CountyCode": "48163",
        "STCYFIPS": "48163",
        "CITYCD": "481635260",
        "RAILROAD": "UP",
        "RRDIV": "SOUTH TEXAS",
        "RRSUBDIV": "LAREDO SUB",
        "HIGHWAY": "NA",
        "STREET": "PRIVATE",
        "TTSTN": "698140",
        "MILEPOST": "0307.010",
        "TYPEXING": "Private",
        "POSXING": "At Grade",
        "PRVCAT": "14",
        "INIT": "1",
        "LATITUDE": 28.9727374,
        "LONGITUD": -99.0724857,
        "LLSOURCE": "1",
        "WHISTBAN": "0",
        "RRCONT": "4025443721",
        "POLCONT": "8008488715",
        "INV_LINK": "https://safetydata.fra.dot.gov/OfficeofSafety/PublicSite/Crossing/Crossing.aspx?phasetype=C&rpttype=I&txtcrossingnum=448471F",
        "ACC_LINK": "https://safetydata.fra.dot.gov/OfficeofSafety/PublicSite/Crossing/Crossing.aspx?phasetype=C&rpttype=A&txtcrossingnum=448471F",
        "TTSTNNAM": "",
        "XPURPOSE": "1",
        "OPERATINGR": "UP",
        "OPERATIN_1": "Primary",
        "DAYTHRU": 8,
        "NGHTTHRU": 8,
        "MAINTRK": 1,
        "SIDINGTRK": 0,
        "YARDTRK": 0,
        "TRANSITTRK": 0,
        "INDUSTRYTR": 0,
        "OTHRTRK": 0,
        "WDCODE": "",
        "REVISIONDA": "1975/01/01 00:00:00",
        "LASTUPDATE": "8/28/2025",
        "AADT": "1",
        "AADTYEAR": "1990",
        "STATENAME": "TEXAS",
        "STATEAB": "TX",
        "COUNTYNAME": "FRIO",
        "CITYNAME": "PEARSALL",
        "LATDD": 28.9727374,
        "LONGDD": -99.0724857,
        "gridlyProductionCertified": true,
        "gridlyClassification": "PUBLIC_ROADWAY",
        "gridlyDisplayName": "PRIVATE",
        "gridlyId": "FRA-448471F"
      }
    },
    {
      "type": "Feature",
      "id": 210945,
      "geometry": {
        "type": "Point",
        "coordinates": [
          -99.0753179996258,
          28.9659877999715
        ]
      },
      "properties": {
        "OBJECTID": 210945,
        "CROSSING": "448472M",
        "EFFDATE": 1756339200000,
        "REASON": "14",
        "StateCode": "48",
        "CountyCode": "48163",
        "STCYFIPS": "48163",
        "CITYCD": "481635260",
        "RAILROAD": "UP",
        "RRDIV": "SOUTH TEXAS",
        "RRSUBDIV": "LAREDO SUB",
        "HIGHWAY": "NA",
        "STREET": "Private",
        "TTSTN": "698140",
        "MILEPOST": "0307.500",
        "TYPEXING": "Private",
        "POSXING": "At Grade",
        "PRVCAT": "14",
        "INIT": "1",
        "LATITUDE": 28.9659878,
        "LONGITUD": -99.075318,
        "LLSOURCE": "1",
        "WHISTBAN": "0",
        "RRCONT": "4025443721",
        "POLCONT": "8008488715",
        "INV_LINK": "https://safetydata.fra.dot.gov/OfficeofSafety/PublicSite/Crossing/Crossing.aspx?phasetype=C&rpttype=I&txtcrossingnum=448472M",
        "ACC_LINK": "https://safetydata.fra.dot.gov/OfficeofSafety/PublicSite/Crossing/Crossing.aspx?phasetype=C&rpttype=A&txtcrossingnum=448472M",
        "TTSTNNAM": "",
        "XPURPOSE": "1",
        "OPERATINGR": "UP",
        "OPERATIN_1": "Primary",
        "DAYTHRU": 8,
        "NGHTTHRU": 8,
        "MAINTRK": 1,
        "SIDINGTRK": 0,
        "YARDTRK": 0,
        "TRANSITTRK": 0,
        "INDUSTRYTR": 0,
        "OTHRTRK": 0,
        "WDCODE": "",
        "REVISIONDA": "1975/01/01 00:00:00",
        "LASTUPDATE": "8/28/2025",
        "AADT": "1",
        "AADTYEAR": "1990",
        "STATENAME": "TEXAS",
        "STATEAB": "TX",
        "COUNTYNAME": "FRIO",
        "CITYNAME": "PEARSALL",
        "LATDD": 28.9659878,
        "LONGDD": -99.075318,
        "gridlyProductionCertified": true,
        "gridlyClassification": "PUBLIC_ROADWAY",
        "gridlyDisplayName": "Private",
        "gridlyId": "FRA-448472M"
      }
    },
    {
      "type": "Feature",
      "id": 210946,
      "geometry": {
        "type": "Point",
        "coordinates": [
          -99.0786628999425,
          28.9545194002149
        ]
      },
      "properties": {
        "OBJECTID": 210946,
        "CROSSING": "448473U",
        "EFFDATE": 1756339200000,
        "REASON": "14",
        "StateCode": "48",
        "CountyCode": "48163",
        "STCYFIPS": "48163",
        "CITYCD": "481635260",
        "RAILROAD": "UP",
        "RRDIV": "SOUTH TEXAS",
        "RRSUBDIV": "LAREDO SUB",
        "HIGHWAY": "NA",
        "STREET": "PRIVATE",
        "TTSTN": "698140",
        "MILEPOST": "0308.320",
        "TYPEXING": "Private",
        "POSXING": "At Grade",
        "PRVCAT": "14",
        "INIT": "1",
        "LATITUDE": 28.9545194,
        "LONGITUD": -99.0786629,
        "LLSOURCE": "1",
        "WHISTBAN": "0",
        "RRCONT": "4025443721",
        "POLCONT": "8008488715",
        "INV_LINK": "https://safetydata.fra.dot.gov/OfficeofSafety/PublicSite/Crossing/Crossing.aspx?phasetype=C&rpttype=I&txtcrossingnum=448473U",
        "ACC_LINK": "https://safetydata.fra.dot.gov/OfficeofSafety/PublicSite/Crossing/Crossing.aspx?phasetype=C&rpttype=A&txtcrossingnum=448473U",
        "TTSTNNAM": "",
        "XPURPOSE": "1",
        "OPERATINGR": "UP",
        "OPERATIN_1": "Primary",
        "DAYTHRU": 8,
        "NGHTTHRU": 8,
        "MAINTRK": 1,
        "SIDINGTRK": 0,
        "YARDTRK": 0,
        "TRANSITTRK": 0,
        "INDUSTRYTR": 0,
        "OTHRTRK": 0,
        "WDCODE": "",
        "REVISIONDA": "1975/01/01 00:00:00",
        "LASTUPDATE": "8/28/2025",
        "AADT": "1",
        "AADTYEAR": "1990",
        "STATENAME": "TEXAS",
        "STATEAB": "TX",
        "COUNTYNAME": "FRIO",
        "CITYNAME": "PEARSALL",
        "LATDD": 28.9545194,
        "LONGDD": -99.0786629,
        "gridlyProductionCertified": true,
        "gridlyClassification": "PUBLIC_ROADWAY",
        "gridlyDisplayName": "PRIVATE",
        "gridlyId": "FRA-448473U"
      }
    },
    {
      "type": "Feature",
      "id": 210947,
      "geometry": {
        "type": "Point",
        "coordinates": [
          -99.1581677003771,
          28.7069930003151
        ]
      },
      "properties": {
        "OBJECTID": 210947,
        "CROSSING": "441158E",
        "EFFDATE": 1756339200000,
        "REASON": "14",
        "StateCode": "48",
        "CountyCode": "48163",
        "STCYFIPS": "48163",
        "CITYCD": "481631930",
        "RAILROAD": "UP",
        "RRDIV": "SOUTH TEXAS",
        "RRSUBDIV": "LAREDO SUB",
        "HIGHWAY": "NA",
        "STREET": "PRIVATE",
        "TTSTN": "",
        "MILEPOST": "0326.060",
        "TYPEXING": "Private",
        "POSXING": "At Grade",
        "PRVCAT": "14",
        "INIT": "1",
        "LATITUDE": 28.706993,
        "LONGITUD": -99.1581677,
        "LLSOURCE": "1",
        "WHISTBAN": "",
        "RRCONT": "4025443721",
        "POLCONT": "8008488715",
        "INV_LINK": "https://safetydata.fra.dot.gov/OfficeofSafety/PublicSite/Crossing/Crossing.aspx?phasetype=C&rpttype=I&txtcrossingnum=441158E",
        "ACC_LINK": "https://safetydata.fra.dot.gov/OfficeofSafety/PublicSite/Crossing/Crossing.aspx?phasetype=C&rpttype=A&txtcrossingnum=441158E",
        "TTSTNNAM": "",
        "XPURPOSE": "1",
        "OPERATINGR": "UP",
        "OPERATIN_1": "Primary",
        "DAYTHRU": 12,
        "NGHTTHRU": 12,
        "MAINTRK": 1,
        "SIDINGTRK": 0,
        "YARDTRK": 0,
        "TRANSITTRK": 0,
        "INDUSTRYTR": 0,
        "OTHRTRK": 0,
        "WDCODE": "",
        "REVISIONDA": "1975/01/01 00:00:00",
        "LASTUPDATE": "8/28/2025",
        "AADT": "",
        "AADTYEAR": "",
        "STATENAME": "TEXAS",
        "STATEAB": "TX",
        "COUNTYNAME": "FRIO",
        "CITYNAME": "DILLEY",
        "LATDD": 28.706993,
        "LONGDD": -99.1581677,
        "gridlyProductionCertified": true,
        "gridlyClassification": "PUBLIC_ROADWAY",
        "gridlyDisplayName": "PRIVATE",
        "gridlyId": "FRA-441158E"
      }
    },
    {
      "type": "Feature",
      "id": 210948,
      "geometry": {
        "type": "Point",
        "coordinates": [
          -99.1457311999032,
          28.7353701002612
        ]
      },
      "properties": {
        "OBJECTID": 210948,
        "CROSSING": "441159L",
        "EFFDATE": 1756339200000,
        "REASON": "14",
        "StateCode": "48",
        "CountyCode": "48163",
        "STCYFIPS": "48163",
        "CITYCD": "481631930",
        "RAILROAD": "UP",
        "RRDIV": "SOUTH TEXAS",
        "RRSUBDIV": "LAREDO SUB",
        "HIGHWAY": "NA",
        "STREET": "PRIVATE",
        "TTSTN": "",
        "MILEPOST": "0323.960",
        "TYPEXING": "Private",
        "POSXING": "At Grade",
        "PRVCAT": "14",
        "INIT": "1",
        "LATITUDE": 28.7353701,
        "LONGITUD": -99.1457312,
        "LLSOURCE": "1",
        "WHISTBAN": "",
        "RRCONT": "4025443721",
        "POLCONT": "8008488715",
        "INV_LINK": "https://safetydata.fra.dot.gov/OfficeofSafety/PublicSite/Crossing/Crossing.aspx?phasetype=C&rpttype=I&txtcrossingnum=441159L",
        "ACC_LINK": "https://safetydata.fra.dot.gov/OfficeofSafety/PublicSite/Crossing/Crossing.aspx?phasetype=C&rpttype=A&txtcrossingnum=441159L",
        "TTSTNNAM": "",
        "XPURPOSE": "1",
        "OPERATINGR": "UP",
        "OPERATIN_1": "Primary",
        "DAYTHRU": 12,
        "NGHTTHRU": 12,
        "MAINTRK": 1,
        "SIDINGTRK": 0,
        "YARDTRK": 0,
        "TRANSITTRK": 0,
        "INDUSTRYTR": 0,
        "OTHRTRK": 0,
        "WDCODE": "",
        "REVISIONDA": "1975/01/01 00:00:00",
        "LASTUPDATE": "8/28/2025",
        "AADT": "",
        "AADTYEAR": "",
        "STATENAME": "TEXAS",
        "STATEAB": "TX",
        "COUNTYNAME": "FRIO",
        "CITYNAME": "DILLEY",
        "LATDD": 28.7353701,
        "LONGDD": -99.1457312,
        "gridlyProductionCertified": true,
        "gridlyClassification": "PUBLIC_ROADWAY",
        "gridlyDisplayName": "PRIVATE",
        "gridlyId": "FRA-441159L"
      }
    },
    {
      "type": "Feature",
      "id": 210949,
      "geometry": {
        "type": "Point",
        "coordinates": [
          -99.1373269995845,
          28.7523120002781
        ]
      },
      "properties": {
        "OBJECTID": 210949,
        "CROSSING": "448492Y",
        "EFFDATE": 1756339200000,
        "REASON": "14",
        "StateCode": "48",
        "CountyCode": "48163",
        "STCYFIPS": "48163",
        "CITYCD": "481631930",
        "RAILROAD": "UP",
        "RRDIV": "SOUTH TEXAS",
        "RRSUBDIV": "LAREDO SUB",
        "HIGHWAY": "NA",
        "STREET": "PRIVATE",
        "TTSTN": "698183",
        "MILEPOST": "0322.690",
        "TYPEXING": "Private",
        "POSXING": "At Grade",
        "PRVCAT": "14",
        "INIT": "1",
        "LATITUDE": 28.752312,
        "LONGITUD": -99.137327,
        "LLSOURCE": "1",
        "WHISTBAN": "0",
        "RRCONT": "4025443721",
        "POLCONT": "8008488715",
        "INV_LINK": "https://safetydata.fra.dot.gov/OfficeofSafety/PublicSite/Crossing/Crossing.aspx?phasetype=C&rpttype=I&txtcrossingnum=448492Y",
        "ACC_LINK": "https://safetydata.fra.dot.gov/OfficeofSafety/PublicSite/Crossing/Crossing.aspx?phasetype=C&rpttype=A&txtcrossingnum=448492Y",
        "TTSTNNAM": "",
        "XPURPOSE": "1",
        "OPERATINGR": "UP",
        "OPERATIN_1": "Primary",
        "DAYTHRU": 8,
        "NGHTTHRU": 8,
        "MAINTRK": 1,
        "SIDINGTRK": 0,
        "YARDTRK": 0,
        "TRANSITTRK": 0,
        "INDUSTRYTR": 0,
        "OTHRTRK": 0,
        "WDCODE": "",
        "REVISIONDA": "1975/01/01 00:00:00",
        "LASTUPDATE": "8/28/2025",
        "AADT": "1",
        "AADTYEAR": "1990",
        "STATENAME": "TEXAS",
        "STATEAB": "TX",
        "COUNTYNAME": "FRIO",
        "CITYNAME": "DILLEY",
        "LATDD": 28.752312,
        "LONGDD": -99.137327,
        "gridlyProductionCertified": true,
        "gridlyClassification": "PUBLIC_ROADWAY",
        "gridlyDisplayName": "PRIVATE",
        "gridlyId": "FRA-448492Y"
      }
    },
    {
      "type": "Feature",
      "id": 210953,
      "geometry": {
        "type": "Point",
        "coordinates": [
          -99.1730737998227,
          28.6573449997953
        ]
      },
      "properties": {
        "OBJECTID": 210953,
        "CROSSING": "448968V",
        "EFFDATE": 1756339200000,
        "REASON": "14",
        "StateCode": "48",
        "CountyCode": "48163",
        "STCYFIPS": "48163",
        "CITYCD": "481631930",
        "RAILROAD": "UP",
        "RRDIV": "SOUTH TEXAS",
        "RRSUBDIV": "LAREDO SUB",
        "HIGHWAY": "NA",
        "STREET": "Private",
        "TTSTN": "",
        "MILEPOST": "0329.555",
        "TYPEXING": "Private",
        "POSXING": "At Grade",
        "PRVCAT": "14",
        "INIT": "1",
        "LATITUDE": 28.657345,
        "LONGITUD": -99.1730738,
        "LLSOURCE": "1",
        "WHISTBAN": "0",
        "RRCONT": "4025443721",
        "POLCONT": "8008488715",
        "INV_LINK": "https://safetydata.fra.dot.gov/OfficeofSafety/PublicSite/Crossing/Crossing.aspx?phasetype=C&rpttype=I&txtcrossingnum=448968V",
        "ACC_LINK": "https://safetydata.fra.dot.gov/OfficeofSafety/PublicSite/Crossing/Crossing.aspx?phasetype=C&rpttype=A&txtcrossingnum=448968V",
        "TTSTNNAM": "",
        "XPURPOSE": "1",
        "OPERATINGR": "UP",
        "OPERATIN_1": "Primary",
        "DAYTHRU": 8,
        "NGHTTHRU": 8,
        "MAINTRK": 1,
        "SIDINGTRK": 0,
        "YARDTRK": 0,
        "TRANSITTRK": 0,
        "INDUSTRYTR": 0,
        "OTHRTRK": 0,
        "WDCODE": "",
        "REVISIONDA": "1975/01/01 00:00:00",
        "LASTUPDATE": "8/28/2025",
        "AADT": "1",
        "AADTYEAR": "1990",
        "STATENAME": "TEXAS",
        "STATEAB": "TX",
        "COUNTYNAME": "FRIO",
        "CITYNAME": "DILLEY",
        "LATDD": 28.657345,
        "LONGDD": -99.1730738,
        "gridlyProductionCertified": true,
        "gridlyClassification": "PUBLIC_ROADWAY",
        "gridlyDisplayName": "Private",
        "gridlyId": "FRA-448968V"
      }
    },
    {
      "type": "Feature",
      "id": 210980,
      "geometry": {
        "type": "Point",
        "coordinates": [
          -99.1737435998682,
          28.6551171997602
        ]
      },
      "properties": {
        "OBJECTID": 210980,
        "CROSSING": "448969C",
        "EFFDATE": 1756339200000,
        "REASON": "14",
        "StateCode": "48",
        "CountyCode": "48163",
        "STCYFIPS": "48163",
        "CITYCD": "481631930",
        "RAILROAD": "UP",
        "RRDIV": "SOUTH TEXAS",
        "RRSUBDIV": "LAREDO SUB",
        "HIGHWAY": "NA",
        "STREET": "PRIVATE",
        "TTSTN": "698187",
        "MILEPOST": "0329.715",
        "TYPEXING": "Private",
        "POSXING": "At Grade",
        "PRVCAT": "14",
        "INIT": "1",
        "LATITUDE": 28.6551172,
        "LONGITUD": -99.1737436,
        "LLSOURCE": "1",
        "WHISTBAN": "0",
        "RRCONT": "4025443721",
        "POLCONT": "8008488715",
        "INV_LINK": "https://safetydata.fra.dot.gov/OfficeofSafety/PublicSite/Crossing/Crossing.aspx?phasetype=C&rpttype=I&txtcrossingnum=448969C",
        "ACC_LINK": "https://safetydata.fra.dot.gov/OfficeofSafety/PublicSite/Crossing/Crossing.aspx?phasetype=C&rpttype=A&txtcrossingnum=448969C",
        "TTSTNNAM": "",
        "XPURPOSE": "1",
        "OPERATINGR": "UP",
        "OPERATIN_1": "Primary",
        "DAYTHRU": 8,
        "NGHTTHRU": 8,
        "MAINTRK": 1,
        "SIDINGTRK": 0,
        "YARDTRK": 0,
        "TRANSITTRK": 0,
        "INDUSTRYTR": 0,
        "OTHRTRK": 0,
        "WDCODE": "",
        "REVISIONDA": "1975/01/01 00:00:00",
        "LASTUPDATE": "8/28/2025",
        "AADT": "1",
        "AADTYEAR": "1990",
        "STATENAME": "TEXAS",
        "STATEAB": "TX",
        "COUNTYNAME": "FRIO",
        "CITYNAME": "DILLEY",
        "LATDD": 28.6551172,
        "LONGDD": -99.1737436,
        "gridlyProductionCertified": true,
        "gridlyClassification": "PUBLIC_ROADWAY",
        "gridlyDisplayName": "PRIVATE",
        "gridlyId": "FRA-448969C"
      }
    },
    {
      "type": "Feature",
      "id": 210981,
      "geometry": {
        "type": "Point",
        "coordinates": [
          -99.1747179997619,
          28.6519100001612
        ]
      },
      "properties": {
        "OBJECTID": 210981,
        "CROSSING": "448970W",
        "EFFDATE": 1756339200000,
        "REASON": "14",
        "StateCode": "48",
        "CountyCode": "48163",
        "STCYFIPS": "48163",
        "CITYCD": "481631930",
        "RAILROAD": "UP",
        "RRDIV": "SOUTH TEXAS",
        "RRSUBDIV": "LAREDO SUB",
        "HIGHWAY": "NA",
        "STREET": "PRIVATE",
        "TTSTN": "698187",
        "MILEPOST": "0329.940",
        "TYPEXING": "Private",
        "POSXING": "At Grade",
        "PRVCAT": "14",
        "INIT": "1",
        "LATITUDE": 28.65191,
        "LONGITUD": -99.174718,
        "LLSOURCE": "1",
        "WHISTBAN": "0",
        "RRCONT": "4025443721",
        "POLCONT": "8008488715",
        "INV_LINK": "https://safetydata.fra.dot.gov/OfficeofSafety/PublicSite/Crossing/Crossing.aspx?phasetype=C&rpttype=I&txtcrossingnum=448970W",
        "ACC_LINK": "https://safetydata.fra.dot.gov/OfficeofSafety/PublicSite/Crossing/Crossing.aspx?phasetype=C&rpttype=A&txtcrossingnum=448970W",
        "TTSTNNAM": "",
        "XPURPOSE": "1",
        "OPERATINGR": "UP",
        "OPERATIN_1": "Primary",
        "DAYTHRU": 8,
        "NGHTTHRU": 8,
        "MAINTRK": 1,
        "SIDINGTRK": 0,
        "YARDTRK": 0,
        "TRANSITTRK": 0,
        "INDUSTRYTR": 0,
        "OTHRTRK": 0,
        "WDCODE": "",
        "REVISIONDA": "1975/01/01 00:00:00",
        "LASTUPDATE": "8/28/2025",
        "AADT": "1",
        "AADTYEAR": "1990",
        "STATENAME": "TEXAS",
        "STATEAB": "TX",
        "COUNTYNAME": "FRIO",
        "CITYNAME": "DILLEY",
        "LATDD": 28.65191,
        "LONGDD": -99.174718,
        "gridlyProductionCertified": true,
        "gridlyClassification": "PUBLIC_ROADWAY",
        "gridlyDisplayName": "PRIVATE",
        "gridlyId": "FRA-448970W"
      }
    },
    {
      "type": "Feature",
      "id": 210982,
      "geometry": {
        "type": "Point",
        "coordinates": [
          -99.007026199638,
          29.0550177998804
        ]
      },
      "properties": {
        "OBJECTID": 210982,
        "CROSSING": "448466J",
        "EFFDATE": 1756339200000,
        "REASON": "14",
        "StateCode": "48",
        "CountyCode": "48163",
        "STCYFIPS": "48163",
        "CITYCD": "481634674",
        "RAILROAD": "UP",
        "RRDIV": "SOUTH TEXAS",
        "RRSUBDIV": "LAREDO SUB",
        "HIGHWAY": "NA",
        "STREET": "PRIVATE",
        "TTSTN": "692674",
        "MILEPOST": "0299.860",
        "TYPEXING": "Private",
        "POSXING": "RR Over",
        "PRVCAT": "14",
        "INIT": "1",
        "LATITUDE": 29.0550178,
        "LONGITUD": -99.0070262,
        "LLSOURCE": "1",
        "WHISTBAN": "0",
        "RRCONT": "4025443721",
        "POLCONT": "8008488715",
        "INV_LINK": "https://safetydata.fra.dot.gov/OfficeofSafety/PublicSite/Crossing/Crossing.aspx?phasetype=C&rpttype=I&txtcrossingnum=448466J",
        "ACC_LINK": "https://safetydata.fra.dot.gov/OfficeofSafety/PublicSite/Crossing/Crossing.aspx?phasetype=C&rpttype=A&txtcrossingnum=448466J",
        "TTSTNNAM": "",
        "XPURPOSE": "1",
        "OPERATINGR": "UP",
        "OPERATIN_1": "Primary",
        "DAYTHRU": 2,
        "NGHTTHRU": 4,
        "MAINTRK": 1,
        "SIDINGTRK": 0,
        "YARDTRK": 0,
        "TRANSITTRK": 0,
        "INDUSTRYTR": 0,
        "OTHRTRK": 0,
        "WDCODE": "",
        "REVISIONDA": "1975/01/01 00:00:00",
        "LASTUPDATE": "8/28/2025",
        "AADT": "1",
        "AADTYEAR": "1970",
        "STATENAME": "TEXAS",
        "STATEAB": "TX",
        "COUNTYNAME": "FRIO",
        "CITYNAME": "MOORE",
        "LATDD": 29.0550178,
        "LONGDD": -99.0070262,
        "gridlyProductionCertified": true,
        "gridlyClassification": "PUBLIC_ROADWAY",
        "gridlyDisplayName": "PRIVATE",
        "gridlyId": "FRA-448466J"
      }
    },
    {
      "type": "Feature",
      "id": 213245,
      "geometry": {
        "type": "Point",
        "coordinates": [
          -99.1738990003275,
          28.6517059996499
        ]
      },
      "properties": {
        "OBJECTID": 213245,
        "CROSSING": "972607H",
        "EFFDATE": 1758585600000,
        "REASON": "14",
        "StateCode": "48",
        "CountyCode": "48163",
        "STCYFIPS": "48163",
        "CITYCD": "481631930",
        "RAILROAD": "UP",
        "RRDIV": "SOUTH TEXAS",
        "RRSUBDIV": "LAREDO SUB",
        "HIGHWAY": "NA",
        "STREET": "ALL PRIVATE IN Industry - GHMR OPERATIONS",
        "TTSTN": "",
        "MILEPOST": "0329.714",
        "TYPEXING": "Private",
        "POSXING": "At Grade",
        "PRVCAT": "14",
        "INIT": "1",
        "LATITUDE": 28.651706,
        "LONGITUD": -99.173899,
        "LLSOURCE": "1",
        "WHISTBAN": "",
        "RRCONT": "4025443721",
        "POLCONT": "8008488715",
        "INV_LINK": "https://safetydata.fra.dot.gov/OfficeofSafety/PublicSite/Crossing/Crossing.aspx?phasetype=C&rpttype=I&txtcrossingnum=972607H",
        "ACC_LINK": "https://safetydata.fra.dot.gov/OfficeofSafety/PublicSite/Crossing/Crossing.aspx?phasetype=C&rpttype=A&txtcrossingnum=972607H",
        "TTSTNNAM": "",
        "XPURPOSE": "1",
        "OPERATINGR": "UP",
        "OPERATIN_1": "Primary",
        "DAYTHRU": 0,
        "NGHTTHRU": 0,
        "MAINTRK": 0,
        "SIDINGTRK": 0,
        "YARDTRK": 0,
        "TRANSITTRK": 0,
        "INDUSTRYTR": 1,
        "OTHRTRK": 0,
        "WDCODE": "",
        "REVISIONDA": "1975/01/01 00:00:00",
        "LASTUPDATE": "9/23/2025",
        "AADT": "",
        "AADTYEAR": "",
        "STATENAME": "TEXAS",
        "STATEAB": "TX",
        "COUNTYNAME": "FRIO",
        "CITYNAME": "DILLEY",
        "LATDD": 28.651706,
        "LONGDD": -99.173899,
        "gridlyProductionCertified": true,
        "gridlyClassification": "PUBLIC_ROADWAY",
        "gridlyDisplayName": "ALL PRIVATE IN Industry - GHMR OPERATIONS",
        "gridlyId": "FRA-972607H"
      }
    },
    {
      "type": "Feature",
      "id": 214182,
      "geometry": {
        "type": "Point",
        "coordinates": [
          -99.0983548998284,
          28.8867862998283
        ]
      },
      "properties": {
        "OBJECTID": 214182,
        "CROSSING": "448483A",
        "EFFDATE": 1771891200000,
        "REASON": "14",
        "StateCode": "48",
        "CountyCode": "48163",
        "STCYFIPS": "48163",
        "CITYCD": "481635260",
        "RAILROAD": "UP",
        "RRDIV": "South Texas",
        "RRSUBDIV": "Laredo Sub",
        "HIGHWAY": "LS0000",
        "STREET": "Frio Street",
        "TTSTN": "698140",
        "MILEPOST": "0313.110",
        "TYPEXING": "Public",
        "POSXING": "At Grade",
        "PRVCAT": "14",
        "INIT": "2",
        "LATITUDE": 28.8867863,
        "LONGITUD": -99.0983549,
        "LLSOURCE": "1",
        "WHISTBAN": "0",
        "RRCONT": "4025443721",
        "POLCONT": "8008488715",
        "INV_LINK": "https://safetydata.fra.dot.gov/OfficeofSafety/PublicSite/Crossing/Crossing.aspx?phasetype=C&rpttype=I&txtcrossingnum=448483A",
        "ACC_LINK": "https://safetydata.fra.dot.gov/OfficeofSafety/PublicSite/Crossing/Crossing.aspx?phasetype=C&rpttype=A&txtcrossingnum=448483A",
        "TTSTNNAM": "",
        "XPURPOSE": "1",
        "OPERATINGR": "UP",
        "OPERATIN_1": "Primary",
        "DAYTHRU": 8,
        "NGHTTHRU": 8,
        "MAINTRK": 1,
        "SIDINGTRK": 0,
        "YARDTRK": 0,
        "TRANSITTRK": 0,
        "INDUSTRYTR": 0,
        "OTHRTRK": 0,
        "WDCODE": "All other Gates",
        "REVISIONDA": "1975/01/01 00:00:00",
        "LASTUPDATE": "2/24/2026",
        "AADT": "1441",
        "AADTYEAR": "2020",
        "STATENAME": "TEXAS",
        "STATEAB": "TX",
        "COUNTYNAME": "FRIO",
        "CITYNAME": "PEARSALL",
        "LATDD": 28.8867863,
        "LONGDD": -99.0983549,
        "gridlyProductionCertified": true,
        "gridlyClassification": "PUBLIC_ROADWAY",
        "gridlyDisplayName": "Frio Street",
        "gridlyId": "FRA-448483A"
      }
    },
    {
      "type": "Feature",
      "id": 214682,
      "geometry": {
        "type": "Point",
        "coordinates": [
          -99.1327145000452,
          28.7682465000366
        ]
      },
      "properties": {
        "OBJECTID": 214682,
        "CROSSING": "448491S",
        "EFFDATE": 1771891200000,
        "REASON": "14",
        "StateCode": "48",
        "CountyCode": "48163",
        "STCYFIPS": "48163",
        "CITYCD": "481631930",
        "RAILROAD": "UP",
        "RRDIV": "SOUTH TEXAS",
        "RRSUBDIV": "LAREDO SUB",
        "HIGHWAY": "FM1583",
        "STREET": "FM1583",
        "TTSTN": "698183",
        "MILEPOST": "0321.550",
        "TYPEXING": "Public",
        "POSXING": "At Grade",
        "PRVCAT": "14",
        "INIT": "2",
        "LATITUDE": 28.7682465,
        "LONGITUD": -99.1327145,
        "LLSOURCE": "1",
        "WHISTBAN": "0",
        "RRCONT": "4025443721",
        "POLCONT": "8008488715",
        "INV_LINK": "https://safetydata.fra.dot.gov/OfficeofSafety/PublicSite/Crossing/Crossing.aspx?phasetype=C&rpttype=I&txtcrossingnum=448491S",
        "ACC_LINK": "https://safetydata.fra.dot.gov/OfficeofSafety/PublicSite/Crossing/Crossing.aspx?phasetype=C&rpttype=A&txtcrossingnum=448491S",
        "TTSTNNAM": "",
        "XPURPOSE": "1",
        "OPERATINGR": "UP",
        "OPERATIN_1": "Primary",
        "DAYTHRU": 10,
        "NGHTTHRU": 10,
        "MAINTRK": 1,
        "SIDINGTRK": 0,
        "YARDTRK": 0,
        "TRANSITTRK": 0,
        "INDUSTRYTR": 0,
        "OTHRTRK": 0,
        "WDCODE": "Flashing lights",
        "REVISIONDA": "1975/01/01 00:00:00",
        "LASTUPDATE": "2/24/2026",
        "AADT": "200",
        "AADTYEAR": "2023",
        "STATENAME": "TEXAS",
        "STATEAB": "TX",
        "COUNTYNAME": "FRIO",
        "CITYNAME": "DILLEY",
        "LATDD": 28.7682465,
        "LONGDD": -99.1327145,
        "gridlyProductionCertified": true,
        "gridlyClassification": "PUBLIC_ROADWAY",
        "gridlyDisplayName": "FM1583",
        "gridlyId": "FRA-448491S"
      }
    },
    {
      "type": "Feature",
      "id": 214683,
      "geometry": {
        "type": "Point",
        "coordinates": [
          -99.1700948003893,
          28.6672657003028
        ]
      },
      "properties": {
        "OBJECTID": 214683,
        "CROSSING": "448502C",
        "EFFDATE": 1771891200000,
        "REASON": "14",
        "StateCode": "48",
        "CountyCode": "48163",
        "STCYFIPS": "48163",
        "CITYCD": "481631930",
        "RAILROAD": "UP",
        "RRDIV": "SOUTH TEXAS",
        "RRSUBDIV": "LAREDO SUB",
        "HIGHWAY": "SH0085",
        "STREET": "SH0085 / E LEONA STREET",
        "TTSTN": "698187",
        "MILEPOST": "0328.860",
        "TYPEXING": "Public",
        "POSXING": "At Grade",
        "PRVCAT": "14",
        "INIT": "2",
        "LATITUDE": 28.6672657,
        "LONGITUD": -99.1700948,
        "LLSOURCE": "1",
        "WHISTBAN": "0",
        "RRCONT": "4025443721",
        "POLCONT": "8008488715",
        "INV_LINK": "https://safetydata.fra.dot.gov/OfficeofSafety/PublicSite/Crossing/Crossing.aspx?phasetype=C&rpttype=I&txtcrossingnum=448502C",
        "ACC_LINK": "https://safetydata.fra.dot.gov/OfficeofSafety/PublicSite/Crossing/Crossing.aspx?phasetype=C&rpttype=A&txtcrossingnum=448502C",
        "TTSTNNAM": "",
        "XPURPOSE": "1",
        "OPERATINGR": "UP",
        "OPERATIN_1": "Primary",
        "DAYTHRU": 10,
        "NGHTTHRU": 10,
        "MAINTRK": 1,
        "SIDINGTRK": 0,
        "YARDTRK": 0,
        "TRANSITTRK": 0,
        "INDUSTRYTR": 0,
        "OTHRTRK": 0,
        "WDCODE": "All other Gates",
        "REVISIONDA": "1975/01/01 00:00:00",
        "LASTUPDATE": "2/24/2026",
        "AADT": "3725",
        "AADTYEAR": "2023",
        "STATENAME": "TEXAS",
        "STATEAB": "TX",
        "COUNTYNAME": "FRIO",
        "CITYNAME": "DILLEY",
        "LATDD": 28.6672657,
        "LONGDD": -99.1700948,
        "gridlyProductionCertified": true,
        "gridlyClassification": "PUBLIC_ROADWAY",
        "gridlyDisplayName": "SH0085 / E LEONA STREET",
        "gridlyId": "FRA-448502C"
      }
    },
    {
      "type": "Feature",
      "id": 214684,
      "geometry": {
        "type": "Point",
        "coordinates": [
          -99.1703800002206,
          28.6663140002744
        ]
      },
      "properties": {
        "OBJECTID": 214684,
        "CROSSING": "448504R",
        "EFFDATE": 1771891200000,
        "REASON": "14",
        "StateCode": "48",
        "CountyCode": "48163",
        "STCYFIPS": "48163",
        "CITYCD": "481631930",
        "RAILROAD": "UP",
        "RRDIV": "SOUTH TEXAS",
        "RRSUBDIV": "LAREDO SUB",
        "HIGHWAY": "LS0000",
        "STREET": "HARRIS STREET",
        "TTSTN": "698187",
        "MILEPOST": "0328.920",
        "TYPEXING": "Public",
        "POSXING": "At Grade",
        "PRVCAT": "14",
        "INIT": "2",
        "LATITUDE": 28.666314,
        "LONGITUD": -99.17038,
        "LLSOURCE": "1",
        "WHISTBAN": "0",
        "RRCONT": "4025443721",
        "POLCONT": "8008488715",
        "INV_LINK": "https://safetydata.fra.dot.gov/OfficeofSafety/PublicSite/Crossing/Crossing.aspx?phasetype=C&rpttype=I&txtcrossingnum=448504R",
        "ACC_LINK": "https://safetydata.fra.dot.gov/OfficeofSafety/PublicSite/Crossing/Crossing.aspx?phasetype=C&rpttype=A&txtcrossingnum=448504R",
        "TTSTNNAM": "",
        "XPURPOSE": "1",
        "OPERATINGR": "UP",
        "OPERATIN_1": "Primary",
        "DAYTHRU": 8,
        "NGHTTHRU": 8,
        "MAINTRK": 1,
        "SIDINGTRK": 0,
        "YARDTRK": 0,
        "TRANSITTRK": 0,
        "INDUSTRYTR": 0,
        "OTHRTRK": 1,
        "WDCODE": "All other Gates",
        "REVISIONDA": "1975/01/01 00:00:00",
        "LASTUPDATE": "2/24/2026",
        "AADT": "613",
        "AADTYEAR": "2020",
        "STATENAME": "TEXAS",
        "STATEAB": "TX",
        "COUNTYNAME": "FRIO",
        "CITYNAME": "DILLEY",
        "LATDD": 28.666314,
        "LONGDD": -99.17038,
        "gridlyProductionCertified": true,
        "gridlyClassification": "PUBLIC_ROADWAY",
        "gridlyDisplayName": "HARRIS STREET",
        "gridlyId": "FRA-448504R"
      }
    },
    {
      "type": "Feature",
      "id": 214698,
      "geometry": {
        "type": "Point",
        "coordinates": [
          -99.0874405002803,
          28.924360999899
        ]
      },
      "properties": {
        "OBJECTID": 214698,
        "CROSSING": "448476P",
        "EFFDATE": 1775433600000,
        "REASON": "14",
        "StateCode": "48",
        "CountyCode": "48163",
        "STCYFIPS": "48163",
        "CITYCD": "481635260",
        "RAILROAD": "UP",
        "RRDIV": "SOUTH TEXAS",
        "RRSUBDIV": "LAREDO SUB",
        "HIGHWAY": "CR 1058",
        "STREET": "BORCHER ROAD",
        "TTSTN": "698140",
        "MILEPOST": "0310.440",
        "TYPEXING": "Public",
        "POSXING": "At Grade",
        "PRVCAT": "14",
        "INIT": "1",
        "LATITUDE": 28.924361,
        "LONGITUD": -99.0874405,
        "LLSOURCE": "1",
        "WHISTBAN": "0",
        "RRCONT": "4025443721",
        "POLCONT": "8008488715",
        "INV_LINK": "https://safetydata.fra.dot.gov/OfficeofSafety/PublicSite/Crossing/Crossing.aspx?phasetype=C&rpttype=I&txtcrossingnum=448476P",
        "ACC_LINK": "https://safetydata.fra.dot.gov/OfficeofSafety/PublicSite/Crossing/Crossing.aspx?phasetype=C&rpttype=A&txtcrossingnum=448476P",
        "TTSTNNAM": "",
        "XPURPOSE": "1",
        "OPERATINGR": "UP",
        "OPERATIN_1": "Primary",
        "DAYTHRU": 8,
        "NGHTTHRU": 8,
        "MAINTRK": 1,
        "SIDINGTRK": 0,
        "YARDTRK": 0,
        "TRANSITTRK": 0,
        "INDUSTRYTR": 0,
        "OTHRTRK": 0,
        "WDCODE": "All other Gates",
        "REVISIONDA": "1975/01/01 00:00:00",
        "LASTUPDATE": "4/6/2026",
        "AADT": "267",
        "AADTYEAR": "2020",
        "STATENAME": "TEXAS",
        "STATEAB": "TX",
        "COUNTYNAME": "FRIO",
        "CITYNAME": "PEARSALL",
        "LATDD": 28.924361,
        "LONGDD": -99.0874405,
        "gridlyProductionCertified": true,
        "gridlyClassification": "PUBLIC_ROADWAY",
        "gridlyDisplayName": "BORCHER ROAD",
        "gridlyId": "FRA-448476P"
      }
    },
    {
      "type": "Feature",
      "id": 214699,
      "geometry": {
        "type": "Point",
        "coordinates": [
          -99.1114178000414,
          28.8417476001124
        ]
      },
      "properties": {
        "OBJECTID": 214699,
        "CROSSING": "448488J",
        "EFFDATE": 1775433600000,
        "REASON": "14",
        "StateCode": "48",
        "CountyCode": "48163",
        "STCYFIPS": "48163",
        "CITYCD": "481635260",
        "RAILROAD": "UP",
        "RRDIV": "South Texas",
        "RRSUBDIV": "Laredo Sub",
        "HIGHWAY": "CR 4201",
        "STREET": "BEEVER ROAD",
        "TTSTN": "698140",
        "MILEPOST": "0316.340",
        "TYPEXING": "Public",
        "POSXING": "At Grade",
        "PRVCAT": "14",
        "INIT": "1",
        "LATITUDE": 28.8417476,
        "LONGITUD": -99.1114178,
        "LLSOURCE": "1",
        "WHISTBAN": "0",
        "RRCONT": "4025443721",
        "POLCONT": "8008488715",
        "INV_LINK": "https://safetydata.fra.dot.gov/OfficeofSafety/PublicSite/Crossing/Crossing.aspx?phasetype=C&rpttype=I&txtcrossingnum=448488J",
        "ACC_LINK": "https://safetydata.fra.dot.gov/OfficeofSafety/PublicSite/Crossing/Crossing.aspx?phasetype=C&rpttype=A&txtcrossingnum=448488J",
        "TTSTNNAM": "",
        "XPURPOSE": "1",
        "OPERATINGR": "UP",
        "OPERATIN_1": "Primary",
        "DAYTHRU": 10,
        "NGHTTHRU": 10,
        "MAINTRK": 1,
        "SIDINGTRK": 0,
        "YARDTRK": 0,
        "TRANSITTRK": 0,
        "INDUSTRYTR": 0,
        "OTHRTRK": 0,
        "WDCODE": "Flashing lights",
        "REVISIONDA": "1975/01/01 00:00:00",
        "LASTUPDATE": "4/6/2026",
        "AADT": "783",
        "AADTYEAR": "2020",
        "STATENAME": "TEXAS",
        "STATEAB": "TX",
        "COUNTYNAME": "FRIO",
        "CITYNAME": "PEARSALL",
        "LATDD": 28.8417476,
        "LONGDD": -99.1114178,
        "gridlyProductionCertified": true,
        "gridlyClassification": "PUBLIC_ROADWAY",
        "gridlyDisplayName": "BEEVER ROAD",
        "gridlyId": "FRA-448488J"
      }
    },
    {
      "type": "Feature",
      "id": 214716,
      "geometry": {
        "type": "Point",
        "coordinates": [
          -99.1612624001241,
          28.6966938998231
        ]
      },
      "properties": {
        "OBJECTID": 214716,
        "CROSSING": "448495U",
        "EFFDATE": 1775433600000,
        "REASON": "14",
        "StateCode": "48",
        "CountyCode": "48163",
        "STCYFIPS": "48163",
        "CITYCD": "481631930",
        "RAILROAD": "UP",
        "RRDIV": "SOUTH TEXAS",
        "RRSUBDIV": "LAREDO SUB",
        "HIGHWAY": "CR 3701",
        "STREET": "Lovers Lane",
        "TTSTN": "698187",
        "MILEPOST": "0326.790",
        "TYPEXING": "Public",
        "POSXING": "At Grade",
        "PRVCAT": "14",
        "INIT": "1",
        "LATITUDE": 28.6966939,
        "LONGITUD": -99.1612624,
        "LLSOURCE": "1",
        "WHISTBAN": "0",
        "RRCONT": "4025443721",
        "POLCONT": "8008488715",
        "INV_LINK": "https://safetydata.fra.dot.gov/OfficeofSafety/PublicSite/Crossing/Crossing.aspx?phasetype=C&rpttype=I&txtcrossingnum=448495U",
        "ACC_LINK": "https://safetydata.fra.dot.gov/OfficeofSafety/PublicSite/Crossing/Crossing.aspx?phasetype=C&rpttype=A&txtcrossingnum=448495U",
        "TTSTNNAM": "",
        "XPURPOSE": "1",
        "OPERATINGR": "UP",
        "OPERATIN_1": "Primary",
        "DAYTHRU": 8,
        "NGHTTHRU": 8,
        "MAINTRK": 1,
        "SIDINGTRK": 0,
        "YARDTRK": 0,
        "TRANSITTRK": 0,
        "INDUSTRYTR": 0,
        "OTHRTRK": 0,
        "WDCODE": "All other Gates",
        "REVISIONDA": "1975/01/01 00:00:00",
        "LASTUPDATE": "4/6/2026",
        "AADT": "75",
        "AADTYEAR": "2020",
        "STATENAME": "TEXAS",
        "STATEAB": "TX",
        "COUNTYNAME": "FRIO",
        "CITYNAME": "DILLEY",
        "LATDD": 28.6966939,
        "LONGDD": -99.1612624,
        "gridlyProductionCertified": true,
        "gridlyClassification": "PUBLIC_ROADWAY",
        "gridlyDisplayName": "Lovers Lane",
        "gridlyId": "FRA-448495U"
      }
    },
    {
      "type": "Feature",
      "id": 215191,
      "geometry": {
        "type": "Point",
        "coordinates": [
          -99.1717572001962,
          28.6616733002664
        ]
      },
      "properties": {
        "OBJECTID": 215191,
        "CROSSING": "448503J",
        "EFFDATE": 1771891200000,
        "REASON": "14",
        "StateCode": "48",
        "CountyCode": "48163",
        "STCYFIPS": "48163",
        "CITYCD": "481631930",
        "RAILROAD": "UP",
        "RRDIV": "SOUTH TEXAS",
        "RRSUBDIV": "LAREDO SUB",
        "HIGHWAY": "LS0000",
        "STREET": "AVANT ADDITION Street",
        "TTSTN": "698187",
        "MILEPOST": "0329.245",
        "TYPEXING": "Public",
        "POSXING": "At Grade",
        "PRVCAT": "14",
        "INIT": "2",
        "LATITUDE": 28.6616733,
        "LONGITUD": -99.1717572,
        "LLSOURCE": "1",
        "WHISTBAN": "0",
        "RRCONT": "4025443721",
        "POLCONT": "8008488715",
        "INV_LINK": "https://safetydata.fra.dot.gov/OfficeofSafety/PublicSite/Crossing/Crossing.aspx?phasetype=C&rpttype=I&txtcrossingnum=448503J",
        "ACC_LINK": "https://safetydata.fra.dot.gov/OfficeofSafety/PublicSite/Crossing/Crossing.aspx?phasetype=C&rpttype=A&txtcrossingnum=448503J",
        "TTSTNNAM": "",
        "XPURPOSE": "1",
        "OPERATINGR": "UP",
        "OPERATIN_1": "Primary",
        "DAYTHRU": 8,
        "NGHTTHRU": 8,
        "MAINTRK": 1,
        "SIDINGTRK": 0,
        "YARDTRK": 0,
        "TRANSITTRK": 0,
        "INDUSTRYTR": 0,
        "OTHRTRK": 0,
        "WDCODE": "All other Gates",
        "REVISIONDA": "1975/01/01 00:00:00",
        "LASTUPDATE": "2/24/2026",
        "AADT": "196",
        "AADTYEAR": "2020",
        "STATENAME": "TEXAS",
        "STATEAB": "TX",
        "COUNTYNAME": "FRIO",
        "CITYNAME": "DILLEY",
        "LATDD": 28.6616733,
        "LONGDD": -99.1717572,
        "gridlyProductionCertified": true,
        "gridlyClassification": "PUBLIC_ROADWAY",
        "gridlyDisplayName": "AVANT ADDITION Street",
        "gridlyId": "FRA-448503J"
      }
    },
    {
      "type": "Feature",
      "id": 215192,
      "geometry": {
        "type": "Point",
        "coordinates": [
          -99.1680171004434,
          28.6741999997248
        ]
      },
      "properties": {
        "OBJECTID": 215192,
        "CROSSING": "448497H",
        "EFFDATE": 1771891200000,
        "REASON": "14",
        "StateCode": "48",
        "CountyCode": "48163",
        "STCYFIPS": "48163",
        "CITYCD": "481631930",
        "RAILROAD": "UP",
        "RRDIV": "SOUTH TEXAS",
        "RRSUBDIV": "LAREDO SUB",
        "HIGHWAY": "LS0000",
        "STREET": "SALINAS STREET",
        "TTSTN": "698187",
        "MILEPOST": "0328.400",
        "TYPEXING": "Public",
        "POSXING": "At Grade",
        "PRVCAT": "14",
        "INIT": "2",
        "LATITUDE": 28.6742,
        "LONGITUD": -99.1680171,
        "LLSOURCE": "1",
        "WHISTBAN": "0",
        "RRCONT": "4025443721",
        "POLCONT": "8008488715",
        "INV_LINK": "https://safetydata.fra.dot.gov/OfficeofSafety/PublicSite/Crossing/Crossing.aspx?phasetype=C&rpttype=I&txtcrossingnum=448497H",
        "ACC_LINK": "https://safetydata.fra.dot.gov/OfficeofSafety/PublicSite/Crossing/Crossing.aspx?phasetype=C&rpttype=A&txtcrossingnum=448497H",
        "TTSTNNAM": "",
        "XPURPOSE": "1",
        "OPERATINGR": "UP",
        "OPERATIN_1": "Primary",
        "DAYTHRU": 10,
        "NGHTTHRU": 10,
        "MAINTRK": 1,
        "SIDINGTRK": 0,
        "YARDTRK": 0,
        "TRANSITTRK": 0,
        "INDUSTRYTR": 0,
        "OTHRTRK": 0,
        "WDCODE": "All other Gates",
        "REVISIONDA": "1975/01/01 00:00:00",
        "LASTUPDATE": "2/24/2026",
        "AADT": "1308",
        "AADTYEAR": "2020",
        "STATENAME": "TEXAS",
        "STATEAB": "TX",
        "COUNTYNAME": "FRIO",
        "CITYNAME": "DILLEY",
        "LATDD": 28.6742,
        "LONGDD": -99.1680171,
        "gridlyProductionCertified": true,
        "gridlyClassification": "PUBLIC_ROADWAY",
        "gridlyDisplayName": "SALINAS STREET",
        "gridlyId": "FRA-448497H"
      }
    },
    {
      "type": "Feature",
      "id": 215635,
      "geometry": {
        "type": "Point",
        "coordinates": [
          -99.0972928998214,
          28.8905172998919
        ]
      },
      "properties": {
        "OBJECTID": 215635,
        "CROSSING": "448480E",
        "EFFDATE": 1771891200000,
        "REASON": "14",
        "StateCode": "48",
        "CountyCode": "48163",
        "STCYFIPS": "48163",
        "CITYCD": "481635260",
        "RAILROAD": "UP",
        "RRDIV": "SOUTH TEXAS",
        "RRSUBDIV": "LAREDO SUB",
        "HIGHWAY": "BI0035E",
        "STREET": "BI0035E / COMAL Street",
        "TTSTN": "698140",
        "MILEPOST": "0312.850",
        "TYPEXING": "Public",
        "POSXING": "At Grade",
        "PRVCAT": "14",
        "INIT": "2",
        "LATITUDE": 28.8905173,
        "LONGITUD": -99.0972929,
        "LLSOURCE": "1",
        "WHISTBAN": "0",
        "RRCONT": "4025443721",
        "POLCONT": "8008488715",
        "INV_LINK": "https://safetydata.fra.dot.gov/OfficeofSafety/PublicSite/Crossing/Crossing.aspx?phasetype=C&rpttype=I&txtcrossingnum=448480E",
        "ACC_LINK": "https://safetydata.fra.dot.gov/OfficeofSafety/PublicSite/Crossing/Crossing.aspx?phasetype=C&rpttype=A&txtcrossingnum=448480E",
        "TTSTNNAM": "",
        "XPURPOSE": "1",
        "OPERATINGR": "UP",
        "OPERATIN_1": "Primary",
        "DAYTHRU": 10,
        "NGHTTHRU": 10,
        "MAINTRK": 1,
        "SIDINGTRK": 0,
        "YARDTRK": 0,
        "TRANSITTRK": 0,
        "INDUSTRYTR": 0,
        "OTHRTRK": 1,
        "WDCODE": "All other Gates",
        "REVISIONDA": "1975/01/01 00:00:00",
        "LASTUPDATE": "2/24/2026",
        "AADT": "8712",
        "AADTYEAR": "2023",
        "STATENAME": "TEXAS",
        "STATEAB": "TX",
        "COUNTYNAME": "FRIO",
        "CITYNAME": "PEARSALL",
        "LATDD": 28.8905173,
        "LONGDD": -99.0972929,
        "gridlyProductionCertified": true,
        "gridlyClassification": "PUBLIC_ROADWAY",
        "gridlyDisplayName": "BI0035E / COMAL Street",
        "gridlyId": "FRA-448480E"
      }
    },
    {
      "type": "Feature",
      "id": 215636,
      "geometry": {
        "type": "Point",
        "coordinates": [
          -99.0920438998858,
          28.9085272001202
        ]
      },
      "properties": {
        "OBJECTID": 215636,
        "CROSSING": "448477W",
        "EFFDATE": 1771891200000,
        "REASON": "14",
        "StateCode": "48",
        "CountyCode": "48163",
        "STCYFIPS": "48163",
        "CITYCD": "481635260",
        "RAILROAD": "UP",
        "RRDIV": "SOUTH TEXAS",
        "RRSUBDIV": "LAREDO SUB",
        "HIGHWAY": "CR1010",
        "STREET": "FITCH STREET",
        "TTSTN": "698140",
        "MILEPOST": "0311.600",
        "TYPEXING": "Public",
        "POSXING": "At Grade",
        "PRVCAT": "14",
        "INIT": "2",
        "LATITUDE": 28.9085272,
        "LONGITUD": -99.0920439,
        "LLSOURCE": "1",
        "WHISTBAN": "0",
        "RRCONT": "4025443721",
        "POLCONT": "8008488715",
        "INV_LINK": "https://safetydata.fra.dot.gov/OfficeofSafety/PublicSite/Crossing/Crossing.aspx?phasetype=C&rpttype=I&txtcrossingnum=448477W",
        "ACC_LINK": "https://safetydata.fra.dot.gov/OfficeofSafety/PublicSite/Crossing/Crossing.aspx?phasetype=C&rpttype=A&txtcrossingnum=448477W",
        "TTSTNNAM": "",
        "XPURPOSE": "1",
        "OPERATINGR": "UP",
        "OPERATIN_1": "Primary",
        "DAYTHRU": 8,
        "NGHTTHRU": 8,
        "MAINTRK": 1,
        "SIDINGTRK": 0,
        "YARDTRK": 0,
        "TRANSITTRK": 0,
        "INDUSTRYTR": 0,
        "OTHRTRK": 0,
        "WDCODE": "All other Gates",
        "REVISIONDA": "1975/01/01 00:00:00",
        "LASTUPDATE": "2/24/2026",
        "AADT": "1430",
        "AADTYEAR": "2019",
        "STATENAME": "TEXAS",
        "STATEAB": "TX",
        "COUNTYNAME": "FRIO",
        "CITYNAME": "PEARSALL",
        "LATDD": 28.9085272,
        "LONGDD": -99.0920439,
        "gridlyProductionCertified": true,
        "gridlyClassification": "PUBLIC_ROADWAY",
        "gridlyDisplayName": "FITCH STREET",
        "gridlyId": "FRA-448477W"
      }
    },
    {
      "type": "Feature",
      "id": 215637,
      "geometry": {
        "type": "Point",
        "coordinates": [
          -99.0978321000959,
          28.8886310003349
        ]
      },
      "properties": {
        "OBJECTID": 215637,
        "CROSSING": "448481L",
        "EFFDATE": 1771891200000,
        "REASON": "14",
        "StateCode": "48",
        "CountyCode": "48163",
        "STCYFIPS": "48163",
        "CITYCD": "481635260",
        "RAILROAD": "UP",
        "RRDIV": "SOUTH TEXAS",
        "RRSUBDIV": "LAREDO SUB",
        "HIGHWAY": "LS0000",
        "STREET": "MEDINA Street",
        "TTSTN": "698140",
        "MILEPOST": "0312.980",
        "TYPEXING": "Public",
        "POSXING": "At Grade",
        "PRVCAT": "14",
        "INIT": "2",
        "LATITUDE": 28.888631,
        "LONGITUD": -99.0978321,
        "LLSOURCE": "1",
        "WHISTBAN": "0",
        "RRCONT": "4025443721",
        "POLCONT": "8008488715",
        "INV_LINK": "https://safetydata.fra.dot.gov/OfficeofSafety/PublicSite/Crossing/Crossing.aspx?phasetype=C&rpttype=I&txtcrossingnum=448481L",
        "ACC_LINK": "https://safetydata.fra.dot.gov/OfficeofSafety/PublicSite/Crossing/Crossing.aspx?phasetype=C&rpttype=A&txtcrossingnum=448481L",
        "TTSTNNAM": "",
        "XPURPOSE": "1",
        "OPERATINGR": "UP",
        "OPERATIN_1": "Primary",
        "DAYTHRU": 10,
        "NGHTTHRU": 10,
        "MAINTRK": 1,
        "SIDINGTRK": 0,
        "YARDTRK": 0,
        "TRANSITTRK": 0,
        "INDUSTRYTR": 1,
        "OTHRTRK": 1,
        "WDCODE": "All other Gates",
        "REVISIONDA": "1975/01/01 00:00:00",
        "LASTUPDATE": "2/24/2026",
        "AADT": "402",
        "AADTYEAR": "2020",
        "STATENAME": "TEXAS",
        "STATEAB": "TX",
        "COUNTYNAME": "FRIO",
        "CITYNAME": "PEARSALL",
        "LATDD": 28.888631,
        "LONGDD": -99.0978321,
        "gridlyProductionCertified": true,
        "gridlyClassification": "PUBLIC_ROADWAY",
        "gridlyDisplayName": "MEDINA Street",
        "gridlyId": "FRA-448481L"
      }
    },
    {
      "type": "Feature",
      "id": 215743,
      "geometry": {
        "type": "Point",
        "coordinates": [
          -99.102071099903,
          28.8740884996751
        ]
      },
      "properties": {
        "OBJECTID": 215743,
        "CROSSING": "448486V",
        "EFFDATE": 1771891200000,
        "REASON": "14",
        "StateCode": "48",
        "CountyCode": "48163",
        "STCYFIPS": "48163",
        "CITYCD": "481635260",
        "RAILROAD": "UP",
        "RRDIV": "SOUTH TEXAS",
        "RRSUBDIV": "LAREDO SUB",
        "HIGHWAY": "LS0000",
        "STREET": "Gilliam RoaD",
        "TTSTN": "698140",
        "MILEPOST": "0314.060",
        "TYPEXING": "Public",
        "POSXING": "At Grade",
        "PRVCAT": "14",
        "INIT": "2",
        "LATITUDE": 28.8740885,
        "LONGITUD": -99.1020711,
        "LLSOURCE": "1",
        "WHISTBAN": "0",
        "RRCONT": "4025443721",
        "POLCONT": "8008488715",
        "INV_LINK": "https://safetydata.fra.dot.gov/OfficeofSafety/PublicSite/Crossing/Crossing.aspx?phasetype=C&rpttype=I&txtcrossingnum=448486V",
        "ACC_LINK": "https://safetydata.fra.dot.gov/OfficeofSafety/PublicSite/Crossing/Crossing.aspx?phasetype=C&rpttype=A&txtcrossingnum=448486V",
        "TTSTNNAM": "",
        "XPURPOSE": "1",
        "OPERATINGR": "UP",
        "OPERATIN_1": "Primary",
        "DAYTHRU": 10,
        "NGHTTHRU": 10,
        "MAINTRK": 1,
        "SIDINGTRK": 0,
        "YARDTRK": 0,
        "TRANSITTRK": 0,
        "INDUSTRYTR": 0,
        "OTHRTRK": 0,
        "WDCODE": "All other Gates",
        "REVISIONDA": "1975/01/01 00:00:00",
        "LASTUPDATE": "2/24/2026",
        "AADT": "776",
        "AADTYEAR": "2024",
        "STATENAME": "TEXAS",
        "STATEAB": "TX",
        "COUNTYNAME": "FRIO",
        "CITYNAME": "PEARSALL",
        "LATDD": 28.8740885,
        "LONGDD": -99.1020711,
        "gridlyProductionCertified": true,
        "gridlyClassification": "PUBLIC_ROADWAY",
        "gridlyDisplayName": "Gilliam RoaD",
        "gridlyId": "FRA-448486V"
      }
    },
    {
      "type": "Feature",
      "id": 215744,
      "geometry": {
        "type": "Point",
        "coordinates": [
          -99.0946088999408,
          28.8997305997624
        ]
      },
      "properties": {
        "OBJECTID": 215744,
        "CROSSING": "448478D",
        "EFFDATE": 1771891200000,
        "REASON": "14",
        "StateCode": "48",
        "CountyCode": "48163",
        "STCYFIPS": "48163",
        "CITYCD": "481635260",
        "RAILROAD": "UP",
        "RRDIV": "SOUTH TEXAS",
        "RRSUBDIV": "LAREDO SUB",
        "HIGHWAY": "LS0000",
        "STREET": "ARNOLD STREET",
        "TTSTN": "698140",
        "MILEPOST": "0312.235",
        "TYPEXING": "Public",
        "POSXING": "At Grade",
        "PRVCAT": "14",
        "INIT": "2",
        "LATITUDE": 28.8997306,
        "LONGITUD": -99.0946089,
        "LLSOURCE": "1",
        "WHISTBAN": "0",
        "RRCONT": "4025443721",
        "POLCONT": "8008488715",
        "INV_LINK": "https://safetydata.fra.dot.gov/OfficeofSafety/PublicSite/Crossing/Crossing.aspx?phasetype=C&rpttype=I&txtcrossingnum=448478D",
        "ACC_LINK": "https://safetydata.fra.dot.gov/OfficeofSafety/PublicSite/Crossing/Crossing.aspx?phasetype=C&rpttype=A&txtcrossingnum=448478D",
        "TTSTNNAM": "",
        "XPURPOSE": "1",
        "OPERATINGR": "UP",
        "OPERATIN_1": "Primary",
        "DAYTHRU": 10,
        "NGHTTHRU": 10,
        "MAINTRK": 1,
        "SIDINGTRK": 0,
        "YARDTRK": 0,
        "TRANSITTRK": 0,
        "INDUSTRYTR": 0,
        "OTHRTRK": 0,
        "WDCODE": "All other Gates",
        "REVISIONDA": "1975/01/01 00:00:00",
        "LASTUPDATE": "2/24/2026",
        "AADT": "2346",
        "AADTYEAR": "2020",
        "STATENAME": "TEXAS",
        "STATEAB": "TX",
        "COUNTYNAME": "FRIO",
        "CITYNAME": "PEARSALL",
        "LATDD": 28.8997306,
        "LONGDD": -99.0946089,
        "gridlyProductionCertified": true,
        "gridlyClassification": "PUBLIC_ROADWAY",
        "gridlyDisplayName": "ARNOLD STREET",
        "gridlyId": "FRA-448478D"
      }
    }
  ]
}
