{
  "type": "FeatureCollection",
  "features": [
    {
      "type": "Feature",
      "id": 203782,
      "geometry": {
        "type": "Point",
        "coordinates": [
          -100.413951499816,
          29.1754299997457
        ]
      },
      "properties": {
        "OBJECTID": 203782,
        "CROSSING": "742864W",
        "EFFDATE": 1772755200000,
        "REASON": "14",
        "StateCode": "48",
        "CountyCode": "48271",
        "STCYFIPS": "48271",
        "CITYCD": "482716540",
        "RAILROAD": "UP",
        "RRDIV": "SOUTH TEXAS",
        "RRSUBDIV": "DEL RIO SUB",
        "HIGHWAY": "SH0131",
        "STREET": "SH0131 / SOUTH AVENUE B",
        "TTSTN": "692964",
        "MILEPOST": "0341.800",
        "TYPEXING": "Public",
        "POSXING": "At Grade",
        "PRVCAT": "14",
        "INIT": "2",
        "LATITUDE": 29.17543,
        "LONGITUD": -100.4139515,
        "LLSOURCE": "1",
        "WHISTBAN": "0",
        "RRCONT": "4025443721",
        "POLCONT": "8008488715",
        "INV_LINK": "https://safetydata.fra.dot.gov/OfficeofSafety/PublicSite/Crossing/Crossing.aspx?phasetype=C&rpttype=I&txtcrossingnum=742864W",
        "ACC_LINK": "https://safetydata.fra.dot.gov/OfficeofSafety/PublicSite/Crossing/Crossing.aspx?phasetype=C&rpttype=A&txtcrossingnum=742864W",
        "TTSTNNAM": "",
        "XPURPOSE": "1",
        "OPERATINGR": "UP",
        "OPERATIN_1": "Primary",
        "DAYTHRU": 5,
        "NGHTTHRU": 5,
        "MAINTRK": 1,
        "SIDINGTRK": 1,
        "YARDTRK": 0,
        "TRANSITTRK": 0,
        "INDUSTRYTR": 0,
        "OTHRTRK": 1,
        "WDCODE": "All other Gates",
        "REVISIONDA": "1975/01/01 00:00:00",
        "LASTUPDATE": "3/6/2026",
        "AADT": "236",
        "AADTYEAR": "2023",
        "STATENAME": "TEXAS",
        "STATEAB": "TX",
        "COUNTYNAME": "KINNEY",
        "CITYNAME": "SPOFFORD",
        "LATDD": 29.17543,
        "LONGDD": -100.4139515,
        "gridlyProductionCertified": true,
        "gridlyClassification": "PUBLIC_ROADWAY",
        "gridlyDisplayName": "SH0131 / SOUTH AVENUE B",
        "gridlyId": "FRA-742864W"
      }
    },
    {
      "type": "Feature",
      "id": 206965,
      "geometry": {
        "type": "Point",
        "coordinates": [
          -100.599254000331,
          29.2902150001483
        ]
      },
      "properties": {
        "OBJECTID": 206965,
        "CROSSING": "920435J",
        "EFFDATE": 1773705600000,
        "REASON": "14",
        "StateCode": "48",
        "CountyCode": "48271",
        "STCYFIPS": "48271",
        "CITYCD": "482716540",
        "RAILROAD": "UP",
        "RRDIV": "SOUTH TEXAS",
        "RRSUBDIV": "DEL RIO SUB",
        "HIGHWAY": "NA",
        "STREET": "Private",
        "TTSTN": "",
        "MILEPOST": "0355.550",
        "TYPEXING": "Private",
        "POSXING": "At Grade",
        "PRVCAT": "14",
        "INIT": "1",
        "LATITUDE": 29.290215,
        "LONGITUD": -100.599254,
        "LLSOURCE": "1",
        "WHISTBAN": "",
        "RRCONT": "4025443721",
        "POLCONT": "8008488715",
        "INV_LINK": "https://safetydata.fra.dot.gov/OfficeofSafety/PublicSite/Crossing/Crossing.aspx?phasetype=C&rpttype=I&txtcrossingnum=920435J",
        "ACC_LINK": "https://safetydata.fra.dot.gov/OfficeofSafety/PublicSite/Crossing/Crossing.aspx?phasetype=C&rpttype=A&txtcrossingnum=920435J",
        "TTSTNNAM": "",
        "XPURPOSE": "1",
        "OPERATINGR": "UP",
        "OPERATIN_1": "Primary",
        "DAYTHRU": 5,
        "NGHTTHRU": 4,
        "MAINTRK": 1,
        "SIDINGTRK": 0,
        "YARDTRK": 0,
        "TRANSITTRK": 0,
        "INDUSTRYTR": 0,
        "OTHRTRK": 0,
        "WDCODE": "",
        "REVISIONDA": "1975/01/01 00:00:00",
        "LASTUPDATE": "3/17/2026",
        "AADT": "",
        "AADTYEAR": "",
        "STATENAME": "TEXAS",
        "STATEAB": "TX",
        "COUNTYNAME": "KINNEY",
        "CITYNAME": "SPOFFORD",
        "LATDD": 29.290215,
        "LONGDD": -100.599254,
        "gridlyProductionCertified": true,
        "gridlyClassification": "PUBLIC_ROADWAY",
        "gridlyDisplayName": "Private",
        "gridlyId": "FRA-920435J"
      }
    },
    {
      "type": "Feature",
      "id": 207137,
      "geometry": {
        "type": "Point",
        "coordinates": [
          -100.209128200343,
          29.2344986998858
        ]
      },
      "properties": {
        "OBJECTID": 207137,
        "CROSSING": "742858T",
        "EFFDATE": 1756425600000,
        "REASON": "14",
        "StateCode": "48",
        "CountyCode": "48271",
        "STCYFIPS": "48271",
        "CITYCD": "482716540",
        "RAILROAD": "UP",
        "RRDIV": "SOUTH TEXAS",
        "RRSUBDIV": "DEL RIO SUB",
        "HIGHWAY": "NA",
        "STREET": "PRIVATE",
        "TTSTN": "692952",
        "MILEPOST": "0327.130",
        "TYPEXING": "Private",
        "POSXING": "At Grade",
        "PRVCAT": "14",
        "INIT": "1",
        "LATITUDE": 29.2344987,
        "LONGITUD": -100.2091282,
        "LLSOURCE": "1",
        "WHISTBAN": "0",
        "RRCONT": "4025443721",
        "POLCONT": "8008488715",
        "INV_LINK": "https://safetydata.fra.dot.gov/OfficeofSafety/PublicSite/Crossing/Crossing.aspx?phasetype=C&rpttype=I&txtcrossingnum=742858T",
        "ACC_LINK": "https://safetydata.fra.dot.gov/OfficeofSafety/PublicSite/Crossing/Crossing.aspx?phasetype=C&rpttype=A&txtcrossingnum=742858T",
        "TTSTNNAM": "",
        "XPURPOSE": "1",
        "OPERATINGR": "UP",
        "OPERATIN_1": "Primary",
        "DAYTHRU": 13,
        "NGHTTHRU": 13,
        "MAINTRK": 1,
        "SIDINGTRK": 0,
        "YARDTRK": 0,
        "TRANSITTRK": 0,
        "INDUSTRYTR": 0,
        "OTHRTRK": 0,
        "WDCODE": "",
        "REVISIONDA": "1975/01/01 00:00:00",
        "LASTUPDATE": "8/29/2025",
        "AADT": "1",
        "AADTYEAR": "1970",
        "STATENAME": "TEXAS",
        "STATEAB": "TX",
        "COUNTYNAME": "KINNEY",
        "CITYNAME": "SPOFFORD",
        "LATDD": 29.2344987,
        "LONGDD": -100.2091282,
        "gridlyProductionCertified": true,
        "gridlyClassification": "PUBLIC_ROADWAY",
        "gridlyDisplayName": "PRIVATE",
        "gridlyId": "FRA-742858T"
      }
    },
    {
      "type": "Feature",
      "id": 207138,
      "geometry": {
        "type": "Point",
        "coordinates": [
          -100.290233200335,
          29.2036136003565
        ]
      },
      "properties": {
        "OBJECTID": 207138,
        "CROSSING": "742860U",
        "EFFDATE": 1756425600000,
        "REASON": "14",
        "StateCode": "48",
        "CountyCode": "48271",
        "STCYFIPS": "48271",
        "CITYCD": "482716540",
        "RAILROAD": "UP",
        "RRDIV": "SOUTH TEXAS",
        "RRSUBDIV": "DEL RIO SUB",
        "HIGHWAY": "NA",
        "STREET": "PRIVATE",
        "TTSTN": "692964",
        "MILEPOST": "0332.520",
        "TYPEXING": "Private",
        "POSXING": "At Grade",
        "PRVCAT": "14",
        "INIT": "1",
        "LATITUDE": 29.2036136,
        "LONGITUD": -100.2902332,
        "LLSOURCE": "1",
        "WHISTBAN": "0",
        "RRCONT": "4025443721",
        "POLCONT": "8008488715",
        "INV_LINK": "https://safetydata.fra.dot.gov/OfficeofSafety/PublicSite/Crossing/Crossing.aspx?phasetype=C&rpttype=I&txtcrossingnum=742860U",
        "ACC_LINK": "https://safetydata.fra.dot.gov/OfficeofSafety/PublicSite/Crossing/Crossing.aspx?phasetype=C&rpttype=A&txtcrossingnum=742860U",
        "TTSTNNAM": "",
        "XPURPOSE": "1",
        "OPERATINGR": "UP",
        "OPERATIN_1": "Primary",
        "DAYTHRU": 13,
        "NGHTTHRU": 13,
        "MAINTRK": 1,
        "SIDINGTRK": 0,
        "YARDTRK": 0,
        "TRANSITTRK": 0,
        "INDUSTRYTR": 0,
        "OTHRTRK": 0,
        "WDCODE": "",
        "REVISIONDA": "1975/01/01 00:00:00",
        "LASTUPDATE": "8/29/2025",
        "AADT": "1",
        "AADTYEAR": "1970",
        "STATENAME": "TEXAS",
        "STATEAB": "TX",
        "COUNTYNAME": "KINNEY",
        "CITYNAME": "SPOFFORD",
        "LATDD": 29.2036136,
        "LONGDD": -100.2902332,
        "gridlyProductionCertified": true,
        "gridlyClassification": "PUBLIC_ROADWAY",
        "gridlyDisplayName": "PRIVATE",
        "gridlyId": "FRA-742860U"
      }
    },
    {
      "type": "Feature",
      "id": 207139,
      "geometry": {
        "type": "Point",
        "coordinates": [
          -100.159586399884,
          29.2346004000499
        ]
      },
      "properties": {
        "OBJECTID": 207139,
        "CROSSING": "742857L",
        "EFFDATE": 1756425600000,
        "REASON": "14",
        "StateCode": "48",
        "CountyCode": "48271",
        "STCYFIPS": "48271",
        "CITYCD": "484631392",
        "RAILROAD": "UP",
        "RRDIV": "SOUTH TEXAS",
        "RRSUBDIV": "DEL RIO SUB",
        "HIGHWAY": "NA",
        "STREET": "PRIVATE",
        "TTSTN": "692952",
        "MILEPOST": "0324.100",
        "TYPEXING": "Private",
        "POSXING": "At Grade",
        "PRVCAT": "14",
        "INIT": "1",
        "LATITUDE": 29.2346004,
        "LONGITUD": -100.1595864,
        "LLSOURCE": "1",
        "WHISTBAN": "0",
        "RRCONT": "4025443721",
        "POLCONT": "8008488715",
        "INV_LINK": "https://safetydata.fra.dot.gov/OfficeofSafety/PublicSite/Crossing/Crossing.aspx?phasetype=C&rpttype=I&txtcrossingnum=742857L",
        "ACC_LINK": "https://safetydata.fra.dot.gov/OfficeofSafety/PublicSite/Crossing/Crossing.aspx?phasetype=C&rpttype=A&txtcrossingnum=742857L",
        "TTSTNNAM": "",
        "XPURPOSE": "1",
        "OPERATINGR": "UP",
        "OPERATIN_1": "Primary",
        "DAYTHRU": 10,
        "NGHTTHRU": 10,
        "MAINTRK": 1,
        "SIDINGTRK": 1,
        "YARDTRK": 0,
        "TRANSITTRK": 0,
        "INDUSTRYTR": 0,
        "OTHRTRK": 0,
        "WDCODE": "",
        "REVISIONDA": "1975/01/01 00:00:00",
        "LASTUPDATE": "8/29/2025",
        "AADT": "1",
        "AADTYEAR": "1970",
        "STATENAME": "TEXAS",
        "STATEAB": "TX",
        "COUNTYNAME": "KINNEY",
        "CITYNAME": "CLINE",
        "LATDD": 29.2346004,
        "LONGDD": -100.1595864,
        "gridlyProductionCertified": true,
        "gridlyClassification": "PUBLIC_ROADWAY",
        "gridlyDisplayName": "PRIVATE",
        "gridlyId": "FRA-742857L"
      }
    },
    {
      "type": "Feature",
      "id": 207140,
      "geometry": {
        "type": "Point",
        "coordinates": [
          -100.134163000264,
          29.2335359999068
        ]
      },
      "properties": {
        "OBJECTID": 207140,
        "CROSSING": "742856E",
        "EFFDATE": 1756425600000,
        "REASON": "14",
        "StateCode": "48",
        "CountyCode": "48271",
        "STCYFIPS": "48271",
        "CITYCD": "484631392",
        "RAILROAD": "UP",
        "RRDIV": "SOUTH TEXAS",
        "RRSUBDIV": "DEL RIO SUB",
        "HIGHWAY": "US 0090",
        "STREET": "US 90",
        "TTSTN": "692952",
        "MILEPOST": "0322.570",
        "TYPEXING": "Public",
        "POSXING": "RR Under",
        "PRVCAT": "14",
        "INIT": "1",
        "LATITUDE": 29.233536,
        "LONGITUD": -100.134163,
        "LLSOURCE": "1",
        "WHISTBAN": "0",
        "RRCONT": "4025443721",
        "POLCONT": "8008488715",
        "INV_LINK": "https://safetydata.fra.dot.gov/OfficeofSafety/PublicSite/Crossing/Crossing.aspx?phasetype=C&rpttype=I&txtcrossingnum=742856E",
        "ACC_LINK": "https://safetydata.fra.dot.gov/OfficeofSafety/PublicSite/Crossing/Crossing.aspx?phasetype=C&rpttype=A&txtcrossingnum=742856E",
        "TTSTNNAM": "",
        "XPURPOSE": "1",
        "OPERATINGR": "UP",
        "OPERATIN_1": "Primary",
        "DAYTHRU": 9,
        "NGHTTHRU": 9,
        "MAINTRK": 1,
        "SIDINGTRK": 0,
        "YARDTRK": 0,
        "TRANSITTRK": 0,
        "INDUSTRYTR": 0,
        "OTHRTRK": 0,
        "WDCODE": "",
        "REVISIONDA": "1975/01/01 00:00:00",
        "LASTUPDATE": "8/29/2025",
        "AADT": "3100",
        "AADTYEAR": "2011",
        "STATENAME": "TEXAS",
        "STATEAB": "TX",
        "COUNTYNAME": "KINNEY",
        "CITYNAME": "CLINE",
        "LATDD": 29.233536,
        "LONGDD": -100.134163,
        "gridlyProductionCertified": true,
        "gridlyClassification": "PUBLIC_ROADWAY",
        "gridlyDisplayName": "US 90",
        "gridlyId": "FRA-742856E"
      }
    },
    {
      "type": "Feature",
      "id": 207804,
      "geometry": {
        "type": "Point",
        "coordinates": [
          -100.259673000358,
          29.2196549998973
        ]
      },
      "properties": {
        "OBJECTID": 207804,
        "CROSSING": "742859A",
        "EFFDATE": 1756425600000,
        "REASON": "14",
        "StateCode": "48",
        "CountyCode": "48271",
        "STCYFIPS": "48271",
        "CITYCD": "482716540",
        "RAILROAD": "UP",
        "RRDIV": "SOUTH TEXAS",
        "RRSUBDIV": "DEL RIO SUB",
        "HIGHWAY": "FM 1572",
        "STREET": "FM 1572",
        "TTSTN": "692952",
        "MILEPOST": "0330.300",
        "TYPEXING": "Public",
        "POSXING": "RR Over",
        "PRVCAT": "14",
        "INIT": "1",
        "LATITUDE": 29.219655,
        "LONGITUD": -100.259673,
        "LLSOURCE": "1",
        "WHISTBAN": "0",
        "RRCONT": "4025443721",
        "POLCONT": "8008488715",
        "INV_LINK": "https://safetydata.fra.dot.gov/OfficeofSafety/PublicSite/Crossing/Crossing.aspx?phasetype=C&rpttype=I&txtcrossingnum=742859A",
        "ACC_LINK": "https://safetydata.fra.dot.gov/OfficeofSafety/PublicSite/Crossing/Crossing.aspx?phasetype=C&rpttype=A&txtcrossingnum=742859A",
        "TTSTNNAM": "",
        "XPURPOSE": "1",
        "OPERATINGR": "UP",
        "OPERATIN_1": "Primary",
        "DAYTHRU": 9,
        "NGHTTHRU": 9,
        "MAINTRK": 1,
        "SIDINGTRK": 0,
        "YARDTRK": 0,
        "TRANSITTRK": 0,
        "INDUSTRYTR": 0,
        "OTHRTRK": 0,
        "WDCODE": "",
        "REVISIONDA": "1975/01/01 00:00:00",
        "LASTUPDATE": "8/29/2025",
        "AADT": "200",
        "AADTYEAR": "2011",
        "STATENAME": "TEXAS",
        "STATEAB": "TX",
        "COUNTYNAME": "KINNEY",
        "CITYNAME": "SPOFFORD",
        "LATDD": 29.219655,
        "LONGDD": -100.259673,
        "gridlyProductionCertified": true,
        "gridlyClassification": "PUBLIC_ROADWAY",
        "gridlyDisplayName": "FM 1572",
        "gridlyId": "FRA-742859A"
      }
    },
    {
      "type": "Feature",
      "id": 210739,
      "geometry": {
        "type": "Point",
        "coordinates": [
          -100.49740529963,
          29.2261175002066
        ]
      },
      "properties": {
        "OBJECTID": 210739,
        "CROSSING": "742967W",
        "EFFDATE": 1770076800000,
        "REASON": "14",
        "StateCode": "48",
        "CountyCode": "48271",
        "STCYFIPS": "48271",
        "CITYCD": "482716540",
        "RAILROAD": "UP",
        "RRDIV": "SOUTH TEXAS",
        "RRSUBDIV": "DEL RIO SUB",
        "HIGHWAY": "CO 0003",
        "STREET": "LAS MORAS ROAD",
        "TTSTN": "692964",
        "MILEPOST": "0347.940",
        "TYPEXING": "Public",
        "POSXING": "At Grade",
        "PRVCAT": "14",
        "INIT": "2",
        "LATITUDE": 29.2261175,
        "LONGITUD": -100.4974053,
        "LLSOURCE": "1",
        "WHISTBAN": "0",
        "RRCONT": "4025443721",
        "POLCONT": "8008488715",
        "INV_LINK": "https://safetydata.fra.dot.gov/OfficeofSafety/PublicSite/Crossing/Crossing.aspx?phasetype=C&rpttype=I&txtcrossingnum=742967W",
        "ACC_LINK": "https://safetydata.fra.dot.gov/OfficeofSafety/PublicSite/Crossing/Crossing.aspx?phasetype=C&rpttype=A&txtcrossingnum=742967W",
        "TTSTNNAM": "",
        "XPURPOSE": "1",
        "OPERATINGR": "UP",
        "OPERATIN_1": "Primary",
        "DAYTHRU": 5,
        "NGHTTHRU": 5,
        "MAINTRK": 1,
        "SIDINGTRK": 0,
        "YARDTRK": 0,
        "TRANSITTRK": 0,
        "INDUSTRYTR": 0,
        "OTHRTRK": 0,
        "WDCODE": "Crossbucks",
        "REVISIONDA": "1975/01/01 00:00:00",
        "LASTUPDATE": "2/3/2026",
        "AADT": "32",
        "AADTYEAR": "2023",
        "STATENAME": "TEXAS",
        "STATEAB": "TX",
        "COUNTYNAME": "KINNEY",
        "CITYNAME": "SPOFFORD",
        "LATDD": 29.2261175,
        "LONGDD": -100.4974053,
        "gridlyProductionCertified": true,
        "gridlyClassification": "PUBLIC_ROADWAY",
        "gridlyDisplayName": "LAS MORAS ROAD",
        "gridlyId": "FRA-742967W"
      }
    },
    {
      "type": "Feature",
      "id": 211890,
      "geometry": {
        "type": "Point",
        "coordinates": [
          -100.399965000337,
          29.1356829999092
        ]
      },
      "properties": {
        "OBJECTID": 211890,
        "CROSSING": "972539J",
        "EFFDATE": 1760918400000,
        "REASON": "14",
        "StateCode": "48",
        "CountyCode": "48271",
        "STCYFIPS": "48271",
        "CITYCD": "482716540",
        "RAILROAD": "UP",
        "RRDIV": "SOUTH TEXAS",
        "RRSUBDIV": "Eagle Pass SUB",
        "HIGHWAY": "NA",
        "STREET": "ALL PRIVATE IN YARD",
        "TTSTN": "",
        "MILEPOST": "0002.870",
        "TYPEXING": "Private",
        "POSXING": "At Grade",
        "PRVCAT": "14",
        "INIT": "1",
        "LATITUDE": 29.135683,
        "LONGITUD": -100.399965,
        "LLSOURCE": "1",
        "WHISTBAN": "",
        "RRCONT": "4025443721",
        "POLCONT": "8008488715",
        "INV_LINK": "https://safetydata.fra.dot.gov/OfficeofSafety/PublicSite/Crossing/Crossing.aspx?phasetype=C&rpttype=I&txtcrossingnum=972539J",
        "ACC_LINK": "https://safetydata.fra.dot.gov/OfficeofSafety/PublicSite/Crossing/Crossing.aspx?phasetype=C&rpttype=A&txtcrossingnum=972539J",
        "TTSTNNAM": "",
        "XPURPOSE": "1",
        "OPERATINGR": "UP",
        "OPERATIN_1": "Primary",
        "DAYTHRU": 8,
        "NGHTTHRU": 8,
        "MAINTRK": 1,
        "SIDINGTRK": 1,
        "YARDTRK": 2,
        "TRANSITTRK": 0,
        "INDUSTRYTR": 0,
        "OTHRTRK": 0,
        "WDCODE": "",
        "REVISIONDA": "1975/01/01 00:00:00",
        "LASTUPDATE": "10/20/2025",
        "AADT": "",
        "AADTYEAR": "",
        "STATENAME": "TEXAS",
        "STATEAB": "TX",
        "COUNTYNAME": "KINNEY",
        "CITYNAME": "SPOFFORD",
        "LATDD": 29.135683,
        "LONGDD": -100.399965,
        "gridlyProductionCertified": true,
        "gridlyClassification": "PUBLIC_ROADWAY",
        "gridlyDisplayName": "ALL PRIVATE IN YARD",
        "gridlyId": "FRA-972539J"
      }
    },
    {
      "type": "Feature",
      "id": 212328,
      "geometry": {
        "type": "Point",
        "coordinates": [
          -100.436785399629,
          29.1893212003818
        ]
      },
      "properties": {
        "OBJECTID": 212328,
        "CROSSING": "742862H",
        "EFFDATE": 1759104000000,
        "REASON": "14",
        "StateCode": "48",
        "CountyCode": "48271",
        "STCYFIPS": "48271",
        "CITYCD": "482716540",
        "RAILROAD": "UP",
        "RRDIV": "SOUTH TEXAS",
        "RRSUBDIV": "DEL RIO SUB",
        "HIGHWAY": "NA",
        "STREET": "PRIVATE",
        "TTSTN": "692964",
        "MILEPOST": "0343.500",
        "TYPEXING": "Private",
        "POSXING": "At Grade",
        "PRVCAT": "14",
        "INIT": "1",
        "LATITUDE": 29.1893212,
        "LONGITUD": -100.4367854,
        "LLSOURCE": "1",
        "WHISTBAN": "0",
        "RRCONT": "4025443721",
        "POLCONT": "8008488715",
        "INV_LINK": "https://safetydata.fra.dot.gov/OfficeofSafety/PublicSite/Crossing/Crossing.aspx?phasetype=C&rpttype=I&txtcrossingnum=742862H",
        "ACC_LINK": "https://safetydata.fra.dot.gov/OfficeofSafety/PublicSite/Crossing/Crossing.aspx?phasetype=C&rpttype=A&txtcrossingnum=742862H",
        "TTSTNNAM": "",
        "XPURPOSE": "1",
        "OPERATINGR": "UP",
        "OPERATIN_1": "Primary",
        "DAYTHRU": 5,
        "NGHTTHRU": 5,
        "MAINTRK": 1,
        "SIDINGTRK": 0,
        "YARDTRK": 0,
        "TRANSITTRK": 0,
        "INDUSTRYTR": 0,
        "OTHRTRK": 0,
        "WDCODE": "",
        "REVISIONDA": "1975/01/01 00:00:00",
        "LASTUPDATE": "9/29/2025",
        "AADT": "1",
        "AADTYEAR": "1970",
        "STATENAME": "TEXAS",
        "STATEAB": "TX",
        "COUNTYNAME": "KINNEY",
        "CITYNAME": "SPOFFORD",
        "LATDD": 29.1893212,
        "LONGDD": -100.4367854,
        "gridlyProductionCertified": true,
        "gridlyClassification": "PUBLIC_ROADWAY",
        "gridlyDisplayName": "PRIVATE",
        "gridlyId": "FRA-742862H"
      }
    },
    {
      "type": "Feature",
      "id": 212372,
      "geometry": {
        "type": "Point",
        "coordinates": [
          -100.688986599975,
          29.3863119000713
        ]
      },
      "properties": {
        "OBJECTID": 212372,
        "CROSSING": "743012W",
        "EFFDATE": 1759104000000,
        "REASON": "14",
        "StateCode": "48",
        "CountyCode": "48271",
        "STCYFIPS": "48271",
        "CITYCD": "484651820",
        "RAILROAD": "UP",
        "RRDIV": "SOUTH TEXAS",
        "RRSUBDIV": "DEL RIO SUB",
        "HIGHWAY": "NA",
        "STREET": "PRIVATE",
        "TTSTN": "693774",
        "MILEPOST": "0364.920",
        "TYPEXING": "Private",
        "POSXING": "At Grade",
        "PRVCAT": "14",
        "INIT": "1",
        "LATITUDE": 29.3863119,
        "LONGITUD": -100.6889866,
        "LLSOURCE": "1",
        "WHISTBAN": "0",
        "RRCONT": "4025443721",
        "POLCONT": "8008488715",
        "INV_LINK": "https://safetydata.fra.dot.gov/OfficeofSafety/PublicSite/Crossing/Crossing.aspx?phasetype=C&rpttype=I&txtcrossingnum=743012W",
        "ACC_LINK": "https://safetydata.fra.dot.gov/OfficeofSafety/PublicSite/Crossing/Crossing.aspx?phasetype=C&rpttype=A&txtcrossingnum=743012W",
        "TTSTNNAM": "",
        "XPURPOSE": "1",
        "OPERATINGR": "UP",
        "OPERATIN_1": "Primary",
        "DAYTHRU": 5,
        "NGHTTHRU": 5,
        "MAINTRK": 1,
        "SIDINGTRK": 0,
        "YARDTRK": 0,
        "TRANSITTRK": 0,
        "INDUSTRYTR": 0,
        "OTHRTRK": 0,
        "WDCODE": "",
        "REVISIONDA": "1975/01/01 00:00:00",
        "LASTUPDATE": "9/29/2025",
        "AADT": "1",
        "AADTYEAR": "1970",
        "STATENAME": "TEXAS",
        "STATEAB": "TX",
        "COUNTYNAME": "KINNEY",
        "CITYNAME": "DEL RIO",
        "LATDD": 29.3863119,
        "LONGDD": -100.6889866,
        "gridlyProductionCertified": true,
        "gridlyClassification": "PUBLIC_ROADWAY",
        "gridlyDisplayName": "PRIVATE",
        "gridlyId": "FRA-743012W"
      }
    },
    {
      "type": "Feature",
      "id": 213287,
      "geometry": {
        "type": "Point",
        "coordinates": [
          -100.619377399962,
          29.3433597996743
        ]
      },
      "properties": {
        "OBJECTID": 213287,
        "CROSSING": "743015S",
        "EFFDATE": 1758499200000,
        "REASON": "14",
        "StateCode": "48",
        "CountyCode": "48271",
        "STCYFIPS": "48271",
        "CITYCD": "482716540",
        "RAILROAD": "UP",
        "RRDIV": "SOUTH TEXAS",
        "RRSUBDIV": "DEL RIO SUB",
        "HIGHWAY": "NA",
        "STREET": "PRIVATE",
        "TTSTN": "692978",
        "MILEPOST": "0359.630",
        "TYPEXING": "Private",
        "POSXING": "At Grade",
        "PRVCAT": "14",
        "INIT": "1",
        "LATITUDE": 29.3433598,
        "LONGITUD": -100.6193774,
        "LLSOURCE": "1",
        "WHISTBAN": "0",
        "RRCONT": "4025443721",
        "POLCONT": "8008488715",
        "INV_LINK": "https://safetydata.fra.dot.gov/OfficeofSafety/PublicSite/Crossing/Crossing.aspx?phasetype=C&rpttype=I&txtcrossingnum=743015S",
        "ACC_LINK": "https://safetydata.fra.dot.gov/OfficeofSafety/PublicSite/Crossing/Crossing.aspx?phasetype=C&rpttype=A&txtcrossingnum=743015S",
        "TTSTNNAM": "",
        "XPURPOSE": "1",
        "OPERATINGR": "UP",
        "OPERATIN_1": "Primary",
        "DAYTHRU": 5,
        "NGHTTHRU": 5,
        "MAINTRK": 1,
        "SIDINGTRK": 0,
        "YARDTRK": 0,
        "TRANSITTRK": 0,
        "INDUSTRYTR": 0,
        "OTHRTRK": 0,
        "WDCODE": "",
        "REVISIONDA": "1975/01/01 00:00:00",
        "LASTUPDATE": "9/22/2025",
        "AADT": "1",
        "AADTYEAR": "1970",
        "STATENAME": "TEXAS",
        "STATEAB": "TX",
        "COUNTYNAME": "KINNEY",
        "CITYNAME": "SPOFFORD",
        "LATDD": 29.3433598,
        "LONGDD": -100.6193774,
        "gridlyProductionCertified": true,
        "gridlyClassification": "PUBLIC_ROADWAY",
        "gridlyDisplayName": "PRIVATE",
        "gridlyId": "FRA-743015S"
      }
    },
    {
      "type": "Feature",
      "id": 213288,
      "geometry": {
        "type": "Point",
        "coordinates": [
          -100.603217999778,
          29.2985250003836
        ]
      },
      "properties": {
        "OBJECTID": 213288,
        "CROSSING": "743016Y",
        "EFFDATE": 1758499200000,
        "REASON": "14",
        "StateCode": "48",
        "CountyCode": "48271",
        "STCYFIPS": "48271",
        "CITYCD": "482716540",
        "RAILROAD": "UP",
        "RRDIV": "SOUTH TEXAS",
        "RRSUBDIV": "DEL RIO SUB",
        "HIGHWAY": "NA",
        "STREET": "PRIVATE",
        "TTSTN": "692964",
        "MILEPOST": "0356.185",
        "TYPEXING": "Private",
        "POSXING": "RR Over",
        "PRVCAT": "14",
        "INIT": "1",
        "LATITUDE": 29.298525,
        "LONGITUD": -100.603218,
        "LLSOURCE": "1",
        "WHISTBAN": "0",
        "RRCONT": "4025443721",
        "POLCONT": "8008488715",
        "INV_LINK": "https://safetydata.fra.dot.gov/OfficeofSafety/PublicSite/Crossing/Crossing.aspx?phasetype=C&rpttype=I&txtcrossingnum=743016Y",
        "ACC_LINK": "https://safetydata.fra.dot.gov/OfficeofSafety/PublicSite/Crossing/Crossing.aspx?phasetype=C&rpttype=A&txtcrossingnum=743016Y",
        "TTSTNNAM": "",
        "XPURPOSE": "1",
        "OPERATINGR": "UP",
        "OPERATIN_1": "Primary",
        "DAYTHRU": 0,
        "NGHTTHRU": 0,
        "MAINTRK": 1,
        "SIDINGTRK": 0,
        "YARDTRK": 0,
        "TRANSITTRK": 0,
        "INDUSTRYTR": 0,
        "OTHRTRK": 0,
        "WDCODE": "",
        "REVISIONDA": "1975/01/01 00:00:00",
        "LASTUPDATE": "9/22/2025",
        "AADT": "1",
        "AADTYEAR": "1970",
        "STATENAME": "TEXAS",
        "STATEAB": "TX",
        "COUNTYNAME": "KINNEY",
        "CITYNAME": "SPOFFORD",
        "LATDD": 29.298525,
        "LONGDD": -100.603218,
        "gridlyProductionCertified": true,
        "gridlyClassification": "PUBLIC_ROADWAY",
        "gridlyDisplayName": "PRIVATE",
        "gridlyId": "FRA-743016Y"
      }
    },
    {
      "type": "Feature",
      "id": 213289,
      "geometry": {
        "type": "Point",
        "coordinates": [
          -100.584107299713,
          29.2787195998625
        ]
      },
      "properties": {
        "OBJECTID": 213289,
        "CROSSING": "743017F",
        "EFFDATE": 1758499200000,
        "REASON": "14",
        "StateCode": "48",
        "CountyCode": "48271",
        "STCYFIPS": "48271",
        "CITYCD": "482716540",
        "RAILROAD": "UP",
        "RRDIV": "SOUTH TEXAS",
        "RRSUBDIV": "DEL RIO SUB",
        "HIGHWAY": "NA",
        "STREET": "PRIVATE",
        "TTSTN": "692972",
        "MILEPOST": "0354.320",
        "TYPEXING": "Private",
        "POSXING": "At Grade",
        "PRVCAT": "14",
        "INIT": "1",
        "LATITUDE": 29.2787196,
        "LONGITUD": -100.5841073,
        "LLSOURCE": "1",
        "WHISTBAN": "0",
        "RRCONT": "4025443721",
        "POLCONT": "8008488715",
        "INV_LINK": "https://safetydata.fra.dot.gov/OfficeofSafety/PublicSite/Crossing/Crossing.aspx?phasetype=C&rpttype=I&txtcrossingnum=743017F",
        "ACC_LINK": "https://safetydata.fra.dot.gov/OfficeofSafety/PublicSite/Crossing/Crossing.aspx?phasetype=C&rpttype=A&txtcrossingnum=743017F",
        "TTSTNNAM": "",
        "XPURPOSE": "1",
        "OPERATINGR": "UP",
        "OPERATIN_1": "Primary",
        "DAYTHRU": 5,
        "NGHTTHRU": 5,
        "MAINTRK": 1,
        "SIDINGTRK": 1,
        "YARDTRK": 0,
        "TRANSITTRK": 0,
        "INDUSTRYTR": 0,
        "OTHRTRK": 0,
        "WDCODE": "",
        "REVISIONDA": "1975/01/01 00:00:00",
        "LASTUPDATE": "9/22/2025",
        "AADT": "1",
        "AADTYEAR": "1970",
        "STATENAME": "TEXAS",
        "STATEAB": "TX",
        "COUNTYNAME": "KINNEY",
        "CITYNAME": "SPOFFORD",
        "LATDD": 29.2787196,
        "LONGDD": -100.5841073,
        "gridlyProductionCertified": true,
        "gridlyClassification": "PUBLIC_ROADWAY",
        "gridlyDisplayName": "PRIVATE",
        "gridlyId": "FRA-743017F"
      }
    },
    {
      "type": "Feature",
      "id": 213423,
      "geometry": {
        "type": "Point",
        "coordinates": [
          -100.677141599692,
          29.3824442996495
        ]
      },
      "properties": {
        "OBJECTID": 213423,
        "CROSSING": "743013D",
        "EFFDATE": 1758499200000,
        "REASON": "14",
        "StateCode": "48",
        "CountyCode": "48271",
        "STCYFIPS": "48271",
        "CITYCD": "484651820",
        "RAILROAD": "UP",
        "RRDIV": "SOUTH TEXAS",
        "RRSUBDIV": "DEL RIO SUB",
        "HIGHWAY": "NA",
        "STREET": "PRIVATE",
        "TTSTN": "693774",
        "MILEPOST": "0364.150",
        "TYPEXING": "Private",
        "POSXING": "At Grade",
        "PRVCAT": "14",
        "INIT": "1",
        "LATITUDE": 29.3824443,
        "LONGITUD": -100.6771416,
        "LLSOURCE": "1",
        "WHISTBAN": "0",
        "RRCONT": "4025443721",
        "POLCONT": "8008488715",
        "INV_LINK": "https://safetydata.fra.dot.gov/OfficeofSafety/PublicSite/Crossing/Crossing.aspx?phasetype=C&rpttype=I&txtcrossingnum=743013D",
        "ACC_LINK": "https://safetydata.fra.dot.gov/OfficeofSafety/PublicSite/Crossing/Crossing.aspx?phasetype=C&rpttype=A&txtcrossingnum=743013D",
        "TTSTNNAM": "",
        "XPURPOSE": "1",
        "OPERATINGR": "UP",
        "OPERATIN_1": "Primary",
        "DAYTHRU": 5,
        "NGHTTHRU": 5,
        "MAINTRK": 1,
        "SIDINGTRK": 0,
        "YARDTRK": 0,
        "TRANSITTRK": 0,
        "INDUSTRYTR": 0,
        "OTHRTRK": 0,
        "WDCODE": "",
        "REVISIONDA": "1975/01/01 00:00:00",
        "LASTUPDATE": "9/22/2025",
        "AADT": "1",
        "AADTYEAR": "1970",
        "STATENAME": "TEXAS",
        "STATEAB": "TX",
        "COUNTYNAME": "KINNEY",
        "CITYNAME": "DEL RIO",
        "LATDD": 29.3824443,
        "LONGDD": -100.6771416,
        "gridlyProductionCertified": true,
        "gridlyClassification": "PUBLIC_ROADWAY",
        "gridlyDisplayName": "PRIVATE",
        "gridlyId": "FRA-743013D"
      }
    },
    {
      "type": "Feature",
      "id": 213424,
      "geometry": {
        "type": "Point",
        "coordinates": [
          -100.639693799937,
          29.3641844998882
        ]
      },
      "properties": {
        "OBJECTID": 213424,
        "CROSSING": "743014K",
        "EFFDATE": 1758499200000,
        "REASON": "14",
        "StateCode": "48",
        "CountyCode": "48271",
        "STCYFIPS": "48271",
        "CITYCD": "484651820",
        "RAILROAD": "UP",
        "RRDIV": "SOUTH TEXAS",
        "RRSUBDIV": "DEL RIO SUB",
        "HIGHWAY": "NA",
        "STREET": "PRIVATE",
        "TTSTN": "692978",
        "MILEPOST": "0361.540",
        "TYPEXING": "Private",
        "POSXING": "At Grade",
        "PRVCAT": "14",
        "INIT": "1",
        "LATITUDE": 29.3641845,
        "LONGITUD": -100.6396938,
        "LLSOURCE": "1",
        "WHISTBAN": "0",
        "RRCONT": "4025443721",
        "POLCONT": "8008488715",
        "INV_LINK": "https://safetydata.fra.dot.gov/OfficeofSafety/PublicSite/Crossing/Crossing.aspx?phasetype=C&rpttype=I&txtcrossingnum=743014K",
        "ACC_LINK": "https://safetydata.fra.dot.gov/OfficeofSafety/PublicSite/Crossing/Crossing.aspx?phasetype=C&rpttype=A&txtcrossingnum=743014K",
        "TTSTNNAM": "",
        "XPURPOSE": "1",
        "OPERATINGR": "UP",
        "OPERATIN_1": "Primary",
        "DAYTHRU": 5,
        "NGHTTHRU": 5,
        "MAINTRK": 1,
        "SIDINGTRK": 0,
        "YARDTRK": 0,
        "TRANSITTRK": 0,
        "INDUSTRYTR": 0,
        "OTHRTRK": 0,
        "WDCODE": "",
        "REVISIONDA": "1975/01/01 00:00:00",
        "LASTUPDATE": "9/22/2025",
        "AADT": "1",
        "AADTYEAR": "1970",
        "STATENAME": "TEXAS",
        "STATEAB": "TX",
        "COUNTYNAME": "KINNEY",
        "CITYNAME": "DEL RIO",
        "LATDD": 29.3641845,
        "LONGDD": -100.6396938,
        "gridlyProductionCertified": true,
        "gridlyClassification": "PUBLIC_ROADWAY",
        "gridlyDisplayName": "PRIVATE",
        "gridlyId": "FRA-743014K"
      }
    },
    {
      "type": "Feature",
      "id": 214263,
      "geometry": {
        "type": "Point",
        "coordinates": [
          -100.508701899992,
          29.2329702001835
        ]
      },
      "properties": {
        "OBJECTID": 214263,
        "CROSSING": "743087V",
        "EFFDATE": 1770163200000,
        "REASON": "14",
        "StateCode": "48",
        "CountyCode": "48271",
        "STCYFIPS": "48271",
        "CITYCD": "482716540",
        "RAILROAD": "UP",
        "RRDIV": "SOUTH TEXAS",
        "RRSUBDIV": "DEL RIO SUB",
        "HIGHWAY": "CO 0002",
        "STREET": "STANDARD LANE",
        "TTSTN": "692972",
        "MILEPOST": "0348.780",
        "TYPEXING": "Public",
        "POSXING": "At Grade",
        "PRVCAT": "14",
        "INIT": "2",
        "LATITUDE": 29.2329702,
        "LONGITUD": -100.5087019,
        "LLSOURCE": "1",
        "WHISTBAN": "0",
        "RRCONT": "4025443721",
        "POLCONT": "8008488715",
        "INV_LINK": "https://safetydata.fra.dot.gov/OfficeofSafety/PublicSite/Crossing/Crossing.aspx?phasetype=C&rpttype=I&txtcrossingnum=743087V",
        "ACC_LINK": "https://safetydata.fra.dot.gov/OfficeofSafety/PublicSite/Crossing/Crossing.aspx?phasetype=C&rpttype=A&txtcrossingnum=743087V",
        "TTSTNNAM": "",
        "XPURPOSE": "1",
        "OPERATINGR": "UP",
        "OPERATIN_1": "Primary",
        "DAYTHRU": 5,
        "NGHTTHRU": 5,
        "MAINTRK": 1,
        "SIDINGTRK": 0,
        "YARDTRK": 0,
        "TRANSITTRK": 0,
        "INDUSTRYTR": 0,
        "OTHRTRK": 0,
        "WDCODE": "Stop signs",
        "REVISIONDA": "1975/01/01 00:00:00",
        "LASTUPDATE": "2/4/2026",
        "AADT": "14",
        "AADTYEAR": "2023",
        "STATENAME": "TEXAS",
        "STATEAB": "TX",
        "COUNTYNAME": "KINNEY",
        "CITYNAME": "SPOFFORD",
        "LATDD": 29.2329702,
        "LONGDD": -100.5087019,
        "gridlyProductionCertified": true,
        "gridlyClassification": "PUBLIC_ROADWAY",
        "gridlyDisplayName": "STANDARD LANE",
        "gridlyId": "FRA-743087V"
      }
    },
    {
      "type": "Feature",
      "id": 214264,
      "geometry": {
        "type": "Point",
        "coordinates": [
          -100.53169960041,
          29.2469163003016
        ]
      },
      "properties": {
        "OBJECTID": 214264,
        "CROSSING": "743018M",
        "EFFDATE": 1770163200000,
        "REASON": "14",
        "StateCode": "48",
        "CountyCode": "48271",
        "STCYFIPS": "48271",
        "CITYCD": "482716540",
        "RAILROAD": "UP",
        "RRDIV": "SOUTH TEXAS",
        "RRSUBDIV": "DEL RIO SUB",
        "HIGHWAY": "RM 0693",
        "STREET": "FM 693",
        "TTSTN": "692972",
        "MILEPOST": "0350.450",
        "TYPEXING": "Public",
        "POSXING": "At Grade",
        "PRVCAT": "14",
        "INIT": "2",
        "LATITUDE": 29.2469163,
        "LONGITUD": -100.5316996,
        "LLSOURCE": "1",
        "WHISTBAN": "0",
        "RRCONT": "4025443721",
        "POLCONT": "8008488715",
        "INV_LINK": "https://safetydata.fra.dot.gov/OfficeofSafety/PublicSite/Crossing/Crossing.aspx?phasetype=C&rpttype=I&txtcrossingnum=743018M",
        "ACC_LINK": "https://safetydata.fra.dot.gov/OfficeofSafety/PublicSite/Crossing/Crossing.aspx?phasetype=C&rpttype=A&txtcrossingnum=743018M",
        "TTSTNNAM": "",
        "XPURPOSE": "1",
        "OPERATINGR": "UP",
        "OPERATIN_1": "Primary",
        "DAYTHRU": 5,
        "NGHTTHRU": 5,
        "MAINTRK": 1,
        "SIDINGTRK": 0,
        "YARDTRK": 0,
        "TRANSITTRK": 0,
        "INDUSTRYTR": 0,
        "OTHRTRK": 0,
        "WDCODE": "Flashing lights",
        "REVISIONDA": "1975/01/01 00:00:00",
        "LASTUPDATE": "2/4/2026",
        "AADT": "89",
        "AADTYEAR": "2024",
        "STATENAME": "TEXAS",
        "STATEAB": "TX",
        "COUNTYNAME": "KINNEY",
        "CITYNAME": "SPOFFORD",
        "LATDD": 29.2469163,
        "LONGDD": -100.5316996,
        "gridlyProductionCertified": true,
        "gridlyClassification": "PUBLIC_ROADWAY",
        "gridlyDisplayName": "FM 693",
        "gridlyId": "FRA-743018M"
      }
    },
    {
      "type": "Feature",
      "id": 214306,
      "geometry": {
        "type": "Point",
        "coordinates": [
          -100.320851300326,
          29.1786612001161
        ]
      },
      "properties": {
        "OBJECTID": 214306,
        "CROSSING": "742861B",
        "EFFDATE": 1777420800000,
        "REASON": "20",
        "StateCode": "48",
        "CountyCode": "48271",
        "STCYFIPS": "48271",
        "CITYCD": "482716540",
        "RAILROAD": "UP",
        "RRDIV": "SOUTH TEXAS",
        "RRSUBDIV": "DEL RIO SUB",
        "HIGHWAY": "NA",
        "STREET": "PRIVATE",
        "TTSTN": "692964",
        "MILEPOST": "0335.074",
        "TYPEXING": "Private",
        "POSXING": "At Grade",
        "PRVCAT": "20",
        "INIT": "1",
        "LATITUDE": 29.1786612,
        "LONGITUD": -100.3208513,
        "LLSOURCE": "1",
        "WHISTBAN": "0",
        "RRCONT": "4025443721",
        "POLCONT": "8008488715",
        "INV_LINK": "https://safetydata.fra.dot.gov/OfficeofSafety/PublicSite/Crossing/Crossing.aspx?phasetype=C&rpttype=I&txtcrossingnum=742861B",
        "ACC_LINK": "https://safetydata.fra.dot.gov/OfficeofSafety/PublicSite/Crossing/Crossing.aspx?phasetype=C&rpttype=A&txtcrossingnum=742861B",
        "TTSTNNAM": "",
        "XPURPOSE": "1",
        "OPERATINGR": "UP",
        "OPERATIN_1": "Primary",
        "DAYTHRU": 10,
        "NGHTTHRU": 10,
        "MAINTRK": 1,
        "SIDINGTRK": 0,
        "YARDTRK": 0,
        "TRANSITTRK": 0,
        "INDUSTRYTR": 0,
        "OTHRTRK": 0,
        "WDCODE": "",
        "REVISIONDA": "1975/01/01 00:00:00",
        "LASTUPDATE": "4/29/2026",
        "AADT": "1",
        "AADTYEAR": "1970",
        "STATENAME": "TEXAS",
        "STATEAB": "TX",
        "COUNTYNAME": "KINNEY",
        "CITYNAME": "SPOFFORD",
        "LATDD": 29.1786612,
        "LONGDD": -100.3208513,
        "gridlyProductionCertified": true,
        "gridlyClassification": "PUBLIC_ROADWAY",
        "gridlyDisplayName": "PRIVATE",
        "gridlyId": "FRA-742861B"
      }
    },
    {
      "type": "Feature",
      "id": 216452,
      "geometry": {
        "type": "Point",
        "coordinates": [
          -100.399943400346,
          29.1625323997811
        ]
      },
      "properties": {
        "OBJECTID": 216452,
        "CROSSING": "742948S",
        "EFFDATE": 1776211200000,
        "REASON": "14",
        "StateCode": "48",
        "CountyCode": "48271",
        "STCYFIPS": "48271",
        "CITYCD": "482716540",
        "RAILROAD": "UP",
        "RRDIV": "SOUTH TEXAS",
        "RRSUBDIV": "EAGLE PASS SUB",
        "HIGHWAY": "FM1572",
        "STREET": "FM1572",
        "TTSTN": "692964",
        "MILEPOST": "0000.770",
        "TYPEXING": "Public",
        "POSXING": "At Grade",
        "PRVCAT": "14",
        "INIT": "2",
        "LATITUDE": 29.1625324,
        "LONGITUD": -100.3999434,
        "LLSOURCE": "1",
        "WHISTBAN": "0",
        "RRCONT": "4025443721",
        "POLCONT": "8008488715",
        "INV_LINK": "https://safetydata.fra.dot.gov/OfficeofSafety/PublicSite/Crossing/Crossing.aspx?phasetype=C&rpttype=I&txtcrossingnum=742948S",
        "ACC_LINK": "https://safetydata.fra.dot.gov/OfficeofSafety/PublicSite/Crossing/Crossing.aspx?phasetype=C&rpttype=A&txtcrossingnum=742948S",
        "TTSTNNAM": "",
        "XPURPOSE": "1",
        "OPERATINGR": "UP",
        "OPERATIN_1": "Primary",
        "DAYTHRU": 8,
        "NGHTTHRU": 8,
        "MAINTRK": 1,
        "SIDINGTRK": 0,
        "YARDTRK": 0,
        "TRANSITTRK": 0,
        "INDUSTRYTR": 0,
        "OTHRTRK": 0,
        "WDCODE": "Flashing lights",
        "REVISIONDA": "1975/01/01 00:00:00",
        "LASTUPDATE": "4/15/2026",
        "AADT": "15",
        "AADTYEAR": "2024",
        "STATENAME": "TEXAS",
        "STATEAB": "TX",
        "COUNTYNAME": "KINNEY",
        "CITYNAME": "SPOFFORD",
        "LATDD": 29.1625324,
        "LONGDD": -100.3999434,
        "gridlyProductionCertified": true,
        "gridlyClassification": "PUBLIC_ROADWAY",
        "gridlyDisplayName": "FM1572",
        "gridlyId": "FRA-742948S"
      }
    }
  ]
}
