{
  "type": "FeatureCollection",
  "features": [
    {
      "type": "Feature",
      "id": 201849,
      "geometry": {
        "type": "Point",
        "coordinates": [
          -97.4797444003013,
          29.6413415998014
        ]
      },
      "properties": {
        "OBJECTID": 201849,
        "CROSSING": "927984C",
        "EFFDATE": 1654214400000,
        "REASON": "14",
        "StateCode": "48",
        "CountyCode": "48177",
        "STCYFIPS": "48177",
        "CITYCD": "481773040",
        "RAILROAD": "TXGN",
        "RRDIV": "txgn",
        "RRSUBDIV": "txgn",
        "HIGHWAY": "PRIVATE",
        "STREET": "PRIVATE",
        "TTSTN": "687218",
        "MILEPOST": "0002.20",
        "TYPEXING": "Private",
        "POSXING": "At Grade",
        "PRVCAT": "14",
        "INIT": "1",
        "LATITUDE": 29.6413416,
        "LONGITUD": -97.4797444,
        "LLSOURCE": "2",
        "WHISTBAN": "0",
        "RRCONT": "8778139838",
        "POLCONT": "8778139838",
        "INV_LINK": "https://safetydata.fra.dot.gov/OfficeofSafety/PublicSite/Crossing/Crossing.aspx?phasetype=C&rpttype=I&txtcrossingnum=927984C",
        "ACC_LINK": "https://safetydata.fra.dot.gov/OfficeofSafety/PublicSite/Crossing/Crossing.aspx?phasetype=C&rpttype=A&txtcrossingnum=927984C",
        "TTSTNNAM": "gonzales",
        "XPURPOSE": "1",
        "OPERATINGR": "TXGN",
        "OPERATIN_1": "Primary",
        "DAYTHRU": 2,
        "NGHTTHRU": 0,
        "MAINTRK": 0,
        "SIDINGTRK": 0,
        "YARDTRK": 1,
        "TRANSITTRK": 0,
        "INDUSTRYTR": 0,
        "OTHRTRK": 0,
        "WDCODE": "",
        "REVISIONDA": "1992/01/01 00:00:00",
        "LASTUPDATE": "6/3/2022",
        "AADT": "",
        "AADTYEAR": "",
        "STATENAME": "TEXAS",
        "STATEAB": "TX",
        "COUNTYNAME": "GONZALES",
        "CITYNAME": "HARWOOD",
        "LATDD": 29.6413416,
        "LONGDD": -97.4797444,
        "gridlyProductionCertified": true,
        "gridlyClassification": "PUBLIC_ROADWAY",
        "gridlyDisplayName": "PRIVATE",
        "gridlyId": "FRA-927984C"
      }
    },
    {
      "type": "Feature",
      "id": 201853,
      "geometry": {
        "type": "Point",
        "coordinates": [
          -97.4701082998093,
          29.6277579996521
        ]
      },
      "properties": {
        "OBJECTID": 201853,
        "CROSSING": "927985J",
        "EFFDATE": 1654214400000,
        "REASON": "14",
        "StateCode": "48",
        "CountyCode": "48177",
        "STCYFIPS": "48177",
        "CITYCD": "481773040",
        "RAILROAD": "TXGN",
        "RRDIV": "txgn",
        "RRSUBDIV": "txgn",
        "HIGHWAY": "PRIVATE",
        "STREET": "PRIVATE",
        "TTSTN": "687218",
        "MILEPOST": "0003.40",
        "TYPEXING": "Private",
        "POSXING": "At Grade",
        "PRVCAT": "14",
        "INIT": "1",
        "LATITUDE": 29.627758,
        "LONGITUD": -97.4701083,
        "LLSOURCE": "2",
        "WHISTBAN": "0",
        "RRCONT": "8778139838",
        "POLCONT": "8778139838",
        "INV_LINK": "https://safetydata.fra.dot.gov/OfficeofSafety/PublicSite/Crossing/Crossing.aspx?phasetype=C&rpttype=I&txtcrossingnum=927985J",
        "ACC_LINK": "https://safetydata.fra.dot.gov/OfficeofSafety/PublicSite/Crossing/Crossing.aspx?phasetype=C&rpttype=A&txtcrossingnum=927985J",
        "TTSTNNAM": "gozales",
        "XPURPOSE": "1",
        "OPERATINGR": "TXGN",
        "OPERATIN_1": "Primary",
        "DAYTHRU": 2,
        "NGHTTHRU": 0,
        "MAINTRK": 0,
        "SIDINGTRK": 0,
        "YARDTRK": 1,
        "TRANSITTRK": 0,
        "INDUSTRYTR": 0,
        "OTHRTRK": 0,
        "WDCODE": "",
        "REVISIONDA": "1992/01/01 00:00:00",
        "LASTUPDATE": "6/3/2022",
        "AADT": "",
        "AADTYEAR": "",
        "STATENAME": "TEXAS",
        "STATEAB": "TX",
        "COUNTYNAME": "GONZALES",
        "CITYNAME": "HARWOOD",
        "LATDD": 29.627758,
        "LONGDD": -97.4701083,
        "gridlyProductionCertified": true,
        "gridlyClassification": "PUBLIC_ROADWAY",
        "gridlyDisplayName": "PRIVATE",
        "gridlyId": "FRA-927985J"
      }
    },
    {
      "type": "Feature",
      "id": 201854,
      "geometry": {
        "type": "Point",
        "coordinates": [
          -97.4842069997658,
          29.6498649997503
        ]
      },
      "properties": {
        "OBJECTID": 201854,
        "CROSSING": "742787Y",
        "EFFDATE": 1654214400000,
        "REASON": "14",
        "StateCode": "48",
        "CountyCode": "48177",
        "STCYFIPS": "48177",
        "CITYCD": "481773040",
        "RAILROAD": "TXGN",
        "RRDIV": "txgn",
        "RRSUBDIV": "txgn",
        "HIGHWAY": "I-10",
        "STREET": "I-10",
        "TTSTN": "687230",
        "MILEPOST": "0001.50",
        "TYPEXING": "Public",
        "POSXING": "RR Under",
        "PRVCAT": "14",
        "INIT": "1",
        "LATITUDE": 29.649865,
        "LONGITUD": -97.484207,
        "LLSOURCE": "2",
        "WHISTBAN": "0",
        "RRCONT": "8778139838",
        "POLCONT": "8778139838",
        "INV_LINK": "https://safetydata.fra.dot.gov/OfficeofSafety/PublicSite/Crossing/Crossing.aspx?phasetype=C&rpttype=I&txtcrossingnum=742787Y",
        "ACC_LINK": "https://safetydata.fra.dot.gov/OfficeofSafety/PublicSite/Crossing/Crossing.aspx?phasetype=C&rpttype=A&txtcrossingnum=742787Y",
        "TTSTNNAM": "GONZALES",
        "XPURPOSE": "1",
        "OPERATINGR": "TXGN",
        "OPERATIN_1": "Primary",
        "DAYTHRU": 0,
        "NGHTTHRU": 0,
        "MAINTRK": 0,
        "SIDINGTRK": 0,
        "YARDTRK": 0,
        "TRANSITTRK": 0,
        "INDUSTRYTR": 0,
        "OTHRTRK": 0,
        "WDCODE": "",
        "REVISIONDA": "1992/01/01 00:00:00",
        "LASTUPDATE": "6/3/2022",
        "AADT": "022920",
        "AADTYEAR": "2011",
        "STATENAME": "TEXAS",
        "STATEAB": "TX",
        "COUNTYNAME": "GONZALES",
        "CITYNAME": "HARWOOD",
        "LATDD": 29.649865,
        "LONGDD": -97.484207,
        "gridlyProductionCertified": true,
        "gridlyClassification": "PUBLIC_ROADWAY",
        "gridlyDisplayName": "I-10",
        "gridlyId": "FRA-742787Y"
      }
    },
    {
      "type": "Feature",
      "id": 201856,
      "geometry": {
        "type": "Point",
        "coordinates": [
          -97.456741600147,
          29.5833472002692
        ]
      },
      "properties": {
        "OBJECTID": 201856,
        "CROSSING": "742688B",
        "EFFDATE": 1654128000000,
        "REASON": "14",
        "StateCode": "48",
        "CountyCode": "48177",
        "STCYFIPS": "48177",
        "CITYCD": "481772720",
        "RAILROAD": "TXGN",
        "RRDIV": "TXGN",
        "RRSUBDIV": "Gonzales",
        "HIGHWAY": "PRIVATE",
        "STREET": "PRIVATE CROSSING",
        "TTSTN": "687230",
        "MILEPOST": "0006.50",
        "TYPEXING": "Private",
        "POSXING": "At Grade",
        "PRVCAT": "14",
        "INIT": "1",
        "LATITUDE": 29.5833472,
        "LONGITUD": -97.4567416,
        "LLSOURCE": "2",
        "WHISTBAN": "0",
        "RRCONT": "8778139838",
        "POLCONT": "8778139838",
        "INV_LINK": "https://safetydata.fra.dot.gov/OfficeofSafety/PublicSite/Crossing/Crossing.aspx?phasetype=C&rpttype=I&txtcrossingnum=742688B",
        "ACC_LINK": "https://safetydata.fra.dot.gov/OfficeofSafety/PublicSite/Crossing/Crossing.aspx?phasetype=C&rpttype=A&txtcrossingnum=742688B",
        "TTSTNNAM": "GONZALES",
        "XPURPOSE": "1",
        "OPERATINGR": "TXGN",
        "OPERATIN_1": "Primary",
        "DAYTHRU": 1,
        "NGHTTHRU": 0,
        "MAINTRK": 0,
        "SIDINGTRK": 0,
        "YARDTRK": 1,
        "TRANSITTRK": 0,
        "INDUSTRYTR": 0,
        "OTHRTRK": 0,
        "WDCODE": "",
        "REVISIONDA": "1992/01/01 00:00:00",
        "LASTUPDATE": "6/2/2022",
        "AADT": "",
        "AADTYEAR": "1970",
        "STATENAME": "TEXAS",
        "STATEAB": "TX",
        "COUNTYNAME": "GONZALES",
        "CITYNAME": "GONZALES",
        "LATDD": 29.5833472,
        "LONGDD": -97.4567416,
        "gridlyProductionCertified": true,
        "gridlyClassification": "PUBLIC_ROADWAY",
        "gridlyDisplayName": "PRIVATE CROSSING",
        "gridlyId": "FRA-742688B"
      }
    },
    {
      "type": "Feature",
      "id": 201860,
      "geometry": {
        "type": "Point",
        "coordinates": [
          -97.4683472003055,
          29.6237943997615
        ]
      },
      "properties": {
        "OBJECTID": 201860,
        "CROSSING": "927991M",
        "EFFDATE": 1654128000000,
        "REASON": "14",
        "StateCode": "48",
        "CountyCode": "48177",
        "STCYFIPS": "48177",
        "CITYCD": "481773040",
        "RAILROAD": "TXGN",
        "RRDIV": "txgn",
        "RRSUBDIV": "TXGN",
        "HIGHWAY": "PVT",
        "STREET": "PRIVATE",
        "TTSTN": "687218",
        "MILEPOST": "0003.60",
        "TYPEXING": "Private",
        "POSXING": "At Grade",
        "PRVCAT": "14",
        "INIT": "1",
        "LATITUDE": 29.6237944,
        "LONGITUD": -97.4683472,
        "LLSOURCE": "2",
        "WHISTBAN": "0",
        "RRCONT": "8778139838",
        "POLCONT": "8778139838",
        "INV_LINK": "https://safetydata.fra.dot.gov/OfficeofSafety/PublicSite/Crossing/Crossing.aspx?phasetype=C&rpttype=I&txtcrossingnum=927991M",
        "ACC_LINK": "https://safetydata.fra.dot.gov/OfficeofSafety/PublicSite/Crossing/Crossing.aspx?phasetype=C&rpttype=A&txtcrossingnum=927991M",
        "TTSTNNAM": "gonzales",
        "XPURPOSE": "1",
        "OPERATINGR": "TXGN",
        "OPERATIN_1": "Primary",
        "DAYTHRU": 2,
        "NGHTTHRU": 0,
        "MAINTRK": 0,
        "SIDINGTRK": 1,
        "YARDTRK": 1,
        "TRANSITTRK": 1,
        "INDUSTRYTR": 1,
        "OTHRTRK": 0,
        "WDCODE": "",
        "REVISIONDA": "1992/01/01 00:00:00",
        "LASTUPDATE": "6/2/2022",
        "AADT": "",
        "AADTYEAR": "",
        "STATENAME": "TEXAS",
        "STATEAB": "TX",
        "COUNTYNAME": "GONZALES",
        "CITYNAME": "HARWOOD",
        "LATDD": 29.6237944,
        "LONGDD": -97.4683472,
        "gridlyProductionCertified": true,
        "gridlyClassification": "PUBLIC_ROADWAY",
        "gridlyDisplayName": "PRIVATE",
        "gridlyId": "FRA-927991M"
      }
    },
    {
      "type": "Feature",
      "id": 201861,
      "geometry": {
        "type": "Point",
        "coordinates": [
          -97.4637693999907,
          29.6166416001478
        ]
      },
      "properties": {
        "OBJECTID": 201861,
        "CROSSING": "764183F",
        "EFFDATE": 1654128000000,
        "REASON": "14",
        "StateCode": "48",
        "CountyCode": "48177",
        "STCYFIPS": "48177",
        "CITYCD": "481773040",
        "RAILROAD": "TXGN",
        "RRDIV": "Eagle",
        "RRSUBDIV": "gonzales",
        "HIGHWAY": "Pvt",
        "STREET": "Private",
        "TTSTN": "687218",
        "MILEPOST": "0004.40",
        "TYPEXING": "Private",
        "POSXING": "At Grade",
        "PRVCAT": "14",
        "INIT": "1",
        "LATITUDE": 29.6166416,
        "LONGITUD": -97.4637694,
        "LLSOURCE": "2",
        "WHISTBAN": "0",
        "RRCONT": "8778139838",
        "POLCONT": "8778139838",
        "INV_LINK": "https://safetydata.fra.dot.gov/OfficeofSafety/PublicSite/Crossing/Crossing.aspx?phasetype=C&rpttype=I&txtcrossingnum=764183F",
        "ACC_LINK": "https://safetydata.fra.dot.gov/OfficeofSafety/PublicSite/Crossing/Crossing.aspx?phasetype=C&rpttype=A&txtcrossingnum=764183F",
        "TTSTNNAM": "HARWOOD",
        "XPURPOSE": "1",
        "OPERATINGR": "TXGN",
        "OPERATIN_1": "Primary",
        "DAYTHRU": 2,
        "NGHTTHRU": 0,
        "MAINTRK": 0,
        "SIDINGTRK": 0,
        "YARDTRK": 1,
        "TRANSITTRK": 0,
        "INDUSTRYTR": 0,
        "OTHRTRK": 0,
        "WDCODE": "",
        "REVISIONDA": "1992/01/01 00:00:00",
        "LASTUPDATE": "6/2/2022",
        "AADT": "",
        "AADTYEAR": "1970",
        "STATENAME": "TEXAS",
        "STATEAB": "TX",
        "COUNTYNAME": "GONZALES",
        "CITYNAME": "HARWOOD",
        "LATDD": 29.6166416,
        "LONGDD": -97.4637694,
        "gridlyProductionCertified": true,
        "gridlyClassification": "PUBLIC_ROADWAY",
        "gridlyDisplayName": "Private",
        "gridlyId": "FRA-764183F"
      }
    },
    {
      "type": "Feature",
      "id": 201862,
      "geometry": {
        "type": "Point",
        "coordinates": [
          -97.497152700377,
          29.6666276997664
        ]
      },
      "properties": {
        "OBJECTID": 201862,
        "CROSSING": "742769B",
        "EFFDATE": 1665705600000,
        "REASON": "14",
        "StateCode": "48",
        "CountyCode": "48177",
        "STCYFIPS": "48177",
        "CITYCD": "481773040",
        "RAILROAD": "TXGN",
        "RRDIV": "SAN ANTONIO",
        "RRSUBDIV": "FLATONIA",
        "HIGHWAY": "CO 0283",
        "STREET": "CR 0283",
        "TTSTN": "687218",
        "MILEPOST": "0000.07",
        "TYPEXING": "Public",
        "POSXING": "At Grade",
        "PRVCAT": "14",
        "INIT": "2",
        "LATITUDE": 29.6666277,
        "LONGITUD": -97.4971527,
        "LLSOURCE": "2",
        "WHISTBAN": "0",
        "RRCONT": "8778139838",
        "POLCONT": "8778139838",
        "INV_LINK": "https://safetydata.fra.dot.gov/OfficeofSafety/PublicSite/Crossing/Crossing.aspx?phasetype=C&rpttype=I&txtcrossingnum=742769B",
        "ACC_LINK": "https://safetydata.fra.dot.gov/OfficeofSafety/PublicSite/Crossing/Crossing.aspx?phasetype=C&rpttype=A&txtcrossingnum=742769B",
        "TTSTNNAM": "HARWOOD",
        "XPURPOSE": "1",
        "OPERATINGR": "TXGN",
        "OPERATIN_1": "Primary",
        "DAYTHRU": 2,
        "NGHTTHRU": 0,
        "MAINTRK": 0,
        "SIDINGTRK": 0,
        "YARDTRK": 1,
        "TRANSITTRK": 0,
        "INDUSTRYTR": 0,
        "OTHRTRK": 1,
        "WDCODE": "Crossbucks",
        "REVISIONDA": "1992/01/01 00:00:00",
        "LASTUPDATE": "10/14/2022",
        "AADT": "53",
        "AADTYEAR": "2019",
        "STATENAME": "TEXAS",
        "STATEAB": "TX",
        "COUNTYNAME": "GONZALES",
        "CITYNAME": "HARWOOD",
        "LATDD": 29.6666277,
        "LONGDD": -97.4971527,
        "gridlyProductionCertified": true,
        "gridlyClassification": "PUBLIC_ROADWAY",
        "gridlyDisplayName": "CR 0283",
        "gridlyId": "FRA-742769B"
      }
    },
    {
      "type": "Feature",
      "id": 201863,
      "geometry": {
        "type": "Point",
        "coordinates": [
          -97.4587666004267,
          29.5944749998449
        ]
      },
      "properties": {
        "OBJECTID": 201863,
        "CROSSING": "742675A",
        "EFFDATE": 1654128000000,
        "REASON": "14",
        "StateCode": "48",
        "CountyCode": "48177",
        "STCYFIPS": "48177",
        "CITYCD": "481772720",
        "RAILROAD": "TXGN",
        "RRDIV": "TXGN",
        "RRSUBDIV": "GONZALES",
        "HIGHWAY": "CO 0000",
        "STREET": "COUNTY ROAD 435",
        "TTSTN": "687218",
        "MILEPOST": "0005.63",
        "TYPEXING": "Private",
        "POSXING": "At Grade",
        "PRVCAT": "14",
        "INIT": "1",
        "LATITUDE": 29.594475,
        "LONGITUD": -97.4587666,
        "LLSOURCE": "2",
        "WHISTBAN": "0",
        "RRCONT": "8778139838",
        "POLCONT": "8778139838",
        "INV_LINK": "https://safetydata.fra.dot.gov/OfficeofSafety/PublicSite/Crossing/Crossing.aspx?phasetype=C&rpttype=I&txtcrossingnum=742675A",
        "ACC_LINK": "https://safetydata.fra.dot.gov/OfficeofSafety/PublicSite/Crossing/Crossing.aspx?phasetype=C&rpttype=A&txtcrossingnum=742675A",
        "TTSTNNAM": "HARWOOD",
        "XPURPOSE": "1",
        "OPERATINGR": "TXGN",
        "OPERATIN_1": "Primary",
        "DAYTHRU": 1,
        "NGHTTHRU": 0,
        "MAINTRK": 0,
        "SIDINGTRK": 0,
        "YARDTRK": 1,
        "TRANSITTRK": 0,
        "INDUSTRYTR": 0,
        "OTHRTRK": 0,
        "WDCODE": "",
        "REVISIONDA": "1992/01/01 00:00:00",
        "LASTUPDATE": "6/2/2022",
        "AADT": "000010",
        "AADTYEAR": "1988",
        "STATENAME": "TEXAS",
        "STATEAB": "TX",
        "COUNTYNAME": "GONZALES",
        "CITYNAME": "GONZALES",
        "LATDD": 29.594475,
        "LONGDD": -97.4587666,
        "gridlyProductionCertified": true,
        "gridlyClassification": "PUBLIC_ROADWAY",
        "gridlyDisplayName": "COUNTY ROAD 435",
        "gridlyId": "FRA-742675A"
      }
    },
    {
      "type": "Feature",
      "id": 201864,
      "geometry": {
        "type": "Point",
        "coordinates": [
          -97.4518804999376,
          29.5681194002411
        ]
      },
      "properties": {
        "OBJECTID": 201864,
        "CROSSING": "742683S",
        "EFFDATE": 1665705600000,
        "REASON": "14",
        "StateCode": "48",
        "CountyCode": "48177",
        "STCYFIPS": "48177",
        "CITYCD": "481772720",
        "RAILROAD": "TXGN",
        "RRDIV": "TXGN",
        "RRSUBDIV": "GONZALES",
        "HIGHWAY": "CO 0000",
        "STREET": "County Road 237",
        "TTSTN": "687230",
        "MILEPOST": "0007.50",
        "TYPEXING": "Public",
        "POSXING": "At Grade",
        "PRVCAT": "14",
        "INIT": "2",
        "LATITUDE": 29.5681194,
        "LONGITUD": -97.4518805,
        "LLSOURCE": "2",
        "WHISTBAN": "0",
        "RRCONT": "8778139838",
        "POLCONT": "8778139838",
        "INV_LINK": "https://safetydata.fra.dot.gov/OfficeofSafety/PublicSite/Crossing/Crossing.aspx?phasetype=C&rpttype=I&txtcrossingnum=742683S",
        "ACC_LINK": "https://safetydata.fra.dot.gov/OfficeofSafety/PublicSite/Crossing/Crossing.aspx?phasetype=C&rpttype=A&txtcrossingnum=742683S",
        "TTSTNNAM": "GONZALES",
        "XPURPOSE": "1",
        "OPERATINGR": "TXGN",
        "OPERATIN_1": "Primary",
        "DAYTHRU": 1,
        "NGHTTHRU": 0,
        "MAINTRK": 0,
        "SIDINGTRK": 0,
        "YARDTRK": 1,
        "TRANSITTRK": 0,
        "INDUSTRYTR": 0,
        "OTHRTRK": 0,
        "WDCODE": "No signs or signals",
        "REVISIONDA": "1992/01/01 00:00:00",
        "LASTUPDATE": "10/14/2022",
        "AADT": "67",
        "AADTYEAR": "2019",
        "STATENAME": "TEXAS",
        "STATEAB": "TX",
        "COUNTYNAME": "GONZALES",
        "CITYNAME": "GONZALES",
        "LATDD": 29.5681194,
        "LONGDD": -97.4518805,
        "gridlyProductionCertified": true,
        "gridlyClassification": "PUBLIC_ROADWAY",
        "gridlyDisplayName": "County Road 237",
        "gridlyId": "FRA-742683S"
      }
    },
    {
      "type": "Feature",
      "id": 201865,
      "geometry": {
        "type": "Point",
        "coordinates": [
          -97.4489082998526,
          29.5240194001138
        ]
      },
      "properties": {
        "OBJECTID": 201865,
        "CROSSING": "764182Y",
        "EFFDATE": 1665705600000,
        "REASON": "14",
        "StateCode": "48",
        "CountyCode": "48177",
        "STCYFIPS": "48177",
        "CITYCD": "481772720",
        "RAILROAD": "TXGN",
        "RRDIV": "TXGN",
        "RRSUBDIV": "GONZALES",
        "HIGHWAY": "ST 0000",
        "STREET": "STIERN ROAD",
        "TTSTN": "687230",
        "MILEPOST": "0010.754",
        "TYPEXING": "Public",
        "POSXING": "At Grade",
        "PRVCAT": "14",
        "INIT": "2",
        "LATITUDE": 29.5240194,
        "LONGITUD": -97.4489083,
        "LLSOURCE": "2",
        "WHISTBAN": "0",
        "RRCONT": "8778139838",
        "POLCONT": "8778139838",
        "INV_LINK": "https://safetydata.fra.dot.gov/OfficeofSafety/PublicSite/Crossing/Crossing.aspx?phasetype=C&rpttype=I&txtcrossingnum=764182Y",
        "ACC_LINK": "https://safetydata.fra.dot.gov/OfficeofSafety/PublicSite/Crossing/Crossing.aspx?phasetype=C&rpttype=A&txtcrossingnum=764182Y",
        "TTSTNNAM": "687230",
        "XPURPOSE": "1",
        "OPERATINGR": "TXGN",
        "OPERATIN_1": "Primary",
        "DAYTHRU": 1,
        "NGHTTHRU": 0,
        "MAINTRK": 0,
        "SIDINGTRK": 0,
        "YARDTRK": 1,
        "TRANSITTRK": 0,
        "INDUSTRYTR": 0,
        "OTHRTRK": 0,
        "WDCODE": "Crossbucks",
        "REVISIONDA": "1992/01/01 00:00:00",
        "LASTUPDATE": "10/14/2022",
        "AADT": "104",
        "AADTYEAR": "2019",
        "STATENAME": "TEXAS",
        "STATEAB": "TX",
        "COUNTYNAME": "GONZALES",
        "CITYNAME": "GONZALES",
        "LATDD": 29.5240194,
        "LONGDD": -97.4489083,
        "gridlyProductionCertified": true,
        "gridlyClassification": "PUBLIC_ROADWAY",
        "gridlyDisplayName": "STIERN ROAD",
        "gridlyId": "FRA-764182Y"
      }
    },
    {
      "type": "Feature",
      "id": 201867,
      "geometry": {
        "type": "Point",
        "coordinates": [
          -97.4639527003261,
          29.6172202001157
        ]
      },
      "properties": {
        "OBJECTID": 201867,
        "CROSSING": "742770V",
        "EFFDATE": 1665705600000,
        "REASON": "14",
        "StateCode": "48",
        "CountyCode": "48177",
        "STCYFIPS": "48177",
        "CITYCD": "481773040",
        "RAILROAD": "TXGN",
        "RRDIV": "txgn",
        "RRSUBDIV": "txgn",
        "HIGHWAY": "C 284",
        "STREET": "CR 0284",
        "TTSTN": "",
        "MILEPOST": "0004.20",
        "TYPEXING": "Public",
        "POSXING": "At Grade",
        "PRVCAT": "14",
        "INIT": "2",
        "LATITUDE": 29.6172202,
        "LONGITUD": -97.4639527,
        "LLSOURCE": "2",
        "WHISTBAN": "0",
        "RRCONT": "8778139838",
        "POLCONT": "8778139838",
        "INV_LINK": "https://safetydata.fra.dot.gov/OfficeofSafety/PublicSite/Crossing/Crossing.aspx?phasetype=C&rpttype=I&txtcrossingnum=742770V",
        "ACC_LINK": "https://safetydata.fra.dot.gov/OfficeofSafety/PublicSite/Crossing/Crossing.aspx?phasetype=C&rpttype=A&txtcrossingnum=742770V",
        "TTSTNNAM": "gonzales",
        "XPURPOSE": "1",
        "OPERATINGR": "TXGN",
        "OPERATIN_1": "Primary",
        "DAYTHRU": 2,
        "NGHTTHRU": 0,
        "MAINTRK": 0,
        "SIDINGTRK": 0,
        "YARDTRK": 1,
        "TRANSITTRK": 0,
        "INDUSTRYTR": 0,
        "OTHRTRK": 0,
        "WDCODE": "Crossbucks",
        "REVISIONDA": "1992/01/01 00:00:00",
        "LASTUPDATE": "10/14/2022",
        "AADT": "95",
        "AADTYEAR": "2019",
        "STATENAME": "TEXAS",
        "STATEAB": "TX",
        "COUNTYNAME": "GONZALES",
        "CITYNAME": "HARWOOD",
        "LATDD": 29.6172202,
        "LONGDD": -97.4639527,
        "gridlyProductionCertified": true,
        "gridlyClassification": "PUBLIC_ROADWAY",
        "gridlyDisplayName": "CR 0284",
        "gridlyId": "FRA-742770V"
      }
    },
    {
      "type": "Feature",
      "id": 201872,
      "geometry": {
        "type": "Point",
        "coordinates": [
          -97.4548637996063,
          29.5785833003427
        ]
      },
      "properties": {
        "OBJECTID": 201872,
        "CROSSING": "742687U",
        "EFFDATE": 1665705600000,
        "REASON": "14",
        "StateCode": "48",
        "CountyCode": "48177",
        "STCYFIPS": "48177",
        "CITYCD": "481772720",
        "RAILROAD": "TXGN",
        "RRDIV": "txgn",
        "RRSUBDIV": "txgn",
        "HIGHWAY": "CO 0184",
        "STREET": "CR 0184",
        "TTSTN": "687230",
        "MILEPOST": "0006.90",
        "TYPEXING": "Public",
        "POSXING": "At Grade",
        "PRVCAT": "14",
        "INIT": "2",
        "LATITUDE": 29.5785833,
        "LONGITUD": -97.4548638,
        "LLSOURCE": "2",
        "WHISTBAN": "0",
        "RRCONT": "8778139838",
        "POLCONT": "8778139838",
        "INV_LINK": "https://safetydata.fra.dot.gov/OfficeofSafety/PublicSite/Crossing/Crossing.aspx?phasetype=C&rpttype=I&txtcrossingnum=742687U",
        "ACC_LINK": "https://safetydata.fra.dot.gov/OfficeofSafety/PublicSite/Crossing/Crossing.aspx?phasetype=C&rpttype=A&txtcrossingnum=742687U",
        "TTSTNNAM": "GONZALES",
        "XPURPOSE": "1",
        "OPERATINGR": "TXGN",
        "OPERATIN_1": "Primary",
        "DAYTHRU": 2,
        "NGHTTHRU": 0,
        "MAINTRK": 0,
        "SIDINGTRK": 0,
        "YARDTRK": 1,
        "TRANSITTRK": 0,
        "INDUSTRYTR": 0,
        "OTHRTRK": 0,
        "WDCODE": "Crossbucks",
        "REVISIONDA": "1992/01/01 00:00:00",
        "LASTUPDATE": "10/14/2022",
        "AADT": "18",
        "AADTYEAR": "2019",
        "STATENAME": "TEXAS",
        "STATEAB": "TX",
        "COUNTYNAME": "GONZALES",
        "CITYNAME": "GONZALES",
        "LATDD": 29.5785833,
        "LONGDD": -97.4548638,
        "gridlyProductionCertified": true,
        "gridlyClassification": "PUBLIC_ROADWAY",
        "gridlyDisplayName": "CR 0184",
        "gridlyId": "FRA-742687U"
      }
    },
    {
      "type": "Feature",
      "id": 201873,
      "geometry": {
        "type": "Point",
        "coordinates": [
          -97.4480776995746,
          29.5205527003753
        ]
      },
      "properties": {
        "OBJECTID": 201873,
        "CROSSING": "742771C",
        "EFFDATE": 1665705600000,
        "REASON": "14",
        "StateCode": "48",
        "CountyCode": "48177",
        "STCYFIPS": "48177",
        "CITYCD": "481772720",
        "RAILROAD": "TXGN",
        "RRDIV": "txgn",
        "RRSUBDIV": "TXGN",
        "HIGHWAY": "UA 90",
        "STREET": "US HWY 90 ALT",
        "TTSTN": "687230",
        "MILEPOST": "0011.00",
        "TYPEXING": "Public",
        "POSXING": "At Grade",
        "PRVCAT": "14",
        "INIT": "2",
        "LATITUDE": 29.5205527,
        "LONGITUD": -97.4480777,
        "LLSOURCE": "2",
        "WHISTBAN": "0",
        "RRCONT": "8778139838",
        "POLCONT": "8778139838",
        "INV_LINK": "https://safetydata.fra.dot.gov/OfficeofSafety/PublicSite/Crossing/Crossing.aspx?phasetype=C&rpttype=I&txtcrossingnum=742771C",
        "ACC_LINK": "https://safetydata.fra.dot.gov/OfficeofSafety/PublicSite/Crossing/Crossing.aspx?phasetype=C&rpttype=A&txtcrossingnum=742771C",
        "TTSTNNAM": "GONZALES",
        "XPURPOSE": "1",
        "OPERATINGR": "TXGN",
        "OPERATIN_1": "Primary",
        "DAYTHRU": 2,
        "NGHTTHRU": 0,
        "MAINTRK": 0,
        "SIDINGTRK": 0,
        "YARDTRK": 1,
        "TRANSITTRK": 0,
        "INDUSTRYTR": 0,
        "OTHRTRK": 0,
        "WDCODE": "Four Quad (full barrier) Gates",
        "REVISIONDA": "1992/01/01 00:00:00",
        "LASTUPDATE": "10/14/2022",
        "AADT": "16804",
        "AADTYEAR": "2019",
        "STATENAME": "TEXAS",
        "STATEAB": "TX",
        "COUNTYNAME": "GONZALES",
        "CITYNAME": "GONZALES",
        "LATDD": 29.5205527,
        "LONGDD": -97.4480777,
        "gridlyProductionCertified": true,
        "gridlyClassification": "PUBLIC_ROADWAY",
        "gridlyDisplayName": "US HWY 90 ALT",
        "gridlyId": "FRA-742771C"
      }
    },
    {
      "type": "Feature",
      "id": 201937,
      "geometry": {
        "type": "Point",
        "coordinates": [
          -97.4466277001284,
          29.5082526997488
        ]
      },
      "properties": {
        "OBJECTID": 201937,
        "CROSSING": "742772J",
        "EFFDATE": 1665705600000,
        "REASON": "14",
        "StateCode": "48",
        "CountyCode": "48177",
        "STCYFIPS": "48177",
        "CITYCD": "481772720",
        "RAILROAD": "TXGN",
        "RRDIV": "TXGN",
        "RRSUBDIV": "TXGN",
        "HIGHWAY": "L.",
        "STREET": "CHURCH",
        "TTSTN": "687230",
        "MILEPOST": "0011.90",
        "TYPEXING": "Public",
        "POSXING": "At Grade",
        "PRVCAT": "14",
        "INIT": "2",
        "LATITUDE": 29.5082527,
        "LONGITUD": -97.4466277,
        "LLSOURCE": "2",
        "WHISTBAN": "0",
        "RRCONT": "8778139838",
        "POLCONT": "8778139838",
        "INV_LINK": "https://safetydata.fra.dot.gov/OfficeofSafety/PublicSite/Crossing/Crossing.aspx?phasetype=C&rpttype=I&txtcrossingnum=742772J",
        "ACC_LINK": "https://safetydata.fra.dot.gov/OfficeofSafety/PublicSite/Crossing/Crossing.aspx?phasetype=C&rpttype=A&txtcrossingnum=742772J",
        "TTSTNNAM": "GONZALES",
        "XPURPOSE": "1",
        "OPERATINGR": "TXGN",
        "OPERATIN_1": "Primary",
        "DAYTHRU": 2,
        "NGHTTHRU": 0,
        "MAINTRK": 0,
        "SIDINGTRK": 0,
        "YARDTRK": 1,
        "TRANSITTRK": 0,
        "INDUSTRYTR": 0,
        "OTHRTRK": 1,
        "WDCODE": "Crossbucks",
        "REVISIONDA": "1992/01/01 00:00:00",
        "LASTUPDATE": "10/14/2022",
        "AADT": "188",
        "AADTYEAR": "2019",
        "STATENAME": "TEXAS",
        "STATEAB": "TX",
        "COUNTYNAME": "GONZALES",
        "CITYNAME": "GONZALES",
        "LATDD": 29.5082527,
        "LONGDD": -97.4466277,
        "gridlyProductionCertified": true,
        "gridlyClassification": "PUBLIC_ROADWAY",
        "gridlyDisplayName": "CHURCH",
        "gridlyId": "FRA-742772J"
      }
    },
    {
      "type": "Feature",
      "id": 201943,
      "geometry": {
        "type": "Point",
        "coordinates": [
          -97.4498083003762,
          29.5065861002919
        ]
      },
      "properties": {
        "OBJECTID": 201943,
        "CROSSING": "742773R",
        "EFFDATE": 1665705600000,
        "REASON": "14",
        "StateCode": "48",
        "CountyCode": "48177",
        "STCYFIPS": "48177",
        "CITYCD": "481772720",
        "RAILROAD": "TXGN",
        "RRDIV": "txgn",
        "RRSUBDIV": "txgn",
        "HIGHWAY": "L",
        "STREET": "COLLEGE",
        "TTSTN": "687230",
        "MILEPOST": "0012.10",
        "TYPEXING": "Public",
        "POSXING": "At Grade",
        "PRVCAT": "14",
        "INIT": "2",
        "LATITUDE": 29.5065861,
        "LONGITUD": -97.4498083,
        "LLSOURCE": "2",
        "WHISTBAN": "0",
        "RRCONT": "8778139838",
        "POLCONT": "8778139838",
        "INV_LINK": "https://safetydata.fra.dot.gov/OfficeofSafety/PublicSite/Crossing/Crossing.aspx?phasetype=C&rpttype=I&txtcrossingnum=742773R",
        "ACC_LINK": "https://safetydata.fra.dot.gov/OfficeofSafety/PublicSite/Crossing/Crossing.aspx?phasetype=C&rpttype=A&txtcrossingnum=742773R",
        "TTSTNNAM": "GONZALES",
        "XPURPOSE": "1",
        "OPERATINGR": "TXGN",
        "OPERATIN_1": "Primary",
        "DAYTHRU": 2,
        "NGHTTHRU": 0,
        "MAINTRK": 0,
        "SIDINGTRK": 0,
        "YARDTRK": 1,
        "TRANSITTRK": 0,
        "INDUSTRYTR": 0,
        "OTHRTRK": 0,
        "WDCODE": "Crossbucks",
        "REVISIONDA": "1992/01/01 00:00:00",
        "LASTUPDATE": "10/14/2022",
        "AADT": "1634",
        "AADTYEAR": "2019",
        "STATENAME": "TEXAS",
        "STATEAB": "TX",
        "COUNTYNAME": "GONZALES",
        "CITYNAME": "GONZALES",
        "LATDD": 29.5065861,
        "LONGDD": -97.4498083,
        "gridlyProductionCertified": true,
        "gridlyClassification": "PUBLIC_ROADWAY",
        "gridlyDisplayName": "COLLEGE",
        "gridlyId": "FRA-742773R"
      }
    },
    {
      "type": "Feature",
      "id": 201944,
      "geometry": {
        "type": "Point",
        "coordinates": [
          -97.4507943999282,
          29.5061333001071
        ]
      },
      "properties": {
        "OBJECTID": 201944,
        "CROSSING": "742774X",
        "EFFDATE": 1665705600000,
        "REASON": "14",
        "StateCode": "48",
        "CountyCode": "48177",
        "STCYFIPS": "48177",
        "CITYCD": "481772720",
        "RAILROAD": "TXGN",
        "RRDIV": "txgn",
        "RRSUBDIV": "txgn",
        "HIGHWAY": "L",
        "STREET": "HAMILTON ST",
        "TTSTN": "687230",
        "MILEPOST": "0012.20",
        "TYPEXING": "Public",
        "POSXING": "At Grade",
        "PRVCAT": "14",
        "INIT": "2",
        "LATITUDE": 29.5061333,
        "LONGITUD": -97.4507944,
        "LLSOURCE": "2",
        "WHISTBAN": "0",
        "RRCONT": "8778139838",
        "POLCONT": "8778139838",
        "INV_LINK": "https://safetydata.fra.dot.gov/OfficeofSafety/PublicSite/Crossing/Crossing.aspx?phasetype=C&rpttype=I&txtcrossingnum=742774X",
        "ACC_LINK": "https://safetydata.fra.dot.gov/OfficeofSafety/PublicSite/Crossing/Crossing.aspx?phasetype=C&rpttype=A&txtcrossingnum=742774X",
        "TTSTNNAM": "GONZALES",
        "XPURPOSE": "1",
        "OPERATINGR": "TXGN",
        "OPERATIN_1": "Primary",
        "DAYTHRU": 2,
        "NGHTTHRU": 0,
        "MAINTRK": 0,
        "SIDINGTRK": 0,
        "YARDTRK": 1,
        "TRANSITTRK": 0,
        "INDUSTRYTR": 0,
        "OTHRTRK": 2,
        "WDCODE": "Crossbucks",
        "REVISIONDA": "1992/01/01 00:00:00",
        "LASTUPDATE": "10/14/2022",
        "AADT": "105",
        "AADTYEAR": "2019",
        "STATENAME": "TEXAS",
        "STATEAB": "TX",
        "COUNTYNAME": "GONZALES",
        "CITYNAME": "GONZALES",
        "LATDD": 29.5061333,
        "LONGDD": -97.4507944,
        "gridlyProductionCertified": true,
        "gridlyClassification": "PUBLIC_ROADWAY",
        "gridlyDisplayName": "HAMILTON ST",
        "gridlyId": "FRA-742774X"
      }
    },
    {
      "type": "Feature",
      "id": 206873,
      "geometry": {
        "type": "Point",
        "coordinates": [
          -97.5000771999204,
          29.6668229998298
        ]
      },
      "properties": {
        "OBJECTID": 206873,
        "CROSSING": "742768U",
        "EFFDATE": 1756425600000,
        "REASON": "14",
        "StateCode": "48",
        "CountyCode": "48177",
        "STCYFIPS": "48177",
        "CITYCD": "481773040",
        "RAILROAD": "UP",
        "RRDIV": "SOUTH TEXAS",
        "RRSUBDIV": "GLIDDEN SUB",
        "HIGHWAY": "TBD",
        "STREET": "SOUTH BELDING STREET",
        "TTSTN": "687218",
        "MILEPOST": "0143.990",
        "TYPEXING": "Public",
        "POSXING": "At Grade",
        "PRVCAT": "14",
        "INIT": "1",
        "LATITUDE": 29.666823,
        "LONGITUD": -97.5000772,
        "LLSOURCE": "1",
        "WHISTBAN": "0",
        "RRCONT": "4025443721",
        "POLCONT": "8008488715",
        "INV_LINK": "https://safetydata.fra.dot.gov/OfficeofSafety/PublicSite/Crossing/Crossing.aspx?phasetype=C&rpttype=I&txtcrossingnum=742768U",
        "ACC_LINK": "https://safetydata.fra.dot.gov/OfficeofSafety/PublicSite/Crossing/Crossing.aspx?phasetype=C&rpttype=A&txtcrossingnum=742768U",
        "TTSTNNAM": "",
        "XPURPOSE": "1",
        "OPERATINGR": "UP",
        "OPERATIN_1": "Primary",
        "DAYTHRU": 13,
        "NGHTTHRU": 12,
        "MAINTRK": 1,
        "SIDINGTRK": 1,
        "YARDTRK": 1,
        "TRANSITTRK": 0,
        "INDUSTRYTR": 0,
        "OTHRTRK": 3,
        "WDCODE": "All other Gates",
        "REVISIONDA": "1975/01/01 00:00:00",
        "LASTUPDATE": "8/29/2025",
        "AADT": "44",
        "AADTYEAR": "2019",
        "STATENAME": "TEXAS",
        "STATEAB": "TX",
        "COUNTYNAME": "GONZALES",
        "CITYNAME": "HARWOOD",
        "LATDD": 29.666823,
        "LONGDD": -97.5000772,
        "gridlyProductionCertified": true,
        "gridlyClassification": "PUBLIC_ROADWAY",
        "gridlyDisplayName": "SOUTH BELDING STREET",
        "gridlyId": "FRA-742768U"
      }
    },
    {
      "type": "Feature",
      "id": 207059,
      "geometry": {
        "type": "Point",
        "coordinates": [
          -97.4732882999825,
          29.6678674003776
        ]
      },
      "properties": {
        "OBJECTID": 207059,
        "CROSSING": "742789M",
        "EFFDATE": 1756425600000,
        "REASON": "14",
        "StateCode": "48",
        "CountyCode": "48177",
        "STCYFIPS": "48177",
        "CITYCD": "481773040",
        "RAILROAD": "UP",
        "RRDIV": "SOUTH TEXAS",
        "RRSUBDIV": "GLIDDEN SUB",
        "HIGHWAY": "PRIVATE",
        "STREET": "PRIVATE",
        "TTSTN": "687218",
        "MILEPOST": "0142.364",
        "TYPEXING": "Private",
        "POSXING": "At Grade",
        "PRVCAT": "14",
        "INIT": "1",
        "LATITUDE": 29.6678674,
        "LONGITUD": -97.4732883,
        "LLSOURCE": "1",
        "WHISTBAN": "0",
        "RRCONT": "4025443721",
        "POLCONT": "8008488715",
        "INV_LINK": "https://safetydata.fra.dot.gov/OfficeofSafety/PublicSite/Crossing/Crossing.aspx?phasetype=C&rpttype=I&txtcrossingnum=742789M",
        "ACC_LINK": "https://safetydata.fra.dot.gov/OfficeofSafety/PublicSite/Crossing/Crossing.aspx?phasetype=C&rpttype=A&txtcrossingnum=742789M",
        "TTSTNNAM": "",
        "XPURPOSE": "1",
        "OPERATINGR": "UP",
        "OPERATIN_1": "Primary",
        "DAYTHRU": 14,
        "NGHTTHRU": 13,
        "MAINTRK": 1,
        "SIDINGTRK": 1,
        "YARDTRK": 0,
        "TRANSITTRK": 0,
        "INDUSTRYTR": 0,
        "OTHRTRK": 0,
        "WDCODE": "",
        "REVISIONDA": "1975/01/01 00:00:00",
        "LASTUPDATE": "8/29/2025",
        "AADT": "1",
        "AADTYEAR": "1970",
        "STATENAME": "TEXAS",
        "STATEAB": "TX",
        "COUNTYNAME": "GONZALES",
        "CITYNAME": "HARWOOD",
        "LATDD": 29.6678674,
        "LONGDD": -97.4732883,
        "gridlyProductionCertified": true,
        "gridlyClassification": "PUBLIC_ROADWAY",
        "gridlyDisplayName": "PRIVATE",
        "gridlyId": "FRA-742789M"
      }
    },
    {
      "type": "Feature",
      "id": 207716,
      "geometry": {
        "type": "Point",
        "coordinates": [
          -97.1349116003446,
          29.6455782997477
        ]
      },
      "properties": {
        "OBJECTID": 207716,
        "CROSSING": "744686U",
        "EFFDATE": 1756684800000,
        "REASON": "14",
        "StateCode": "48",
        "CountyCode": "48177",
        "STCYFIPS": "48177",
        "CITYCD": "481492370",
        "RAILROAD": "UP",
        "RRDIV": "SOUTH TEXAS",
        "RRSUBDIV": "CUERO SUB",
        "HIGHWAY": "PRIVATE",
        "STREET": "PRIVATE FIELD",
        "TTSTN": "685298",
        "MILEPOST": "0098.700",
        "TYPEXING": "Private",
        "POSXING": "At Grade",
        "PRVCAT": "14",
        "INIT": "1",
        "LATITUDE": 29.6455783,
        "LONGITUD": -97.1349116,
        "LLSOURCE": "1",
        "WHISTBAN": "0",
        "RRCONT": "4025443721",
        "POLCONT": "8008488715",
        "INV_LINK": "https://safetydata.fra.dot.gov/OfficeofSafety/PublicSite/Crossing/Crossing.aspx?phasetype=C&rpttype=I&txtcrossingnum=744686U",
        "ACC_LINK": "https://safetydata.fra.dot.gov/OfficeofSafety/PublicSite/Crossing/Crossing.aspx?phasetype=C&rpttype=A&txtcrossingnum=744686U",
        "TTSTNNAM": "",
        "XPURPOSE": "1",
        "OPERATINGR": "UP",
        "OPERATIN_1": "Primary",
        "DAYTHRU": 1,
        "NGHTTHRU": 0,
        "MAINTRK": 1,
        "SIDINGTRK": 0,
        "YARDTRK": 0,
        "TRANSITTRK": 0,
        "INDUSTRYTR": 0,
        "OTHRTRK": 0,
        "WDCODE": "",
        "REVISIONDA": "1975/01/01 00:00:00",
        "LASTUPDATE": "9/1/2025",
        "AADT": "1",
        "AADTYEAR": "1970",
        "STATENAME": "TEXAS",
        "STATEAB": "TX",
        "COUNTYNAME": "GONZALES",
        "CITYNAME": "FLATONIA",
        "LATDD": 29.6455783,
        "LONGDD": -97.1349116,
        "gridlyProductionCertified": true,
        "gridlyClassification": "PUBLIC_ROADWAY",
        "gridlyDisplayName": "PRIVATE FIELD",
        "gridlyId": "FRA-744686U"
      }
    },
    {
      "type": "Feature",
      "id": 212321,
      "geometry": {
        "type": "Point",
        "coordinates": [
          -97.3115687999047,
          29.6969040999258
        ]
      },
      "properties": {
        "OBJECTID": 212321,
        "CROSSING": "742798L",
        "EFFDATE": 1759104000000,
        "REASON": "14",
        "StateCode": "48",
        "CountyCode": "48177",
        "STCYFIPS": "48177",
        "CITYCD": "481777220",
        "RAILROAD": "UP",
        "RRDIV": "SOUTH TEXAS",
        "RRSUBDIV": "GLIDDEN SUB",
        "HIGHWAY": "PRIVATE",
        "STREET": "PRIVATE",
        "TTSTN": "687212",
        "MILEPOST": "0132.070",
        "TYPEXING": "Private",
        "POSXING": "At Grade",
        "PRVCAT": "14",
        "INIT": "1",
        "LATITUDE": 29.6969041,
        "LONGITUD": -97.3115688,
        "LLSOURCE": "1",
        "WHISTBAN": "0",
        "RRCONT": "4025443721",
        "POLCONT": "8008488715",
        "INV_LINK": "https://safetydata.fra.dot.gov/OfficeofSafety/PublicSite/Crossing/Crossing.aspx?phasetype=C&rpttype=I&txtcrossingnum=742798L",
        "ACC_LINK": "https://safetydata.fra.dot.gov/OfficeofSafety/PublicSite/Crossing/Crossing.aspx?phasetype=C&rpttype=A&txtcrossingnum=742798L",
        "TTSTNNAM": "",
        "XPURPOSE": "1",
        "OPERATINGR": "UP",
        "OPERATIN_1": "Primary",
        "DAYTHRU": 14,
        "NGHTTHRU": 13,
        "MAINTRK": 1,
        "SIDINGTRK": 0,
        "YARDTRK": 0,
        "TRANSITTRK": 0,
        "INDUSTRYTR": 0,
        "OTHRTRK": 0,
        "WDCODE": "",
        "REVISIONDA": "1975/01/01 00:00:00",
        "LASTUPDATE": "9/29/2025",
        "AADT": "1",
        "AADTYEAR": "1970",
        "STATENAME": "TEXAS",
        "STATEAB": "TX",
        "COUNTYNAME": "GONZALES",
        "CITYNAME": "WAELDER",
        "LATDD": 29.6969041,
        "LONGDD": -97.3115688,
        "gridlyProductionCertified": true,
        "gridlyClassification": "PUBLIC_ROADWAY",
        "gridlyDisplayName": "PRIVATE",
        "gridlyId": "FRA-742798L"
      }
    },
    {
      "type": "Feature",
      "id": 212378,
      "geometry": {
        "type": "Point",
        "coordinates": [
          -97.3005926995714,
          29.6932921003408
        ]
      },
      "properties": {
        "OBJECTID": 212378,
        "CROSSING": "742799T",
        "EFFDATE": 1759104000000,
        "REASON": "14",
        "StateCode": "48",
        "CountyCode": "48177",
        "STCYFIPS": "48177",
        "CITYCD": "481777220",
        "RAILROAD": "UP",
        "RRDIV": "SOUTH TEXAS",
        "RRSUBDIV": "GLIDDEN SUB",
        "HIGHWAY": "ST 0000",
        "STREET": "South Avenue D",
        "TTSTN": "687212",
        "MILEPOST": "0131.350",
        "TYPEXING": "Public",
        "POSXING": "At Grade",
        "PRVCAT": "14",
        "INIT": "1",
        "LATITUDE": 29.6932921,
        "LONGITUD": -97.3005927,
        "LLSOURCE": "1",
        "WHISTBAN": "1",
        "RRCONT": "4025443721",
        "POLCONT": "8008488715",
        "INV_LINK": "https://safetydata.fra.dot.gov/OfficeofSafety/PublicSite/Crossing/Crossing.aspx?phasetype=C&rpttype=I&txtcrossingnum=742799T",
        "ACC_LINK": "https://safetydata.fra.dot.gov/OfficeofSafety/PublicSite/Crossing/Crossing.aspx?phasetype=C&rpttype=A&txtcrossingnum=742799T",
        "TTSTNNAM": "",
        "XPURPOSE": "1",
        "OPERATINGR": "UP",
        "OPERATIN_1": "Primary",
        "DAYTHRU": 14,
        "NGHTTHRU": 13,
        "MAINTRK": 1,
        "SIDINGTRK": 0,
        "YARDTRK": 0,
        "TRANSITTRK": 0,
        "INDUSTRYTR": 0,
        "OTHRTRK": 0,
        "WDCODE": "All other Gates",
        "REVISIONDA": "1975/01/01 00:00:00",
        "LASTUPDATE": "9/29/2025",
        "AADT": "345",
        "AADTYEAR": "2019",
        "STATENAME": "TEXAS",
        "STATEAB": "TX",
        "COUNTYNAME": "GONZALES",
        "CITYNAME": "WAELDER",
        "LATDD": 29.6932921,
        "LONGDD": -97.3005927,
        "gridlyProductionCertified": true,
        "gridlyClassification": "PUBLIC_ROADWAY",
        "gridlyDisplayName": "South Avenue D",
        "gridlyId": "FRA-742799T"
      }
    },
    {
      "type": "Feature",
      "id": 212752,
      "geometry": {
        "type": "Point",
        "coordinates": [
          -97.2993036997837,
          29.6928677997982
        ]
      },
      "properties": {
        "OBJECTID": 212752,
        "CROSSING": "742800K",
        "EFFDATE": 1759104000000,
        "REASON": "14",
        "StateCode": "48",
        "CountyCode": "48177",
        "STCYFIPS": "48177",
        "CITYCD": "481777220",
        "RAILROAD": "UP",
        "RRDIV": "SOUTH TEXAS",
        "RRSUBDIV": "GLIDDEN SUB",
        "HIGHWAY": "SH 0097",
        "STREET": "South Avenue E",
        "TTSTN": "687212",
        "MILEPOST": "0131.269",
        "TYPEXING": "Public",
        "POSXING": "At Grade",
        "PRVCAT": "14",
        "INIT": "1",
        "LATITUDE": 29.6928678,
        "LONGITUD": -97.2993037,
        "LLSOURCE": "1",
        "WHISTBAN": "1",
        "RRCONT": "4025443721",
        "POLCONT": "8008488715",
        "INV_LINK": "https://safetydata.fra.dot.gov/OfficeofSafety/PublicSite/Crossing/Crossing.aspx?phasetype=C&rpttype=I&txtcrossingnum=742800K",
        "ACC_LINK": "https://safetydata.fra.dot.gov/OfficeofSafety/PublicSite/Crossing/Crossing.aspx?phasetype=C&rpttype=A&txtcrossingnum=742800K",
        "TTSTNNAM": "",
        "XPURPOSE": "1",
        "OPERATINGR": "UP",
        "OPERATIN_1": "Primary",
        "DAYTHRU": 14,
        "NGHTTHRU": 13,
        "MAINTRK": 1,
        "SIDINGTRK": 0,
        "YARDTRK": 0,
        "TRANSITTRK": 0,
        "INDUSTRYTR": 0,
        "OTHRTRK": 0,
        "WDCODE": "All other Gates",
        "REVISIONDA": "1975/01/01 00:00:00",
        "LASTUPDATE": "9/29/2025",
        "AADT": "1668",
        "AADTYEAR": "2019",
        "STATENAME": "TEXAS",
        "STATEAB": "TX",
        "COUNTYNAME": "GONZALES",
        "CITYNAME": "WAELDER",
        "LATDD": 29.6928678,
        "LONGDD": -97.2993037,
        "gridlyProductionCertified": true,
        "gridlyClassification": "PUBLIC_ROADWAY",
        "gridlyDisplayName": "South Avenue E",
        "gridlyId": "FRA-742800K"
      }
    },
    {
      "type": "Feature",
      "id": 212790,
      "geometry": {
        "type": "Point",
        "coordinates": [
          -97.4435222996497,
          29.6755036001577
        ]
      },
      "properties": {
        "OBJECTID": 212790,
        "CROSSING": "441155J",
        "EFFDATE": 1758499200000,
        "REASON": "14",
        "StateCode": "48",
        "CountyCode": "48177",
        "STCYFIPS": "48177",
        "CITYCD": "481773040",
        "RAILROAD": "UP",
        "RRDIV": "SOUTH TEXAS",
        "RRSUBDIV": "GLIDDEN SUB",
        "HIGHWAY": "NA",
        "STREET": "PRIVATE",
        "TTSTN": "",
        "MILEPOST": "0140.450",
        "TYPEXING": "Private",
        "POSXING": "At Grade",
        "PRVCAT": "14",
        "INIT": "1",
        "LATITUDE": 29.6755036,
        "LONGITUD": -97.4435223,
        "LLSOURCE": "1",
        "WHISTBAN": "",
        "RRCONT": "4025443721",
        "POLCONT": "8008488715",
        "INV_LINK": "https://safetydata.fra.dot.gov/OfficeofSafety/PublicSite/Crossing/Crossing.aspx?phasetype=C&rpttype=I&txtcrossingnum=441155J",
        "ACC_LINK": "https://safetydata.fra.dot.gov/OfficeofSafety/PublicSite/Crossing/Crossing.aspx?phasetype=C&rpttype=A&txtcrossingnum=441155J",
        "TTSTNNAM": "",
        "XPURPOSE": "1",
        "OPERATINGR": "UP",
        "OPERATIN_1": "Primary",
        "DAYTHRU": 14,
        "NGHTTHRU": 13,
        "MAINTRK": 1,
        "SIDINGTRK": 0,
        "YARDTRK": 0,
        "TRANSITTRK": 0,
        "INDUSTRYTR": 0,
        "OTHRTRK": 0,
        "WDCODE": "",
        "REVISIONDA": "1975/01/01 00:00:00",
        "LASTUPDATE": "9/22/2025",
        "AADT": "",
        "AADTYEAR": "",
        "STATENAME": "TEXAS",
        "STATEAB": "TX",
        "COUNTYNAME": "GONZALES",
        "CITYNAME": "HARWOOD",
        "LATDD": 29.6755036,
        "LONGDD": -97.4435223,
        "gridlyProductionCertified": true,
        "gridlyClassification": "PUBLIC_ROADWAY",
        "gridlyDisplayName": "PRIVATE",
        "gridlyId": "FRA-441155J"
      }
    },
    {
      "type": "Feature",
      "id": 212796,
      "geometry": {
        "type": "Point",
        "coordinates": [
          -97.4505570003514,
          29.672554000034
        ]
      },
      "properties": {
        "OBJECTID": 212796,
        "CROSSING": "441156R",
        "EFFDATE": 1758499200000,
        "REASON": "14",
        "StateCode": "48",
        "CountyCode": "48177",
        "STCYFIPS": "48177",
        "CITYCD": "481773040",
        "RAILROAD": "UP",
        "RRDIV": "SOUTH TEXAS",
        "RRSUBDIV": "GLIDDEN SUB",
        "HIGHWAY": "NA",
        "STREET": "PRIVATE",
        "TTSTN": "",
        "MILEPOST": "0140.910",
        "TYPEXING": "Private",
        "POSXING": "At Grade",
        "PRVCAT": "14",
        "INIT": "1",
        "LATITUDE": 29.672554,
        "LONGITUD": -97.450557,
        "LLSOURCE": "1",
        "WHISTBAN": "",
        "RRCONT": "4025443721",
        "POLCONT": "8008488715",
        "INV_LINK": "https://safetydata.fra.dot.gov/OfficeofSafety/PublicSite/Crossing/Crossing.aspx?phasetype=C&rpttype=I&txtcrossingnum=441156R",
        "ACC_LINK": "https://safetydata.fra.dot.gov/OfficeofSafety/PublicSite/Crossing/Crossing.aspx?phasetype=C&rpttype=A&txtcrossingnum=441156R",
        "TTSTNNAM": "",
        "XPURPOSE": "1",
        "OPERATINGR": "UP",
        "OPERATIN_1": "Primary",
        "DAYTHRU": 14,
        "NGHTTHRU": 13,
        "MAINTRK": 1,
        "SIDINGTRK": 0,
        "YARDTRK": 0,
        "TRANSITTRK": 0,
        "INDUSTRYTR": 0,
        "OTHRTRK": 0,
        "WDCODE": "",
        "REVISIONDA": "1975/01/01 00:00:00",
        "LASTUPDATE": "9/22/2025",
        "AADT": "",
        "AADTYEAR": "",
        "STATENAME": "TEXAS",
        "STATEAB": "TX",
        "COUNTYNAME": "GONZALES",
        "CITYNAME": "HARWOOD",
        "LATDD": 29.672554,
        "LONGDD": -97.450557,
        "gridlyProductionCertified": true,
        "gridlyClassification": "PUBLIC_ROADWAY",
        "gridlyDisplayName": "PRIVATE",
        "gridlyId": "FRA-441156R"
      }
    },
    {
      "type": "Feature",
      "id": 212969,
      "geometry": {
        "type": "Point",
        "coordinates": [
          -97.5051933003979,
          29.6657260997304
        ]
      },
      "properties": {
        "OBJECTID": 212969,
        "CROSSING": "742684Y",
        "EFFDATE": 1764547200000,
        "REASON": "14",
        "StateCode": "48",
        "CountyCode": "48177",
        "STCYFIPS": "48177",
        "CITYCD": "481773040",
        "RAILROAD": "UP",
        "RRDIV": "SOUTH TEXAS",
        "RRSUBDIV": "GLIDDEN SUB",
        "HIGHWAY": "FM 0794",
        "STREET": "FM 794",
        "TTSTN": "687218",
        "MILEPOST": "0144.310",
        "TYPEXING": "Public",
        "POSXING": "At Grade",
        "PRVCAT": "14",
        "INIT": "1",
        "LATITUDE": 29.6657261,
        "LONGITUD": -97.5051933,
        "LLSOURCE": "1",
        "WHISTBAN": "0",
        "RRCONT": "4025443721",
        "POLCONT": "8008488715",
        "INV_LINK": "https://safetydata.fra.dot.gov/OfficeofSafety/PublicSite/Crossing/Crossing.aspx?phasetype=C&rpttype=I&txtcrossingnum=742684Y",
        "ACC_LINK": "https://safetydata.fra.dot.gov/OfficeofSafety/PublicSite/Crossing/Crossing.aspx?phasetype=C&rpttype=A&txtcrossingnum=742684Y",
        "TTSTNNAM": "",
        "XPURPOSE": "1",
        "OPERATINGR": "UP",
        "OPERATIN_1": "Primary",
        "DAYTHRU": 13,
        "NGHTTHRU": 12,
        "MAINTRK": 1,
        "SIDINGTRK": 0,
        "YARDTRK": 0,
        "TRANSITTRK": 0,
        "INDUSTRYTR": 0,
        "OTHRTRK": 1,
        "WDCODE": "All other Gates",
        "REVISIONDA": "1975/01/01 00:00:00",
        "LASTUPDATE": "12/1/2025",
        "AADT": "696",
        "AADTYEAR": "2019",
        "STATENAME": "TEXAS",
        "STATEAB": "TX",
        "COUNTYNAME": "GONZALES",
        "CITYNAME": "HARWOOD",
        "LATDD": 29.6657261,
        "LONGDD": -97.5051933,
        "gridlyProductionCertified": true,
        "gridlyClassification": "PUBLIC_ROADWAY",
        "gridlyDisplayName": "FM 794",
        "gridlyId": "FRA-742684Y"
      }
    },
    {
      "type": "Feature",
      "id": 213217,
      "geometry": {
        "type": "Point",
        "coordinates": [
          -97.5295500000259,
          29.6621220003837
        ]
      },
      "properties": {
        "OBJECTID": 213217,
        "CROSSING": "742685F",
        "EFFDATE": 1758585600000,
        "REASON": "14",
        "StateCode": "48",
        "CountyCode": "48177",
        "STCYFIPS": "48177",
        "CITYCD": "481773040",
        "RAILROAD": "UP",
        "RRDIV": "SOUTH TEXAS",
        "RRSUBDIV": "GLIDDEN SUB",
        "HIGHWAY": "US 0090",
        "STREET": "US 90",
        "TTSTN": "687218",
        "MILEPOST": "0145.810",
        "TYPEXING": "Public",
        "POSXING": "RR Over",
        "PRVCAT": "14",
        "INIT": "1",
        "LATITUDE": 29.662122,
        "LONGITUD": -97.52955,
        "LLSOURCE": "1",
        "WHISTBAN": "0",
        "RRCONT": "4025443721",
        "POLCONT": "8008488715",
        "INV_LINK": "https://safetydata.fra.dot.gov/OfficeofSafety/PublicSite/Crossing/Crossing.aspx?phasetype=C&rpttype=I&txtcrossingnum=742685F",
        "ACC_LINK": "https://safetydata.fra.dot.gov/OfficeofSafety/PublicSite/Crossing/Crossing.aspx?phasetype=C&rpttype=A&txtcrossingnum=742685F",
        "TTSTNNAM": "",
        "XPURPOSE": "1",
        "OPERATINGR": "UP",
        "OPERATIN_1": "Primary",
        "DAYTHRU": 13,
        "NGHTTHRU": 12,
        "MAINTRK": 1,
        "SIDINGTRK": 0,
        "YARDTRK": 0,
        "TRANSITTRK": 0,
        "INDUSTRYTR": 0,
        "OTHRTRK": 0,
        "WDCODE": "",
        "REVISIONDA": "1975/01/01 00:00:00",
        "LASTUPDATE": "9/23/2025",
        "AADT": "600",
        "AADTYEAR": "2011",
        "STATENAME": "TEXAS",
        "STATEAB": "TX",
        "COUNTYNAME": "GONZALES",
        "CITYNAME": "HARWOOD",
        "LATDD": 29.662122,
        "LONGDD": -97.52955,
        "gridlyProductionCertified": true,
        "gridlyClassification": "PUBLIC_ROADWAY",
        "gridlyDisplayName": "US 90",
        "gridlyId": "FRA-742685F"
      }
    },
    {
      "type": "Feature",
      "id": 213219,
      "geometry": {
        "type": "Point",
        "coordinates": [
          -97.437064099968,
          29.6771978996581
        ]
      },
      "properties": {
        "OBJECTID": 213219,
        "CROSSING": "742790G",
        "EFFDATE": 1758585600000,
        "REASON": "14",
        "StateCode": "48",
        "CountyCode": "48177",
        "STCYFIPS": "48177",
        "CITYCD": "481773040",
        "RAILROAD": "UP",
        "RRDIV": "SOUTH TEXAS",
        "RRSUBDIV": "GLIDDEN SUB",
        "HIGHWAY": "CO 0437",
        "STREET": "CR 437",
        "TTSTN": "687215",
        "MILEPOST": "0140.040",
        "TYPEXING": "Public",
        "POSXING": "RR Over",
        "PRVCAT": "14",
        "INIT": "1",
        "LATITUDE": 29.6771979,
        "LONGITUD": -97.4370641,
        "LLSOURCE": "1",
        "WHISTBAN": "0",
        "RRCONT": "4025443721",
        "POLCONT": "8008488715",
        "INV_LINK": "https://safetydata.fra.dot.gov/OfficeofSafety/PublicSite/Crossing/Crossing.aspx?phasetype=C&rpttype=I&txtcrossingnum=742790G",
        "ACC_LINK": "https://safetydata.fra.dot.gov/OfficeofSafety/PublicSite/Crossing/Crossing.aspx?phasetype=C&rpttype=A&txtcrossingnum=742790G",
        "TTSTNNAM": "",
        "XPURPOSE": "1",
        "OPERATINGR": "UP",
        "OPERATIN_1": "Primary",
        "DAYTHRU": 14,
        "NGHTTHRU": 13,
        "MAINTRK": 1,
        "SIDINGTRK": 0,
        "YARDTRK": 0,
        "TRANSITTRK": 0,
        "INDUSTRYTR": 0,
        "OTHRTRK": 0,
        "WDCODE": "",
        "REVISIONDA": "1975/01/01 00:00:00",
        "LASTUPDATE": "9/23/2025",
        "AADT": "10",
        "AADTYEAR": "2001",
        "STATENAME": "TEXAS",
        "STATEAB": "TX",
        "COUNTYNAME": "GONZALES",
        "CITYNAME": "HARWOOD",
        "LATDD": 29.6771979,
        "LONGDD": -97.4370641,
        "gridlyProductionCertified": true,
        "gridlyClassification": "PUBLIC_ROADWAY",
        "gridlyDisplayName": "CR 437",
        "gridlyId": "FRA-742790G"
      }
    },
    {
      "type": "Feature",
      "id": 213246,
      "geometry": {
        "type": "Point",
        "coordinates": [
          -97.2684949997478,
          29.6827459997768
        ]
      },
      "properties": {
        "OBJECTID": 213246,
        "CROSSING": "742804M",
        "EFFDATE": 1758585600000,
        "REASON": "14",
        "StateCode": "48",
        "CountyCode": "48177",
        "STCYFIPS": "48177",
        "CITYCD": "481777220",
        "RAILROAD": "UP",
        "RRDIV": "SOUTH TEXAS",
        "RRSUBDIV": "GLIDDEN SUB",
        "HIGHWAY": "IH 0010",
        "STREET": "I 10",
        "TTSTN": "687212",
        "MILEPOST": "0129.290",
        "TYPEXING": "Public",
        "POSXING": "RR Under",
        "PRVCAT": "14",
        "INIT": "1",
        "LATITUDE": 29.682746,
        "LONGITUD": -97.268495,
        "LLSOURCE": "1",
        "WHISTBAN": "0",
        "RRCONT": "4025443721",
        "POLCONT": "8008488715",
        "INV_LINK": "https://safetydata.fra.dot.gov/OfficeofSafety/PublicSite/Crossing/Crossing.aspx?phasetype=C&rpttype=I&txtcrossingnum=742804M",
        "ACC_LINK": "https://safetydata.fra.dot.gov/OfficeofSafety/PublicSite/Crossing/Crossing.aspx?phasetype=C&rpttype=A&txtcrossingnum=742804M",
        "TTSTNNAM": "",
        "XPURPOSE": "1",
        "OPERATINGR": "UP",
        "OPERATIN_1": "Primary",
        "DAYTHRU": 14,
        "NGHTTHRU": 13,
        "MAINTRK": 1,
        "SIDINGTRK": 0,
        "YARDTRK": 0,
        "TRANSITTRK": 0,
        "INDUSTRYTR": 0,
        "OTHRTRK": 0,
        "WDCODE": "",
        "REVISIONDA": "1975/01/01 00:00:00",
        "LASTUPDATE": "9/23/2025",
        "AADT": "23340",
        "AADTYEAR": "2011",
        "STATENAME": "TEXAS",
        "STATEAB": "TX",
        "COUNTYNAME": "GONZALES",
        "CITYNAME": "WAELDER",
        "LATDD": 29.682746,
        "LONGDD": -97.268495,
        "gridlyProductionCertified": true,
        "gridlyClassification": "PUBLIC_ROADWAY",
        "gridlyDisplayName": "I 10",
        "gridlyId": "FRA-742804M"
      }
    },
    {
      "type": "Feature",
      "id": 213252,
      "geometry": {
        "type": "Point",
        "coordinates": [
          -97.5038501995722,
          29.6660250002433
        ]
      },
      "properties": {
        "OBJECTID": 213252,
        "CROSSING": "742686M",
        "EFFDATE": 1758499200000,
        "REASON": "14",
        "StateCode": "48",
        "CountyCode": "48177",
        "STCYFIPS": "48177",
        "CITYCD": "481773040",
        "RAILROAD": "UP",
        "RRDIV": "SOUTH TEXAS",
        "RRSUBDIV": "GLIDDEN SUB",
        "HIGHWAY": "CO 0802",
        "STREET": "DILWORTH AVENUE",
        "TTSTN": "687218",
        "MILEPOST": "0144.230",
        "TYPEXING": "Public",
        "POSXING": "At Grade",
        "PRVCAT": "14",
        "INIT": "1",
        "LATITUDE": 29.666025,
        "LONGITUD": -97.5038502,
        "LLSOURCE": "1",
        "WHISTBAN": "0",
        "RRCONT": "4025443721",
        "POLCONT": "8008488715",
        "INV_LINK": "https://safetydata.fra.dot.gov/OfficeofSafety/PublicSite/Crossing/Crossing.aspx?phasetype=C&rpttype=I&txtcrossingnum=742686M",
        "ACC_LINK": "https://safetydata.fra.dot.gov/OfficeofSafety/PublicSite/Crossing/Crossing.aspx?phasetype=C&rpttype=A&txtcrossingnum=742686M",
        "TTSTNNAM": "",
        "XPURPOSE": "1",
        "OPERATINGR": "UP",
        "OPERATIN_1": "Primary",
        "DAYTHRU": 13,
        "NGHTTHRU": 12,
        "MAINTRK": 1,
        "SIDINGTRK": 0,
        "YARDTRK": 0,
        "TRANSITTRK": 0,
        "INDUSTRYTR": 0,
        "OTHRTRK": 1,
        "WDCODE": "All other Gates",
        "REVISIONDA": "1975/01/01 00:00:00",
        "LASTUPDATE": "9/22/2025",
        "AADT": "18",
        "AADTYEAR": "2019",
        "STATENAME": "TEXAS",
        "STATEAB": "TX",
        "COUNTYNAME": "GONZALES",
        "CITYNAME": "HARWOOD",
        "LATDD": 29.666025,
        "LONGDD": -97.5038502,
        "gridlyProductionCertified": true,
        "gridlyClassification": "PUBLIC_ROADWAY",
        "gridlyDisplayName": "DILWORTH AVENUE",
        "gridlyId": "FRA-742686M"
      }
    },
    {
      "type": "Feature",
      "id": 213253,
      "geometry": {
        "type": "Point",
        "coordinates": [
          -97.4664815000717,
          29.6680132999487
        ]
      },
      "properties": {
        "OBJECTID": 213253,
        "CROSSING": "742788F",
        "EFFDATE": 1758499200000,
        "REASON": "14",
        "StateCode": "48",
        "CountyCode": "48177",
        "STCYFIPS": "48177",
        "CITYCD": "481773040",
        "RAILROAD": "UP",
        "RRDIV": "SOUTH TEXAS",
        "RRSUBDIV": "GLIDDEN SUB",
        "HIGHWAY": "PRIVATE",
        "STREET": "PRIVATE",
        "TTSTN": "687218",
        "MILEPOST": "0141.950",
        "TYPEXING": "Private",
        "POSXING": "At Grade",
        "PRVCAT": "14",
        "INIT": "1",
        "LATITUDE": 29.6680133,
        "LONGITUD": -97.4664815,
        "LLSOURCE": "1",
        "WHISTBAN": "0",
        "RRCONT": "4025443721",
        "POLCONT": "8008488715",
        "INV_LINK": "https://safetydata.fra.dot.gov/OfficeofSafety/PublicSite/Crossing/Crossing.aspx?phasetype=C&rpttype=I&txtcrossingnum=742788F",
        "ACC_LINK": "https://safetydata.fra.dot.gov/OfficeofSafety/PublicSite/Crossing/Crossing.aspx?phasetype=C&rpttype=A&txtcrossingnum=742788F",
        "TTSTNNAM": "",
        "XPURPOSE": "1",
        "OPERATINGR": "UP",
        "OPERATIN_1": "Primary",
        "DAYTHRU": 14,
        "NGHTTHRU": 13,
        "MAINTRK": 1,
        "SIDINGTRK": 0,
        "YARDTRK": 0,
        "TRANSITTRK": 0,
        "INDUSTRYTR": 0,
        "OTHRTRK": 0,
        "WDCODE": "",
        "REVISIONDA": "1975/01/01 00:00:00",
        "LASTUPDATE": "9/22/2025",
        "AADT": "1",
        "AADTYEAR": "1970",
        "STATENAME": "TEXAS",
        "STATEAB": "TX",
        "COUNTYNAME": "GONZALES",
        "CITYNAME": "HARWOOD",
        "LATDD": 29.6680133,
        "LONGDD": -97.4664815,
        "gridlyProductionCertified": true,
        "gridlyClassification": "PUBLIC_ROADWAY",
        "gridlyDisplayName": "PRIVATE",
        "gridlyId": "FRA-742788F"
      }
    },
    {
      "type": "Feature",
      "id": 213254,
      "geometry": {
        "type": "Point",
        "coordinates": [
          -97.4251670998061,
          29.6813064003464
        ]
      },
      "properties": {
        "OBJECTID": 213254,
        "CROSSING": "742791N",
        "EFFDATE": 1758499200000,
        "REASON": "14",
        "StateCode": "48",
        "CountyCode": "48177",
        "STCYFIPS": "48177",
        "CITYCD": "481773040",
        "RAILROAD": "UP",
        "RRDIV": "SOUTH TEXAS",
        "RRSUBDIV": "GLIDDEN SUB",
        "HIGHWAY": "CO 0438",
        "STREET": "CR 438",
        "TTSTN": "687215",
        "MILEPOST": "0139.270",
        "TYPEXING": "Public",
        "POSXING": "At Grade",
        "PRVCAT": "14",
        "INIT": "1",
        "LATITUDE": 29.6813064,
        "LONGITUD": -97.4251671,
        "LLSOURCE": "1",
        "WHISTBAN": "0",
        "RRCONT": "4025443721",
        "POLCONT": "8008488715",
        "INV_LINK": "https://safetydata.fra.dot.gov/OfficeofSafety/PublicSite/Crossing/Crossing.aspx?phasetype=C&rpttype=I&txtcrossingnum=742791N",
        "ACC_LINK": "https://safetydata.fra.dot.gov/OfficeofSafety/PublicSite/Crossing/Crossing.aspx?phasetype=C&rpttype=A&txtcrossingnum=742791N",
        "TTSTNNAM": "",
        "XPURPOSE": "1",
        "OPERATINGR": "UP",
        "OPERATIN_1": "Primary",
        "DAYTHRU": 14,
        "NGHTTHRU": 13,
        "MAINTRK": 1,
        "SIDINGTRK": 0,
        "YARDTRK": 0,
        "TRANSITTRK": 0,
        "INDUSTRYTR": 0,
        "OTHRTRK": 1,
        "WDCODE": "All other Gates",
        "REVISIONDA": "1975/01/01 00:00:00",
        "LASTUPDATE": "9/22/2025",
        "AADT": "39",
        "AADTYEAR": "2019",
        "STATENAME": "TEXAS",
        "STATEAB": "TX",
        "COUNTYNAME": "GONZALES",
        "CITYNAME": "HARWOOD",
        "LATDD": 29.6813064,
        "LONGDD": -97.4251671,
        "gridlyProductionCertified": true,
        "gridlyClassification": "PUBLIC_ROADWAY",
        "gridlyDisplayName": "CR 438",
        "gridlyId": "FRA-742791N"
      }
    },
    {
      "type": "Feature",
      "id": 213255,
      "geometry": {
        "type": "Point",
        "coordinates": [
          -97.3288508004447,
          29.7025842000306
        ]
      },
      "properties": {
        "OBJECTID": 213255,
        "CROSSING": "742796X",
        "EFFDATE": 1758499200000,
        "REASON": "14",
        "StateCode": "48",
        "CountyCode": "48177",
        "STCYFIPS": "48177",
        "CITYCD": "481777220",
        "RAILROAD": "UP",
        "RRDIV": "SOUTH TEXAS",
        "RRSUBDIV": "GLIDDEN SUB",
        "HIGHWAY": "PRIVATE",
        "STREET": "PRIVATE",
        "TTSTN": "687212",
        "MILEPOST": "0133.180",
        "TYPEXING": "Private",
        "POSXING": "At Grade",
        "PRVCAT": "14",
        "INIT": "1",
        "LATITUDE": 29.7025842,
        "LONGITUD": -97.3288508,
        "LLSOURCE": "1",
        "WHISTBAN": "0",
        "RRCONT": "4025443721",
        "POLCONT": "8008488715",
        "INV_LINK": "https://safetydata.fra.dot.gov/OfficeofSafety/PublicSite/Crossing/Crossing.aspx?phasetype=C&rpttype=I&txtcrossingnum=742796X",
        "ACC_LINK": "https://safetydata.fra.dot.gov/OfficeofSafety/PublicSite/Crossing/Crossing.aspx?phasetype=C&rpttype=A&txtcrossingnum=742796X",
        "TTSTNNAM": "",
        "XPURPOSE": "1",
        "OPERATINGR": "UP",
        "OPERATIN_1": "Primary",
        "DAYTHRU": 14,
        "NGHTTHRU": 13,
        "MAINTRK": 1,
        "SIDINGTRK": 0,
        "YARDTRK": 0,
        "TRANSITTRK": 0,
        "INDUSTRYTR": 0,
        "OTHRTRK": 0,
        "WDCODE": "",
        "REVISIONDA": "1975/01/01 00:00:00",
        "LASTUPDATE": "9/22/2025",
        "AADT": "1",
        "AADTYEAR": "1970",
        "STATENAME": "TEXAS",
        "STATEAB": "TX",
        "COUNTYNAME": "GONZALES",
        "CITYNAME": "WAELDER",
        "LATDD": 29.7025842,
        "LONGDD": -97.3288508,
        "gridlyProductionCertified": true,
        "gridlyClassification": "PUBLIC_ROADWAY",
        "gridlyDisplayName": "PRIVATE",
        "gridlyId": "FRA-742796X"
      }
    },
    {
      "type": "Feature",
      "id": 213256,
      "geometry": {
        "type": "Point",
        "coordinates": [
          -97.2967289997203,
          29.6920139999957
        ]
      },
      "properties": {
        "OBJECTID": 213256,
        "CROSSING": "742802Y",
        "EFFDATE": 1758499200000,
        "REASON": "14",
        "StateCode": "48",
        "CountyCode": "48177",
        "STCYFIPS": "48177",
        "CITYCD": "481777220",
        "RAILROAD": "UP",
        "RRDIV": "SOUTH TEXAS",
        "RRSUBDIV": "GLIDDEN SUB",
        "HIGHWAY": "NA",
        "STREET": "South Avenue F",
        "TTSTN": "687212",
        "MILEPOST": "0131.100",
        "TYPEXING": "Public",
        "POSXING": "At Grade",
        "PRVCAT": "14",
        "INIT": "1",
        "LATITUDE": 29.692014,
        "LONGITUD": -97.296729,
        "LLSOURCE": "1",
        "WHISTBAN": "1",
        "RRCONT": "4025443721",
        "POLCONT": "8008488715",
        "INV_LINK": "https://safetydata.fra.dot.gov/OfficeofSafety/PublicSite/Crossing/Crossing.aspx?phasetype=C&rpttype=I&txtcrossingnum=742802Y",
        "ACC_LINK": "https://safetydata.fra.dot.gov/OfficeofSafety/PublicSite/Crossing/Crossing.aspx?phasetype=C&rpttype=A&txtcrossingnum=742802Y",
        "TTSTNNAM": "",
        "XPURPOSE": "1",
        "OPERATINGR": "UP",
        "OPERATIN_1": "Primary",
        "DAYTHRU": 14,
        "NGHTTHRU": 13,
        "MAINTRK": 1,
        "SIDINGTRK": 1,
        "YARDTRK": 0,
        "TRANSITTRK": 0,
        "INDUSTRYTR": 0,
        "OTHRTRK": 1,
        "WDCODE": "All other Gates",
        "REVISIONDA": "1975/01/01 00:00:00",
        "LASTUPDATE": "9/22/2025",
        "AADT": "584",
        "AADTYEAR": "2019",
        "STATENAME": "TEXAS",
        "STATEAB": "TX",
        "COUNTYNAME": "GONZALES",
        "CITYNAME": "WAELDER",
        "LATDD": 29.692014,
        "LONGDD": -97.296729,
        "gridlyProductionCertified": true,
        "gridlyClassification": "PUBLIC_ROADWAY",
        "gridlyDisplayName": "South Avenue F",
        "gridlyId": "FRA-742802Y"
      }
    },
    {
      "type": "Feature",
      "id": 213257,
      "geometry": {
        "type": "Point",
        "coordinates": [
          -97.280299600098,
          29.6865805003057
        ]
      },
      "properties": {
        "OBJECTID": 213257,
        "CROSSING": "742803F",
        "EFFDATE": 1758499200000,
        "REASON": "14",
        "StateCode": "48",
        "CountyCode": "48177",
        "STCYFIPS": "48177",
        "CITYCD": "481777220",
        "RAILROAD": "UP",
        "RRDIV": "SOUTH TEXAS",
        "RRSUBDIV": "GLIDDEN SUB",
        "HIGHWAY": "PRIVATE",
        "STREET": "PRIVATE",
        "TTSTN": "687212",
        "MILEPOST": "0130.050",
        "TYPEXING": "Private",
        "POSXING": "At Grade",
        "PRVCAT": "14",
        "INIT": "1",
        "LATITUDE": 29.6865805,
        "LONGITUD": -97.2802996,
        "LLSOURCE": "1",
        "WHISTBAN": "0",
        "RRCONT": "4025443721",
        "POLCONT": "8008488715",
        "INV_LINK": "https://safetydata.fra.dot.gov/OfficeofSafety/PublicSite/Crossing/Crossing.aspx?phasetype=C&rpttype=I&txtcrossingnum=742803F",
        "ACC_LINK": "https://safetydata.fra.dot.gov/OfficeofSafety/PublicSite/Crossing/Crossing.aspx?phasetype=C&rpttype=A&txtcrossingnum=742803F",
        "TTSTNNAM": "",
        "XPURPOSE": "1",
        "OPERATINGR": "UP",
        "OPERATIN_1": "Primary",
        "DAYTHRU": 14,
        "NGHTTHRU": 13,
        "MAINTRK": 1,
        "SIDINGTRK": 1,
        "YARDTRK": 0,
        "TRANSITTRK": 0,
        "INDUSTRYTR": 0,
        "OTHRTRK": 0,
        "WDCODE": "",
        "REVISIONDA": "1975/01/01 00:00:00",
        "LASTUPDATE": "9/22/2025",
        "AADT": "1",
        "AADTYEAR": "1970",
        "STATENAME": "TEXAS",
        "STATEAB": "TX",
        "COUNTYNAME": "GONZALES",
        "CITYNAME": "WAELDER",
        "LATDD": 29.6865805,
        "LONGDD": -97.2802996,
        "gridlyProductionCertified": true,
        "gridlyClassification": "PUBLIC_ROADWAY",
        "gridlyDisplayName": "PRIVATE",
        "gridlyId": "FRA-742803F"
      }
    },
    {
      "type": "Feature",
      "id": 213258,
      "geometry": {
        "type": "Point",
        "coordinates": [
          -97.2623818995607,
          29.6807389997884
        ]
      },
      "properties": {
        "OBJECTID": 213258,
        "CROSSING": "742805U",
        "EFFDATE": 1758499200000,
        "REASON": "14",
        "StateCode": "48",
        "CountyCode": "48177",
        "STCYFIPS": "48177",
        "CITYCD": "481777220",
        "RAILROAD": "UP",
        "RRDIV": "SOUTH TEXAS",
        "RRSUBDIV": "GLIDDEN SUB",
        "HIGHWAY": "PRIVATE",
        "STREET": "PRIVATE",
        "TTSTN": "687212",
        "MILEPOST": "0128.890",
        "TYPEXING": "Private",
        "POSXING": "At Grade",
        "PRVCAT": "14",
        "INIT": "1",
        "LATITUDE": 29.680739,
        "LONGITUD": -97.2623819,
        "LLSOURCE": "1",
        "WHISTBAN": "0",
        "RRCONT": "4025443721",
        "POLCONT": "8008488715",
        "INV_LINK": "https://safetydata.fra.dot.gov/OfficeofSafety/PublicSite/Crossing/Crossing.aspx?phasetype=C&rpttype=I&txtcrossingnum=742805U",
        "ACC_LINK": "https://safetydata.fra.dot.gov/OfficeofSafety/PublicSite/Crossing/Crossing.aspx?phasetype=C&rpttype=A&txtcrossingnum=742805U",
        "TTSTNNAM": "",
        "XPURPOSE": "1",
        "OPERATINGR": "UP",
        "OPERATIN_1": "Primary",
        "DAYTHRU": 14,
        "NGHTTHRU": 13,
        "MAINTRK": 1,
        "SIDINGTRK": 0,
        "YARDTRK": 0,
        "TRANSITTRK": 0,
        "INDUSTRYTR": 0,
        "OTHRTRK": 0,
        "WDCODE": "",
        "REVISIONDA": "1975/01/01 00:00:00",
        "LASTUPDATE": "9/22/2025",
        "AADT": "20",
        "AADTYEAR": "1988",
        "STATENAME": "TEXAS",
        "STATEAB": "TX",
        "COUNTYNAME": "GONZALES",
        "CITYNAME": "WAELDER",
        "LATDD": 29.680739,
        "LONGDD": -97.2623819,
        "gridlyProductionCertified": true,
        "gridlyClassification": "PUBLIC_ROADWAY",
        "gridlyDisplayName": "PRIVATE",
        "gridlyId": "FRA-742805U"
      }
    },
    {
      "type": "Feature",
      "id": 213259,
      "geometry": {
        "type": "Point",
        "coordinates": [
          -97.2561170999732,
          29.6791154999685
        ]
      },
      "properties": {
        "OBJECTID": 213259,
        "CROSSING": "742806B",
        "EFFDATE": 1758499200000,
        "REASON": "14",
        "StateCode": "48",
        "CountyCode": "48177",
        "STCYFIPS": "48177",
        "CITYCD": "481777220",
        "RAILROAD": "UP",
        "RRDIV": "SOUTH TEXAS",
        "RRSUBDIV": "GLIDDEN SUB",
        "HIGHWAY": "FM 1680",
        "STREET": "FM 1680",
        "TTSTN": "687212",
        "MILEPOST": "0128.500",
        "TYPEXING": "Public",
        "POSXING": "At Grade",
        "PRVCAT": "14",
        "INIT": "1",
        "LATITUDE": 29.6791155,
        "LONGITUD": -97.2561171,
        "LLSOURCE": "1",
        "WHISTBAN": "0",
        "RRCONT": "4025443721",
        "POLCONT": "8008488715",
        "INV_LINK": "https://safetydata.fra.dot.gov/OfficeofSafety/PublicSite/Crossing/Crossing.aspx?phasetype=C&rpttype=I&txtcrossingnum=742806B",
        "ACC_LINK": "https://safetydata.fra.dot.gov/OfficeofSafety/PublicSite/Crossing/Crossing.aspx?phasetype=C&rpttype=A&txtcrossingnum=742806B",
        "TTSTNNAM": "",
        "XPURPOSE": "1",
        "OPERATINGR": "UP",
        "OPERATIN_1": "Primary",
        "DAYTHRU": 14,
        "NGHTTHRU": 13,
        "MAINTRK": 1,
        "SIDINGTRK": 0,
        "YARDTRK": 0,
        "TRANSITTRK": 0,
        "INDUSTRYTR": 0,
        "OTHRTRK": 0,
        "WDCODE": "All other Gates",
        "REVISIONDA": "1975/01/01 00:00:00",
        "LASTUPDATE": "9/22/2025",
        "AADT": "453",
        "AADTYEAR": "2019",
        "STATENAME": "TEXAS",
        "STATEAB": "TX",
        "COUNTYNAME": "GONZALES",
        "CITYNAME": "WAELDER",
        "LATDD": 29.6791155,
        "LONGDD": -97.2561171,
        "gridlyProductionCertified": true,
        "gridlyClassification": "PUBLIC_ROADWAY",
        "gridlyDisplayName": "FM 1680",
        "gridlyId": "FRA-742806B"
      }
    },
    {
      "type": "Feature",
      "id": 213260,
      "geometry": {
        "type": "Point",
        "coordinates": [
          -97.2198531001001,
          29.679260700313
        ]
      },
      "properties": {
        "OBJECTID": 213260,
        "CROSSING": "742807H",
        "EFFDATE": 1758499200000,
        "REASON": "14",
        "StateCode": "48",
        "CountyCode": "48177",
        "STCYFIPS": "48177",
        "CITYCD": "481777220",
        "RAILROAD": "UP",
        "RRDIV": "SOUTH TEXAS",
        "RRSUBDIV": "GLIDDEN SUB",
        "HIGHWAY": "PRIVATE",
        "STREET": "PRIVATE",
        "TTSTN": "687212",
        "MILEPOST": "0126.310",
        "TYPEXING": "Private",
        "POSXING": "At Grade",
        "PRVCAT": "14",
        "INIT": "1",
        "LATITUDE": 29.6792607,
        "LONGITUD": -97.2198531,
        "LLSOURCE": "1",
        "WHISTBAN": "0",
        "RRCONT": "4025443721",
        "POLCONT": "8008488715",
        "INV_LINK": "https://safetydata.fra.dot.gov/OfficeofSafety/PublicSite/Crossing/Crossing.aspx?phasetype=C&rpttype=I&txtcrossingnum=742807H",
        "ACC_LINK": "https://safetydata.fra.dot.gov/OfficeofSafety/PublicSite/Crossing/Crossing.aspx?phasetype=C&rpttype=A&txtcrossingnum=742807H",
        "TTSTNNAM": "",
        "XPURPOSE": "1",
        "OPERATINGR": "UP",
        "OPERATIN_1": "Primary",
        "DAYTHRU": 14,
        "NGHTTHRU": 13,
        "MAINTRK": 1,
        "SIDINGTRK": 0,
        "YARDTRK": 0,
        "TRANSITTRK": 0,
        "INDUSTRYTR": 0,
        "OTHRTRK": 0,
        "WDCODE": "",
        "REVISIONDA": "1975/01/01 00:00:00",
        "LASTUPDATE": "9/22/2025",
        "AADT": "1",
        "AADTYEAR": "1970",
        "STATENAME": "TEXAS",
        "STATEAB": "TX",
        "COUNTYNAME": "GONZALES",
        "CITYNAME": "WAELDER",
        "LATDD": 29.6792607,
        "LONGDD": -97.2198531,
        "gridlyProductionCertified": true,
        "gridlyClassification": "PUBLIC_ROADWAY",
        "gridlyDisplayName": "PRIVATE",
        "gridlyId": "FRA-742807H"
      }
    },
    {
      "type": "Feature",
      "id": 213374,
      "geometry": {
        "type": "Point",
        "coordinates": [
          -97.4173636002229,
          29.684588300372
        ]
      },
      "properties": {
        "OBJECTID": 213374,
        "CROSSING": "742792V",
        "EFFDATE": 1758499200000,
        "REASON": "14",
        "StateCode": "48",
        "CountyCode": "48177",
        "STCYFIPS": "48177",
        "CITYCD": "481773040",
        "RAILROAD": "UP",
        "RRDIV": "SOUTH TEXAS",
        "RRSUBDIV": "GLIDDEN SUB",
        "HIGHWAY": "SH 0304",
        "STREET": "TX 304",
        "TTSTN": "687215",
        "MILEPOST": "0138.740",
        "TYPEXING": "Public",
        "POSXING": "At Grade",
        "PRVCAT": "14",
        "INIT": "1",
        "LATITUDE": 29.6845883,
        "LONGITUD": -97.4173636,
        "LLSOURCE": "1",
        "WHISTBAN": "0",
        "RRCONT": "4025443721",
        "POLCONT": "8008488715",
        "INV_LINK": "https://safetydata.fra.dot.gov/OfficeofSafety/PublicSite/Crossing/Crossing.aspx?phasetype=C&rpttype=I&txtcrossingnum=742792V",
        "ACC_LINK": "https://safetydata.fra.dot.gov/OfficeofSafety/PublicSite/Crossing/Crossing.aspx?phasetype=C&rpttype=A&txtcrossingnum=742792V",
        "TTSTNNAM": "",
        "XPURPOSE": "1",
        "OPERATINGR": "UP",
        "OPERATIN_1": "Primary",
        "DAYTHRU": 14,
        "NGHTTHRU": 13,
        "MAINTRK": 1,
        "SIDINGTRK": 0,
        "YARDTRK": 0,
        "TRANSITTRK": 0,
        "INDUSTRYTR": 0,
        "OTHRTRK": 0,
        "WDCODE": "All other Gates",
        "REVISIONDA": "1975/01/01 00:00:00",
        "LASTUPDATE": "9/22/2025",
        "AADT": "1862",
        "AADTYEAR": "2019",
        "STATENAME": "TEXAS",
        "STATEAB": "TX",
        "COUNTYNAME": "GONZALES",
        "CITYNAME": "HARWOOD",
        "LATDD": 29.6845883,
        "LONGDD": -97.4173636,
        "gridlyProductionCertified": true,
        "gridlyClassification": "PUBLIC_ROADWAY",
        "gridlyDisplayName": "TX 304",
        "gridlyId": "FRA-742792V"
      }
    },
    {
      "type": "Feature",
      "id": 213718,
      "geometry": {
        "type": "Point",
        "coordinates": [
          -97.3774641004287,
          29.6948401997834
        ]
      },
      "properties": {
        "OBJECTID": 213718,
        "CROSSING": "742794J",
        "EFFDATE": 1758499200000,
        "REASON": "14",
        "StateCode": "48",
        "CountyCode": "48177",
        "STCYFIPS": "48177",
        "CITYCD": "481773040",
        "RAILROAD": "UP",
        "RRDIV": "SOUTH TEXAS",
        "RRSUBDIV": "GLIDDEN SUB",
        "HIGHWAY": "CO 0423",
        "STREET": "CR 423",
        "TTSTN": "687215",
        "MILEPOST": "0136.220",
        "TYPEXING": "Public",
        "POSXING": "At Grade",
        "PRVCAT": "14",
        "INIT": "1",
        "LATITUDE": 29.6948402,
        "LONGITUD": -97.3774641,
        "LLSOURCE": "1",
        "WHISTBAN": "0",
        "RRCONT": "4025443721",
        "POLCONT": "8008488715",
        "INV_LINK": "https://safetydata.fra.dot.gov/OfficeofSafety/PublicSite/Crossing/Crossing.aspx?phasetype=C&rpttype=I&txtcrossingnum=742794J",
        "ACC_LINK": "https://safetydata.fra.dot.gov/OfficeofSafety/PublicSite/Crossing/Crossing.aspx?phasetype=C&rpttype=A&txtcrossingnum=742794J",
        "TTSTNNAM": "",
        "XPURPOSE": "1",
        "OPERATINGR": "UP",
        "OPERATIN_1": "Primary",
        "DAYTHRU": 14,
        "NGHTTHRU": 13,
        "MAINTRK": 1,
        "SIDINGTRK": 0,
        "YARDTRK": 0,
        "TRANSITTRK": 0,
        "INDUSTRYTR": 0,
        "OTHRTRK": 0,
        "WDCODE": "All other Gates",
        "REVISIONDA": "1975/01/01 00:00:00",
        "LASTUPDATE": "9/22/2025",
        "AADT": "83",
        "AADTYEAR": "2019",
        "STATENAME": "TEXAS",
        "STATEAB": "TX",
        "COUNTYNAME": "GONZALES",
        "CITYNAME": "HARWOOD",
        "LATDD": 29.6948402,
        "LONGDD": -97.3774641,
        "gridlyProductionCertified": true,
        "gridlyClassification": "PUBLIC_ROADWAY",
        "gridlyDisplayName": "CR 423",
        "gridlyId": "FRA-742794J"
      }
    },
    {
      "type": "Feature",
      "id": 213737,
      "geometry": {
        "type": "Point",
        "coordinates": [
          -97.1912029995896,
          29.6793533002221
        ]
      },
      "properties": {
        "OBJECTID": 213737,
        "CROSSING": "742808P",
        "EFFDATE": 1758499200000,
        "REASON": "14",
        "StateCode": "48",
        "CountyCode": "48177",
        "STCYFIPS": "48177",
        "CITYCD": "481777220",
        "RAILROAD": "UP",
        "RRDIV": "SOUTH TEXAS",
        "RRSUBDIV": "GLIDDEN SUB",
        "HIGHWAY": "CO 0403",
        "STREET": "CAL MAINE ROAD",
        "TTSTN": "687212",
        "MILEPOST": "0124.586",
        "TYPEXING": "Public",
        "POSXING": "At Grade",
        "PRVCAT": "14",
        "INIT": "1",
        "LATITUDE": 29.6793533,
        "LONGITUD": -97.191203,
        "LLSOURCE": "1",
        "WHISTBAN": "0",
        "RRCONT": "4025443721",
        "POLCONT": "8008488715",
        "INV_LINK": "https://safetydata.fra.dot.gov/OfficeofSafety/PublicSite/Crossing/Crossing.aspx?phasetype=C&rpttype=I&txtcrossingnum=742808P",
        "ACC_LINK": "https://safetydata.fra.dot.gov/OfficeofSafety/PublicSite/Crossing/Crossing.aspx?phasetype=C&rpttype=A&txtcrossingnum=742808P",
        "TTSTNNAM": "",
        "XPURPOSE": "1",
        "OPERATINGR": "UP",
        "OPERATIN_1": "Primary",
        "DAYTHRU": 14,
        "NGHTTHRU": 13,
        "MAINTRK": 1,
        "SIDINGTRK": 0,
        "YARDTRK": 0,
        "TRANSITTRK": 0,
        "INDUSTRYTR": 0,
        "OTHRTRK": 1,
        "WDCODE": "All other Gates",
        "REVISIONDA": "1975/01/01 00:00:00",
        "LASTUPDATE": "9/22/2025",
        "AADT": "44",
        "AADTYEAR": "2019",
        "STATENAME": "TEXAS",
        "STATEAB": "TX",
        "COUNTYNAME": "GONZALES",
        "CITYNAME": "WAELDER",
        "LATDD": 29.6793533,
        "LONGDD": -97.191203,
        "gridlyProductionCertified": true,
        "gridlyClassification": "PUBLIC_ROADWAY",
        "gridlyDisplayName": "CAL MAINE ROAD",
        "gridlyId": "FRA-742808P"
      }
    },
    {
      "type": "Feature",
      "id": 216557,
      "geometry": {
        "type": "Point",
        "coordinates": [
          -97.4954200002125,
          29.6656179999462
        ]
      },
      "properties": {
        "OBJECTID": 216557,
        "CROSSING": "927980A",
        "EFFDATE": 1777248000000,
        "REASON": "14",
        "StateCode": "48",
        "CountyCode": "48177",
        "STCYFIPS": "48177",
        "CITYCD": "481773040",
        "RAILROAD": "TXGN",
        "RRDIV": "SAN ANTONIO",
        "RRSUBDIV": "EAGLE FORD LPH",
        "HIGHWAY": "CR0283",
        "STREET": "COUNTY ROAD 283",
        "TTSTN": "687218",
        "MILEPOST": "0000.09",
        "TYPEXING": "Public",
        "POSXING": "At Grade",
        "PRVCAT": "14",
        "INIT": "2",
        "LATITUDE": 29.665618,
        "LONGITUD": -97.49542,
        "LLSOURCE": "1",
        "WHISTBAN": "0",
        "RRCONT": "8778139838",
        "POLCONT": "8778139838",
        "INV_LINK": "https://safetydata.fra.dot.gov/OfficeofSafety/PublicSite/Crossing/Crossing.aspx?phasetype=C&rpttype=I&txtcrossingnum=927980A",
        "ACC_LINK": "https://safetydata.fra.dot.gov/OfficeofSafety/PublicSite/Crossing/Crossing.aspx?phasetype=C&rpttype=A&txtcrossingnum=927980A",
        "TTSTNNAM": "HARWOOD",
        "XPURPOSE": "1",
        "OPERATINGR": "TXGN",
        "OPERATIN_1": "Primary",
        "DAYTHRU": 2,
        "NGHTTHRU": 0,
        "MAINTRK": 0,
        "SIDINGTRK": 0,
        "YARDTRK": 1,
        "TRANSITTRK": 0,
        "INDUSTRYTR": 0,
        "OTHRTRK": 0,
        "WDCODE": "Crossbucks",
        "REVISIONDA": "1992/01/01 00:00:00",
        "LASTUPDATE": "4/27/2026",
        "AADT": "53",
        "AADTYEAR": "2019",
        "STATENAME": "TEXAS",
        "STATEAB": "TX",
        "COUNTYNAME": "GONZALES",
        "CITYNAME": "HARWOOD",
        "LATDD": 29.665618,
        "LONGDD": -97.49542,
        "gridlyProductionCertified": true,
        "gridlyClassification": "PUBLIC_ROADWAY",
        "gridlyDisplayName": "COUNTY ROAD 283",
        "gridlyId": "FRA-927980A"
      }
    }
  ]
}
