{
  "type": "FeatureCollection",
  "features": [
    {
      "type": "Feature",
      "id": 208567,
      "geometry": {
        "type": "Point",
        "coordinates": [
          -97.1873442000484,
          28.7047911999967
        ]
      },
      "properties": {
        "OBJECTID": 208567,
        "CROSSING": "746717X",
        "EFFDATE": 1775779200000,
        "REASON": "14",
        "StateCode": "48",
        "CountyCode": "48175",
        "STCYFIPS": "48175",
        "CITYCD": "481752305",
        "RAILROAD": "UP",
        "RRDIV": "GULF COAST",
        "RRSUBDIV": "COLETO CREEK SUB",
        "HIGHWAY": "CR0217",
        "STREET": "COLOGNE ROAD",
        "TTSTN": "688337",
        "MILEPOST": "0013.570",
        "TYPEXING": "Public",
        "POSXING": "At Grade",
        "PRVCAT": "14",
        "INIT": "2",
        "LATITUDE": 28.7047912,
        "LONGITUD": -97.1873442,
        "LLSOURCE": "1",
        "WHISTBAN": "0",
        "RRCONT": "4025443721",
        "POLCONT": "8008488715",
        "INV_LINK": "https://safetydata.fra.dot.gov/OfficeofSafety/PublicSite/Crossing/Crossing.aspx?phasetype=C&rpttype=I&txtcrossingnum=746717X",
        "ACC_LINK": "https://safetydata.fra.dot.gov/OfficeofSafety/PublicSite/Crossing/Crossing.aspx?phasetype=C&rpttype=A&txtcrossingnum=746717X",
        "TTSTNNAM": "",
        "XPURPOSE": "1",
        "OPERATINGR": "UP",
        "OPERATIN_1": "Primary",
        "DAYTHRU": 0,
        "NGHTTHRU": 0,
        "MAINTRK": 1,
        "SIDINGTRK": 0,
        "YARDTRK": 0,
        "TRANSITTRK": 0,
        "INDUSTRYTR": 0,
        "OTHRTRK": 0,
        "WDCODE": "All other Gates",
        "REVISIONDA": "1975/01/01 00:00:00",
        "LASTUPDATE": "4/10/2026",
        "AADT": "441",
        "AADTYEAR": "2024",
        "STATENAME": "TEXAS",
        "STATEAB": "TX",
        "COUNTYNAME": "GOLIAD",
        "CITYNAME": "FANNIN",
        "LATDD": 28.7047912,
        "LONGDD": -97.1873442,
        "gridlyProductionCertified": true,
        "gridlyClassification": "PUBLIC_ROADWAY",
        "gridlyDisplayName": "COLOGNE ROAD",
        "gridlyId": "FRA-746717X"
      }
    },
    {
      "type": "Feature",
      "id": 209471,
      "geometry": {
        "type": "Point",
        "coordinates": [
          -97.1956358001395,
          28.703217200368
        ]
      },
      "properties": {
        "OBJECTID": 209471,
        "CROSSING": "746719L",
        "EFFDATE": 1756166400000,
        "REASON": "14",
        "StateCode": "48",
        "CountyCode": "48175",
        "STCYFIPS": "48175",
        "CITYCD": "481752305",
        "RAILROAD": "UP",
        "RRDIV": "GULF COAST",
        "RRSUBDIV": "COLETO CREEK SUB",
        "HIGHWAY": "PRIVATE",
        "STREET": "PRIVATE",
        "TTSTN": "688337",
        "MILEPOST": "0014.080",
        "TYPEXING": "Private",
        "POSXING": "At Grade",
        "PRVCAT": "14",
        "INIT": "1",
        "LATITUDE": 28.7032172,
        "LONGITUD": -97.1956358,
        "LLSOURCE": "1",
        "WHISTBAN": "0",
        "RRCONT": "4025443721",
        "POLCONT": "8008488715",
        "INV_LINK": "https://safetydata.fra.dot.gov/OfficeofSafety/PublicSite/Crossing/Crossing.aspx?phasetype=C&rpttype=I&txtcrossingnum=746719L",
        "ACC_LINK": "https://safetydata.fra.dot.gov/OfficeofSafety/PublicSite/Crossing/Crossing.aspx?phasetype=C&rpttype=A&txtcrossingnum=746719L",
        "TTSTNNAM": "",
        "XPURPOSE": "1",
        "OPERATINGR": "UP",
        "OPERATIN_1": "Primary",
        "DAYTHRU": 0,
        "NGHTTHRU": 0,
        "MAINTRK": 1,
        "SIDINGTRK": 0,
        "YARDTRK": 0,
        "TRANSITTRK": 0,
        "INDUSTRYTR": 0,
        "OTHRTRK": 0,
        "WDCODE": "",
        "REVISIONDA": "1975/01/01 00:00:00",
        "LASTUPDATE": "8/26/2025",
        "AADT": "1",
        "AADTYEAR": "1970",
        "STATENAME": "TEXAS",
        "STATEAB": "TX",
        "COUNTYNAME": "GOLIAD",
        "CITYNAME": "FANNIN",
        "LATDD": 28.7032172,
        "LONGDD": -97.1956358,
        "gridlyProductionCertified": true,
        "gridlyClassification": "PUBLIC_ROADWAY",
        "gridlyDisplayName": "PRIVATE",
        "gridlyId": "FRA-746719L"
      }
    },
    {
      "type": "Feature",
      "id": 209487,
      "geometry": {
        "type": "Point",
        "coordinates": [
          -97.2060373002878,
          28.7012348996849
        ]
      },
      "properties": {
        "OBJECTID": 209487,
        "CROSSING": "746720F",
        "EFFDATE": 1756166400000,
        "REASON": "14",
        "StateCode": "48",
        "CountyCode": "48175",
        "STCYFIPS": "48175",
        "CITYCD": "481752305",
        "RAILROAD": "UP",
        "RRDIV": "GULF COAST",
        "RRSUBDIV": "COLETO CREEK SUB",
        "HIGHWAY": "PRIVATE",
        "STREET": "PRIVATE",
        "TTSTN": "688337",
        "MILEPOST": "0014.720",
        "TYPEXING": "Private",
        "POSXING": "At Grade",
        "PRVCAT": "14",
        "INIT": "1",
        "LATITUDE": 28.7012349,
        "LONGITUD": -97.2060373,
        "LLSOURCE": "1",
        "WHISTBAN": "0",
        "RRCONT": "4025443721",
        "POLCONT": "8008488715",
        "INV_LINK": "https://safetydata.fra.dot.gov/OfficeofSafety/PublicSite/Crossing/Crossing.aspx?phasetype=C&rpttype=I&txtcrossingnum=746720F",
        "ACC_LINK": "https://safetydata.fra.dot.gov/OfficeofSafety/PublicSite/Crossing/Crossing.aspx?phasetype=C&rpttype=A&txtcrossingnum=746720F",
        "TTSTNNAM": "",
        "XPURPOSE": "1",
        "OPERATINGR": "UP",
        "OPERATIN_1": "Primary",
        "DAYTHRU": 0,
        "NGHTTHRU": 0,
        "MAINTRK": 1,
        "SIDINGTRK": 0,
        "YARDTRK": 0,
        "TRANSITTRK": 0,
        "INDUSTRYTR": 0,
        "OTHRTRK": 0,
        "WDCODE": "",
        "REVISIONDA": "1975/01/01 00:00:00",
        "LASTUPDATE": "8/26/2025",
        "AADT": "1",
        "AADTYEAR": "1970",
        "STATENAME": "TEXAS",
        "STATEAB": "TX",
        "COUNTYNAME": "GOLIAD",
        "CITYNAME": "FANNIN",
        "LATDD": 28.7012349,
        "LONGDD": -97.2060373,
        "gridlyProductionCertified": true,
        "gridlyClassification": "PUBLIC_ROADWAY",
        "gridlyDisplayName": "PRIVATE",
        "gridlyId": "FRA-746720F"
      }
    },
    {
      "type": "Feature",
      "id": 209488,
      "geometry": {
        "type": "Point",
        "coordinates": [
          -97.2132294002004,
          28.6998671002399
        ]
      },
      "properties": {
        "OBJECTID": 209488,
        "CROSSING": "746721M",
        "EFFDATE": 1756166400000,
        "REASON": "14",
        "StateCode": "48",
        "CountyCode": "48175",
        "STCYFIPS": "48175",
        "CITYCD": "481752305",
        "RAILROAD": "UP",
        "RRDIV": "GULF COAST",
        "RRSUBDIV": "COLETO CREEK SUB",
        "HIGHWAY": "PRIVATE",
        "STREET": "PRIVATE",
        "TTSTN": "688337",
        "MILEPOST": "0015.180",
        "TYPEXING": "Private",
        "POSXING": "At Grade",
        "PRVCAT": "14",
        "INIT": "1",
        "LATITUDE": 28.6998671,
        "LONGITUD": -97.2132294,
        "LLSOURCE": "1",
        "WHISTBAN": "0",
        "RRCONT": "4025443721",
        "POLCONT": "8008488715",
        "INV_LINK": "https://safetydata.fra.dot.gov/OfficeofSafety/PublicSite/Crossing/Crossing.aspx?phasetype=C&rpttype=I&txtcrossingnum=746721M",
        "ACC_LINK": "https://safetydata.fra.dot.gov/OfficeofSafety/PublicSite/Crossing/Crossing.aspx?phasetype=C&rpttype=A&txtcrossingnum=746721M",
        "TTSTNNAM": "",
        "XPURPOSE": "1",
        "OPERATINGR": "UP",
        "OPERATIN_1": "Primary",
        "DAYTHRU": 0,
        "NGHTTHRU": 0,
        "MAINTRK": 1,
        "SIDINGTRK": 0,
        "YARDTRK": 0,
        "TRANSITTRK": 0,
        "INDUSTRYTR": 0,
        "OTHRTRK": 0,
        "WDCODE": "",
        "REVISIONDA": "1975/01/01 00:00:00",
        "LASTUPDATE": "8/26/2025",
        "AADT": "1",
        "AADTYEAR": "1970",
        "STATENAME": "TEXAS",
        "STATEAB": "TX",
        "COUNTYNAME": "GOLIAD",
        "CITYNAME": "FANNIN",
        "LATDD": 28.6998671,
        "LONGDD": -97.2132294,
        "gridlyProductionCertified": true,
        "gridlyClassification": "PUBLIC_ROADWAY",
        "gridlyDisplayName": "PRIVATE",
        "gridlyId": "FRA-746721M"
      }
    },
    {
      "type": "Feature",
      "id": 213410,
      "geometry": {
        "type": "Point",
        "coordinates": [
          -97.2257390001822,
          28.6987860001755
        ]
      },
      "properties": {
        "OBJECTID": 213410,
        "CROSSING": "746725P",
        "EFFDATE": 1758499200000,
        "REASON": "14",
        "StateCode": "48",
        "CountyCode": "48175",
        "STCYFIPS": "48175",
        "CITYCD": "481752305",
        "RAILROAD": "UP",
        "RRDIV": "GULF COAST",
        "RRSUBDIV": "COLETO CREEK SUB",
        "HIGHWAY": "US 0059",
        "STREET": "US 59",
        "TTSTN": "688337",
        "MILEPOST": "0015.840",
        "TYPEXING": "Public",
        "POSXING": "RR Under",
        "PRVCAT": "14",
        "INIT": "1",
        "LATITUDE": 28.698786,
        "LONGITUD": -97.225739,
        "LLSOURCE": "1",
        "WHISTBAN": "0",
        "RRCONT": "4025443721",
        "POLCONT": "8008488715",
        "INV_LINK": "https://safetydata.fra.dot.gov/OfficeofSafety/PublicSite/Crossing/Crossing.aspx?phasetype=C&rpttype=I&txtcrossingnum=746725P",
        "ACC_LINK": "https://safetydata.fra.dot.gov/OfficeofSafety/PublicSite/Crossing/Crossing.aspx?phasetype=C&rpttype=A&txtcrossingnum=746725P",
        "TTSTNNAM": "",
        "XPURPOSE": "1",
        "OPERATINGR": "UP",
        "OPERATIN_1": "Primary",
        "DAYTHRU": 0,
        "NGHTTHRU": 0,
        "MAINTRK": 0,
        "SIDINGTRK": 0,
        "YARDTRK": 0,
        "TRANSITTRK": 0,
        "INDUSTRYTR": 1,
        "OTHRTRK": 0,
        "WDCODE": "",
        "REVISIONDA": "1975/01/01 00:00:00",
        "LASTUPDATE": "9/22/2025",
        "AADT": "7600",
        "AADTYEAR": "2013",
        "STATENAME": "TEXAS",
        "STATEAB": "TX",
        "COUNTYNAME": "GOLIAD",
        "CITYNAME": "FANNIN",
        "LATDD": 28.698786,
        "LONGDD": -97.225739,
        "gridlyProductionCertified": true,
        "gridlyClassification": "PUBLIC_ROADWAY",
        "gridlyDisplayName": "US 59",
        "gridlyId": "FRA-746725P"
      }
    },
    {
      "type": "Feature",
      "id": 215028,
      "geometry": {
        "type": "Point",
        "coordinates": [
          -97.1789994996426,
          28.7065055003143
        ]
      },
      "properties": {
        "OBJECTID": 215028,
        "CROSSING": "746716R",
        "EFFDATE": 1775174400000,
        "REASON": "14",
        "StateCode": "48",
        "CountyCode": "48175",
        "STCYFIPS": "48175",
        "CITYCD": "481752305",
        "RAILROAD": "UP",
        "RRDIV": "GULF COAST",
        "RRSUBDIV": "COLETO CREEK SUB",
        "HIGHWAY": "CR0064",
        "STREET": "CHURCH STREET",
        "TTSTN": "688337",
        "MILEPOST": "0013.060",
        "TYPEXING": "Public",
        "POSXING": "At Grade",
        "PRVCAT": "14",
        "INIT": "2",
        "LATITUDE": 28.7065055,
        "LONGITUD": -97.1789995,
        "LLSOURCE": "1",
        "WHISTBAN": "0",
        "RRCONT": "4025443721",
        "POLCONT": "8008488715",
        "INV_LINK": "https://safetydata.fra.dot.gov/OfficeofSafety/PublicSite/Crossing/Crossing.aspx?phasetype=C&rpttype=I&txtcrossingnum=746716R",
        "ACC_LINK": "https://safetydata.fra.dot.gov/OfficeofSafety/PublicSite/Crossing/Crossing.aspx?phasetype=C&rpttype=A&txtcrossingnum=746716R",
        "TTSTNNAM": "",
        "XPURPOSE": "1",
        "OPERATINGR": "UP",
        "OPERATIN_1": "Primary",
        "DAYTHRU": 0,
        "NGHTTHRU": 0,
        "MAINTRK": 1,
        "SIDINGTRK": 0,
        "YARDTRK": 0,
        "TRANSITTRK": 0,
        "INDUSTRYTR": 0,
        "OTHRTRK": 0,
        "WDCODE": "Crossbucks",
        "REVISIONDA": "1975/01/01 00:00:00",
        "LASTUPDATE": "4/3/2026",
        "AADT": "37",
        "AADTYEAR": "2019",
        "STATENAME": "TEXAS",
        "STATEAB": "TX",
        "COUNTYNAME": "GOLIAD",
        "CITYNAME": "FANNIN",
        "LATDD": 28.7065055,
        "LONGDD": -97.1789995,
        "gridlyProductionCertified": true,
        "gridlyClassification": "PUBLIC_ROADWAY",
        "gridlyDisplayName": "CHURCH STREET",
        "gridlyId": "FRA-746716R"
      }
    },
    {
      "type": "Feature",
      "id": 216365,
      "geometry": {
        "type": "Point",
        "coordinates": [
          -97.2363729995974,
          28.6954639996886
        ]
      },
      "properties": {
        "OBJECTID": 216365,
        "CROSSING": "746722U",
        "EFFDATE": 1775779200000,
        "REASON": "14",
        "StateCode": "48",
        "CountyCode": "48175",
        "STCYFIPS": "48175",
        "CITYCD": "481752305",
        "RAILROAD": "UP",
        "RRDIV": "GULF COAST",
        "RRSUBDIV": "COLETO CREEK SUB",
        "HIGHWAY": "FM2506",
        "STREET": "FM 2506",
        "TTSTN": "688337",
        "MILEPOST": "0016.760",
        "TYPEXING": "Public",
        "POSXING": "At Grade",
        "PRVCAT": "14",
        "INIT": "2",
        "LATITUDE": 28.695464,
        "LONGITUD": -97.236373,
        "LLSOURCE": "1",
        "WHISTBAN": "0",
        "RRCONT": "4025443721",
        "POLCONT": "5555555555",
        "INV_LINK": "https://safetydata.fra.dot.gov/OfficeofSafety/PublicSite/Crossing/Crossing.aspx?phasetype=C&rpttype=I&txtcrossingnum=746722U",
        "ACC_LINK": "https://safetydata.fra.dot.gov/OfficeofSafety/PublicSite/Crossing/Crossing.aspx?phasetype=C&rpttype=A&txtcrossingnum=746722U",
        "TTSTNNAM": "",
        "XPURPOSE": "1",
        "OPERATINGR": "UP",
        "OPERATIN_1": "Primary",
        "DAYTHRU": 0,
        "NGHTTHRU": 0,
        "MAINTRK": 0,
        "SIDINGTRK": 0,
        "YARDTRK": 0,
        "TRANSITTRK": 0,
        "INDUSTRYTR": 1,
        "OTHRTRK": 1,
        "WDCODE": "Flashing lights",
        "REVISIONDA": "1975/01/01 00:00:00",
        "LASTUPDATE": "4/10/2026",
        "AADT": "2024",
        "AADTYEAR": "",
        "STATENAME": "TEXAS",
        "STATEAB": "TX",
        "COUNTYNAME": "GOLIAD",
        "CITYNAME": "FANNIN",
        "LATDD": 28.695464,
        "LONGDD": -97.236373,
        "gridlyProductionCertified": true,
        "gridlyClassification": "PUBLIC_ROADWAY",
        "gridlyDisplayName": "FM 2506",
        "gridlyId": "FRA-746722U"
      }
    },
    {
      "type": "Feature",
      "id": 216404,
      "geometry": {
        "type": "Point",
        "coordinates": [
          -97.2376689999561,
          28.6952270002229
        ]
      },
      "properties": {
        "OBJECTID": 216404,
        "CROSSING": "746723B",
        "EFFDATE": 1775606400000,
        "REASON": "14",
        "StateCode": "48",
        "CountyCode": "48175",
        "STCYFIPS": "48175",
        "CITYCD": "481752305",
        "RAILROAD": "UP",
        "RRDIV": "GULF COAST",
        "RRSUBDIV": "COLETO CREEK SUB",
        "HIGHWAY": "CR0069",
        "STREET": "GOFF STREET",
        "TTSTN": "688275",
        "MILEPOST": "0016.850",
        "TYPEXING": "Public",
        "POSXING": "At Grade",
        "PRVCAT": "14",
        "INIT": "2",
        "LATITUDE": 28.695227,
        "LONGITUD": -97.237669,
        "LLSOURCE": "1",
        "WHISTBAN": "0",
        "RRCONT": "4025443721",
        "POLCONT": "5555555555",
        "INV_LINK": "https://safetydata.fra.dot.gov/OfficeofSafety/PublicSite/Crossing/Crossing.aspx?phasetype=C&rpttype=I&txtcrossingnum=746723B",
        "ACC_LINK": "https://safetydata.fra.dot.gov/OfficeofSafety/PublicSite/Crossing/Crossing.aspx?phasetype=C&rpttype=A&txtcrossingnum=746723B",
        "TTSTNNAM": "",
        "XPURPOSE": "1",
        "OPERATINGR": "UP",
        "OPERATIN_1": "Primary",
        "DAYTHRU": 0,
        "NGHTTHRU": 0,
        "MAINTRK": 0,
        "SIDINGTRK": 0,
        "YARDTRK": 0,
        "TRANSITTRK": 0,
        "INDUSTRYTR": 1,
        "OTHRTRK": 1,
        "WDCODE": "Crossbucks",
        "REVISIONDA": "1975/01/01 00:00:00",
        "LASTUPDATE": "4/8/2026",
        "AADT": "47",
        "AADTYEAR": "2019",
        "STATENAME": "TEXAS",
        "STATEAB": "TX",
        "COUNTYNAME": "GOLIAD",
        "CITYNAME": "FANNIN",
        "LATDD": 28.695227,
        "LONGDD": -97.237669,
        "gridlyProductionCertified": true,
        "gridlyClassification": "PUBLIC_ROADWAY",
        "gridlyDisplayName": "GOFF STREET",
        "gridlyId": "FRA-746723B"
      }
    },
    {
      "type": "Feature",
      "id": 216405,
      "geometry": {
        "type": "Point",
        "coordinates": [
          -97.2395200001586,
          28.6948719999994
        ]
      },
      "properties": {
        "OBJECTID": 216405,
        "CROSSING": "746724H",
        "EFFDATE": 1775606400000,
        "REASON": "14",
        "StateCode": "48",
        "CountyCode": "48175",
        "STCYFIPS": "48175",
        "CITYCD": "481752305",
        "RAILROAD": "UP",
        "RRDIV": "GULF COAST",
        "RRSUBDIV": "COLETO CREEK SUB",
        "HIGHWAY": "CR0075",
        "STREET": "COTTON STREET",
        "TTSTN": "688337",
        "MILEPOST": "0016.970",
        "TYPEXING": "Public",
        "POSXING": "At Grade",
        "PRVCAT": "14",
        "INIT": "2",
        "LATITUDE": 28.694872,
        "LONGITUD": -97.23952,
        "LLSOURCE": "1",
        "WHISTBAN": "0",
        "RRCONT": "4025443721",
        "POLCONT": "5555555555",
        "INV_LINK": "https://safetydata.fra.dot.gov/OfficeofSafety/PublicSite/Crossing/Crossing.aspx?phasetype=C&rpttype=I&txtcrossingnum=746724H",
        "ACC_LINK": "https://safetydata.fra.dot.gov/OfficeofSafety/PublicSite/Crossing/Crossing.aspx?phasetype=C&rpttype=A&txtcrossingnum=746724H",
        "TTSTNNAM": "",
        "XPURPOSE": "1",
        "OPERATINGR": "UP",
        "OPERATIN_1": "Primary",
        "DAYTHRU": 0,
        "NGHTTHRU": 0,
        "MAINTRK": 0,
        "SIDINGTRK": 0,
        "YARDTRK": 0,
        "TRANSITTRK": 0,
        "INDUSTRYTR": 1,
        "OTHRTRK": 1,
        "WDCODE": "Crossbucks",
        "REVISIONDA": "1975/01/01 00:00:00",
        "LASTUPDATE": "4/8/2026",
        "AADT": "54",
        "AADTYEAR": "2019",
        "STATENAME": "TEXAS",
        "STATEAB": "TX",
        "COUNTYNAME": "GOLIAD",
        "CITYNAME": "FANNIN",
        "LATDD": 28.694872,
        "LONGDD": -97.23952,
        "gridlyProductionCertified": true,
        "gridlyClassification": "PUBLIC_ROADWAY",
        "gridlyDisplayName": "COTTON STREET",
        "gridlyId": "FRA-746724H"
      }
    }
  ]
}
