{
  "type": "FeatureCollection",
  "features": [
    {
      "type": "Feature",
      "id": 200886,
      "geometry": {
        "type": "Point",
        "coordinates": [
          -94.3549029999216,
          32.7647689996597
        ]
      },
      "properties": {
        "OBJECTID": 200886,
        "CROSSING": "331452Y",
        "EFFDATE": 1772064000000,
        "REASON": "14",
        "StateCode": "48",
        "CountyCode": "48315",
        "STCYFIPS": "48315",
        "CITYCD": "483153500",
        "RAILROAD": "KCS",
        "RRDIV": "Speedway",
        "RRSUBDIV": "Greenville",
        "HIGHWAY": "US 0059",
        "STREET": "US 0059",
        "TTSTN": "665170",
        "MILEPOST": "0050.140",
        "TYPEXING": "Public",
        "POSXING": "RR Under",
        "PRVCAT": "14",
        "INIT": "1",
        "LATITUDE": 32.764769,
        "LONGITUD": -94.354903,
        "LLSOURCE": "1",
        "WHISTBAN": "0",
        "RRCONT": "3186766269",
        "POLCONT": "8775279464",
        "INV_LINK": "https://safetydata.fra.dot.gov/OfficeofSafety/PublicSite/Crossing/Crossing.aspx?phasetype=C&rpttype=I&txtcrossingnum=331452Y",
        "ACC_LINK": "https://safetydata.fra.dot.gov/OfficeofSafety/PublicSite/Crossing/Crossing.aspx?phasetype=C&rpttype=A&txtcrossingnum=331452Y",
        "TTSTNNAM": "665170",
        "XPURPOSE": "1",
        "OPERATINGR": "CPKC",
        "OPERATIN_1": "Primary",
        "DAYTHRU": 4,
        "NGHTTHRU": 3,
        "MAINTRK": 1,
        "SIDINGTRK": 0,
        "YARDTRK": 0,
        "TRANSITTRK": 0,
        "INDUSTRYTR": 0,
        "OTHRTRK": 0,
        "WDCODE": "",
        "REVISIONDA": "1975/01/01 00:00:00",
        "LASTUPDATE": "2/26/2026",
        "AADT": "9600",
        "AADTYEAR": "2011",
        "STATENAME": "TEXAS",
        "STATEAB": "TX",
        "COUNTYNAME": "MARION",
        "CITYNAME": "JEFFERSON",
        "LATDD": 32.764769,
        "LONGDD": -94.354903,
        "gridlyProductionCertified": true,
        "gridlyClassification": "PUBLIC_ROADWAY",
        "gridlyDisplayName": "US 0059",
        "gridlyId": "FRA-331452Y"
      }
    },
    {
      "type": "Feature",
      "id": 201347,
      "geometry": {
        "type": "Point",
        "coordinates": [
          -94.3475690003302,
          32.7639759997603
        ]
      },
      "properties": {
        "OBJECTID": 201347,
        "CROSSING": "331450K",
        "EFFDATE": 1772409600000,
        "REASON": "14",
        "StateCode": "48",
        "CountyCode": "48315",
        "STCYFIPS": "48315",
        "CITYCD": "483153500",
        "RAILROAD": "KCS",
        "RRDIV": "Speedway",
        "RRSUBDIV": "Greenville",
        "HIGHWAY": "SH 0049",
        "STREET": "ST JOHN ST",
        "TTSTN": "665170",
        "MILEPOST": "0049.860",
        "TYPEXING": "Public",
        "POSXING": "RR Over",
        "PRVCAT": "14",
        "INIT": "1",
        "LATITUDE": 32.763976,
        "LONGITUD": -94.347569,
        "LLSOURCE": "1",
        "WHISTBAN": "0",
        "RRCONT": "3186766269",
        "POLCONT": "8775279464",
        "INV_LINK": "https://safetydata.fra.dot.gov/OfficeofSafety/PublicSite/Crossing/Crossing.aspx?phasetype=C&rpttype=I&txtcrossingnum=331450K",
        "ACC_LINK": "https://safetydata.fra.dot.gov/OfficeofSafety/PublicSite/Crossing/Crossing.aspx?phasetype=C&rpttype=A&txtcrossingnum=331450K",
        "TTSTNNAM": "665170",
        "XPURPOSE": "1",
        "OPERATINGR": "CPKC",
        "OPERATIN_1": "Primary",
        "DAYTHRU": 4,
        "NGHTTHRU": 3,
        "MAINTRK": 1,
        "SIDINGTRK": 0,
        "YARDTRK": 0,
        "TRANSITTRK": 0,
        "INDUSTRYTR": 0,
        "OTHRTRK": 0,
        "WDCODE": "",
        "REVISIONDA": "1975/01/01 00:00:00",
        "LASTUPDATE": "3/2/2026",
        "AADT": "2600",
        "AADTYEAR": "2011",
        "STATENAME": "TEXAS",
        "STATEAB": "TX",
        "COUNTYNAME": "MARION",
        "CITYNAME": "JEFFERSON",
        "LATDD": 32.763976,
        "LONGDD": -94.347569,
        "gridlyProductionCertified": true,
        "gridlyClassification": "PUBLIC_ROADWAY",
        "gridlyDisplayName": "ST JOHN ST",
        "gridlyId": "FRA-331450K"
      }
    },
    {
      "type": "Feature",
      "id": 202011,
      "geometry": {
        "type": "Point",
        "coordinates": [
          -94.2908983997458,
          32.8487796000585
        ]
      },
      "properties": {
        "OBJECTID": 202011,
        "CROSSING": "794562M",
        "EFFDATE": 1773187200000,
        "REASON": "22",
        "StateCode": "48",
        "CountyCode": "48315",
        "STCYFIPS": "48315",
        "CITYCD": "483153500",
        "RAILROAD": "UP",
        "RRDIV": "MID AMERICA",
        "RRSUBDIV": "LITTLE ROCK SUB",
        "HIGHWAY": "CO 4003",
        "STREET": "LEWIS CHAPEL ROAD",
        "TTSTN": "665170",
        "MILEPOST": "0044.060",
        "TYPEXING": "Public",
        "POSXING": "At Grade",
        "PRVCAT": "22",
        "INIT": "1",
        "LATITUDE": 32.8487796,
        "LONGITUD": -94.2908984,
        "LLSOURCE": "1",
        "WHISTBAN": "0",
        "RRCONT": "4025443721",
        "POLCONT": "8008488715",
        "INV_LINK": "https://safetydata.fra.dot.gov/OfficeofSafety/PublicSite/Crossing/Crossing.aspx?phasetype=C&rpttype=I&txtcrossingnum=794562M",
        "ACC_LINK": "https://safetydata.fra.dot.gov/OfficeofSafety/PublicSite/Crossing/Crossing.aspx?phasetype=C&rpttype=A&txtcrossingnum=794562M",
        "TTSTNNAM": "",
        "XPURPOSE": "1",
        "OPERATINGR": "UP",
        "OPERATIN_1": "Primary",
        "DAYTHRU": 14,
        "NGHTTHRU": 13,
        "MAINTRK": 1,
        "SIDINGTRK": 1,
        "YARDTRK": 0,
        "TRANSITTRK": 0,
        "INDUSTRYTR": 0,
        "OTHRTRK": 1,
        "WDCODE": "All other Gates",
        "REVISIONDA": "1975/01/01 00:00:00",
        "LASTUPDATE": "3/11/2026",
        "AADT": "53",
        "AADTYEAR": "2019",
        "STATENAME": "TEXAS",
        "STATEAB": "TX",
        "COUNTYNAME": "MARION",
        "CITYNAME": "JEFFERSON",
        "LATDD": 32.8487796,
        "LONGDD": -94.2908984,
        "gridlyProductionCertified": true,
        "gridlyClassification": "PUBLIC_ROADWAY",
        "gridlyDisplayName": "LEWIS CHAPEL ROAD",
        "gridlyId": "FRA-794562M"
      }
    },
    {
      "type": "Feature",
      "id": 202760,
      "geometry": {
        "type": "Point",
        "coordinates": [
          -94.4229940003923,
          32.7924429996272
        ]
      },
      "properties": {
        "OBJECTID": 202760,
        "CROSSING": "331461X",
        "EFFDATE": 1772064000000,
        "REASON": "14",
        "StateCode": "48",
        "CountyCode": "48315",
        "STCYFIPS": "48315",
        "CITYCD": "483153500",
        "RAILROAD": "KCS",
        "RRDIV": "Speedway",
        "RRSUBDIV": "Greenville",
        "HIGHWAY": "CO 0036",
        "STREET": "FOSTER RD",
        "TTSTN": "665178",
        "MILEPOST": "0054.990",
        "TYPEXING": "Public",
        "POSXING": "At Grade",
        "PRVCAT": "14",
        "INIT": "1",
        "LATITUDE": 32.792443,
        "LONGITUD": -94.422994,
        "LLSOURCE": "1",
        "WHISTBAN": "0",
        "RRCONT": "3186766269",
        "POLCONT": "8775279464",
        "INV_LINK": "https://safetydata.fra.dot.gov/OfficeofSafety/PublicSite/Crossing/Crossing.aspx?phasetype=C&rpttype=I&txtcrossingnum=331461X",
        "ACC_LINK": "https://safetydata.fra.dot.gov/OfficeofSafety/PublicSite/Crossing/Crossing.aspx?phasetype=C&rpttype=A&txtcrossingnum=331461X",
        "TTSTNNAM": "665178",
        "XPURPOSE": "1",
        "OPERATINGR": "CPKC",
        "OPERATIN_1": "Primary",
        "DAYTHRU": 4,
        "NGHTTHRU": 3,
        "MAINTRK": 1,
        "SIDINGTRK": 0,
        "YARDTRK": 0,
        "TRANSITTRK": 0,
        "INDUSTRYTR": 0,
        "OTHRTRK": 0,
        "WDCODE": "Crossbucks",
        "REVISIONDA": "1975/01/01 00:00:00",
        "LASTUPDATE": "2/26/2026",
        "AADT": "85",
        "AADTYEAR": "2002",
        "STATENAME": "TEXAS",
        "STATEAB": "TX",
        "COUNTYNAME": "MARION",
        "CITYNAME": "JEFFERSON",
        "LATDD": 32.792443,
        "LONGDD": -94.422994,
        "gridlyProductionCertified": true,
        "gridlyClassification": "PUBLIC_ROADWAY",
        "gridlyDisplayName": "FOSTER RD",
        "gridlyId": "FRA-331461X"
      }
    },
    {
      "type": "Feature",
      "id": 202766,
      "geometry": {
        "type": "Point",
        "coordinates": [
          -94.524337999719,
          32.8426109996669
        ]
      },
      "properties": {
        "OBJECTID": 202766,
        "CROSSING": "331467N",
        "EFFDATE": 1772064000000,
        "REASON": "14",
        "StateCode": "48",
        "CountyCode": "48315",
        "STCYFIPS": "48315",
        "CITYCD": "480670360",
        "RAILROAD": "KCS",
        "RRDIV": "Speedway",
        "RRSUBDIV": "Greenville",
        "HIGHWAY": "CO 3894",
        "STREET": "VICTORY SCHOOL RD",
        "TTSTN": "665133",
        "MILEPOST": "0062.600",
        "TYPEXING": "Public",
        "POSXING": "At Grade",
        "PRVCAT": "14",
        "INIT": "1",
        "LATITUDE": 32.842611,
        "LONGITUD": -94.524338,
        "LLSOURCE": "1",
        "WHISTBAN": "0",
        "RRCONT": "3186766269",
        "POLCONT": "8775279464",
        "INV_LINK": "https://safetydata.fra.dot.gov/OfficeofSafety/PublicSite/Crossing/Crossing.aspx?phasetype=C&rpttype=I&txtcrossingnum=331467N",
        "ACC_LINK": "https://safetydata.fra.dot.gov/OfficeofSafety/PublicSite/Crossing/Crossing.aspx?phasetype=C&rpttype=A&txtcrossingnum=331467N",
        "TTSTNNAM": "665133",
        "XPURPOSE": "1",
        "OPERATINGR": "CPKC",
        "OPERATIN_1": "Primary",
        "DAYTHRU": 4,
        "NGHTTHRU": 3,
        "MAINTRK": 1,
        "SIDINGTRK": 0,
        "YARDTRK": 0,
        "TRANSITTRK": 0,
        "INDUSTRYTR": 0,
        "OTHRTRK": 0,
        "WDCODE": "Crossbucks",
        "REVISIONDA": "1975/01/01 00:00:00",
        "LASTUPDATE": "2/26/2026",
        "AADT": "18",
        "AADTYEAR": "2019",
        "STATENAME": "TEXAS",
        "STATEAB": "TX",
        "COUNTYNAME": "MARION",
        "CITYNAME": "AVINGER",
        "LATDD": 32.842611,
        "LONGDD": -94.524338,
        "gridlyProductionCertified": true,
        "gridlyClassification": "PUBLIC_ROADWAY",
        "gridlyDisplayName": "VICTORY SCHOOL RD",
        "gridlyId": "FRA-331467N"
      }
    },
    {
      "type": "Feature",
      "id": 202832,
      "geometry": {
        "type": "Point",
        "coordinates": [
          -94.3513960004087,
          32.7646450003166
        ]
      },
      "properties": {
        "OBJECTID": 202832,
        "CROSSING": "331451S",
        "EFFDATE": 1772064000000,
        "REASON": "14",
        "StateCode": "48",
        "CountyCode": "48315",
        "STCYFIPS": "48315",
        "CITYCD": "483153500",
        "RAILROAD": "KCS",
        "RRDIV": "Speedway",
        "RRSUBDIV": "Greenville",
        "HIGHWAY": "ST 0000",
        "STREET": "ALLEY  STREET",
        "TTSTN": "665170",
        "MILEPOST": "0049.940",
        "TYPEXING": "Public",
        "POSXING": "At Grade",
        "PRVCAT": "14",
        "INIT": "1",
        "LATITUDE": 32.764645,
        "LONGITUD": -94.351396,
        "LLSOURCE": "1",
        "WHISTBAN": "0",
        "RRCONT": "3186766269",
        "POLCONT": "8775279464",
        "INV_LINK": "https://safetydata.fra.dot.gov/OfficeofSafety/PublicSite/Crossing/Crossing.aspx?phasetype=C&rpttype=I&txtcrossingnum=331451S",
        "ACC_LINK": "https://safetydata.fra.dot.gov/OfficeofSafety/PublicSite/Crossing/Crossing.aspx?phasetype=C&rpttype=A&txtcrossingnum=331451S",
        "TTSTNNAM": "665170",
        "XPURPOSE": "1",
        "OPERATINGR": "CPKC",
        "OPERATIN_1": "Primary",
        "DAYTHRU": 4,
        "NGHTTHRU": 3,
        "MAINTRK": 1,
        "SIDINGTRK": 0,
        "YARDTRK": 0,
        "TRANSITTRK": 0,
        "INDUSTRYTR": 0,
        "OTHRTRK": 0,
        "WDCODE": "All other Gates",
        "REVISIONDA": "1975/01/01 00:00:00",
        "LASTUPDATE": "2/26/2026",
        "AADT": "384",
        "AADTYEAR": "2019",
        "STATENAME": "TEXAS",
        "STATEAB": "TX",
        "COUNTYNAME": "MARION",
        "CITYNAME": "JEFFERSON",
        "LATDD": 32.764645,
        "LONGDD": -94.351396,
        "gridlyProductionCertified": true,
        "gridlyClassification": "PUBLIC_ROADWAY",
        "gridlyDisplayName": "ALLEY  STREET",
        "gridlyId": "FRA-331451S"
      }
    },
    {
      "type": "Feature",
      "id": 202862,
      "geometry": {
        "type": "Point",
        "coordinates": [
          -94.4831809995625,
          32.8209909998841
        ]
      },
      "properties": {
        "OBJECTID": 202862,
        "CROSSING": "331464T",
        "EFFDATE": 1772064000000,
        "REASON": "14",
        "StateCode": "48",
        "CountyCode": "48315",
        "STCYFIPS": "48315",
        "CITYCD": "480670360",
        "RAILROAD": "KCS",
        "RRDIV": "Speedway",
        "RRSUBDIV": "Greenville",
        "HIGHWAY": "CO 3901",
        "STREET": "SHADY GROVE RD",
        "TTSTN": "665133",
        "MILEPOST": "0059.570",
        "TYPEXING": "Public",
        "POSXING": "At Grade",
        "PRVCAT": "14",
        "INIT": "1",
        "LATITUDE": 32.820991,
        "LONGITUD": -94.483181,
        "LLSOURCE": "1",
        "WHISTBAN": "0",
        "RRCONT": "3186766269",
        "POLCONT": "8775279464",
        "INV_LINK": "https://safetydata.fra.dot.gov/OfficeofSafety/PublicSite/Crossing/Crossing.aspx?phasetype=C&rpttype=I&txtcrossingnum=331464T",
        "ACC_LINK": "https://safetydata.fra.dot.gov/OfficeofSafety/PublicSite/Crossing/Crossing.aspx?phasetype=C&rpttype=A&txtcrossingnum=331464T",
        "TTSTNNAM": "665133",
        "XPURPOSE": "1",
        "OPERATINGR": "CPKC",
        "OPERATIN_1": "Primary",
        "DAYTHRU": 4,
        "NGHTTHRU": 3,
        "MAINTRK": 1,
        "SIDINGTRK": 0,
        "YARDTRK": 0,
        "TRANSITTRK": 0,
        "INDUSTRYTR": 0,
        "OTHRTRK": 0,
        "WDCODE": "All other Gates",
        "REVISIONDA": "1975/01/01 00:00:00",
        "LASTUPDATE": "2/26/2026",
        "AADT": "155",
        "AADTYEAR": "2019",
        "STATENAME": "TEXAS",
        "STATEAB": "TX",
        "COUNTYNAME": "MARION",
        "CITYNAME": "AVINGER",
        "LATDD": 32.820991,
        "LONGDD": -94.483181,
        "gridlyProductionCertified": true,
        "gridlyClassification": "PUBLIC_ROADWAY",
        "gridlyDisplayName": "SHADY GROVE RD",
        "gridlyId": "FRA-331464T"
      }
    },
    {
      "type": "Feature",
      "id": 202963,
      "geometry": {
        "type": "Point",
        "coordinates": [
          -94.3560899996021,
          32.7651500001426
        ]
      },
      "properties": {
        "OBJECTID": 202963,
        "CROSSING": "331453F",
        "EFFDATE": 1772064000000,
        "REASON": "14",
        "StateCode": "48",
        "CountyCode": "48315",
        "STCYFIPS": "48315",
        "CITYCD": "483153500",
        "RAILROAD": "KCS",
        "RRDIV": "Speedway",
        "RRSUBDIV": "Greenville",
        "HIGHWAY": "ST",
        "STREET": "TUTTLE ST",
        "TTSTN": "665170",
        "MILEPOST": "0050.260",
        "TYPEXING": "Public",
        "POSXING": "At Grade",
        "PRVCAT": "14",
        "INIT": "1",
        "LATITUDE": 32.76515,
        "LONGITUD": -94.35609,
        "LLSOURCE": "1",
        "WHISTBAN": "0",
        "RRCONT": "3186766269",
        "POLCONT": "8775279464",
        "INV_LINK": "https://safetydata.fra.dot.gov/OfficeofSafety/PublicSite/Crossing/Crossing.aspx?phasetype=C&rpttype=I&txtcrossingnum=331453F",
        "ACC_LINK": "https://safetydata.fra.dot.gov/OfficeofSafety/PublicSite/Crossing/Crossing.aspx?phasetype=C&rpttype=A&txtcrossingnum=331453F",
        "TTSTNNAM": "665170",
        "XPURPOSE": "1",
        "OPERATINGR": "CPKC",
        "OPERATIN_1": "Primary",
        "DAYTHRU": 4,
        "NGHTTHRU": 3,
        "MAINTRK": 1,
        "SIDINGTRK": 0,
        "YARDTRK": 0,
        "TRANSITTRK": 0,
        "INDUSTRYTR": 0,
        "OTHRTRK": 0,
        "WDCODE": "All other Gates",
        "REVISIONDA": "1975/01/01 00:00:00",
        "LASTUPDATE": "2/26/2026",
        "AADT": "232",
        "AADTYEAR": "2019",
        "STATENAME": "TEXAS",
        "STATEAB": "TX",
        "COUNTYNAME": "MARION",
        "CITYNAME": "JEFFERSON",
        "LATDD": 32.76515,
        "LONGDD": -94.35609,
        "gridlyProductionCertified": true,
        "gridlyClassification": "PUBLIC_ROADWAY",
        "gridlyDisplayName": "TUTTLE ST",
        "gridlyId": "FRA-331453F"
      }
    },
    {
      "type": "Feature",
      "id": 203106,
      "geometry": {
        "type": "Point",
        "coordinates": [
          -94.3672629998659,
          32.7714149997734
        ]
      },
      "properties": {
        "OBJECTID": 203106,
        "CROSSING": "331415W",
        "EFFDATE": 1772064000000,
        "REASON": "14",
        "StateCode": "48",
        "CountyCode": "48315",
        "STCYFIPS": "48315",
        "CITYCD": "483153500",
        "RAILROAD": "KCS",
        "RRDIV": "Speedway",
        "RRSUBDIV": "Greenville",
        "HIGHWAY": "FM",
        "STREET": "FM 881",
        "TTSTN": "665178",
        "MILEPOST": "0050.974",
        "TYPEXING": "Public",
        "POSXING": "At Grade",
        "PRVCAT": "14",
        "INIT": "1",
        "LATITUDE": 32.771415,
        "LONGITUD": -94.367263,
        "LLSOURCE": "1",
        "WHISTBAN": "0",
        "RRCONT": "3186766269",
        "POLCONT": "8775279464",
        "INV_LINK": "https://safetydata.fra.dot.gov/OfficeofSafety/PublicSite/Crossing/Crossing.aspx?phasetype=C&rpttype=I&txtcrossingnum=331415W",
        "ACC_LINK": "https://safetydata.fra.dot.gov/OfficeofSafety/PublicSite/Crossing/Crossing.aspx?phasetype=C&rpttype=A&txtcrossingnum=331415W",
        "TTSTNNAM": "665178",
        "XPURPOSE": "1",
        "OPERATINGR": "CPKC",
        "OPERATIN_1": "Primary",
        "DAYTHRU": 4,
        "NGHTTHRU": 3,
        "MAINTRK": 1,
        "SIDINGTRK": 0,
        "YARDTRK": 0,
        "TRANSITTRK": 0,
        "INDUSTRYTR": 0,
        "OTHRTRK": 0,
        "WDCODE": "All other Gates",
        "REVISIONDA": "1975/01/01 00:00:00",
        "LASTUPDATE": "2/26/2026",
        "AADT": "1203",
        "AADTYEAR": "2019",
        "STATENAME": "TEXAS",
        "STATEAB": "TX",
        "COUNTYNAME": "MARION",
        "CITYNAME": "JEFFERSON",
        "LATDD": 32.771415,
        "LONGDD": -94.367263,
        "gridlyProductionCertified": true,
        "gridlyClassification": "PUBLIC_ROADWAY",
        "gridlyDisplayName": "FM 881",
        "gridlyId": "FRA-331415W"
      }
    },
    {
      "type": "Feature",
      "id": 203424,
      "geometry": {
        "type": "Point",
        "coordinates": [
          -94.4625940000742,
          32.8171250003074
        ]
      },
      "properties": {
        "OBJECTID": 203424,
        "CROSSING": "331463L",
        "EFFDATE": 1772409600000,
        "REASON": "14",
        "StateCode": "48",
        "CountyCode": "48315",
        "STCYFIPS": "48315",
        "CITYCD": "483153500",
        "RAILROAD": "KCS",
        "RRDIV": "Speedway",
        "RRSUBDIV": "Greenville",
        "HIGHWAY": "CO 3902",
        "STREET": "SARBER RD",
        "TTSTN": "665133",
        "MILEPOST": "0058.310",
        "TYPEXING": "Public",
        "POSXING": "At Grade",
        "PRVCAT": "14",
        "INIT": "1",
        "LATITUDE": 32.817125,
        "LONGITUD": -94.462594,
        "LLSOURCE": "1",
        "WHISTBAN": "0",
        "RRCONT": "3186766269",
        "POLCONT": "8775279464",
        "INV_LINK": "https://safetydata.fra.dot.gov/OfficeofSafety/PublicSite/Crossing/Crossing.aspx?phasetype=C&rpttype=I&txtcrossingnum=331463L",
        "ACC_LINK": "https://safetydata.fra.dot.gov/OfficeofSafety/PublicSite/Crossing/Crossing.aspx?phasetype=C&rpttype=A&txtcrossingnum=331463L",
        "TTSTNNAM": "665133",
        "XPURPOSE": "1",
        "OPERATINGR": "CPKC",
        "OPERATIN_1": "Primary",
        "DAYTHRU": 4,
        "NGHTTHRU": 3,
        "MAINTRK": 1,
        "SIDINGTRK": 0,
        "YARDTRK": 0,
        "TRANSITTRK": 0,
        "INDUSTRYTR": 0,
        "OTHRTRK": 0,
        "WDCODE": "Crossbucks",
        "REVISIONDA": "1975/01/01 00:00:00",
        "LASTUPDATE": "3/2/2026",
        "AADT": "38",
        "AADTYEAR": "2019",
        "STATENAME": "TEXAS",
        "STATEAB": "TX",
        "COUNTYNAME": "MARION",
        "CITYNAME": "JEFFERSON",
        "LATDD": 32.817125,
        "LONGDD": -94.462594,
        "gridlyProductionCertified": true,
        "gridlyClassification": "PUBLIC_ROADWAY",
        "gridlyDisplayName": "SARBER RD",
        "gridlyId": "FRA-331463L"
      }
    },
    {
      "type": "Feature",
      "id": 203827,
      "geometry": {
        "type": "Point",
        "coordinates": [
          -94.3206280003433,
          32.7517210000977
        ]
      },
      "properties": {
        "OBJECTID": 203827,
        "CROSSING": "331442T",
        "EFFDATE": 1772064000000,
        "REASON": "14",
        "StateCode": "48",
        "CountyCode": "48315",
        "STCYFIPS": "48315",
        "CITYCD": "483153500",
        "RAILROAD": "KCS",
        "RRDIV": "Speedway",
        "RRSUBDIV": "Greenville",
        "HIGHWAY": "CO 0000",
        "STREET": "PRIVATE ROAD",
        "TTSTN": "665170",
        "MILEPOST": "0047.800",
        "TYPEXING": "Private",
        "POSXING": "At Grade",
        "PRVCAT": "14",
        "INIT": "1",
        "LATITUDE": 32.751721,
        "LONGITUD": -94.320628,
        "LLSOURCE": "1",
        "WHISTBAN": "0",
        "RRCONT": "3186766269",
        "POLCONT": "8775279464",
        "INV_LINK": "https://safetydata.fra.dot.gov/OfficeofSafety/PublicSite/Crossing/Crossing.aspx?phasetype=C&rpttype=I&txtcrossingnum=331442T",
        "ACC_LINK": "https://safetydata.fra.dot.gov/OfficeofSafety/PublicSite/Crossing/Crossing.aspx?phasetype=C&rpttype=A&txtcrossingnum=331442T",
        "TTSTNNAM": "665170",
        "XPURPOSE": "1",
        "OPERATINGR": "CPKC",
        "OPERATIN_1": "Primary",
        "DAYTHRU": 4,
        "NGHTTHRU": 3,
        "MAINTRK": 1,
        "SIDINGTRK": 0,
        "YARDTRK": 0,
        "TRANSITTRK": 0,
        "INDUSTRYTR": 0,
        "OTHRTRK": 0,
        "WDCODE": "",
        "REVISIONDA": "1975/01/01 00:00:00",
        "LASTUPDATE": "2/26/2026",
        "AADT": "25",
        "AADTYEAR": "1983",
        "STATENAME": "TEXAS",
        "STATEAB": "TX",
        "COUNTYNAME": "MARION",
        "CITYNAME": "JEFFERSON",
        "LATDD": 32.751721,
        "LONGDD": -94.320628,
        "gridlyProductionCertified": true,
        "gridlyClassification": "PUBLIC_ROADWAY",
        "gridlyDisplayName": "PRIVATE ROAD",
        "gridlyId": "FRA-331442T"
      }
    },
    {
      "type": "Feature",
      "id": 203986,
      "geometry": {
        "type": "Point",
        "coordinates": [
          -94.3437129999394,
          32.7585219999263
        ]
      },
      "properties": {
        "OBJECTID": 203986,
        "CROSSING": "331447C",
        "EFFDATE": 1772064000000,
        "REASON": "14",
        "StateCode": "48",
        "CountyCode": "48315",
        "STCYFIPS": "48315",
        "CITYCD": "483153500",
        "RAILROAD": "KCS",
        "RRDIV": "Speedway",
        "RRSUBDIV": "Greenville",
        "HIGHWAY": "NA",
        "STREET": "LAFAYETTE ST",
        "TTSTN": "665170",
        "MILEPOST": "0049.290",
        "TYPEXING": "Public",
        "POSXING": "At Grade",
        "PRVCAT": "14",
        "INIT": "1",
        "LATITUDE": 32.758522,
        "LONGITUD": -94.343713,
        "LLSOURCE": "1",
        "WHISTBAN": "0",
        "RRCONT": "3186766269",
        "POLCONT": "8775279464",
        "INV_LINK": "https://safetydata.fra.dot.gov/OfficeofSafety/PublicSite/Crossing/Crossing.aspx?phasetype=C&rpttype=I&txtcrossingnum=331447C",
        "ACC_LINK": "https://safetydata.fra.dot.gov/OfficeofSafety/PublicSite/Crossing/Crossing.aspx?phasetype=C&rpttype=A&txtcrossingnum=331447C",
        "TTSTNNAM": "665170",
        "XPURPOSE": "1",
        "OPERATINGR": "CPKC",
        "OPERATIN_1": "Primary",
        "DAYTHRU": 4,
        "NGHTTHRU": 3,
        "MAINTRK": 1,
        "SIDINGTRK": 0,
        "YARDTRK": 0,
        "TRANSITTRK": 0,
        "INDUSTRYTR": 0,
        "OTHRTRK": 1,
        "WDCODE": "All other Gates",
        "REVISIONDA": "1975/01/01 00:00:00",
        "LASTUPDATE": "2/26/2026",
        "AADT": "212",
        "AADTYEAR": "2019",
        "STATENAME": "TEXAS",
        "STATEAB": "TX",
        "COUNTYNAME": "MARION",
        "CITYNAME": "JEFFERSON",
        "LATDD": 32.758522,
        "LONGDD": -94.343713,
        "gridlyProductionCertified": true,
        "gridlyClassification": "PUBLIC_ROADWAY",
        "gridlyDisplayName": "LAFAYETTE ST",
        "gridlyId": "FRA-331447C"
      }
    },
    {
      "type": "Feature",
      "id": 205383,
      "geometry": {
        "type": "Point",
        "coordinates": [
          -94.3432350000885,
          32.757490999907
        ]
      },
      "properties": {
        "OBJECTID": 205383,
        "CROSSING": "331445N",
        "EFFDATE": 1772064000000,
        "REASON": "14",
        "StateCode": "48",
        "CountyCode": "48315",
        "STCYFIPS": "48315",
        "CITYCD": "483153500",
        "RAILROAD": "KCS",
        "RRDIV": "Speedway",
        "RRSUBDIV": "Greenville",
        "HIGHWAY": "st 0000",
        "STREET": "AUSTIN ST",
        "TTSTN": "665170",
        "MILEPOST": "0049.200",
        "TYPEXING": "Public",
        "POSXING": "At Grade",
        "PRVCAT": "14",
        "INIT": "1",
        "LATITUDE": 32.757491,
        "LONGITUD": -94.343235,
        "LLSOURCE": "1",
        "WHISTBAN": "0",
        "RRCONT": "3186766269",
        "POLCONT": "8775279464",
        "INV_LINK": "https://safetydata.fra.dot.gov/OfficeofSafety/PublicSite/Crossing/Crossing.aspx?phasetype=C&rpttype=I&txtcrossingnum=331445N",
        "ACC_LINK": "https://safetydata.fra.dot.gov/OfficeofSafety/PublicSite/Crossing/Crossing.aspx?phasetype=C&rpttype=A&txtcrossingnum=331445N",
        "TTSTNNAM": "665170",
        "XPURPOSE": "1",
        "OPERATINGR": "CPKC",
        "OPERATIN_1": "Primary",
        "DAYTHRU": 4,
        "NGHTTHRU": 3,
        "MAINTRK": 1,
        "SIDINGTRK": 0,
        "YARDTRK": 0,
        "TRANSITTRK": 0,
        "INDUSTRYTR": 0,
        "OTHRTRK": 0,
        "WDCODE": "All other Gates",
        "REVISIONDA": "1975/01/01 00:00:00",
        "LASTUPDATE": "2/26/2026",
        "AADT": "270",
        "AADTYEAR": "2019",
        "STATENAME": "TEXAS",
        "STATEAB": "TX",
        "COUNTYNAME": "MARION",
        "CITYNAME": "JEFFERSON",
        "LATDD": 32.757491,
        "LONGDD": -94.343235,
        "gridlyProductionCertified": true,
        "gridlyClassification": "PUBLIC_ROADWAY",
        "gridlyDisplayName": "AUSTIN ST",
        "gridlyId": "FRA-331445N"
      }
    },
    {
      "type": "Feature",
      "id": 207302,
      "geometry": {
        "type": "Point",
        "coordinates": [
          -94.2801486003039,
          32.8764243002245
        ]
      },
      "properties": {
        "OBJECTID": 207302,
        "CROSSING": "794559E",
        "EFFDATE": 1756425600000,
        "REASON": "14",
        "StateCode": "48",
        "CountyCode": "48315",
        "STCYFIPS": "48315",
        "CITYCD": "483153500",
        "RAILROAD": "UP",
        "RRDIV": "MID AMERICA",
        "RRSUBDIV": "LITTLE ROCK SUB",
        "HIGHWAY": "NA",
        "STREET": "Howe Road",
        "TTSTN": "661462",
        "MILEPOST": "0041.907",
        "TYPEXING": "Public",
        "POSXING": "At Grade",
        "PRVCAT": "14",
        "INIT": "1",
        "LATITUDE": 32.8764243,
        "LONGITUD": -94.2801486,
        "LLSOURCE": "1",
        "WHISTBAN": "0",
        "RRCONT": "4025443721",
        "POLCONT": "8008488715",
        "INV_LINK": "https://safetydata.fra.dot.gov/OfficeofSafety/PublicSite/Crossing/Crossing.aspx?phasetype=C&rpttype=I&txtcrossingnum=794559E",
        "ACC_LINK": "https://safetydata.fra.dot.gov/OfficeofSafety/PublicSite/Crossing/Crossing.aspx?phasetype=C&rpttype=A&txtcrossingnum=794559E",
        "TTSTNNAM": "",
        "XPURPOSE": "1",
        "OPERATINGR": "UP",
        "OPERATIN_1": "Primary",
        "DAYTHRU": 14,
        "NGHTTHRU": 13,
        "MAINTRK": 1,
        "SIDINGTRK": 0,
        "YARDTRK": 0,
        "TRANSITTRK": 0,
        "INDUSTRYTR": 0,
        "OTHRTRK": 0,
        "WDCODE": "Stop signs",
        "REVISIONDA": "1975/01/01 00:00:00",
        "LASTUPDATE": "8/29/2025",
        "AADT": "44",
        "AADTYEAR": "2019",
        "STATENAME": "TEXAS",
        "STATEAB": "TX",
        "COUNTYNAME": "MARION",
        "CITYNAME": "JEFFERSON",
        "LATDD": 32.8764243,
        "LONGDD": -94.2801486,
        "gridlyProductionCertified": true,
        "gridlyClassification": "PUBLIC_ROADWAY",
        "gridlyDisplayName": "Howe Road",
        "gridlyId": "FRA-794559E"
      }
    },
    {
      "type": "Feature",
      "id": 207303,
      "geometry": {
        "type": "Point",
        "coordinates": [
          -94.2837791999152,
          32.8680885002047
        ]
      },
      "properties": {
        "OBJECTID": 207303,
        "CROSSING": "794561F",
        "EFFDATE": 1756425600000,
        "REASON": "14",
        "StateCode": "48",
        "CountyCode": "48315",
        "STCYFIPS": "48315",
        "CITYCD": "483153500",
        "RAILROAD": "UP",
        "RRDIV": "MID AMERICA",
        "RRSUBDIV": "LITTLE ROCK SUB",
        "HIGHWAY": "FM 0248",
        "STREET": "FM 248",
        "TTSTN": "661462",
        "MILEPOST": "0042.565",
        "TYPEXING": "Public",
        "POSXING": "At Grade",
        "PRVCAT": "14",
        "INIT": "1",
        "LATITUDE": 32.8680885,
        "LONGITUD": -94.2837792,
        "LLSOURCE": "1",
        "WHISTBAN": "0",
        "RRCONT": "4025443721",
        "POLCONT": "8008488715",
        "INV_LINK": "https://safetydata.fra.dot.gov/OfficeofSafety/PublicSite/Crossing/Crossing.aspx?phasetype=C&rpttype=I&txtcrossingnum=794561F",
        "ACC_LINK": "https://safetydata.fra.dot.gov/OfficeofSafety/PublicSite/Crossing/Crossing.aspx?phasetype=C&rpttype=A&txtcrossingnum=794561F",
        "TTSTNNAM": "",
        "XPURPOSE": "1",
        "OPERATINGR": "UP",
        "OPERATIN_1": "Primary",
        "DAYTHRU": 14,
        "NGHTTHRU": 13,
        "MAINTRK": 1,
        "SIDINGTRK": 0,
        "YARDTRK": 0,
        "TRANSITTRK": 0,
        "INDUSTRYTR": 0,
        "OTHRTRK": 0,
        "WDCODE": "All other Gates",
        "REVISIONDA": "1975/01/01 00:00:00",
        "LASTUPDATE": "8/29/2025",
        "AADT": "211",
        "AADTYEAR": "2019",
        "STATENAME": "TEXAS",
        "STATEAB": "TX",
        "COUNTYNAME": "MARION",
        "CITYNAME": "JEFFERSON",
        "LATDD": 32.8680885,
        "LONGDD": -94.2837792,
        "gridlyProductionCertified": true,
        "gridlyClassification": "PUBLIC_ROADWAY",
        "gridlyDisplayName": "FM 248",
        "gridlyId": "FRA-794561F"
      }
    },
    {
      "type": "Feature",
      "id": 207305,
      "geometry": {
        "type": "Point",
        "coordinates": [
          -94.3121067998488,
          32.8171078999707
        ]
      },
      "properties": {
        "OBJECTID": 207305,
        "CROSSING": "794564B",
        "EFFDATE": 1756425600000,
        "REASON": "14",
        "StateCode": "48",
        "CountyCode": "48315",
        "STCYFIPS": "48315",
        "CITYCD": "483153500",
        "RAILROAD": "UP",
        "RRDIV": "MID AMERICA",
        "RRSUBDIV": "LITTLE ROCK SUB",
        "HIGHWAY": "CO 4004",
        "STREET": "STALLS ROAD",
        "TTSTN": "665170",
        "MILEPOST": "0046.590",
        "TYPEXING": "Public",
        "POSXING": "At Grade",
        "PRVCAT": "14",
        "INIT": "1",
        "LATITUDE": 32.8171079,
        "LONGITUD": -94.3121068,
        "LLSOURCE": "1",
        "WHISTBAN": "0",
        "RRCONT": "4025443721",
        "POLCONT": "8008488715",
        "INV_LINK": "https://safetydata.fra.dot.gov/OfficeofSafety/PublicSite/Crossing/Crossing.aspx?phasetype=C&rpttype=I&txtcrossingnum=794564B",
        "ACC_LINK": "https://safetydata.fra.dot.gov/OfficeofSafety/PublicSite/Crossing/Crossing.aspx?phasetype=C&rpttype=A&txtcrossingnum=794564B",
        "TTSTNNAM": "",
        "XPURPOSE": "1",
        "OPERATINGR": "UP",
        "OPERATIN_1": "Primary",
        "DAYTHRU": 14,
        "NGHTTHRU": 13,
        "MAINTRK": 1,
        "SIDINGTRK": 0,
        "YARDTRK": 0,
        "TRANSITTRK": 0,
        "INDUSTRYTR": 0,
        "OTHRTRK": 0,
        "WDCODE": "Stop signs",
        "REVISIONDA": "1975/01/01 00:00:00",
        "LASTUPDATE": "8/29/2025",
        "AADT": "44",
        "AADTYEAR": "2019",
        "STATENAME": "TEXAS",
        "STATEAB": "TX",
        "COUNTYNAME": "MARION",
        "CITYNAME": "JEFFERSON",
        "LATDD": 32.8171079,
        "LONGDD": -94.3121068,
        "gridlyProductionCertified": true,
        "gridlyClassification": "PUBLIC_ROADWAY",
        "gridlyDisplayName": "STALLS ROAD",
        "gridlyId": "FRA-794564B"
      }
    },
    {
      "type": "Feature",
      "id": 207306,
      "geometry": {
        "type": "Point",
        "coordinates": [
          -94.3243753000931,
          32.7980303997619
        ]
      },
      "properties": {
        "OBJECTID": 207306,
        "CROSSING": "794565H",
        "EFFDATE": 1756425600000,
        "REASON": "14",
        "StateCode": "48",
        "CountyCode": "48315",
        "STCYFIPS": "48315",
        "CITYCD": "483153500",
        "RAILROAD": "UP",
        "RRDIV": "MID AMERICA",
        "RRSUBDIV": "LITTLE ROCK SUB",
        "HIGHWAY": "FM 0248",
        "STREET": "FM 248",
        "TTSTN": "665170",
        "MILEPOST": "0048.120",
        "TYPEXING": "Public",
        "POSXING": "At Grade",
        "PRVCAT": "14",
        "INIT": "1",
        "LATITUDE": 32.7980304,
        "LONGITUD": -94.3243753,
        "LLSOURCE": "1",
        "WHISTBAN": "0",
        "RRCONT": "4025443721",
        "POLCONT": "8008488715",
        "INV_LINK": "https://safetydata.fra.dot.gov/OfficeofSafety/PublicSite/Crossing/Crossing.aspx?phasetype=C&rpttype=I&txtcrossingnum=794565H",
        "ACC_LINK": "https://safetydata.fra.dot.gov/OfficeofSafety/PublicSite/Crossing/Crossing.aspx?phasetype=C&rpttype=A&txtcrossingnum=794565H",
        "TTSTNNAM": "",
        "XPURPOSE": "1",
        "OPERATINGR": "UP",
        "OPERATIN_1": "Primary",
        "DAYTHRU": 14,
        "NGHTTHRU": 13,
        "MAINTRK": 1,
        "SIDINGTRK": 0,
        "YARDTRK": 0,
        "TRANSITTRK": 0,
        "INDUSTRYTR": 0,
        "OTHRTRK": 0,
        "WDCODE": "All other Gates",
        "REVISIONDA": "1975/01/01 00:00:00",
        "LASTUPDATE": "8/29/2025",
        "AADT": "606",
        "AADTYEAR": "2019",
        "STATENAME": "TEXAS",
        "STATEAB": "TX",
        "COUNTYNAME": "MARION",
        "CITYNAME": "JEFFERSON",
        "LATDD": 32.7980304,
        "LONGDD": -94.3243753,
        "gridlyProductionCertified": true,
        "gridlyClassification": "PUBLIC_ROADWAY",
        "gridlyDisplayName": "FM 248",
        "gridlyId": "FRA-794565H"
      }
    },
    {
      "type": "Feature",
      "id": 207307,
      "geometry": {
        "type": "Point",
        "coordinates": [
          -94.3302089002594,
          32.7930059001733
        ]
      },
      "properties": {
        "OBJECTID": 207307,
        "CROSSING": "794566P",
        "EFFDATE": 1756425600000,
        "REASON": "14",
        "StateCode": "48",
        "CountyCode": "48315",
        "STCYFIPS": "48315",
        "CITYCD": "483153500",
        "RAILROAD": "UP",
        "RRDIV": "MID AMERICA",
        "RRSUBDIV": "LITTLE ROCK SUB",
        "HIGHWAY": "NA",
        "STREET": "PRIVATE",
        "TTSTN": "665170",
        "MILEPOST": "0048.590",
        "TYPEXING": "Private",
        "POSXING": "At Grade",
        "PRVCAT": "14",
        "INIT": "1",
        "LATITUDE": 32.7930059,
        "LONGITUD": -94.3302089,
        "LLSOURCE": "1",
        "WHISTBAN": "0",
        "RRCONT": "4025443721",
        "POLCONT": "8008488715",
        "INV_LINK": "https://safetydata.fra.dot.gov/OfficeofSafety/PublicSite/Crossing/Crossing.aspx?phasetype=C&rpttype=I&txtcrossingnum=794566P",
        "ACC_LINK": "https://safetydata.fra.dot.gov/OfficeofSafety/PublicSite/Crossing/Crossing.aspx?phasetype=C&rpttype=A&txtcrossingnum=794566P",
        "TTSTNNAM": "",
        "XPURPOSE": "1",
        "OPERATINGR": "UP",
        "OPERATIN_1": "Primary",
        "DAYTHRU": 14,
        "NGHTTHRU": 13,
        "MAINTRK": 1,
        "SIDINGTRK": 0,
        "YARDTRK": 0,
        "TRANSITTRK": 0,
        "INDUSTRYTR": 0,
        "OTHRTRK": 0,
        "WDCODE": "",
        "REVISIONDA": "1975/01/01 00:00:00",
        "LASTUPDATE": "8/29/2025",
        "AADT": "1",
        "AADTYEAR": "1970",
        "STATENAME": "TEXAS",
        "STATEAB": "TX",
        "COUNTYNAME": "MARION",
        "CITYNAME": "JEFFERSON",
        "LATDD": 32.7930059,
        "LONGDD": -94.3302089,
        "gridlyProductionCertified": true,
        "gridlyClassification": "PUBLIC_ROADWAY",
        "gridlyDisplayName": "PRIVATE",
        "gridlyId": "FRA-794566P"
      }
    },
    {
      "type": "Feature",
      "id": 207308,
      "geometry": {
        "type": "Point",
        "coordinates": [
          -94.3462760003445,
          32.7663420000921
        ]
      },
      "properties": {
        "OBJECTID": 207308,
        "CROSSING": "794569K",
        "EFFDATE": 1756425600000,
        "REASON": "14",
        "StateCode": "48",
        "CountyCode": "48315",
        "STCYFIPS": "48315",
        "CITYCD": "483153500",
        "RAILROAD": "UP",
        "RRDIV": "MID AMERICA",
        "RRSUBDIV": "LITTLE ROCK SUB",
        "HIGHWAY": "ST 0000",
        "STREET": "CASS STREET",
        "TTSTN": "665170",
        "MILEPOST": "0050.710",
        "TYPEXING": "Public",
        "POSXING": "At Grade",
        "PRVCAT": "14",
        "INIT": "1",
        "LATITUDE": 32.766342,
        "LONGITUD": -94.346276,
        "LLSOURCE": "1",
        "WHISTBAN": "0",
        "RRCONT": "4025443721",
        "POLCONT": "8008488715",
        "INV_LINK": "https://safetydata.fra.dot.gov/OfficeofSafety/PublicSite/Crossing/Crossing.aspx?phasetype=C&rpttype=I&txtcrossingnum=794569K",
        "ACC_LINK": "https://safetydata.fra.dot.gov/OfficeofSafety/PublicSite/Crossing/Crossing.aspx?phasetype=C&rpttype=A&txtcrossingnum=794569K",
        "TTSTNNAM": "",
        "XPURPOSE": "1",
        "OPERATINGR": "UP",
        "OPERATIN_1": "Primary",
        "DAYTHRU": 14,
        "NGHTTHRU": 13,
        "MAINTRK": 1,
        "SIDINGTRK": 1,
        "YARDTRK": 0,
        "TRANSITTRK": 0,
        "INDUSTRYTR": 0,
        "OTHRTRK": 1,
        "WDCODE": "All other Gates",
        "REVISIONDA": "1975/01/01 00:00:00",
        "LASTUPDATE": "8/29/2025",
        "AADT": "254",
        "AADTYEAR": "2019",
        "STATENAME": "TEXAS",
        "STATEAB": "TX",
        "COUNTYNAME": "MARION",
        "CITYNAME": "JEFFERSON",
        "LATDD": 32.766342,
        "LONGDD": -94.346276,
        "gridlyProductionCertified": true,
        "gridlyClassification": "PUBLIC_ROADWAY",
        "gridlyDisplayName": "CASS STREET",
        "gridlyId": "FRA-794569K"
      }
    },
    {
      "type": "Feature",
      "id": 207309,
      "geometry": {
        "type": "Point",
        "coordinates": [
          -94.3424810000531,
          32.7690979997926
        ]
      },
      "properties": {
        "OBJECTID": 207309,
        "CROSSING": "794567W",
        "EFFDATE": 1756425600000,
        "REASON": "14",
        "StateCode": "48",
        "CountyCode": "48315",
        "STCYFIPS": "48315",
        "CITYCD": "483153500",
        "RAILROAD": "UP",
        "RRDIV": "MID AMERICA",
        "RRSUBDIV": "LITTLE ROCK SUB",
        "HIGHWAY": "ST 0000",
        "STREET": "MULBERRY STREET",
        "TTSTN": "665170",
        "MILEPOST": "0050.430",
        "TYPEXING": "Public",
        "POSXING": "At Grade",
        "PRVCAT": "14",
        "INIT": "1",
        "LATITUDE": 32.769098,
        "LONGITUD": -94.342481,
        "LLSOURCE": "1",
        "WHISTBAN": "0",
        "RRCONT": "4025443721",
        "POLCONT": "8008488715",
        "INV_LINK": "https://safetydata.fra.dot.gov/OfficeofSafety/PublicSite/Crossing/Crossing.aspx?phasetype=C&rpttype=I&txtcrossingnum=794567W",
        "ACC_LINK": "https://safetydata.fra.dot.gov/OfficeofSafety/PublicSite/Crossing/Crossing.aspx?phasetype=C&rpttype=A&txtcrossingnum=794567W",
        "TTSTNNAM": "",
        "XPURPOSE": "1",
        "OPERATINGR": "UP",
        "OPERATIN_1": "Primary",
        "DAYTHRU": 14,
        "NGHTTHRU": 13,
        "MAINTRK": 1,
        "SIDINGTRK": 1,
        "YARDTRK": 0,
        "TRANSITTRK": 0,
        "INDUSTRYTR": 0,
        "OTHRTRK": 1,
        "WDCODE": "All other Gates",
        "REVISIONDA": "1975/01/01 00:00:00",
        "LASTUPDATE": "8/29/2025",
        "AADT": "83",
        "AADTYEAR": "2019",
        "STATENAME": "TEXAS",
        "STATEAB": "TX",
        "COUNTYNAME": "MARION",
        "CITYNAME": "JEFFERSON",
        "LATDD": 32.769098,
        "LONGDD": -94.342481,
        "gridlyProductionCertified": true,
        "gridlyClassification": "PUBLIC_ROADWAY",
        "gridlyDisplayName": "MULBERRY STREET",
        "gridlyId": "FRA-794567W"
      }
    },
    {
      "type": "Feature",
      "id": 207310,
      "geometry": {
        "type": "Point",
        "coordinates": [
          -94.354928000036,
          32.7649769998756
        ]
      },
      "properties": {
        "OBJECTID": 207310,
        "CROSSING": "794571L",
        "EFFDATE": 1756425600000,
        "REASON": "14",
        "StateCode": "48",
        "CountyCode": "48315",
        "STCYFIPS": "48315",
        "CITYCD": "483153500",
        "RAILROAD": "UP",
        "RRDIV": "MID AMERICA",
        "RRSUBDIV": "LITTLE ROCK SUB",
        "HIGHWAY": "US 0059",
        "STREET": "WALCOTT STREET",
        "TTSTN": "665170",
        "MILEPOST": "0051.240",
        "TYPEXING": "Public",
        "POSXING": "RR Under",
        "PRVCAT": "14",
        "INIT": "1",
        "LATITUDE": 32.764977,
        "LONGITUD": -94.354928,
        "LLSOURCE": "1",
        "WHISTBAN": "0",
        "RRCONT": "4025443721",
        "POLCONT": "8008488715",
        "INV_LINK": "https://safetydata.fra.dot.gov/OfficeofSafety/PublicSite/Crossing/Crossing.aspx?phasetype=C&rpttype=I&txtcrossingnum=794571L",
        "ACC_LINK": "https://safetydata.fra.dot.gov/OfficeofSafety/PublicSite/Crossing/Crossing.aspx?phasetype=C&rpttype=A&txtcrossingnum=794571L",
        "TTSTNNAM": "",
        "XPURPOSE": "1",
        "OPERATINGR": "UP",
        "OPERATIN_1": "Primary",
        "DAYTHRU": 17,
        "NGHTTHRU": 16,
        "MAINTRK": 1,
        "SIDINGTRK": 0,
        "YARDTRK": 0,
        "TRANSITTRK": 0,
        "INDUSTRYTR": 0,
        "OTHRTRK": 0,
        "WDCODE": "",
        "REVISIONDA": "1975/01/01 00:00:00",
        "LASTUPDATE": "8/29/2025",
        "AADT": "9600",
        "AADTYEAR": "2011",
        "STATENAME": "TEXAS",
        "STATEAB": "TX",
        "COUNTYNAME": "MARION",
        "CITYNAME": "JEFFERSON",
        "LATDD": 32.764977,
        "LONGDD": -94.354928,
        "gridlyProductionCertified": true,
        "gridlyClassification": "PUBLIC_ROADWAY",
        "gridlyDisplayName": "WALCOTT STREET",
        "gridlyId": "FRA-794571L"
      }
    },
    {
      "type": "Feature",
      "id": 207398,
      "geometry": {
        "type": "Point",
        "coordinates": [
          -94.3554703003966,
          32.764521200225
        ]
      },
      "properties": {
        "OBJECTID": 207398,
        "CROSSING": "794572T",
        "EFFDATE": 1756425600000,
        "REASON": "14",
        "StateCode": "48",
        "CountyCode": "48315",
        "STCYFIPS": "48315",
        "CITYCD": "483153500",
        "RAILROAD": "UP",
        "RRDIV": "MID AMERICA",
        "RRSUBDIV": "LITTLE ROCK SUB",
        "HIGHWAY": "ST 0000",
        "STREET": "West WATSON Street",
        "TTSTN": "665170",
        "MILEPOST": "0051.280",
        "TYPEXING": "Public",
        "POSXING": "At Grade",
        "PRVCAT": "14",
        "INIT": "1",
        "LATITUDE": 32.7645212,
        "LONGITUD": -94.3554703,
        "LLSOURCE": "1",
        "WHISTBAN": "0",
        "RRCONT": "4025443721",
        "POLCONT": "8008488715",
        "INV_LINK": "https://safetydata.fra.dot.gov/OfficeofSafety/PublicSite/Crossing/Crossing.aspx?phasetype=C&rpttype=I&txtcrossingnum=794572T",
        "ACC_LINK": "https://safetydata.fra.dot.gov/OfficeofSafety/PublicSite/Crossing/Crossing.aspx?phasetype=C&rpttype=A&txtcrossingnum=794572T",
        "TTSTNNAM": "",
        "XPURPOSE": "1",
        "OPERATINGR": "UP",
        "OPERATIN_1": "Primary",
        "DAYTHRU": 14,
        "NGHTTHRU": 13,
        "MAINTRK": 1,
        "SIDINGTRK": 0,
        "YARDTRK": 0,
        "TRANSITTRK": 0,
        "INDUSTRYTR": 0,
        "OTHRTRK": 0,
        "WDCODE": "All other Gates",
        "REVISIONDA": "1975/01/01 00:00:00",
        "LASTUPDATE": "8/29/2025",
        "AADT": "701",
        "AADTYEAR": "2019",
        "STATENAME": "TEXAS",
        "STATEAB": "TX",
        "COUNTYNAME": "MARION",
        "CITYNAME": "JEFFERSON",
        "LATDD": 32.7645212,
        "LONGDD": -94.3554703,
        "gridlyProductionCertified": true,
        "gridlyClassification": "PUBLIC_ROADWAY",
        "gridlyDisplayName": "West WATSON Street",
        "gridlyId": "FRA-794572T"
      }
    },
    {
      "type": "Feature",
      "id": 207399,
      "geometry": {
        "type": "Point",
        "coordinates": [
          -94.3561589003844,
          32.7614767000525
        ]
      },
      "properties": {
        "OBJECTID": 207399,
        "CROSSING": "794573A",
        "EFFDATE": 1756425600000,
        "REASON": "14",
        "StateCode": "48",
        "CountyCode": "48315",
        "STCYFIPS": "48315",
        "CITYCD": "483153500",
        "RAILROAD": "UP",
        "RRDIV": "MID AMERICA",
        "RRSUBDIV": "LITTLE ROCK SUB",
        "HIGHWAY": "SH 0049",
        "STREET": "TX 49",
        "TTSTN": "665170",
        "MILEPOST": "0051.510",
        "TYPEXING": "Public",
        "POSXING": "At Grade",
        "PRVCAT": "14",
        "INIT": "1",
        "LATITUDE": 32.7614767,
        "LONGITUD": -94.3561589,
        "LLSOURCE": "1",
        "WHISTBAN": "0",
        "RRCONT": "4025443721",
        "POLCONT": "8008488715",
        "INV_LINK": "https://safetydata.fra.dot.gov/OfficeofSafety/PublicSite/Crossing/Crossing.aspx?phasetype=C&rpttype=I&txtcrossingnum=794573A",
        "ACC_LINK": "https://safetydata.fra.dot.gov/OfficeofSafety/PublicSite/Crossing/Crossing.aspx?phasetype=C&rpttype=A&txtcrossingnum=794573A",
        "TTSTNNAM": "",
        "XPURPOSE": "1",
        "OPERATINGR": "UP",
        "OPERATIN_1": "Primary",
        "DAYTHRU": 14,
        "NGHTTHRU": 13,
        "MAINTRK": 1,
        "SIDINGTRK": 0,
        "YARDTRK": 0,
        "TRANSITTRK": 0,
        "INDUSTRYTR": 0,
        "OTHRTRK": 0,
        "WDCODE": "All other Gates",
        "REVISIONDA": "1975/01/01 00:00:00",
        "LASTUPDATE": "8/29/2025",
        "AADT": "6774",
        "AADTYEAR": "2019",
        "STATENAME": "TEXAS",
        "STATEAB": "TX",
        "COUNTYNAME": "MARION",
        "CITYNAME": "JEFFERSON",
        "LATDD": 32.7614767,
        "LONGDD": -94.3561589,
        "gridlyProductionCertified": true,
        "gridlyClassification": "PUBLIC_ROADWAY",
        "gridlyDisplayName": "TX 49",
        "gridlyId": "FRA-794573A"
      }
    },
    {
      "type": "Feature",
      "id": 207583,
      "geometry": {
        "type": "Point",
        "coordinates": [
          -94.351396599585,
          32.7655525003121
        ]
      },
      "properties": {
        "OBJECTID": 207583,
        "CROSSING": "794570E",
        "EFFDATE": 1756425600000,
        "REASON": "14",
        "StateCode": "48",
        "CountyCode": "48315",
        "STCYFIPS": "48315",
        "CITYCD": "483153500",
        "RAILROAD": "UP",
        "RRDIV": "MID AMERICA",
        "RRSUBDIV": "LITTLE ROCK SUB",
        "HIGHWAY": "ST 0000",
        "STREET": "ALLEY STREET",
        "TTSTN": "665170",
        "MILEPOST": "0051.030",
        "TYPEXING": "Public",
        "POSXING": "At Grade",
        "PRVCAT": "14",
        "INIT": "1",
        "LATITUDE": 32.7655525,
        "LONGITUD": -94.3513966,
        "LLSOURCE": "1",
        "WHISTBAN": "0",
        "RRCONT": "4025443721",
        "POLCONT": "8008488715",
        "INV_LINK": "https://safetydata.fra.dot.gov/OfficeofSafety/PublicSite/Crossing/Crossing.aspx?phasetype=C&rpttype=I&txtcrossingnum=794570E",
        "ACC_LINK": "https://safetydata.fra.dot.gov/OfficeofSafety/PublicSite/Crossing/Crossing.aspx?phasetype=C&rpttype=A&txtcrossingnum=794570E",
        "TTSTNNAM": "",
        "XPURPOSE": "1",
        "OPERATINGR": "UP",
        "OPERATIN_1": "Primary",
        "DAYTHRU": 14,
        "NGHTTHRU": 13,
        "MAINTRK": 1,
        "SIDINGTRK": 1,
        "YARDTRK": 0,
        "TRANSITTRK": 0,
        "INDUSTRYTR": 2,
        "OTHRTRK": 3,
        "WDCODE": "All other Gates",
        "REVISIONDA": "1975/01/01 00:00:00",
        "LASTUPDATE": "8/29/2025",
        "AADT": "384",
        "AADTYEAR": "2019",
        "STATENAME": "TEXAS",
        "STATEAB": "TX",
        "COUNTYNAME": "MARION",
        "CITYNAME": "JEFFERSON",
        "LATDD": 32.7655525,
        "LONGDD": -94.3513966,
        "gridlyProductionCertified": true,
        "gridlyClassification": "PUBLIC_ROADWAY",
        "gridlyDisplayName": "ALLEY STREET",
        "gridlyId": "FRA-794570E"
      }
    },
    {
      "type": "Feature",
      "id": 207872,
      "geometry": {
        "type": "Point",
        "coordinates": [
          -94.2826320000934,
          32.8721370002362
        ]
      },
      "properties": {
        "OBJECTID": 207872,
        "CROSSING": "794560Y",
        "EFFDATE": 1757289600000,
        "REASON": "14",
        "StateCode": "48",
        "CountyCode": "48315",
        "STCYFIPS": "48315",
        "CITYCD": "483153500",
        "RAILROAD": "UP",
        "RRDIV": "MID AMERICA",
        "RRSUBDIV": "LITTLE ROCK SUB",
        "HIGHWAY": "NA",
        "STREET": "LLOYD LANE",
        "TTSTN": "661462",
        "MILEPOST": "0042.250",
        "TYPEXING": "Private",
        "POSXING": "At Grade",
        "PRVCAT": "14",
        "INIT": "1",
        "LATITUDE": 32.872137,
        "LONGITUD": -94.282632,
        "LLSOURCE": "1",
        "WHISTBAN": "0",
        "RRCONT": "4025443721",
        "POLCONT": "8008488715",
        "INV_LINK": "https://safetydata.fra.dot.gov/OfficeofSafety/PublicSite/Crossing/Crossing.aspx?phasetype=C&rpttype=I&txtcrossingnum=794560Y",
        "ACC_LINK": "https://safetydata.fra.dot.gov/OfficeofSafety/PublicSite/Crossing/Crossing.aspx?phasetype=C&rpttype=A&txtcrossingnum=794560Y",
        "TTSTNNAM": "",
        "XPURPOSE": "1",
        "OPERATINGR": "UP",
        "OPERATIN_1": "Primary",
        "DAYTHRU": 14,
        "NGHTTHRU": 13,
        "MAINTRK": 1,
        "SIDINGTRK": 0,
        "YARDTRK": 0,
        "TRANSITTRK": 0,
        "INDUSTRYTR": 0,
        "OTHRTRK": 0,
        "WDCODE": "",
        "REVISIONDA": "1975/01/01 00:00:00",
        "LASTUPDATE": "9/8/2025",
        "AADT": "1",
        "AADTYEAR": "1970",
        "STATENAME": "TEXAS",
        "STATEAB": "TX",
        "COUNTYNAME": "MARION",
        "CITYNAME": "JEFFERSON",
        "LATDD": 32.872137,
        "LONGDD": -94.282632,
        "gridlyProductionCertified": true,
        "gridlyClassification": "PUBLIC_ROADWAY",
        "gridlyDisplayName": "LLOYD LANE",
        "gridlyId": "FRA-794560Y"
      }
    },
    {
      "type": "Feature",
      "id": 207873,
      "geometry": {
        "type": "Point",
        "coordinates": [
          -94.2968286002462,
          32.8390432998343
        ]
      },
      "properties": {
        "OBJECTID": 207873,
        "CROSSING": "794563U",
        "EFFDATE": 1757289600000,
        "REASON": "14",
        "StateCode": "48",
        "CountyCode": "48315",
        "STCYFIPS": "48315",
        "CITYCD": "483153500",
        "RAILROAD": "UP",
        "RRDIV": "MID AMERICA",
        "RRSUBDIV": "LITTLE ROCK SUB",
        "HIGHWAY": "CO 4041",
        "STREET": "PINE ROAD",
        "TTSTN": "665170",
        "MILEPOST": "0044.790",
        "TYPEXING": "Public",
        "POSXING": "At Grade",
        "PRVCAT": "14",
        "INIT": "1",
        "LATITUDE": 32.8390433,
        "LONGITUD": -94.2968286,
        "LLSOURCE": "1",
        "WHISTBAN": "0",
        "RRCONT": "4025443721",
        "POLCONT": "8008488715",
        "INV_LINK": "https://safetydata.fra.dot.gov/OfficeofSafety/PublicSite/Crossing/Crossing.aspx?phasetype=C&rpttype=I&txtcrossingnum=794563U",
        "ACC_LINK": "https://safetydata.fra.dot.gov/OfficeofSafety/PublicSite/Crossing/Crossing.aspx?phasetype=C&rpttype=A&txtcrossingnum=794563U",
        "TTSTNNAM": "",
        "XPURPOSE": "1",
        "OPERATINGR": "UP",
        "OPERATIN_1": "Primary",
        "DAYTHRU": 14,
        "NGHTTHRU": 13,
        "MAINTRK": 1,
        "SIDINGTRK": 0,
        "YARDTRK": 0,
        "TRANSITTRK": 0,
        "INDUSTRYTR": 0,
        "OTHRTRK": 0,
        "WDCODE": "All other Gates",
        "REVISIONDA": "1975/01/01 00:00:00",
        "LASTUPDATE": "9/8/2025",
        "AADT": "14",
        "AADTYEAR": "2019",
        "STATENAME": "TEXAS",
        "STATEAB": "TX",
        "COUNTYNAME": "MARION",
        "CITYNAME": "JEFFERSON",
        "LATDD": 32.8390433,
        "LONGDD": -94.2968286,
        "gridlyProductionCertified": true,
        "gridlyClassification": "PUBLIC_ROADWAY",
        "gridlyDisplayName": "PINE ROAD",
        "gridlyId": "FRA-794563U"
      }
    },
    {
      "type": "Feature",
      "id": 208018,
      "geometry": {
        "type": "Point",
        "coordinates": [
          -94.3572307001128,
          32.7326367998371
        ]
      },
      "properties": {
        "OBJECTID": 208018,
        "CROSSING": "794574G",
        "EFFDATE": 1757289600000,
        "REASON": "14",
        "StateCode": "48",
        "CountyCode": "48315",
        "STCYFIPS": "48315",
        "CITYCD": "483153500",
        "RAILROAD": "UP",
        "RRDIV": "MID AMERICA",
        "RRSUBDIV": "LITTLE ROCK SUB",
        "HIGHWAY": "FM 2208",
        "STREET": "FM 2208",
        "TTSTN": "665170",
        "MILEPOST": "0053.490",
        "TYPEXING": "Public",
        "POSXING": "At Grade",
        "PRVCAT": "14",
        "INIT": "1",
        "LATITUDE": 32.7326368,
        "LONGITUD": -94.3572307,
        "LLSOURCE": "1",
        "WHISTBAN": "0",
        "RRCONT": "4025443721",
        "POLCONT": "8008488715",
        "INV_LINK": "https://safetydata.fra.dot.gov/OfficeofSafety/PublicSite/Crossing/Crossing.aspx?phasetype=C&rpttype=I&txtcrossingnum=794574G",
        "ACC_LINK": "https://safetydata.fra.dot.gov/OfficeofSafety/PublicSite/Crossing/Crossing.aspx?phasetype=C&rpttype=A&txtcrossingnum=794574G",
        "TTSTNNAM": "",
        "XPURPOSE": "1",
        "OPERATINGR": "UP",
        "OPERATIN_1": "Primary",
        "DAYTHRU": 14,
        "NGHTTHRU": 13,
        "MAINTRK": 1,
        "SIDINGTRK": 0,
        "YARDTRK": 0,
        "TRANSITTRK": 0,
        "INDUSTRYTR": 0,
        "OTHRTRK": 0,
        "WDCODE": "All other Gates",
        "REVISIONDA": "1975/01/01 00:00:00",
        "LASTUPDATE": "9/8/2025",
        "AADT": "1212",
        "AADTYEAR": "2019",
        "STATENAME": "TEXAS",
        "STATEAB": "TX",
        "COUNTYNAME": "MARION",
        "CITYNAME": "JEFFERSON",
        "LATDD": 32.7326368,
        "LONGDD": -94.3572307,
        "gridlyProductionCertified": true,
        "gridlyClassification": "PUBLIC_ROADWAY",
        "gridlyDisplayName": "FM 2208",
        "gridlyId": "FRA-794574G"
      }
    },
    {
      "type": "Feature",
      "id": 209809,
      "geometry": {
        "type": "Point",
        "coordinates": [
          -94.3834220002995,
          32.7861870001073
        ]
      },
      "properties": {
        "OBJECTID": 209809,
        "CROSSING": "331458P",
        "EFFDATE": 1772064000000,
        "REASON": "14",
        "StateCode": "48",
        "CountyCode": "48315",
        "STCYFIPS": "48315",
        "CITYCD": "483153500",
        "RAILROAD": "KCS",
        "RRDIV": "Speedway",
        "RRSUBDIV": "Greenville",
        "HIGHWAY": "FM 0728",
        "STREET": "FM 728",
        "TTSTN": "665178",
        "MILEPOST": "0052.474",
        "TYPEXING": "Public",
        "POSXING": "At Grade",
        "PRVCAT": "14",
        "INIT": "1",
        "LATITUDE": 32.786187,
        "LONGITUD": -94.383422,
        "LLSOURCE": "1",
        "WHISTBAN": "0",
        "RRCONT": "3186766269",
        "POLCONT": "8775279464",
        "INV_LINK": "https://safetydata.fra.dot.gov/OfficeofSafety/PublicSite/Crossing/Crossing.aspx?phasetype=C&rpttype=I&txtcrossingnum=331458P",
        "ACC_LINK": "https://safetydata.fra.dot.gov/OfficeofSafety/PublicSite/Crossing/Crossing.aspx?phasetype=C&rpttype=A&txtcrossingnum=331458P",
        "TTSTNNAM": "665178",
        "XPURPOSE": "1",
        "OPERATINGR": "CPKC",
        "OPERATIN_1": "Primary",
        "DAYTHRU": 4,
        "NGHTTHRU": 3,
        "MAINTRK": 1,
        "SIDINGTRK": 0,
        "YARDTRK": 0,
        "TRANSITTRK": 0,
        "INDUSTRYTR": 0,
        "OTHRTRK": 0,
        "WDCODE": "All other Gates",
        "REVISIONDA": "1975/01/01 00:00:00",
        "LASTUPDATE": "2/26/2026",
        "AADT": "456",
        "AADTYEAR": "2019",
        "STATENAME": "TEXAS",
        "STATEAB": "TX",
        "COUNTYNAME": "MARION",
        "CITYNAME": "JEFFERSON",
        "LATDD": 32.786187,
        "LONGDD": -94.383422,
        "gridlyProductionCertified": true,
        "gridlyClassification": "PUBLIC_ROADWAY",
        "gridlyDisplayName": "FM 728",
        "gridlyId": "FRA-331458P"
      }
    },
    {
      "type": "Feature",
      "id": 211148,
      "geometry": {
        "type": "Point",
        "coordinates": [
          -94.4171439996839,
          32.78895800025
        ]
      },
      "properties": {
        "OBJECTID": 211148,
        "CROSSING": "330914J",
        "EFFDATE": 1772064000000,
        "REASON": "14",
        "StateCode": "48",
        "CountyCode": "48315",
        "STCYFIPS": "48315",
        "CITYCD": "483153500",
        "RAILROAD": "KCS",
        "RRDIV": "Speedway",
        "RRSUBDIV": "Greenville",
        "HIGHWAY": "PRIVATE",
        "STREET": "Private Road",
        "TTSTN": "665178",
        "MILEPOST": "0054.573",
        "TYPEXING": "Private",
        "POSXING": "At Grade",
        "PRVCAT": "14",
        "INIT": "1",
        "LATITUDE": 32.788958,
        "LONGITUD": -94.417144,
        "LLSOURCE": "1",
        "WHISTBAN": "0",
        "RRCONT": "3186766269",
        "POLCONT": "8775279464",
        "INV_LINK": "https://safetydata.fra.dot.gov/OfficeofSafety/PublicSite/Crossing/Crossing.aspx?phasetype=C&rpttype=I&txtcrossingnum=330914J",
        "ACC_LINK": "https://safetydata.fra.dot.gov/OfficeofSafety/PublicSite/Crossing/Crossing.aspx?phasetype=C&rpttype=A&txtcrossingnum=330914J",
        "TTSTNNAM": "665178",
        "XPURPOSE": "1",
        "OPERATINGR": "CPKC",
        "OPERATIN_1": "Primary",
        "DAYTHRU": 4,
        "NGHTTHRU": 3,
        "MAINTRK": 1,
        "SIDINGTRK": 0,
        "YARDTRK": 0,
        "TRANSITTRK": 0,
        "INDUSTRYTR": 0,
        "OTHRTRK": 0,
        "WDCODE": "",
        "REVISIONDA": "1975/01/01 00:00:00",
        "LASTUPDATE": "2/26/2026",
        "AADT": "1",
        "AADTYEAR": "1991",
        "STATENAME": "TEXAS",
        "STATEAB": "TX",
        "COUNTYNAME": "MARION",
        "CITYNAME": "JEFFERSON",
        "LATDD": 32.788958,
        "LONGDD": -94.417144,
        "gridlyProductionCertified": true,
        "gridlyClassification": "PUBLIC_ROADWAY",
        "gridlyDisplayName": "Private Road",
        "gridlyId": "FRA-330914J"
      }
    },
    {
      "type": "Feature",
      "id": 211552,
      "geometry": {
        "type": "Point",
        "coordinates": [
          -94.370187999771,
          32.7755780000175
        ]
      },
      "properties": {
        "OBJECTID": 211552,
        "CROSSING": "969747G",
        "EFFDATE": 1772064000000,
        "REASON": "14",
        "StateCode": "48",
        "CountyCode": "48315",
        "STCYFIPS": "48315",
        "CITYCD": "483153500",
        "RAILROAD": "KCS",
        "RRDIV": "Speedway",
        "RRSUBDIV": "Greenville",
        "HIGHWAY": "NA",
        "STREET": "Norboard Industry Xings",
        "TTSTN": "",
        "MILEPOST": "0051.107",
        "TYPEXING": "Private",
        "POSXING": "At Grade",
        "PRVCAT": "14",
        "INIT": "1",
        "LATITUDE": 32.775578,
        "LONGITUD": -94.370188,
        "LLSOURCE": "1",
        "WHISTBAN": "",
        "RRCONT": "3186766269",
        "POLCONT": "8775279464",
        "INV_LINK": "https://safetydata.fra.dot.gov/OfficeofSafety/PublicSite/Crossing/Crossing.aspx?phasetype=C&rpttype=I&txtcrossingnum=969747G",
        "ACC_LINK": "https://safetydata.fra.dot.gov/OfficeofSafety/PublicSite/Crossing/Crossing.aspx?phasetype=C&rpttype=A&txtcrossingnum=969747G",
        "TTSTNNAM": "",
        "XPURPOSE": "1",
        "OPERATINGR": "CPKC",
        "OPERATIN_1": "Primary",
        "DAYTHRU": 0,
        "NGHTTHRU": 0,
        "MAINTRK": 0,
        "SIDINGTRK": 0,
        "YARDTRK": 0,
        "TRANSITTRK": 0,
        "INDUSTRYTR": 1,
        "OTHRTRK": 0,
        "WDCODE": "",
        "REVISIONDA": "1975/01/01 00:00:00",
        "LASTUPDATE": "2/26/2026",
        "AADT": "",
        "AADTYEAR": "",
        "STATENAME": "TEXAS",
        "STATEAB": "TX",
        "COUNTYNAME": "MARION",
        "CITYNAME": "JEFFERSON",
        "LATDD": 32.775578,
        "LONGDD": -94.370188,
        "gridlyProductionCertified": true,
        "gridlyClassification": "PUBLIC_ROADWAY",
        "gridlyDisplayName": "Norboard Industry Xings",
        "gridlyId": "FRA-969747G"
      }
    },
    {
      "type": "Feature",
      "id": 212056,
      "geometry": {
        "type": "Point",
        "coordinates": [
          -94.3444910002643,
          32.7662339996338
        ]
      },
      "properties": {
        "OBJECTID": 212056,
        "CROSSING": "794568D",
        "EFFDATE": 1758499200000,
        "REASON": "14",
        "StateCode": "48",
        "CountyCode": "48315",
        "STCYFIPS": "48315",
        "CITYCD": "483153500",
        "RAILROAD": "UP",
        "RRDIV": "MID AMERICA",
        "RRSUBDIV": "LITTLE ROCK SUB",
        "HIGHWAY": "TBD",
        "STREET": "TX 49",
        "TTSTN": "665170",
        "MILEPOST": "0050.680",
        "TYPEXING": "Public",
        "POSXING": "At Grade",
        "PRVCAT": "14",
        "INIT": "1",
        "LATITUDE": 32.766234,
        "LONGITUD": -94.344491,
        "LLSOURCE": "1",
        "WHISTBAN": "0",
        "RRCONT": "4025443721",
        "POLCONT": "8008488715",
        "INV_LINK": "https://safetydata.fra.dot.gov/OfficeofSafety/PublicSite/Crossing/Crossing.aspx?phasetype=C&rpttype=I&txtcrossingnum=794568D",
        "ACC_LINK": "https://safetydata.fra.dot.gov/OfficeofSafety/PublicSite/Crossing/Crossing.aspx?phasetype=C&rpttype=A&txtcrossingnum=794568D",
        "TTSTNNAM": "",
        "XPURPOSE": "1",
        "OPERATINGR": "UP",
        "OPERATIN_1": "Primary",
        "DAYTHRU": 0,
        "NGHTTHRU": 0,
        "MAINTRK": 0,
        "SIDINGTRK": 0,
        "YARDTRK": 0,
        "TRANSITTRK": 0,
        "INDUSTRYTR": 1,
        "OTHRTRK": 0,
        "WDCODE": "Crossbucks",
        "REVISIONDA": "1975/01/01 00:00:00",
        "LASTUPDATE": "9/22/2025",
        "AADT": "2708",
        "AADTYEAR": "2019",
        "STATENAME": "TEXAS",
        "STATEAB": "TX",
        "COUNTYNAME": "MARION",
        "CITYNAME": "JEFFERSON",
        "LATDD": 32.766234,
        "LONGDD": -94.344491,
        "gridlyProductionCertified": true,
        "gridlyClassification": "PUBLIC_ROADWAY",
        "gridlyDisplayName": "TX 49",
        "gridlyId": "FRA-794568D"
      }
    },
    {
      "type": "Feature",
      "id": 212614,
      "geometry": {
        "type": "Point",
        "coordinates": [
          -94.3412369995729,
          32.7548879997834
        ]
      },
      "properties": {
        "OBJECTID": 212614,
        "CROSSING": "331443A",
        "EFFDATE": 1772064000000,
        "REASON": "14",
        "StateCode": "48",
        "CountyCode": "48315",
        "STCYFIPS": "48315",
        "CITYCD": "483153500",
        "RAILROAD": "KCS",
        "RRDIV": "Speedway",
        "RRSUBDIV": "Greenville",
        "HIGHWAY": "ST 0000",
        "STREET": "Private",
        "TTSTN": "665170",
        "MILEPOST": "0048.990",
        "TYPEXING": "Private",
        "POSXING": "At Grade",
        "PRVCAT": "14",
        "INIT": "1",
        "LATITUDE": 32.754888,
        "LONGITUD": -94.341237,
        "LLSOURCE": "2",
        "WHISTBAN": "0",
        "RRCONT": "3186766269",
        "POLCONT": "8775279464",
        "INV_LINK": "https://safetydata.fra.dot.gov/OfficeofSafety/PublicSite/Crossing/Crossing.aspx?phasetype=C&rpttype=I&txtcrossingnum=331443A",
        "ACC_LINK": "https://safetydata.fra.dot.gov/OfficeofSafety/PublicSite/Crossing/Crossing.aspx?phasetype=C&rpttype=A&txtcrossingnum=331443A",
        "TTSTNNAM": "665170",
        "XPURPOSE": "1",
        "OPERATINGR": "CPKC",
        "OPERATIN_1": "Primary",
        "DAYTHRU": 4,
        "NGHTTHRU": 3,
        "MAINTRK": 1,
        "SIDINGTRK": 0,
        "YARDTRK": 0,
        "TRANSITTRK": 0,
        "INDUSTRYTR": 0,
        "OTHRTRK": 0,
        "WDCODE": "",
        "REVISIONDA": "1975/01/01 00:00:00",
        "LASTUPDATE": "2/26/2026",
        "AADT": "20",
        "AADTYEAR": "1992",
        "STATENAME": "TEXAS",
        "STATEAB": "TX",
        "COUNTYNAME": "MARION",
        "CITYNAME": "JEFFERSON",
        "LATDD": 32.754888,
        "LONGDD": -94.341237,
        "gridlyProductionCertified": true,
        "gridlyClassification": "PUBLIC_ROADWAY",
        "gridlyDisplayName": "Private",
        "gridlyId": "FRA-331443A"
      }
    },
    {
      "type": "Feature",
      "id": 212710,
      "geometry": {
        "type": "Point",
        "coordinates": [
          -94.3428450001012,
          32.7647040003423
        ]
      },
      "properties": {
        "OBJECTID": 212710,
        "CROSSING": "794576V",
        "EFFDATE": 1759104000000,
        "REASON": "14",
        "StateCode": "48",
        "CountyCode": "48315",
        "STCYFIPS": "48315",
        "CITYCD": "483153500",
        "RAILROAD": "UP",
        "RRDIV": "MID AMERICA",
        "RRSUBDIV": "LITTLE ROCK SUB",
        "HIGHWAY": "TBD",
        "STREET": "BONHAM STREET",
        "TTSTN": "665170",
        "MILEPOST": "0050.820",
        "TYPEXING": "Public",
        "POSXING": "At Grade",
        "PRVCAT": "14",
        "INIT": "1",
        "LATITUDE": 32.764704,
        "LONGITUD": -94.342845,
        "LLSOURCE": "1",
        "WHISTBAN": "0",
        "RRCONT": "4025443721",
        "POLCONT": "8008488715",
        "INV_LINK": "https://safetydata.fra.dot.gov/OfficeofSafety/PublicSite/Crossing/Crossing.aspx?phasetype=C&rpttype=I&txtcrossingnum=794576V",
        "ACC_LINK": "https://safetydata.fra.dot.gov/OfficeofSafety/PublicSite/Crossing/Crossing.aspx?phasetype=C&rpttype=A&txtcrossingnum=794576V",
        "TTSTNNAM": "",
        "XPURPOSE": "1",
        "OPERATINGR": "UP",
        "OPERATIN_1": "Primary",
        "DAYTHRU": 0,
        "NGHTTHRU": 0,
        "MAINTRK": 0,
        "SIDINGTRK": 0,
        "YARDTRK": 0,
        "TRANSITTRK": 0,
        "INDUSTRYTR": 1,
        "OTHRTRK": 1,
        "WDCODE": "Crossbucks",
        "REVISIONDA": "1975/01/01 00:00:00",
        "LASTUPDATE": "9/29/2025",
        "AADT": "000150",
        "AADTYEAR": "1991",
        "STATENAME": "TEXAS",
        "STATEAB": "TX",
        "COUNTYNAME": "MARION",
        "CITYNAME": "JEFFERSON",
        "LATDD": 32.764704,
        "LONGDD": -94.342845,
        "gridlyProductionCertified": true,
        "gridlyClassification": "PUBLIC_ROADWAY",
        "gridlyDisplayName": "BONHAM STREET",
        "gridlyId": "FRA-794576V"
      }
    },
    {
      "type": "Feature",
      "id": 213005,
      "geometry": {
        "type": "Point",
        "coordinates": [
          -94.3513699995711,
          32.7657409999554
        ]
      },
      "properties": {
        "OBJECTID": 213005,
        "CROSSING": "975224R",
        "EFFDATE": 1758585600000,
        "REASON": "24",
        "StateCode": "48",
        "CountyCode": "48315",
        "STCYFIPS": "48315",
        "CITYCD": "483153500",
        "RAILROAD": "UP",
        "RRDIV": "Mid America",
        "RRSUBDIV": "Little Rock Sub",
        "HIGHWAY": "TBD",
        "STREET": "Alley Street",
        "TTSTN": "",
        "MILEPOST": "0051.025",
        "TYPEXING": "Public",
        "POSXING": "At Grade",
        "PRVCAT": "24",
        "INIT": "1",
        "LATITUDE": 32.765741,
        "LONGITUD": -94.35137,
        "LLSOURCE": "1",
        "WHISTBAN": "",
        "RRCONT": "4025443721",
        "POLCONT": "8008488715",
        "INV_LINK": "https://safetydata.fra.dot.gov/OfficeofSafety/PublicSite/Crossing/Crossing.aspx?phasetype=C&rpttype=I&txtcrossingnum=975224R",
        "ACC_LINK": "https://safetydata.fra.dot.gov/OfficeofSafety/PublicSite/Crossing/Crossing.aspx?phasetype=C&rpttype=A&txtcrossingnum=975224R",
        "TTSTNNAM": "",
        "XPURPOSE": "1",
        "OPERATINGR": "UP",
        "OPERATIN_1": "Primary",
        "DAYTHRU": 0,
        "NGHTTHRU": 0,
        "MAINTRK": 0,
        "SIDINGTRK": 0,
        "YARDTRK": 0,
        "TRANSITTRK": 0,
        "INDUSTRYTR": 3,
        "OTHRTRK": 0,
        "WDCODE": "No signs or signals",
        "REVISIONDA": "1975/01/01 00:00:00",
        "LASTUPDATE": "9/23/2025",
        "AADT": "100",
        "AADTYEAR": "2018",
        "STATENAME": "TEXAS",
        "STATEAB": "TX",
        "COUNTYNAME": "MARION",
        "CITYNAME": "JEFFERSON",
        "LATDD": 32.765741,
        "LONGDD": -94.35137,
        "gridlyProductionCertified": true,
        "gridlyClassification": "PUBLIC_ROADWAY",
        "gridlyDisplayName": "Alley Street",
        "gridlyId": "FRA-975224R"
      }
    },
    {
      "type": "Feature",
      "id": 214592,
      "geometry": {
        "type": "Point",
        "coordinates": [
          -94.2985909996122,
          32.7477269996907
        ]
      },
      "properties": {
        "OBJECTID": 214592,
        "CROSSING": "331441L",
        "EFFDATE": 1772064000000,
        "REASON": "14",
        "StateCode": "48",
        "CountyCode": "48315",
        "STCYFIPS": "48315",
        "CITYCD": "483153500",
        "RAILROAD": "KCS",
        "RRDIV": "Speedway",
        "RRSUBDIV": "Greenville",
        "HIGHWAY": "CO 0000",
        "STREET": "PRIVATE ROAD",
        "TTSTN": "665323",
        "MILEPOST": "0046.400",
        "TYPEXING": "Private",
        "POSXING": "At Grade",
        "PRVCAT": "14",
        "INIT": "1",
        "LATITUDE": 32.747727,
        "LONGITUD": -94.298591,
        "LLSOURCE": "1",
        "WHISTBAN": "0",
        "RRCONT": "3186766269",
        "POLCONT": "8775279464",
        "INV_LINK": "https://safetydata.fra.dot.gov/OfficeofSafety/PublicSite/Crossing/Crossing.aspx?phasetype=C&rpttype=I&txtcrossingnum=331441L",
        "ACC_LINK": "https://safetydata.fra.dot.gov/OfficeofSafety/PublicSite/Crossing/Crossing.aspx?phasetype=C&rpttype=A&txtcrossingnum=331441L",
        "TTSTNNAM": "665323",
        "XPURPOSE": "1",
        "OPERATINGR": "CPKC",
        "OPERATIN_1": "Primary",
        "DAYTHRU": 4,
        "NGHTTHRU": 3,
        "MAINTRK": 1,
        "SIDINGTRK": 0,
        "YARDTRK": 0,
        "TRANSITTRK": 0,
        "INDUSTRYTR": 0,
        "OTHRTRK": 0,
        "WDCODE": "",
        "REVISIONDA": "1975/01/01 00:00:00",
        "LASTUPDATE": "2/26/2026",
        "AADT": "15",
        "AADTYEAR": "1983",
        "STATENAME": "TEXAS",
        "STATEAB": "TX",
        "COUNTYNAME": "MARION",
        "CITYNAME": "JEFFERSON",
        "LATDD": 32.747727,
        "LONGDD": -94.298591,
        "gridlyProductionCertified": true,
        "gridlyClassification": "PUBLIC_ROADWAY",
        "gridlyDisplayName": "PRIVATE ROAD",
        "gridlyId": "FRA-331441L"
      }
    },
    {
      "type": "Feature",
      "id": 214616,
      "geometry": {
        "type": "Point",
        "coordinates": [
          -94.4388009995751,
          32.8148109998887
        ]
      },
      "properties": {
        "OBJECTID": 214616,
        "CROSSING": "331462E",
        "EFFDATE": 1772064000000,
        "REASON": "14",
        "StateCode": "48",
        "CountyCode": "48315",
        "STCYFIPS": "48315",
        "CITYCD": "483153500",
        "RAILROAD": "KCS",
        "RRDIV": "Speedway",
        "RRSUBDIV": "Greenville",
        "HIGHWAY": "PRIVATE",
        "STREET": "Foster Road",
        "TTSTN": "665133",
        "MILEPOST": "0056.810",
        "TYPEXING": "Public",
        "POSXING": "At Grade",
        "PRVCAT": "14",
        "INIT": "1",
        "LATITUDE": 32.814811,
        "LONGITUD": -94.438801,
        "LLSOURCE": "1",
        "WHISTBAN": "0",
        "RRCONT": "3186766269",
        "POLCONT": "8775279464",
        "INV_LINK": "https://safetydata.fra.dot.gov/OfficeofSafety/PublicSite/Crossing/Crossing.aspx?phasetype=C&rpttype=I&txtcrossingnum=331462E",
        "ACC_LINK": "https://safetydata.fra.dot.gov/OfficeofSafety/PublicSite/Crossing/Crossing.aspx?phasetype=C&rpttype=A&txtcrossingnum=331462E",
        "TTSTNNAM": "665133",
        "XPURPOSE": "1",
        "OPERATINGR": "CPKC",
        "OPERATIN_1": "Primary",
        "DAYTHRU": 4,
        "NGHTTHRU": 3,
        "MAINTRK": 1,
        "SIDINGTRK": 0,
        "YARDTRK": 0,
        "TRANSITTRK": 0,
        "INDUSTRYTR": 0,
        "OTHRTRK": 0,
        "WDCODE": "Crossbucks",
        "REVISIONDA": "1975/01/01 00:00:00",
        "LASTUPDATE": "2/26/2026",
        "AADT": "1",
        "AADTYEAR": "2019",
        "STATENAME": "TEXAS",
        "STATEAB": "TX",
        "COUNTYNAME": "MARION",
        "CITYNAME": "JEFFERSON",
        "LATDD": 32.814811,
        "LONGDD": -94.438801,
        "gridlyProductionCertified": true,
        "gridlyClassification": "PUBLIC_ROADWAY",
        "gridlyDisplayName": "Foster Road",
        "gridlyId": "FRA-331462E"
      }
    },
    {
      "type": "Feature",
      "id": 214685,
      "geometry": {
        "type": "Point",
        "coordinates": [
          -94.3585509999,
          32.7663010003462
        ]
      },
      "properties": {
        "OBJECTID": 214685,
        "CROSSING": "331454M",
        "EFFDATE": 1772064000000,
        "REASON": "14",
        "StateCode": "48",
        "CountyCode": "48315",
        "STCYFIPS": "48315",
        "CITYCD": "483153500",
        "RAILROAD": "KCS",
        "RRDIV": "Speedway",
        "RRSUBDIV": "Greenville",
        "HIGHWAY": "ST 0000",
        "STREET": "M L KING DR",
        "TTSTN": "665170",
        "MILEPOST": "0050.370",
        "TYPEXING": "Public",
        "POSXING": "At Grade",
        "PRVCAT": "14",
        "INIT": "1",
        "LATITUDE": 32.766301,
        "LONGITUD": -94.358551,
        "LLSOURCE": "1",
        "WHISTBAN": "0",
        "RRCONT": "3186766269",
        "POLCONT": "8775279464",
        "INV_LINK": "https://safetydata.fra.dot.gov/OfficeofSafety/PublicSite/Crossing/Crossing.aspx?phasetype=C&rpttype=I&txtcrossingnum=331454M",
        "ACC_LINK": "https://safetydata.fra.dot.gov/OfficeofSafety/PublicSite/Crossing/Crossing.aspx?phasetype=C&rpttype=A&txtcrossingnum=331454M",
        "TTSTNNAM": "665170",
        "XPURPOSE": "1",
        "OPERATINGR": "CPKC",
        "OPERATIN_1": "Primary",
        "DAYTHRU": 4,
        "NGHTTHRU": 3,
        "MAINTRK": 1,
        "SIDINGTRK": 0,
        "YARDTRK": 0,
        "TRANSITTRK": 0,
        "INDUSTRYTR": 1,
        "OTHRTRK": 1,
        "WDCODE": "All other Gates",
        "REVISIONDA": "1975/01/01 00:00:00",
        "LASTUPDATE": "2/26/2026",
        "AADT": "438",
        "AADTYEAR": "2019",
        "STATENAME": "TEXAS",
        "STATEAB": "TX",
        "COUNTYNAME": "MARION",
        "CITYNAME": "JEFFERSON",
        "LATDD": 32.766301,
        "LONGDD": -94.358551,
        "gridlyProductionCertified": true,
        "gridlyClassification": "PUBLIC_ROADWAY",
        "gridlyDisplayName": "M L KING DR",
        "gridlyId": "FRA-331454M"
      }
    },
    {
      "type": "Feature",
      "id": 215879,
      "geometry": {
        "type": "Point",
        "coordinates": [
          -94.5120260003536,
          32.8377870000808
        ]
      },
      "properties": {
        "OBJECTID": 215879,
        "CROSSING": "331466G",
        "EFFDATE": 1772064000000,
        "REASON": "14",
        "StateCode": "48",
        "CountyCode": "48315",
        "STCYFIPS": "48315",
        "CITYCD": "480670360",
        "RAILROAD": "KCS",
        "RRDIV": "Speedway",
        "RRSUBDIV": "Greenville",
        "HIGHWAY": "SH 0049",
        "STREET": "SH 0049",
        "TTSTN": "665133",
        "MILEPOST": "0061.710",
        "TYPEXING": "Public",
        "POSXING": "RR Over",
        "PRVCAT": "14",
        "INIT": "1",
        "LATITUDE": 32.837787,
        "LONGITUD": -94.512026,
        "LLSOURCE": "1",
        "WHISTBAN": "0",
        "RRCONT": "3186766269",
        "POLCONT": "8775279464",
        "INV_LINK": "https://safetydata.fra.dot.gov/OfficeofSafety/PublicSite/Crossing/Crossing.aspx?phasetype=C&rpttype=I&txtcrossingnum=331466G",
        "ACC_LINK": "https://safetydata.fra.dot.gov/OfficeofSafety/PublicSite/Crossing/Crossing.aspx?phasetype=C&rpttype=A&txtcrossingnum=331466G",
        "TTSTNNAM": "665133",
        "XPURPOSE": "1",
        "OPERATINGR": "CPKC",
        "OPERATIN_1": "Primary",
        "DAYTHRU": 4,
        "NGHTTHRU": 3,
        "MAINTRK": 1,
        "SIDINGTRK": 0,
        "YARDTRK": 0,
        "TRANSITTRK": 0,
        "INDUSTRYTR": 0,
        "OTHRTRK": 0,
        "WDCODE": "",
        "REVISIONDA": "1975/01/01 00:00:00",
        "LASTUPDATE": "2/26/2026",
        "AADT": "2300",
        "AADTYEAR": "2011",
        "STATENAME": "TEXAS",
        "STATEAB": "TX",
        "COUNTYNAME": "MARION",
        "CITYNAME": "AVINGER",
        "LATDD": 32.837787,
        "LONGDD": -94.512026,
        "gridlyProductionCertified": true,
        "gridlyClassification": "PUBLIC_ROADWAY",
        "gridlyDisplayName": "SH 0049",
        "gridlyId": "FRA-331466G"
      }
    },
    {
      "type": "Feature",
      "id": 215899,
      "geometry": {
        "type": "Point",
        "coordinates": [
          -94.5251570000517,
          32.8618510003204
        ]
      },
      "properties": {
        "OBJECTID": 215899,
        "CROSSING": "331470W",
        "EFFDATE": 1772064000000,
        "REASON": "14",
        "StateCode": "48",
        "CountyCode": "48315",
        "STCYFIPS": "48315",
        "CITYCD": "480670360",
        "RAILROAD": "KCS",
        "RRDIV": "Speedway",
        "RRSUBDIV": "Greenville",
        "HIGHWAY": "CO",
        "STREET": "WILKES POWER PLNT",
        "TTSTN": "661497",
        "MILEPOST": "0064.310",
        "TYPEXING": "Public",
        "POSXING": "At Grade",
        "PRVCAT": "14",
        "INIT": "1",
        "LATITUDE": 32.861851,
        "LONGITUD": -94.525157,
        "LLSOURCE": "1",
        "WHISTBAN": "0",
        "RRCONT": "3186766269",
        "POLCONT": "8775279464",
        "INV_LINK": "https://safetydata.fra.dot.gov/OfficeofSafety/PublicSite/Crossing/Crossing.aspx?phasetype=C&rpttype=I&txtcrossingnum=331470W",
        "ACC_LINK": "https://safetydata.fra.dot.gov/OfficeofSafety/PublicSite/Crossing/Crossing.aspx?phasetype=C&rpttype=A&txtcrossingnum=331470W",
        "TTSTNNAM": "661497",
        "XPURPOSE": "1",
        "OPERATINGR": "CPKC",
        "OPERATIN_1": "Primary",
        "DAYTHRU": 4,
        "NGHTTHRU": 3,
        "MAINTRK": 1,
        "SIDINGTRK": 0,
        "YARDTRK": 0,
        "TRANSITTRK": 0,
        "INDUSTRYTR": 0,
        "OTHRTRK": 0,
        "WDCODE": "All other Gates",
        "REVISIONDA": "1975/01/01 00:00:00",
        "LASTUPDATE": "2/26/2026",
        "AADT": "213",
        "AADTYEAR": "2019",
        "STATENAME": "TEXAS",
        "STATEAB": "TX",
        "COUNTYNAME": "MARION",
        "CITYNAME": "AVINGER",
        "LATDD": 32.861851,
        "LONGDD": -94.525157,
        "gridlyProductionCertified": true,
        "gridlyClassification": "PUBLIC_ROADWAY",
        "gridlyDisplayName": "WILKES POWER PLNT",
        "gridlyId": "FRA-331470W"
      }
    },
    {
      "type": "Feature",
      "id": 215933,
      "geometry": {
        "type": "Point",
        "coordinates": [
          -94.345118999903,
          32.7616030002845
        ]
      },
      "properties": {
        "OBJECTID": 215933,
        "CROSSING": "331449R",
        "EFFDATE": 1772064000000,
        "REASON": "14",
        "StateCode": "48",
        "CountyCode": "48315",
        "STCYFIPS": "48315",
        "CITYCD": "483153500",
        "RAILROAD": "KCS",
        "RRDIV": "Speedway",
        "RRSUBDIV": "Greenville",
        "HIGHWAY": "ST",
        "STREET": "CLARKSVILLE STREET",
        "TTSTN": "665170",
        "MILEPOST": "0049.460",
        "TYPEXING": "Public",
        "POSXING": "At Grade",
        "PRVCAT": "14",
        "INIT": "1",
        "LATITUDE": 32.761603,
        "LONGITUD": -94.345119,
        "LLSOURCE": "1",
        "WHISTBAN": "0",
        "RRCONT": "3186766269",
        "POLCONT": "8775279464",
        "INV_LINK": "https://safetydata.fra.dot.gov/OfficeofSafety/PublicSite/Crossing/Crossing.aspx?phasetype=C&rpttype=I&txtcrossingnum=331449R",
        "ACC_LINK": "https://safetydata.fra.dot.gov/OfficeofSafety/PublicSite/Crossing/Crossing.aspx?phasetype=C&rpttype=A&txtcrossingnum=331449R",
        "TTSTNNAM": "665170",
        "XPURPOSE": "1",
        "OPERATINGR": "CPKC",
        "OPERATIN_1": "Primary",
        "DAYTHRU": 4,
        "NGHTTHRU": 3,
        "MAINTRK": 1,
        "SIDINGTRK": 0,
        "YARDTRK": 0,
        "TRANSITTRK": 0,
        "INDUSTRYTR": 0,
        "OTHRTRK": 0,
        "WDCODE": "All other Gates",
        "REVISIONDA": "1975/01/01 00:00:00",
        "LASTUPDATE": "2/26/2026",
        "AADT": "107",
        "AADTYEAR": "2019",
        "STATENAME": "TEXAS",
        "STATEAB": "TX",
        "COUNTYNAME": "MARION",
        "CITYNAME": "JEFFERSON",
        "LATDD": 32.761603,
        "LONGDD": -94.345119,
        "gridlyProductionCertified": true,
        "gridlyClassification": "PUBLIC_ROADWAY",
        "gridlyDisplayName": "CLARKSVILLE STREET",
        "gridlyId": "FRA-331449R"
      }
    },
    {
      "type": "Feature",
      "id": 215950,
      "geometry": {
        "type": "Point",
        "coordinates": [
          -94.3628440001337,
          32.7687729996517
        ]
      },
      "properties": {
        "OBJECTID": 215950,
        "CROSSING": "331455U",
        "EFFDATE": 1772064000000,
        "REASON": "14",
        "StateCode": "48",
        "CountyCode": "48315",
        "STCYFIPS": "48315",
        "CITYCD": "483153500",
        "RAILROAD": "KCS",
        "RRDIV": "Speedway",
        "RRSUBDIV": "Greenville",
        "HIGHWAY": "ST 0000",
        "STREET": "HAYWOOD ST",
        "TTSTN": "665170",
        "MILEPOST": "0050.690",
        "TYPEXING": "Public",
        "POSXING": "At Grade",
        "PRVCAT": "14",
        "INIT": "1",
        "LATITUDE": 32.768773,
        "LONGITUD": -94.362844,
        "LLSOURCE": "1",
        "WHISTBAN": "0",
        "RRCONT": "3186766269",
        "POLCONT": "8775279464",
        "INV_LINK": "https://safetydata.fra.dot.gov/OfficeofSafety/PublicSite/Crossing/Crossing.aspx?phasetype=C&rpttype=I&txtcrossingnum=331455U",
        "ACC_LINK": "https://safetydata.fra.dot.gov/OfficeofSafety/PublicSite/Crossing/Crossing.aspx?phasetype=C&rpttype=A&txtcrossingnum=331455U",
        "TTSTNNAM": "665170",
        "XPURPOSE": "1",
        "OPERATINGR": "CPKC",
        "OPERATIN_1": "Primary",
        "DAYTHRU": 4,
        "NGHTTHRU": 3,
        "MAINTRK": 1,
        "SIDINGTRK": 0,
        "YARDTRK": 0,
        "TRANSITTRK": 0,
        "INDUSTRYTR": 0,
        "OTHRTRK": 0,
        "WDCODE": "Stop signs",
        "REVISIONDA": "1975/01/01 00:00:00",
        "LASTUPDATE": "2/26/2026",
        "AADT": "23",
        "AADTYEAR": "2019",
        "STATENAME": "TEXAS",
        "STATEAB": "TX",
        "COUNTYNAME": "MARION",
        "CITYNAME": "JEFFERSON",
        "LATDD": 32.768773,
        "LONGDD": -94.362844,
        "gridlyProductionCertified": true,
        "gridlyClassification": "PUBLIC_ROADWAY",
        "gridlyDisplayName": "HAYWOOD ST",
        "gridlyId": "FRA-331455U"
      }
    },
    {
      "type": "Feature",
      "id": 215969,
      "geometry": {
        "type": "Point",
        "coordinates": [
          -94.5014640000101,
          32.8319779998633
        ]
      },
      "properties": {
        "OBJECTID": 215969,
        "CROSSING": "331465A",
        "EFFDATE": 1772064000000,
        "REASON": "14",
        "StateCode": "48",
        "CountyCode": "48315",
        "STCYFIPS": "48315",
        "CITYCD": "480670360",
        "RAILROAD": "KCS",
        "RRDIV": "Speedway",
        "RRSUBDIV": "Greenville",
        "HIGHWAY": "CO 3903",
        "STREET": "LASSATER RD",
        "TTSTN": "665133",
        "MILEPOST": "0060.890",
        "TYPEXING": "Public",
        "POSXING": "At Grade",
        "PRVCAT": "14",
        "INIT": "1",
        "LATITUDE": 32.831978,
        "LONGITUD": -94.501464,
        "LLSOURCE": "1",
        "WHISTBAN": "0",
        "RRCONT": "3186766269",
        "POLCONT": "8775279464",
        "INV_LINK": "https://safetydata.fra.dot.gov/OfficeofSafety/PublicSite/Crossing/Crossing.aspx?phasetype=C&rpttype=I&txtcrossingnum=331465A",
        "ACC_LINK": "https://safetydata.fra.dot.gov/OfficeofSafety/PublicSite/Crossing/Crossing.aspx?phasetype=C&rpttype=A&txtcrossingnum=331465A",
        "TTSTNNAM": "665133",
        "XPURPOSE": "1",
        "OPERATINGR": "CPKC",
        "OPERATIN_1": "Primary",
        "DAYTHRU": 4,
        "NGHTTHRU": 3,
        "MAINTRK": 1,
        "SIDINGTRK": 1,
        "YARDTRK": 0,
        "TRANSITTRK": 0,
        "INDUSTRYTR": 1,
        "OTHRTRK": 2,
        "WDCODE": "All other Gates",
        "REVISIONDA": "1975/01/01 00:00:00",
        "LASTUPDATE": "2/26/2026",
        "AADT": "44",
        "AADTYEAR": "2019",
        "STATENAME": "TEXAS",
        "STATEAB": "TX",
        "COUNTYNAME": "MARION",
        "CITYNAME": "AVINGER",
        "LATDD": 32.831978,
        "LONGDD": -94.501464,
        "gridlyProductionCertified": true,
        "gridlyClassification": "PUBLIC_ROADWAY",
        "gridlyDisplayName": "LASSATER RD",
        "gridlyId": "FRA-331465A"
      }
    },
    {
      "type": "Feature",
      "id": 215976,
      "geometry": {
        "type": "Point",
        "coordinates": [
          -94.3561280001353,
          32.7655209999441
        ]
      },
      "properties": {
        "OBJECTID": 215976,
        "CROSSING": "331746J",
        "EFFDATE": 1772064000000,
        "REASON": "14",
        "StateCode": "48",
        "CountyCode": "48315",
        "STCYFIPS": "48315",
        "CITYCD": "483153500",
        "RAILROAD": "KCS",
        "RRDIV": "Speedway",
        "RRSUBDIV": "Greenville",
        "HIGHWAY": "ST 0000",
        "STREET": "Tuttle Street",
        "TTSTN": "476937",
        "MILEPOST": "0050.274",
        "TYPEXING": "Public",
        "POSXING": "At Grade",
        "PRVCAT": "14",
        "INIT": "1",
        "LATITUDE": 32.765521,
        "LONGITUD": -94.356128,
        "LLSOURCE": "1",
        "WHISTBAN": "0",
        "RRCONT": "3186766269",
        "POLCONT": "8775279464",
        "INV_LINK": "https://safetydata.fra.dot.gov/OfficeofSafety/PublicSite/Crossing/Crossing.aspx?phasetype=C&rpttype=I&txtcrossingnum=331746J",
        "ACC_LINK": "https://safetydata.fra.dot.gov/OfficeofSafety/PublicSite/Crossing/Crossing.aspx?phasetype=C&rpttype=A&txtcrossingnum=331746J",
        "TTSTNNAM": "476937",
        "XPURPOSE": "1",
        "OPERATINGR": "CPKC",
        "OPERATIN_1": "Primary",
        "DAYTHRU": 4,
        "NGHTTHRU": 3,
        "MAINTRK": 0,
        "SIDINGTRK": 0,
        "YARDTRK": 0,
        "TRANSITTRK": 0,
        "INDUSTRYTR": 1,
        "OTHRTRK": 1,
        "WDCODE": "Crossbucks",
        "REVISIONDA": "1975/01/01 00:00:00",
        "LASTUPDATE": "2/26/2026",
        "AADT": "232",
        "AADTYEAR": "2019",
        "STATENAME": "TEXAS",
        "STATEAB": "TX",
        "COUNTYNAME": "MARION",
        "CITYNAME": "JEFFERSON",
        "LATDD": 32.765521,
        "LONGDD": -94.356128,
        "gridlyProductionCertified": true,
        "gridlyClassification": "PUBLIC_ROADWAY",
        "gridlyDisplayName": "Tuttle Street",
        "gridlyId": "FRA-331746J"
      }
    },
    {
      "type": "Feature",
      "id": 215994,
      "geometry": {
        "type": "Point",
        "coordinates": [
          -94.4144280000163,
          32.788621000168
        ]
      },
      "properties": {
        "OBJECTID": 215994,
        "CROSSING": "331459W",
        "EFFDATE": 1772064000000,
        "REASON": "14",
        "StateCode": "48",
        "CountyCode": "48315",
        "STCYFIPS": "48315",
        "CITYCD": "483153500",
        "RAILROAD": "KCS",
        "RRDIV": "Speedway",
        "RRSUBDIV": "Greenville",
        "HIGHWAY": "CO 0000",
        "STREET": "KELLYVILLE ROAD",
        "TTSTN": "665178",
        "MILEPOST": "0054.400",
        "TYPEXING": "Public",
        "POSXING": "At Grade",
        "PRVCAT": "14",
        "INIT": "1",
        "LATITUDE": 32.788621,
        "LONGITUD": -94.414428,
        "LLSOURCE": "1",
        "WHISTBAN": "0",
        "RRCONT": "3186766269",
        "POLCONT": "8775279464",
        "INV_LINK": "https://safetydata.fra.dot.gov/OfficeofSafety/PublicSite/Crossing/Crossing.aspx?phasetype=C&rpttype=I&txtcrossingnum=331459W",
        "ACC_LINK": "https://safetydata.fra.dot.gov/OfficeofSafety/PublicSite/Crossing/Crossing.aspx?phasetype=C&rpttype=A&txtcrossingnum=331459W",
        "TTSTNNAM": "665178",
        "XPURPOSE": "1",
        "OPERATINGR": "CPKC",
        "OPERATIN_1": "Primary",
        "DAYTHRU": 4,
        "NGHTTHRU": 3,
        "MAINTRK": 1,
        "SIDINGTRK": 0,
        "YARDTRK": 0,
        "TRANSITTRK": 0,
        "INDUSTRYTR": 0,
        "OTHRTRK": 0,
        "WDCODE": "All other Gates",
        "REVISIONDA": "1975/01/01 00:00:00",
        "LASTUPDATE": "2/26/2026",
        "AADT": "281",
        "AADTYEAR": "2019",
        "STATENAME": "TEXAS",
        "STATEAB": "TX",
        "COUNTYNAME": "MARION",
        "CITYNAME": "JEFFERSON",
        "LATDD": 32.788621,
        "LONGDD": -94.414428,
        "gridlyProductionCertified": true,
        "gridlyClassification": "PUBLIC_ROADWAY",
        "gridlyDisplayName": "KELLYVILLE ROAD",
        "gridlyId": "FRA-331459W"
      }
    }
  ]
}
