{
  "type": "FeatureCollection",
  "features": [
    {
      "type": "Feature",
      "id": 203345,
      "geometry": {
        "type": "Point",
        "coordinates": [
          -99.9815220002113,
          31.7078300000538
        ]
      },
      "properties": {
        "OBJECTID": 203345,
        "CROSSING": "021419T",
        "EFFDATE": 1704758400000,
        "REASON": "14",
        "StateCode": "48",
        "CountyCode": "48399",
        "STCYFIPS": "48399",
        "CITYCD": "483990400",
        "RAILROAD": "TXPF",
        "RRDIV": "SOUTHERN",
        "RRSUBDIV": "SAN ANGELO",
        "HIGHWAY": "us67",
        "STREET": "PRIVATE ROAD",
        "TTSTN": "",
        "MILEPOST": "0033.72",
        "TYPEXING": "Private",
        "POSXING": "At Grade",
        "PRVCAT": "14",
        "INIT": "1",
        "LATITUDE": 31.70783,
        "LONGITUD": -99.981522,
        "LLSOURCE": "1",
        "WHISTBAN": "0",
        "RRCONT": "3259428164",
        "POLCONT": "8007428905",
        "INV_LINK": "https://safetydata.fra.dot.gov/OfficeofSafety/PublicSite/Crossing/Crossing.aspx?phasetype=C&rpttype=I&txtcrossingnum=021419T",
        "ACC_LINK": "https://safetydata.fra.dot.gov/OfficeofSafety/PublicSite/Crossing/Crossing.aspx?phasetype=C&rpttype=A&txtcrossingnum=021419T",
        "TTSTNNAM": "BALLINGER",
        "XPURPOSE": "1",
        "OPERATINGR": "TXPF",
        "OPERATIN_1": "Primary",
        "DAYTHRU": 1,
        "NGHTTHRU": 1,
        "MAINTRK": 1,
        "SIDINGTRK": 0,
        "YARDTRK": 0,
        "TRANSITTRK": 0,
        "INDUSTRYTR": 0,
        "OTHRTRK": 0,
        "WDCODE": "",
        "REVISIONDA": "2001/01/01 00:00:00",
        "LASTUPDATE": "1/9/2024",
        "AADT": "",
        "AADTYEAR": "1970",
        "STATENAME": "TEXAS",
        "STATEAB": "TX",
        "COUNTYNAME": "RUNNELS",
        "CITYNAME": "BALLINGER",
        "LATDD": 31.70783,
        "LONGDD": -99.981522,
        "gridlyProductionCertified": true,
        "gridlyClassification": "PUBLIC_ROADWAY",
        "gridlyDisplayName": "PRIVATE ROAD",
        "gridlyId": "FRA-021419T"
      }
    },
    {
      "type": "Feature",
      "id": 203346,
      "geometry": {
        "type": "Point",
        "coordinates": [
          -100.054557999946,
          31.6461909996287
        ]
      },
      "properties": {
        "OBJECTID": 203346,
        "CROSSING": "021438X",
        "EFFDATE": 1704758400000,
        "REASON": "14",
        "StateCode": "48",
        "CountyCode": "48399",
        "STCYFIPS": "48399",
        "CITYCD": "483990400",
        "RAILROAD": "TXPF",
        "RRDIV": "SOUTHERN",
        "RRSUBDIV": "SAN ANGELO",
        "HIGHWAY": "us67",
        "STREET": "PRIVATE ROAD",
        "TTSTN": "",
        "MILEPOST": "0044.75",
        "TYPEXING": "Private",
        "POSXING": "At Grade",
        "PRVCAT": "14",
        "INIT": "1",
        "LATITUDE": 31.646191,
        "LONGITUD": -100.054558,
        "LLSOURCE": "1",
        "WHISTBAN": "0",
        "RRCONT": "3259428164",
        "POLCONT": "8007428905",
        "INV_LINK": "https://safetydata.fra.dot.gov/OfficeofSafety/PublicSite/Crossing/Crossing.aspx?phasetype=C&rpttype=I&txtcrossingnum=021438X",
        "ACC_LINK": "https://safetydata.fra.dot.gov/OfficeofSafety/PublicSite/Crossing/Crossing.aspx?phasetype=C&rpttype=A&txtcrossingnum=021438X",
        "TTSTNNAM": "ROWENA",
        "XPURPOSE": "1",
        "OPERATINGR": "TXPF",
        "OPERATIN_1": "Primary",
        "DAYTHRU": 1,
        "NGHTTHRU": 1,
        "MAINTRK": 1,
        "SIDINGTRK": 0,
        "YARDTRK": 0,
        "TRANSITTRK": 0,
        "INDUSTRYTR": 0,
        "OTHRTRK": 0,
        "WDCODE": "",
        "REVISIONDA": "2001/01/01 00:00:00",
        "LASTUPDATE": "1/9/2024",
        "AADT": "",
        "AADTYEAR": "1970",
        "STATENAME": "TEXAS",
        "STATEAB": "TX",
        "COUNTYNAME": "RUNNELS",
        "CITYNAME": "BALLINGER",
        "LATDD": 31.646191,
        "LONGDD": -100.054558,
        "gridlyProductionCertified": true,
        "gridlyClassification": "PUBLIC_ROADWAY",
        "gridlyDisplayName": "PRIVATE ROAD",
        "gridlyId": "FRA-021438X"
      }
    },
    {
      "type": "Feature",
      "id": 203347,
      "geometry": {
        "type": "Point",
        "coordinates": [
          -100.101326000436,
          31.6247269998053
        ]
      },
      "properties": {
        "OBJECTID": 203347,
        "CROSSING": "021442M",
        "EFFDATE": 1704758400000,
        "REASON": "14",
        "StateCode": "48",
        "CountyCode": "48399",
        "STCYFIPS": "48399",
        "CITYCD": "483994580",
        "RAILROAD": "TXPF",
        "RRDIV": "SOUTHERN",
        "RRSUBDIV": "SAN ANGELO",
        "HIGHWAY": "us67",
        "STREET": "PRIVATE ROAD",
        "TTSTN": "",
        "MILEPOST": "0047.92",
        "TYPEXING": "Private",
        "POSXING": "At Grade",
        "PRVCAT": "14",
        "INIT": "1",
        "LATITUDE": 31.624727,
        "LONGITUD": -100.101326,
        "LLSOURCE": "1",
        "WHISTBAN": "0",
        "RRCONT": "3259428164",
        "POLCONT": "8007428905",
        "INV_LINK": "https://safetydata.fra.dot.gov/OfficeofSafety/PublicSite/Crossing/Crossing.aspx?phasetype=C&rpttype=I&txtcrossingnum=021442M",
        "ACC_LINK": "https://safetydata.fra.dot.gov/OfficeofSafety/PublicSite/Crossing/Crossing.aspx?phasetype=C&rpttype=A&txtcrossingnum=021442M",
        "TTSTNNAM": "ROWENA",
        "XPURPOSE": "1",
        "OPERATINGR": "TXPF",
        "OPERATIN_1": "Primary",
        "DAYTHRU": 1,
        "NGHTTHRU": 1,
        "MAINTRK": 1,
        "SIDINGTRK": 0,
        "YARDTRK": 0,
        "TRANSITTRK": 0,
        "INDUSTRYTR": 0,
        "OTHRTRK": 0,
        "WDCODE": "",
        "REVISIONDA": "2001/01/01 00:00:00",
        "LASTUPDATE": "1/9/2024",
        "AADT": "",
        "AADTYEAR": "1970",
        "STATENAME": "TEXAS",
        "STATEAB": "TX",
        "COUNTYNAME": "RUNNELS",
        "CITYNAME": "MILES",
        "LATDD": 31.624727,
        "LONGDD": -100.101326,
        "gridlyProductionCertified": true,
        "gridlyClassification": "PUBLIC_ROADWAY",
        "gridlyDisplayName": "PRIVATE ROAD",
        "gridlyId": "FRA-021442M"
      }
    },
    {
      "type": "Feature",
      "id": 203348,
      "geometry": {
        "type": "Point",
        "coordinates": [
          -100.109619000102,
          31.621848999735
        ]
      },
      "properties": {
        "OBJECTID": 203348,
        "CROSSING": "021443U",
        "EFFDATE": 1704758400000,
        "REASON": "14",
        "StateCode": "48",
        "CountyCode": "48399",
        "STCYFIPS": "48399",
        "CITYCD": "483994580",
        "RAILROAD": "TXPF",
        "RRDIV": "SOUTHERN",
        "RRSUBDIV": "SAN ANGELO",
        "HIGHWAY": "us67",
        "STREET": "PRIVATE ROAD",
        "TTSTN": "",
        "MILEPOST": "0048.51",
        "TYPEXING": "Private",
        "POSXING": "At Grade",
        "PRVCAT": "14",
        "INIT": "1",
        "LATITUDE": 31.621849,
        "LONGITUD": -100.109619,
        "LLSOURCE": "1",
        "WHISTBAN": "0",
        "RRCONT": "3259428164",
        "POLCONT": "8007428905",
        "INV_LINK": "https://safetydata.fra.dot.gov/OfficeofSafety/PublicSite/Crossing/Crossing.aspx?phasetype=C&rpttype=I&txtcrossingnum=021443U",
        "ACC_LINK": "https://safetydata.fra.dot.gov/OfficeofSafety/PublicSite/Crossing/Crossing.aspx?phasetype=C&rpttype=A&txtcrossingnum=021443U",
        "TTSTNNAM": "ROWENA",
        "XPURPOSE": "1",
        "OPERATINGR": "TXPF",
        "OPERATIN_1": "Primary",
        "DAYTHRU": 1,
        "NGHTTHRU": 1,
        "MAINTRK": 1,
        "SIDINGTRK": 0,
        "YARDTRK": 0,
        "TRANSITTRK": 0,
        "INDUSTRYTR": 0,
        "OTHRTRK": 0,
        "WDCODE": "",
        "REVISIONDA": "2001/01/01 00:00:00",
        "LASTUPDATE": "1/9/2024",
        "AADT": "",
        "AADTYEAR": "1970",
        "STATENAME": "TEXAS",
        "STATEAB": "TX",
        "COUNTYNAME": "RUNNELS",
        "CITYNAME": "MILES",
        "LATDD": 31.621849,
        "LONGDD": -100.109619,
        "gridlyProductionCertified": true,
        "gridlyClassification": "PUBLIC_ROADWAY",
        "gridlyDisplayName": "PRIVATE ROAD",
        "gridlyId": "FRA-021443U"
      }
    },
    {
      "type": "Feature",
      "id": 203349,
      "geometry": {
        "type": "Point",
        "coordinates": [
          -100.140747000018,
          31.6113259996877
        ]
      },
      "properties": {
        "OBJECTID": 203349,
        "CROSSING": "021446P",
        "EFFDATE": 1704758400000,
        "REASON": "14",
        "StateCode": "48",
        "CountyCode": "48399",
        "STCYFIPS": "48399",
        "CITYCD": "483994580",
        "RAILROAD": "TXPF",
        "RRDIV": "SOUTHERN",
        "RRSUBDIV": "SAN ANGELO",
        "HIGHWAY": "us67",
        "STREET": "PRIVATE ROAD",
        "TTSTN": "",
        "MILEPOST": "0050.69",
        "TYPEXING": "Private",
        "POSXING": "At Grade",
        "PRVCAT": "14",
        "INIT": "1",
        "LATITUDE": 31.611326,
        "LONGITUD": -100.140747,
        "LLSOURCE": "1",
        "WHISTBAN": "0",
        "RRCONT": "3259428164",
        "POLCONT": "8007428905",
        "INV_LINK": "https://safetydata.fra.dot.gov/OfficeofSafety/PublicSite/Crossing/Crossing.aspx?phasetype=C&rpttype=I&txtcrossingnum=021446P",
        "ACC_LINK": "https://safetydata.fra.dot.gov/OfficeofSafety/PublicSite/Crossing/Crossing.aspx?phasetype=C&rpttype=A&txtcrossingnum=021446P",
        "TTSTNNAM": "MILES",
        "XPURPOSE": "1",
        "OPERATINGR": "TXPF",
        "OPERATIN_1": "Primary",
        "DAYTHRU": 1,
        "NGHTTHRU": 1,
        "MAINTRK": 1,
        "SIDINGTRK": 0,
        "YARDTRK": 0,
        "TRANSITTRK": 0,
        "INDUSTRYTR": 0,
        "OTHRTRK": 0,
        "WDCODE": "",
        "REVISIONDA": "2001/01/01 00:00:00",
        "LASTUPDATE": "1/9/2024",
        "AADT": "",
        "AADTYEAR": "1970",
        "STATENAME": "TEXAS",
        "STATEAB": "TX",
        "COUNTYNAME": "RUNNELS",
        "CITYNAME": "MILES",
        "LATDD": 31.611326,
        "LONGDD": -100.140747,
        "gridlyProductionCertified": true,
        "gridlyClassification": "PUBLIC_ROADWAY",
        "gridlyDisplayName": "PRIVATE ROAD",
        "gridlyId": "FRA-021446P"
      }
    },
    {
      "type": "Feature",
      "id": 203350,
      "geometry": {
        "type": "Point",
        "coordinates": [
          -100.146103000083,
          31.6094740003385
        ]
      },
      "properties": {
        "OBJECTID": 203350,
        "CROSSING": "021447W",
        "EFFDATE": 1704758400000,
        "REASON": "14",
        "StateCode": "48",
        "CountyCode": "48399",
        "STCYFIPS": "48399",
        "CITYCD": "483994580",
        "RAILROAD": "TXPF",
        "RRDIV": "SOUTHERN",
        "RRSUBDIV": "SAN ANGELO",
        "HIGHWAY": "us67",
        "STREET": "PRIVATE ROAD",
        "TTSTN": "",
        "MILEPOST": "0051.07",
        "TYPEXING": "Private",
        "POSXING": "At Grade",
        "PRVCAT": "14",
        "INIT": "1",
        "LATITUDE": 31.609474,
        "LONGITUD": -100.146103,
        "LLSOURCE": "1",
        "WHISTBAN": "0",
        "RRCONT": "3259428164",
        "POLCONT": "8007428905",
        "INV_LINK": "https://safetydata.fra.dot.gov/OfficeofSafety/PublicSite/Crossing/Crossing.aspx?phasetype=C&rpttype=I&txtcrossingnum=021447W",
        "ACC_LINK": "https://safetydata.fra.dot.gov/OfficeofSafety/PublicSite/Crossing/Crossing.aspx?phasetype=C&rpttype=A&txtcrossingnum=021447W",
        "TTSTNNAM": "MILES",
        "XPURPOSE": "1",
        "OPERATINGR": "TXPF",
        "OPERATIN_1": "Primary",
        "DAYTHRU": 1,
        "NGHTTHRU": 1,
        "MAINTRK": 1,
        "SIDINGTRK": 0,
        "YARDTRK": 0,
        "TRANSITTRK": 0,
        "INDUSTRYTR": 0,
        "OTHRTRK": 0,
        "WDCODE": "",
        "REVISIONDA": "2001/01/01 00:00:00",
        "LASTUPDATE": "1/9/2024",
        "AADT": "",
        "AADTYEAR": "1970",
        "STATENAME": "TEXAS",
        "STATEAB": "TX",
        "COUNTYNAME": "RUNNELS",
        "CITYNAME": "MILES",
        "LATDD": 31.609474,
        "LONGDD": -100.146103,
        "gridlyProductionCertified": true,
        "gridlyClassification": "PUBLIC_ROADWAY",
        "gridlyDisplayName": "PRIVATE ROAD",
        "gridlyId": "FRA-021447W"
      }
    },
    {
      "type": "Feature",
      "id": 203351,
      "geometry": {
        "type": "Point",
        "coordinates": [
          -100.164542999991,
          31.6029259996274
        ]
      },
      "properties": {
        "OBJECTID": 203351,
        "CROSSING": "021449K",
        "EFFDATE": 1704758400000,
        "REASON": "14",
        "StateCode": "48",
        "CountyCode": "48399",
        "STCYFIPS": "48399",
        "CITYCD": "483994580",
        "RAILROAD": "TXPF",
        "RRDIV": "SOUTHERN",
        "RRSUBDIV": "SAN ANGELO",
        "HIGHWAY": "us 67",
        "STREET": "PRIVATE ROAD",
        "TTSTN": "691197",
        "MILEPOST": "0052.36",
        "TYPEXING": "Private",
        "POSXING": "At Grade",
        "PRVCAT": "14",
        "INIT": "1",
        "LATITUDE": 31.602926,
        "LONGITUD": -100.164543,
        "LLSOURCE": "2",
        "WHISTBAN": "0",
        "RRCONT": "3259428164",
        "POLCONT": "8007428905",
        "INV_LINK": "https://safetydata.fra.dot.gov/OfficeofSafety/PublicSite/Crossing/Crossing.aspx?phasetype=C&rpttype=I&txtcrossingnum=021449K",
        "ACC_LINK": "https://safetydata.fra.dot.gov/OfficeofSafety/PublicSite/Crossing/Crossing.aspx?phasetype=C&rpttype=A&txtcrossingnum=021449K",
        "TTSTNNAM": "MILES",
        "XPURPOSE": "1",
        "OPERATINGR": "TXPF",
        "OPERATIN_1": "Primary",
        "DAYTHRU": 1,
        "NGHTTHRU": 1,
        "MAINTRK": 1,
        "SIDINGTRK": 0,
        "YARDTRK": 0,
        "TRANSITTRK": 0,
        "INDUSTRYTR": 0,
        "OTHRTRK": 0,
        "WDCODE": "",
        "REVISIONDA": "2001/01/01 00:00:00",
        "LASTUPDATE": "1/9/2024",
        "AADT": "",
        "AADTYEAR": "1970",
        "STATENAME": "TEXAS",
        "STATEAB": "TX",
        "COUNTYNAME": "RUNNELS",
        "CITYNAME": "MILES",
        "LATDD": 31.602926,
        "LONGDD": -100.164543,
        "gridlyProductionCertified": true,
        "gridlyClassification": "PUBLIC_ROADWAY",
        "gridlyDisplayName": "PRIVATE ROAD",
        "gridlyId": "FRA-021449K"
      }
    },
    {
      "type": "Feature",
      "id": 203352,
      "geometry": {
        "type": "Point",
        "coordinates": [
          -99.9613950001322,
          31.7267020002331
        ]
      },
      "properties": {
        "OBJECTID": 203352,
        "CROSSING": "021421U",
        "EFFDATE": 1704758400000,
        "REASON": "14",
        "StateCode": "48",
        "CountyCode": "48399",
        "STCYFIPS": "48399",
        "CITYCD": "483990400",
        "RAILROAD": "TXPF",
        "RRDIV": "SOUTHERN",
        "RRSUBDIV": "SAN ANGELO",
        "HIGHWAY": "us67",
        "STREET": "PRIVATE ROAD",
        "TTSTN": "",
        "MILEPOST": "0035.57",
        "TYPEXING": "Private",
        "POSXING": "At Grade",
        "PRVCAT": "14",
        "INIT": "1",
        "LATITUDE": 31.726702,
        "LONGITUD": -99.961395,
        "LLSOURCE": "1",
        "WHISTBAN": "0",
        "RRCONT": "3259428164",
        "POLCONT": "8007428905",
        "INV_LINK": "https://safetydata.fra.dot.gov/OfficeofSafety/PublicSite/Crossing/Crossing.aspx?phasetype=C&rpttype=I&txtcrossingnum=021421U",
        "ACC_LINK": "https://safetydata.fra.dot.gov/OfficeofSafety/PublicSite/Crossing/Crossing.aspx?phasetype=C&rpttype=A&txtcrossingnum=021421U",
        "TTSTNNAM": "BALLINGER",
        "XPURPOSE": "1",
        "OPERATINGR": "TXPF",
        "OPERATIN_1": "Primary",
        "DAYTHRU": 1,
        "NGHTTHRU": 1,
        "MAINTRK": 1,
        "SIDINGTRK": 0,
        "YARDTRK": 0,
        "TRANSITTRK": 0,
        "INDUSTRYTR": 0,
        "OTHRTRK": 0,
        "WDCODE": "",
        "REVISIONDA": "2001/01/01 00:00:00",
        "LASTUPDATE": "1/9/2024",
        "AADT": "",
        "AADTYEAR": "1970",
        "STATENAME": "TEXAS",
        "STATEAB": "TX",
        "COUNTYNAME": "RUNNELS",
        "CITYNAME": "BALLINGER",
        "LATDD": 31.726702,
        "LONGDD": -99.961395,
        "gridlyProductionCertified": true,
        "gridlyClassification": "PUBLIC_ROADWAY",
        "gridlyDisplayName": "PRIVATE ROAD",
        "gridlyId": "FRA-021421U"
      }
    },
    {
      "type": "Feature",
      "id": 203353,
      "geometry": {
        "type": "Point",
        "coordinates": [
          -99.9901660004052,
          31.6998390000498
        ]
      },
      "properties": {
        "OBJECTID": 203353,
        "CROSSING": "021431A",
        "EFFDATE": 1704758400000,
        "REASON": "14",
        "StateCode": "48",
        "CountyCode": "48399",
        "STCYFIPS": "48399",
        "CITYCD": "483990400",
        "RAILROAD": "TXPF",
        "RRDIV": "SOUTHERN",
        "RRSUBDIV": "SAN ANGELO",
        "HIGHWAY": "us67",
        "STREET": "PRIVATE ROAD",
        "TTSTN": "",
        "MILEPOST": "0039.63",
        "TYPEXING": "Private",
        "POSXING": "At Grade",
        "PRVCAT": "14",
        "INIT": "1",
        "LATITUDE": 31.699839,
        "LONGITUD": -99.990166,
        "LLSOURCE": "1",
        "WHISTBAN": "0",
        "RRCONT": "3259428164",
        "POLCONT": "8007428905",
        "INV_LINK": "https://safetydata.fra.dot.gov/OfficeofSafety/PublicSite/Crossing/Crossing.aspx?phasetype=C&rpttype=I&txtcrossingnum=021431A",
        "ACC_LINK": "https://safetydata.fra.dot.gov/OfficeofSafety/PublicSite/Crossing/Crossing.aspx?phasetype=C&rpttype=A&txtcrossingnum=021431A",
        "TTSTNNAM": "BALLINGER",
        "XPURPOSE": "1",
        "OPERATINGR": "TXPF",
        "OPERATIN_1": "Primary",
        "DAYTHRU": 1,
        "NGHTTHRU": 1,
        "MAINTRK": 1,
        "SIDINGTRK": 0,
        "YARDTRK": 0,
        "TRANSITTRK": 0,
        "INDUSTRYTR": 0,
        "OTHRTRK": 0,
        "WDCODE": "",
        "REVISIONDA": "2001/01/01 00:00:00",
        "LASTUPDATE": "1/9/2024",
        "AADT": "",
        "AADTYEAR": "1970",
        "STATENAME": "TEXAS",
        "STATEAB": "TX",
        "COUNTYNAME": "RUNNELS",
        "CITYNAME": "BALLINGER",
        "LATDD": 31.699839,
        "LONGDD": -99.990166,
        "gridlyProductionCertified": true,
        "gridlyClassification": "PUBLIC_ROADWAY",
        "gridlyDisplayName": "PRIVATE ROAD",
        "gridlyId": "FRA-021431A"
      }
    },
    {
      "type": "Feature",
      "id": 203354,
      "geometry": {
        "type": "Point",
        "coordinates": [
          -99.9946749996507,
          31.6957449997244
        ]
      },
      "properties": {
        "OBJECTID": 203354,
        "CROSSING": "021432G",
        "EFFDATE": 1704758400000,
        "REASON": "14",
        "StateCode": "48",
        "CountyCode": "48399",
        "STCYFIPS": "48399",
        "CITYCD": "483990400",
        "RAILROAD": "TXPF",
        "RRDIV": "SOUTHERN",
        "RRSUBDIV": "SAN ANGELO",
        "HIGHWAY": "us67",
        "STREET": "PRIVATE ROAD",
        "TTSTN": "",
        "MILEPOST": "0039.96",
        "TYPEXING": "Private",
        "POSXING": "At Grade",
        "PRVCAT": "14",
        "INIT": "1",
        "LATITUDE": 31.695745,
        "LONGITUD": -99.994675,
        "LLSOURCE": "1",
        "WHISTBAN": "0",
        "RRCONT": "3259428164",
        "POLCONT": "8007428905",
        "INV_LINK": "https://safetydata.fra.dot.gov/OfficeofSafety/PublicSite/Crossing/Crossing.aspx?phasetype=C&rpttype=I&txtcrossingnum=021432G",
        "ACC_LINK": "https://safetydata.fra.dot.gov/OfficeofSafety/PublicSite/Crossing/Crossing.aspx?phasetype=C&rpttype=A&txtcrossingnum=021432G",
        "TTSTNNAM": "BALLINGER",
        "XPURPOSE": "1",
        "OPERATINGR": "TXPF",
        "OPERATIN_1": "Primary",
        "DAYTHRU": 1,
        "NGHTTHRU": 1,
        "MAINTRK": 1,
        "SIDINGTRK": 0,
        "YARDTRK": 0,
        "TRANSITTRK": 0,
        "INDUSTRYTR": 0,
        "OTHRTRK": 0,
        "WDCODE": "",
        "REVISIONDA": "2001/01/01 00:00:00",
        "LASTUPDATE": "1/9/2024",
        "AADT": "",
        "AADTYEAR": "1970",
        "STATENAME": "TEXAS",
        "STATEAB": "TX",
        "COUNTYNAME": "RUNNELS",
        "CITYNAME": "BALLINGER",
        "LATDD": 31.695745,
        "LONGDD": -99.994675,
        "gridlyProductionCertified": true,
        "gridlyClassification": "PUBLIC_ROADWAY",
        "gridlyDisplayName": "PRIVATE ROAD",
        "gridlyId": "FRA-021432G"
      }
    },
    {
      "type": "Feature",
      "id": 203355,
      "geometry": {
        "type": "Point",
        "coordinates": [
          -100.031302999572,
          31.6628800003243
        ]
      },
      "properties": {
        "OBJECTID": 203355,
        "CROSSING": "021435C",
        "EFFDATE": 1704758400000,
        "REASON": "14",
        "StateCode": "48",
        "CountyCode": "48399",
        "STCYFIPS": "48399",
        "CITYCD": "483990400",
        "RAILROAD": "TXPF",
        "RRDIV": "SOUTHERN",
        "RRSUBDIV": "SAN ANGELO",
        "HIGHWAY": "us67",
        "STREET": "PRIVATE ROAD",
        "TTSTN": "",
        "MILEPOST": "0042.90",
        "TYPEXING": "Private",
        "POSXING": "At Grade",
        "PRVCAT": "14",
        "INIT": "1",
        "LATITUDE": 31.66288,
        "LONGITUD": -100.031303,
        "LLSOURCE": "1",
        "WHISTBAN": "0",
        "RRCONT": "3259428164",
        "POLCONT": "8007428905",
        "INV_LINK": "https://safetydata.fra.dot.gov/OfficeofSafety/PublicSite/Crossing/Crossing.aspx?phasetype=C&rpttype=I&txtcrossingnum=021435C",
        "ACC_LINK": "https://safetydata.fra.dot.gov/OfficeofSafety/PublicSite/Crossing/Crossing.aspx?phasetype=C&rpttype=A&txtcrossingnum=021435C",
        "TTSTNNAM": "ROWENA",
        "XPURPOSE": "1",
        "OPERATINGR": "TXPF",
        "OPERATIN_1": "Primary",
        "DAYTHRU": 1,
        "NGHTTHRU": 1,
        "MAINTRK": 1,
        "SIDINGTRK": 0,
        "YARDTRK": 0,
        "TRANSITTRK": 0,
        "INDUSTRYTR": 0,
        "OTHRTRK": 0,
        "WDCODE": "",
        "REVISIONDA": "2001/01/01 00:00:00",
        "LASTUPDATE": "1/9/2024",
        "AADT": "",
        "AADTYEAR": "1970",
        "STATENAME": "TEXAS",
        "STATEAB": "TX",
        "COUNTYNAME": "RUNNELS",
        "CITYNAME": "BALLINGER",
        "LATDD": 31.66288,
        "LONGDD": -100.031303,
        "gridlyProductionCertified": true,
        "gridlyClassification": "PUBLIC_ROADWAY",
        "gridlyDisplayName": "PRIVATE ROAD",
        "gridlyId": "FRA-021435C"
      }
    },
    {
      "type": "Feature",
      "id": 203363,
      "geometry": {
        "type": "Point",
        "coordinates": [
          -100.21723900011,
          31.5821020002748
        ]
      },
      "properties": {
        "OBJECTID": 203363,
        "CROSSING": "021397V",
        "EFFDATE": 1704758400000,
        "REASON": "14",
        "StateCode": "48",
        "CountyCode": "48083",
        "STCYFIPS": "48083",
        "CITYCD": "480836760",
        "RAILROAD": "TXPF",
        "RRDIV": "SOUTHERN",
        "RRSUBDIV": "SAN ANGELO",
        "HIGHWAY": "us67",
        "STREET": "PRIVATE ROAD",
        "TTSTN": "",
        "MILEPOST": "0016.09",
        "TYPEXING": "Private",
        "POSXING": "At Grade",
        "PRVCAT": "14",
        "INIT": "1",
        "LATITUDE": 31.582102,
        "LONGITUD": -100.217239,
        "LLSOURCE": "1",
        "WHISTBAN": "0",
        "RRCONT": "3259428164",
        "POLCONT": "8007428905",
        "INV_LINK": "https://safetydata.fra.dot.gov/OfficeofSafety/PublicSite/Crossing/Crossing.aspx?phasetype=C&rpttype=I&txtcrossingnum=021397V",
        "ACC_LINK": "https://safetydata.fra.dot.gov/OfficeofSafety/PublicSite/Crossing/Crossing.aspx?phasetype=C&rpttype=A&txtcrossingnum=021397V",
        "TTSTNNAM": "TALPA",
        "XPURPOSE": "1",
        "OPERATINGR": "TXPF",
        "OPERATIN_1": "Primary",
        "DAYTHRU": 1,
        "NGHTTHRU": 1,
        "MAINTRK": 1,
        "SIDINGTRK": 0,
        "YARDTRK": 0,
        "TRANSITTRK": 0,
        "INDUSTRYTR": 0,
        "OTHRTRK": 0,
        "WDCODE": "",
        "REVISIONDA": "2001/01/01 00:00:00",
        "LASTUPDATE": "1/9/2024",
        "AADT": "",
        "AADTYEAR": "1970",
        "STATENAME": "TEXAS",
        "STATEAB": "TX",
        "COUNTYNAME": "COLEMAN",
        "CITYNAME": "TALPA",
        "LATDD": 31.582102,
        "LONGDD": -100.217239,
        "gridlyProductionCertified": true,
        "gridlyClassification": "PUBLIC_ROADWAY",
        "gridlyDisplayName": "PRIVATE ROAD",
        "gridlyId": "FRA-021397V"
      }
    },
    {
      "type": "Feature",
      "id": 203366,
      "geometry": {
        "type": "Point",
        "coordinates": [
          -100.213333000388,
          31.5836450001121
        ]
      },
      "properties": {
        "OBJECTID": 203366,
        "CROSSING": "021398C",
        "EFFDATE": 1704758400000,
        "REASON": "14",
        "StateCode": "48",
        "CountyCode": "48083",
        "STCYFIPS": "48083",
        "CITYCD": "480836760",
        "RAILROAD": "TXPF",
        "RRDIV": "SOUTHERN",
        "RRSUBDIV": "SAN ANGELO",
        "HIGHWAY": "us67",
        "STREET": "PRIVATE ROAD",
        "TTSTN": "",
        "MILEPOST": "0016.37",
        "TYPEXING": "Private",
        "POSXING": "At Grade",
        "PRVCAT": "14",
        "INIT": "1",
        "LATITUDE": 31.583645,
        "LONGITUD": -100.213333,
        "LLSOURCE": "1",
        "WHISTBAN": "0",
        "RRCONT": "3259428164",
        "POLCONT": "8007428905",
        "INV_LINK": "https://safetydata.fra.dot.gov/OfficeofSafety/PublicSite/Crossing/Crossing.aspx?phasetype=C&rpttype=I&txtcrossingnum=021398C",
        "ACC_LINK": "https://safetydata.fra.dot.gov/OfficeofSafety/PublicSite/Crossing/Crossing.aspx?phasetype=C&rpttype=A&txtcrossingnum=021398C",
        "TTSTNNAM": "TALPA",
        "XPURPOSE": "1",
        "OPERATINGR": "TXPF",
        "OPERATIN_1": "Primary",
        "DAYTHRU": 1,
        "NGHTTHRU": 1,
        "MAINTRK": 1,
        "SIDINGTRK": 0,
        "YARDTRK": 0,
        "TRANSITTRK": 0,
        "INDUSTRYTR": 0,
        "OTHRTRK": 0,
        "WDCODE": "",
        "REVISIONDA": "2001/01/01 00:00:00",
        "LASTUPDATE": "1/9/2024",
        "AADT": "",
        "AADTYEAR": "1970",
        "STATENAME": "TEXAS",
        "STATEAB": "TX",
        "COUNTYNAME": "COLEMAN",
        "CITYNAME": "TALPA",
        "LATDD": 31.583645,
        "LONGDD": -100.213333,
        "gridlyProductionCertified": true,
        "gridlyClassification": "PUBLIC_ROADWAY",
        "gridlyDisplayName": "PRIVATE ROAD",
        "gridlyId": "FRA-021398C"
      }
    },
    {
      "type": "Feature",
      "id": 203367,
      "geometry": {
        "type": "Point",
        "coordinates": [
          -100.040657000319,
          31.6560799996612
        ]
      },
      "properties": {
        "OBJECTID": 203367,
        "CROSSING": "021436J",
        "EFFDATE": 1704758400000,
        "REASON": "14",
        "StateCode": "48",
        "CountyCode": "48399",
        "STCYFIPS": "48399",
        "CITYCD": "483990400",
        "RAILROAD": "TXPF",
        "RRDIV": "SOUTHERN",
        "RRSUBDIV": "SAN ANGELO",
        "HIGHWAY": "us67",
        "STREET": "PRIVATE ROAD",
        "TTSTN": "",
        "MILEPOST": "0043.64",
        "TYPEXING": "Private",
        "POSXING": "At Grade",
        "PRVCAT": "14",
        "INIT": "1",
        "LATITUDE": 31.65608,
        "LONGITUD": -100.040657,
        "LLSOURCE": "1",
        "WHISTBAN": "0",
        "RRCONT": "3259428164",
        "POLCONT": "8007428905",
        "INV_LINK": "https://safetydata.fra.dot.gov/OfficeofSafety/PublicSite/Crossing/Crossing.aspx?phasetype=C&rpttype=I&txtcrossingnum=021436J",
        "ACC_LINK": "https://safetydata.fra.dot.gov/OfficeofSafety/PublicSite/Crossing/Crossing.aspx?phasetype=C&rpttype=A&txtcrossingnum=021436J",
        "TTSTNNAM": "ROWENA",
        "XPURPOSE": "1",
        "OPERATINGR": "TXPF",
        "OPERATIN_1": "Primary",
        "DAYTHRU": 1,
        "NGHTTHRU": 1,
        "MAINTRK": 1,
        "SIDINGTRK": 0,
        "YARDTRK": 0,
        "TRANSITTRK": 0,
        "INDUSTRYTR": 0,
        "OTHRTRK": 0,
        "WDCODE": "",
        "REVISIONDA": "2001/01/01 00:00:00",
        "LASTUPDATE": "1/9/2024",
        "AADT": "",
        "AADTYEAR": "1970",
        "STATENAME": "TEXAS",
        "STATEAB": "TX",
        "COUNTYNAME": "RUNNELS",
        "CITYNAME": "BALLINGER",
        "LATDD": 31.65608,
        "LONGDD": -100.040657,
        "gridlyProductionCertified": true,
        "gridlyClassification": "PUBLIC_ROADWAY",
        "gridlyDisplayName": "PRIVATE ROAD",
        "gridlyId": "FRA-021436J"
      }
    },
    {
      "type": "Feature",
      "id": 203368,
      "geometry": {
        "type": "Point",
        "coordinates": [
          -100.050437999964,
          31.6491179997176
        ]
      },
      "properties": {
        "OBJECTID": 203368,
        "CROSSING": "021437R",
        "EFFDATE": 1704758400000,
        "REASON": "14",
        "StateCode": "48",
        "CountyCode": "48399",
        "STCYFIPS": "48399",
        "CITYCD": "483990400",
        "RAILROAD": "TXPF",
        "RRDIV": "SOUTHERN",
        "RRSUBDIV": "SAN ANGELO",
        "HIGHWAY": "us67",
        "STREET": "PRIVATE ROAD",
        "TTSTN": "",
        "MILEPOST": "0044.43",
        "TYPEXING": "Private",
        "POSXING": "At Grade",
        "PRVCAT": "14",
        "INIT": "1",
        "LATITUDE": 31.649118,
        "LONGITUD": -100.050438,
        "LLSOURCE": "1",
        "WHISTBAN": "0",
        "RRCONT": "3259428164",
        "POLCONT": "8007428905",
        "INV_LINK": "https://safetydata.fra.dot.gov/OfficeofSafety/PublicSite/Crossing/Crossing.aspx?phasetype=C&rpttype=I&txtcrossingnum=021437R",
        "ACC_LINK": "https://safetydata.fra.dot.gov/OfficeofSafety/PublicSite/Crossing/Crossing.aspx?phasetype=C&rpttype=A&txtcrossingnum=021437R",
        "TTSTNNAM": "ROWENA",
        "XPURPOSE": "1",
        "OPERATINGR": "TXPF",
        "OPERATIN_1": "Primary",
        "DAYTHRU": 1,
        "NGHTTHRU": 1,
        "MAINTRK": 1,
        "SIDINGTRK": 0,
        "YARDTRK": 0,
        "TRANSITTRK": 0,
        "INDUSTRYTR": 0,
        "OTHRTRK": 0,
        "WDCODE": "",
        "REVISIONDA": "2001/01/01 00:00:00",
        "LASTUPDATE": "1/9/2024",
        "AADT": "",
        "AADTYEAR": "1970",
        "STATENAME": "TEXAS",
        "STATEAB": "TX",
        "COUNTYNAME": "RUNNELS",
        "CITYNAME": "BALLINGER",
        "LATDD": 31.649118,
        "LONGDD": -100.050438,
        "gridlyProductionCertified": true,
        "gridlyClassification": "PUBLIC_ROADWAY",
        "gridlyDisplayName": "PRIVATE ROAD",
        "gridlyId": "FRA-021437R"
      }
    },
    {
      "type": "Feature",
      "id": 203369,
      "geometry": {
        "type": "Point",
        "coordinates": [
          -100.201339999967,
          31.5883829996939
        ]
      },
      "properties": {
        "OBJECTID": 203369,
        "CROSSING": "021400B",
        "EFFDATE": 1704758400000,
        "REASON": "14",
        "StateCode": "48",
        "CountyCode": "48083",
        "STCYFIPS": "48083",
        "CITYCD": "480836760",
        "RAILROAD": "TXPF",
        "RRDIV": "SOUTHERN",
        "RRSUBDIV": "SAN ANGELO",
        "HIGHWAY": "us67",
        "STREET": "PRIVATE ROAD",
        "TTSTN": "",
        "MILEPOST": "0017.23",
        "TYPEXING": "Private",
        "POSXING": "At Grade",
        "PRVCAT": "14",
        "INIT": "1",
        "LATITUDE": 31.588383,
        "LONGITUD": -100.20134,
        "LLSOURCE": "1",
        "WHISTBAN": "0",
        "RRCONT": "3259428164",
        "POLCONT": "8007428905",
        "INV_LINK": "https://safetydata.fra.dot.gov/OfficeofSafety/PublicSite/Crossing/Crossing.aspx?phasetype=C&rpttype=I&txtcrossingnum=021400B",
        "ACC_LINK": "https://safetydata.fra.dot.gov/OfficeofSafety/PublicSite/Crossing/Crossing.aspx?phasetype=C&rpttype=A&txtcrossingnum=021400B",
        "TTSTNNAM": "TALPA",
        "XPURPOSE": "1",
        "OPERATINGR": "TXPF",
        "OPERATIN_1": "Primary",
        "DAYTHRU": 1,
        "NGHTTHRU": 1,
        "MAINTRK": 1,
        "SIDINGTRK": 0,
        "YARDTRK": 0,
        "TRANSITTRK": 0,
        "INDUSTRYTR": 0,
        "OTHRTRK": 0,
        "WDCODE": "",
        "REVISIONDA": "2001/01/01 00:00:00",
        "LASTUPDATE": "1/9/2024",
        "AADT": "",
        "AADTYEAR": "1970",
        "STATENAME": "TEXAS",
        "STATEAB": "TX",
        "COUNTYNAME": "COLEMAN",
        "CITYNAME": "TALPA",
        "LATDD": 31.588383,
        "LONGDD": -100.20134,
        "gridlyProductionCertified": true,
        "gridlyClassification": "PUBLIC_ROADWAY",
        "gridlyDisplayName": "PRIVATE ROAD",
        "gridlyId": "FRA-021400B"
      }
    },
    {
      "type": "Feature",
      "id": 203370,
      "geometry": {
        "type": "Point",
        "coordinates": [
          -100.19157400039,
          31.5922389999894
        ]
      },
      "properties": {
        "OBJECTID": 203370,
        "CROSSING": "021401H",
        "EFFDATE": 1704758400000,
        "REASON": "14",
        "StateCode": "48",
        "CountyCode": "48083",
        "STCYFIPS": "48083",
        "CITYCD": "480836760",
        "RAILROAD": "TXPF",
        "RRDIV": "SOUTHERN",
        "RRSUBDIV": "SAN ANGELO",
        "HIGHWAY": "us67",
        "STREET": "PRIVATE ROAD",
        "TTSTN": "",
        "MILEPOST": "0017.93",
        "TYPEXING": "Private",
        "POSXING": "At Grade",
        "PRVCAT": "14",
        "INIT": "1",
        "LATITUDE": 31.592239,
        "LONGITUD": -100.191574,
        "LLSOURCE": "1",
        "WHISTBAN": "0",
        "RRCONT": "3259428164",
        "POLCONT": "8007428905",
        "INV_LINK": "https://safetydata.fra.dot.gov/OfficeofSafety/PublicSite/Crossing/Crossing.aspx?phasetype=C&rpttype=I&txtcrossingnum=021401H",
        "ACC_LINK": "https://safetydata.fra.dot.gov/OfficeofSafety/PublicSite/Crossing/Crossing.aspx?phasetype=C&rpttype=A&txtcrossingnum=021401H",
        "TTSTNNAM": "TALPA",
        "XPURPOSE": "1",
        "OPERATINGR": "TXPF",
        "OPERATIN_1": "Primary",
        "DAYTHRU": 1,
        "NGHTTHRU": 1,
        "MAINTRK": 1,
        "SIDINGTRK": 0,
        "YARDTRK": 0,
        "TRANSITTRK": 0,
        "INDUSTRYTR": 0,
        "OTHRTRK": 0,
        "WDCODE": "",
        "REVISIONDA": "2001/01/01 00:00:00",
        "LASTUPDATE": "1/9/2024",
        "AADT": "",
        "AADTYEAR": "1970",
        "STATENAME": "TEXAS",
        "STATEAB": "TX",
        "COUNTYNAME": "COLEMAN",
        "CITYNAME": "TALPA",
        "LATDD": 31.592239,
        "LONGDD": -100.191574,
        "gridlyProductionCertified": true,
        "gridlyClassification": "PUBLIC_ROADWAY",
        "gridlyDisplayName": "PRIVATE ROAD",
        "gridlyId": "FRA-021401H"
      }
    },
    {
      "type": "Feature",
      "id": 203371,
      "geometry": {
        "type": "Point",
        "coordinates": [
          -100.093391000072,
          31.6273729997656
        ]
      },
      "properties": {
        "OBJECTID": 203371,
        "CROSSING": "021410G",
        "EFFDATE": 1704758400000,
        "REASON": "14",
        "StateCode": "48",
        "CountyCode": "48399",
        "STCYFIPS": "48399",
        "CITYCD": "480836760",
        "RAILROAD": "TXPF",
        "RRDIV": "SOUTHERN",
        "RRSUBDIV": "SAN ANGELO",
        "HIGHWAY": "us 67 cr137",
        "STREET": "PRIVATE ROAD",
        "TTSTN": "690468",
        "MILEPOST": "0024.95",
        "TYPEXING": "Private",
        "POSXING": "At Grade",
        "PRVCAT": "14",
        "INIT": "1",
        "LATITUDE": 31.627373,
        "LONGITUD": -100.093391,
        "LLSOURCE": "2",
        "WHISTBAN": "0",
        "RRCONT": "3259428164",
        "POLCONT": "8007428905",
        "INV_LINK": "https://safetydata.fra.dot.gov/OfficeofSafety/PublicSite/Crossing/Crossing.aspx?phasetype=C&rpttype=I&txtcrossingnum=021410G",
        "ACC_LINK": "https://safetydata.fra.dot.gov/OfficeofSafety/PublicSite/Crossing/Crossing.aspx?phasetype=C&rpttype=A&txtcrossingnum=021410G",
        "TTSTNNAM": "TALPA",
        "XPURPOSE": "1",
        "OPERATINGR": "TXPF",
        "OPERATIN_1": "Primary",
        "DAYTHRU": 1,
        "NGHTTHRU": 1,
        "MAINTRK": 1,
        "SIDINGTRK": 0,
        "YARDTRK": 0,
        "TRANSITTRK": 0,
        "INDUSTRYTR": 0,
        "OTHRTRK": 0,
        "WDCODE": "",
        "REVISIONDA": "2001/01/01 00:00:00",
        "LASTUPDATE": "1/9/2024",
        "AADT": "",
        "AADTYEAR": "1970",
        "STATENAME": "TEXAS",
        "STATEAB": "TX",
        "COUNTYNAME": "RUNNELS",
        "CITYNAME": "TALPA",
        "LATDD": 31.627373,
        "LONGDD": -100.093391,
        "gridlyProductionCertified": true,
        "gridlyClassification": "PUBLIC_ROADWAY",
        "gridlyDisplayName": "PRIVATE ROAD",
        "gridlyId": "FRA-021410G"
      }
    },
    {
      "type": "Feature",
      "id": 203372,
      "geometry": {
        "type": "Point",
        "coordinates": [
          -100.078598000317,
          31.6322729996659
        ]
      },
      "properties": {
        "OBJECTID": 203372,
        "CROSSING": "021411N",
        "EFFDATE": 1704758400000,
        "REASON": "14",
        "StateCode": "48",
        "CountyCode": "48399",
        "STCYFIPS": "48399",
        "CITYCD": "480836760",
        "RAILROAD": "TXPF",
        "RRDIV": "SOUTHERN",
        "RRSUBDIV": "SAN ANGELO",
        "HIGHWAY": "CO 0000",
        "STREET": "PRIVATE",
        "TTSTN": "",
        "MILEPOST": "0026.00",
        "TYPEXING": "Private",
        "POSXING": "At Grade",
        "PRVCAT": "14",
        "INIT": "1",
        "LATITUDE": 31.632273,
        "LONGITUD": -100.078598,
        "LLSOURCE": "1",
        "WHISTBAN": "0",
        "RRCONT": "3259428164",
        "POLCONT": "8007428905",
        "INV_LINK": "https://safetydata.fra.dot.gov/OfficeofSafety/PublicSite/Crossing/Crossing.aspx?phasetype=C&rpttype=I&txtcrossingnum=021411N",
        "ACC_LINK": "https://safetydata.fra.dot.gov/OfficeofSafety/PublicSite/Crossing/Crossing.aspx?phasetype=C&rpttype=A&txtcrossingnum=021411N",
        "TTSTNNAM": "TALPA",
        "XPURPOSE": "1",
        "OPERATINGR": "TXPF",
        "OPERATIN_1": "Primary",
        "DAYTHRU": 1,
        "NGHTTHRU": 1,
        "MAINTRK": 1,
        "SIDINGTRK": 0,
        "YARDTRK": 0,
        "TRANSITTRK": 0,
        "INDUSTRYTR": 0,
        "OTHRTRK": 0,
        "WDCODE": "",
        "REVISIONDA": "2001/01/01 00:00:00",
        "LASTUPDATE": "1/9/2024",
        "AADT": "000021",
        "AADTYEAR": "1994",
        "STATENAME": "TEXAS",
        "STATEAB": "TX",
        "COUNTYNAME": "RUNNELS",
        "CITYNAME": "TALPA",
        "LATDD": 31.632273,
        "LONGDD": -100.078598,
        "gridlyProductionCertified": true,
        "gridlyClassification": "PUBLIC_ROADWAY",
        "gridlyDisplayName": "PRIVATE",
        "gridlyId": "FRA-021411N"
      }
    },
    {
      "type": "Feature",
      "id": 203373,
      "geometry": {
        "type": "Point",
        "coordinates": [
          -100.0532299998,
          31.6471249997047
        ]
      },
      "properties": {
        "OBJECTID": 203373,
        "CROSSING": "021412V",
        "EFFDATE": 1704758400000,
        "REASON": "14",
        "StateCode": "48",
        "CountyCode": "48399",
        "STCYFIPS": "48399",
        "CITYCD": "480836760",
        "RAILROAD": "TXPF",
        "RRDIV": "SOUTHERN",
        "RRSUBDIV": "SAN ANGELO",
        "HIGHWAY": "us67",
        "STREET": "PRIVATE ROAD",
        "TTSTN": "",
        "MILEPOST": "0027.64",
        "TYPEXING": "Private",
        "POSXING": "At Grade",
        "PRVCAT": "14",
        "INIT": "1",
        "LATITUDE": 31.647125,
        "LONGITUD": -100.05323,
        "LLSOURCE": "1",
        "WHISTBAN": "0",
        "RRCONT": "3259428164",
        "POLCONT": "8007428905",
        "INV_LINK": "https://safetydata.fra.dot.gov/OfficeofSafety/PublicSite/Crossing/Crossing.aspx?phasetype=C&rpttype=I&txtcrossingnum=021412V",
        "ACC_LINK": "https://safetydata.fra.dot.gov/OfficeofSafety/PublicSite/Crossing/Crossing.aspx?phasetype=C&rpttype=A&txtcrossingnum=021412V",
        "TTSTNNAM": "TALPA",
        "XPURPOSE": "1",
        "OPERATINGR": "TXPF",
        "OPERATIN_1": "Primary",
        "DAYTHRU": 1,
        "NGHTTHRU": 1,
        "MAINTRK": 1,
        "SIDINGTRK": 0,
        "YARDTRK": 0,
        "TRANSITTRK": 0,
        "INDUSTRYTR": 0,
        "OTHRTRK": 0,
        "WDCODE": "",
        "REVISIONDA": "2001/01/01 00:00:00",
        "LASTUPDATE": "1/9/2024",
        "AADT": "",
        "AADTYEAR": "1970",
        "STATENAME": "TEXAS",
        "STATEAB": "TX",
        "COUNTYNAME": "RUNNELS",
        "CITYNAME": "TALPA",
        "LATDD": 31.647125,
        "LONGDD": -100.05323,
        "gridlyProductionCertified": true,
        "gridlyClassification": "PUBLIC_ROADWAY",
        "gridlyDisplayName": "PRIVATE ROAD",
        "gridlyId": "FRA-021412V"
      }
    },
    {
      "type": "Feature",
      "id": 203374,
      "geometry": {
        "type": "Point",
        "coordinates": [
          -99.8323841000853,
          31.7797076001173
        ]
      },
      "properties": {
        "OBJECTID": 203374,
        "CROSSING": "021414J",
        "EFFDATE": 1704758400000,
        "REASON": "14",
        "StateCode": "48",
        "CountyCode": "48399",
        "STCYFIPS": "48399",
        "CITYCD": "483990400",
        "RAILROAD": "TXPF",
        "RRDIV": "SOUTHERN",
        "RRSUBDIV": "SAN ANGELO",
        "HIGHWAY": "CO 0134",
        "STREET": "CR 0134 PVT",
        "TTSTN": "",
        "MILEPOST": "0029.01",
        "TYPEXING": "Private",
        "POSXING": "At Grade",
        "PRVCAT": "14",
        "INIT": "1",
        "LATITUDE": 31.7797076,
        "LONGITUD": -99.8323841,
        "LLSOURCE": "1",
        "WHISTBAN": "0",
        "RRCONT": "3259428164",
        "POLCONT": "8007428905",
        "INV_LINK": "https://safetydata.fra.dot.gov/OfficeofSafety/PublicSite/Crossing/Crossing.aspx?phasetype=C&rpttype=I&txtcrossingnum=021414J",
        "ACC_LINK": "https://safetydata.fra.dot.gov/OfficeofSafety/PublicSite/Crossing/Crossing.aspx?phasetype=C&rpttype=A&txtcrossingnum=021414J",
        "TTSTNNAM": "BALLINGER",
        "XPURPOSE": "1",
        "OPERATINGR": "TXPF",
        "OPERATIN_1": "Primary",
        "DAYTHRU": 1,
        "NGHTTHRU": 1,
        "MAINTRK": 1,
        "SIDINGTRK": 0,
        "YARDTRK": 0,
        "TRANSITTRK": 0,
        "INDUSTRYTR": 0,
        "OTHRTRK": 0,
        "WDCODE": "",
        "REVISIONDA": "2001/01/01 00:00:00",
        "LASTUPDATE": "1/9/2024",
        "AADT": "000010",
        "AADTYEAR": "2013",
        "STATENAME": "TEXAS",
        "STATEAB": "TX",
        "COUNTYNAME": "RUNNELS",
        "CITYNAME": "BALLINGER",
        "LATDD": 31.7797076,
        "LONGDD": -99.8323841,
        "gridlyProductionCertified": true,
        "gridlyClassification": "PUBLIC_ROADWAY",
        "gridlyDisplayName": "CR 0134 PVT",
        "gridlyId": "FRA-021414J"
      }
    },
    {
      "type": "Feature",
      "id": 203381,
      "geometry": {
        "type": "Point",
        "coordinates": [
          -100.177176999572,
          31.5979080000266
        ]
      },
      "properties": {
        "OBJECTID": 203381,
        "CROSSING": "021403W",
        "EFFDATE": 1704758400000,
        "REASON": "14",
        "StateCode": "48",
        "CountyCode": "48083",
        "STCYFIPS": "48083",
        "CITYCD": "480836760",
        "RAILROAD": "TXPF",
        "RRDIV": "SOUTHERN",
        "RRSUBDIV": "SAN ANGELO",
        "HIGHWAY": "us67",
        "STREET": "PRIVATE ROAD",
        "TTSTN": "",
        "MILEPOST": "0018.97",
        "TYPEXING": "Private",
        "POSXING": "At Grade",
        "PRVCAT": "14",
        "INIT": "1",
        "LATITUDE": 31.597908,
        "LONGITUD": -100.177177,
        "LLSOURCE": "1",
        "WHISTBAN": "0",
        "RRCONT": "3259428164",
        "POLCONT": "8007428905",
        "INV_LINK": "https://safetydata.fra.dot.gov/OfficeofSafety/PublicSite/Crossing/Crossing.aspx?phasetype=C&rpttype=I&txtcrossingnum=021403W",
        "ACC_LINK": "https://safetydata.fra.dot.gov/OfficeofSafety/PublicSite/Crossing/Crossing.aspx?phasetype=C&rpttype=A&txtcrossingnum=021403W",
        "TTSTNNAM": "TALPA",
        "XPURPOSE": "1",
        "OPERATINGR": "TXPF",
        "OPERATIN_1": "Primary",
        "DAYTHRU": 1,
        "NGHTTHRU": 1,
        "MAINTRK": 1,
        "SIDINGTRK": 0,
        "YARDTRK": 0,
        "TRANSITTRK": 0,
        "INDUSTRYTR": 0,
        "OTHRTRK": 0,
        "WDCODE": "",
        "REVISIONDA": "2001/01/01 00:00:00",
        "LASTUPDATE": "1/9/2024",
        "AADT": "",
        "AADTYEAR": "1970",
        "STATENAME": "TEXAS",
        "STATEAB": "TX",
        "COUNTYNAME": "COLEMAN",
        "CITYNAME": "TALPA",
        "LATDD": 31.597908,
        "LONGDD": -100.177177,
        "gridlyProductionCertified": true,
        "gridlyClassification": "PUBLIC_ROADWAY",
        "gridlyDisplayName": "PRIVATE ROAD",
        "gridlyId": "FRA-021403W"
      }
    },
    {
      "type": "Feature",
      "id": 203382,
      "geometry": {
        "type": "Point",
        "coordinates": [
          -100.171691999635,
          31.6000789998338
        ]
      },
      "properties": {
        "OBJECTID": 203382,
        "CROSSING": "021404D",
        "EFFDATE": 1704758400000,
        "REASON": "14",
        "StateCode": "48",
        "CountyCode": "48083",
        "STCYFIPS": "48083",
        "CITYCD": "480836760",
        "RAILROAD": "TXPF",
        "RRDIV": "SOUTHERN",
        "RRSUBDIV": "SAN ANGELO",
        "HIGHWAY": "us67",
        "STREET": "PRIVATE ROAD",
        "TTSTN": "",
        "MILEPOST": "0019.35",
        "TYPEXING": "Private",
        "POSXING": "At Grade",
        "PRVCAT": "14",
        "INIT": "1",
        "LATITUDE": 31.600079,
        "LONGITUD": -100.171692,
        "LLSOURCE": "1",
        "WHISTBAN": "0",
        "RRCONT": "3259428164",
        "POLCONT": "8007428905",
        "INV_LINK": "https://safetydata.fra.dot.gov/OfficeofSafety/PublicSite/Crossing/Crossing.aspx?phasetype=C&rpttype=I&txtcrossingnum=021404D",
        "ACC_LINK": "https://safetydata.fra.dot.gov/OfficeofSafety/PublicSite/Crossing/Crossing.aspx?phasetype=C&rpttype=A&txtcrossingnum=021404D",
        "TTSTNNAM": "TALPA",
        "XPURPOSE": "1",
        "OPERATINGR": "TXPF",
        "OPERATIN_1": "Primary",
        "DAYTHRU": 1,
        "NGHTTHRU": 1,
        "MAINTRK": 1,
        "SIDINGTRK": 0,
        "YARDTRK": 0,
        "TRANSITTRK": 0,
        "INDUSTRYTR": 0,
        "OTHRTRK": 0,
        "WDCODE": "",
        "REVISIONDA": "2001/01/01 00:00:00",
        "LASTUPDATE": "1/9/2024",
        "AADT": "",
        "AADTYEAR": "1970",
        "STATENAME": "TEXAS",
        "STATEAB": "TX",
        "COUNTYNAME": "COLEMAN",
        "CITYNAME": "TALPA",
        "LATDD": 31.600079,
        "LONGDD": -100.171692,
        "gridlyProductionCertified": true,
        "gridlyClassification": "PUBLIC_ROADWAY",
        "gridlyDisplayName": "PRIVATE ROAD",
        "gridlyId": "FRA-021404D"
      }
    },
    {
      "type": "Feature",
      "id": 207492,
      "geometry": {
        "type": "Point",
        "coordinates": [
          -99.8709145997259,
          31.7493903998116
        ]
      },
      "properties": {
        "OBJECTID": 207492,
        "CROSSING": "021417E",
        "EFFDATE": 1758153600000,
        "REASON": "14",
        "StateCode": "48",
        "CountyCode": "48399",
        "STCYFIPS": "48399",
        "CITYCD": "483990400",
        "RAILROAD": "TXPF",
        "RRDIV": "SOUTHERN",
        "RRSUBDIV": "SAN ANGELO",
        "HIGHWAY": "Cr0427",
        "STREET": "County Road 427",
        "TTSTN": "691170",
        "MILEPOST": "0032.14",
        "TYPEXING": "Public",
        "POSXING": "At Grade",
        "PRVCAT": "14",
        "INIT": "2",
        "LATITUDE": 31.7493904,
        "LONGITUD": -99.8709146,
        "LLSOURCE": "1",
        "WHISTBAN": "0",
        "RRCONT": "3259428164",
        "POLCONT": "8007428905",
        "INV_LINK": "https://safetydata.fra.dot.gov/OfficeofSafety/PublicSite/Crossing/Crossing.aspx?phasetype=C&rpttype=I&txtcrossingnum=021417E",
        "ACC_LINK": "https://safetydata.fra.dot.gov/OfficeofSafety/PublicSite/Crossing/Crossing.aspx?phasetype=C&rpttype=A&txtcrossingnum=021417E",
        "TTSTNNAM": "BALLINGER",
        "XPURPOSE": "1",
        "OPERATINGR": "TXPF",
        "OPERATIN_1": "Primary",
        "DAYTHRU": 1,
        "NGHTTHRU": 1,
        "MAINTRK": 1,
        "SIDINGTRK": 0,
        "YARDTRK": 0,
        "TRANSITTRK": 0,
        "INDUSTRYTR": 0,
        "OTHRTRK": 0,
        "WDCODE": "Crossbucks",
        "REVISIONDA": "2001/01/01 00:00:00",
        "LASTUPDATE": "9/18/2025",
        "AADT": "000020",
        "AADTYEAR": "2023",
        "STATENAME": "TEXAS",
        "STATEAB": "TX",
        "COUNTYNAME": "RUNNELS",
        "CITYNAME": "BALLINGER",
        "LATDD": 31.7493904,
        "LONGDD": -99.8709146,
        "gridlyProductionCertified": true,
        "gridlyClassification": "PUBLIC_ROADWAY",
        "gridlyDisplayName": "County Road 427",
        "gridlyId": "FRA-021417E"
      }
    },
    {
      "type": "Feature",
      "id": 207493,
      "geometry": {
        "type": "Point",
        "coordinates": [
          -99.8769372000381,
          31.7487291999686
        ]
      },
      "properties": {
        "OBJECTID": 207493,
        "CROSSING": "021418L",
        "EFFDATE": 1758153600000,
        "REASON": "14",
        "StateCode": "48",
        "CountyCode": "48399",
        "STCYFIPS": "48399",
        "CITYCD": "483990400",
        "RAILROAD": "TXPF",
        "RRDIV": "SOUTHERN",
        "RRSUBDIV": "SAN ANGELO",
        "HIGHWAY": "Cr0125",
        "STREET": "County Road 125",
        "TTSTN": "691170",
        "MILEPOST": "0032.45",
        "TYPEXING": "Public",
        "POSXING": "At Grade",
        "PRVCAT": "14",
        "INIT": "2",
        "LATITUDE": 31.7487292,
        "LONGITUD": -99.8769372,
        "LLSOURCE": "1",
        "WHISTBAN": "0",
        "RRCONT": "3259428164",
        "POLCONT": "8007428905",
        "INV_LINK": "https://safetydata.fra.dot.gov/OfficeofSafety/PublicSite/Crossing/Crossing.aspx?phasetype=C&rpttype=I&txtcrossingnum=021418L",
        "ACC_LINK": "https://safetydata.fra.dot.gov/OfficeofSafety/PublicSite/Crossing/Crossing.aspx?phasetype=C&rpttype=A&txtcrossingnum=021418L",
        "TTSTNNAM": "BALLINGER",
        "XPURPOSE": "1",
        "OPERATINGR": "TXPF",
        "OPERATIN_1": "Primary",
        "DAYTHRU": 1,
        "NGHTTHRU": 1,
        "MAINTRK": 1,
        "SIDINGTRK": 0,
        "YARDTRK": 0,
        "TRANSITTRK": 0,
        "INDUSTRYTR": 0,
        "OTHRTRK": 0,
        "WDCODE": "Crossbucks",
        "REVISIONDA": "2001/01/01 00:00:00",
        "LASTUPDATE": "9/18/2025",
        "AADT": "53",
        "AADTYEAR": "2023",
        "STATENAME": "TEXAS",
        "STATEAB": "TX",
        "COUNTYNAME": "RUNNELS",
        "CITYNAME": "BALLINGER",
        "LATDD": 31.7487292,
        "LONGDD": -99.8769372,
        "gridlyProductionCertified": true,
        "gridlyClassification": "PUBLIC_ROADWAY",
        "gridlyDisplayName": "County Road 125",
        "gridlyId": "FRA-021418L"
      }
    },
    {
      "type": "Feature",
      "id": 207494,
      "geometry": {
        "type": "Point",
        "coordinates": [
          -99.9365211996839,
          31.7451843000549
        ]
      },
      "properties": {
        "OBJECTID": 207494,
        "CROSSING": "021422B",
        "EFFDATE": 1758153600000,
        "REASON": "14",
        "StateCode": "48",
        "CountyCode": "48399",
        "STCYFIPS": "48399",
        "CITYCD": "483990400",
        "RAILROAD": "TXPF",
        "RRDIV": "SOUTHERN",
        "RRSUBDIV": "SAN ANGELO",
        "HIGHWAY": "Cr0121",
        "STREET": "OLD COLEMAN RoaD",
        "TTSTN": "691170",
        "MILEPOST": "0036.08",
        "TYPEXING": "Public",
        "POSXING": "At Grade",
        "PRVCAT": "14",
        "INIT": "2",
        "LATITUDE": 31.7451843,
        "LONGITUD": -99.9365212,
        "LLSOURCE": "1",
        "WHISTBAN": "0",
        "RRCONT": "3259428164",
        "POLCONT": "8007428905",
        "INV_LINK": "https://safetydata.fra.dot.gov/OfficeofSafety/PublicSite/Crossing/Crossing.aspx?phasetype=C&rpttype=I&txtcrossingnum=021422B",
        "ACC_LINK": "https://safetydata.fra.dot.gov/OfficeofSafety/PublicSite/Crossing/Crossing.aspx?phasetype=C&rpttype=A&txtcrossingnum=021422B",
        "TTSTNNAM": "BALLINGER",
        "XPURPOSE": "1",
        "OPERATINGR": "TXPF",
        "OPERATIN_1": "Primary",
        "DAYTHRU": 1,
        "NGHTTHRU": 1,
        "MAINTRK": 1,
        "SIDINGTRK": 0,
        "YARDTRK": 0,
        "TRANSITTRK": 0,
        "INDUSTRYTR": 0,
        "OTHRTRK": 0,
        "WDCODE": "Crossbucks",
        "REVISIONDA": "2001/01/01 00:00:00",
        "LASTUPDATE": "9/18/2025",
        "AADT": "54",
        "AADTYEAR": "2023",
        "STATENAME": "TEXAS",
        "STATEAB": "TX",
        "COUNTYNAME": "RUNNELS",
        "CITYNAME": "BALLINGER",
        "LATDD": 31.7451843,
        "LONGDD": -99.9365212,
        "gridlyProductionCertified": true,
        "gridlyClassification": "PUBLIC_ROADWAY",
        "gridlyDisplayName": "OLD COLEMAN RoaD",
        "gridlyId": "FRA-021422B"
      }
    },
    {
      "type": "Feature",
      "id": 207499,
      "geometry": {
        "type": "Point",
        "coordinates": [
          -99.9467429002315,
          31.7410127999305
        ]
      },
      "properties": {
        "OBJECTID": 207499,
        "CROSSING": "021424P",
        "EFFDATE": 1758153600000,
        "REASON": "14",
        "StateCode": "48",
        "CountyCode": "48399",
        "STCYFIPS": "48399",
        "CITYCD": "483990400",
        "RAILROAD": "TXPF",
        "RRDIV": "SOUTHERN",
        "RRSUBDIV": "SAN ANGELO",
        "HIGHWAY": "lS0000",
        "STREET": "north sixTH STreet",
        "TTSTN": "691170",
        "MILEPOST": "0036.75",
        "TYPEXING": "Public",
        "POSXING": "At Grade",
        "PRVCAT": "14",
        "INIT": "2",
        "LATITUDE": 31.7410128,
        "LONGITUD": -99.9467429,
        "LLSOURCE": "1",
        "WHISTBAN": "0",
        "RRCONT": "3259428164",
        "POLCONT": "8007428905",
        "INV_LINK": "https://safetydata.fra.dot.gov/OfficeofSafety/PublicSite/Crossing/Crossing.aspx?phasetype=C&rpttype=I&txtcrossingnum=021424P",
        "ACC_LINK": "https://safetydata.fra.dot.gov/OfficeofSafety/PublicSite/Crossing/Crossing.aspx?phasetype=C&rpttype=A&txtcrossingnum=021424P",
        "TTSTNNAM": "BALLINGER",
        "XPURPOSE": "1",
        "OPERATINGR": "TXPF",
        "OPERATIN_1": "Primary",
        "DAYTHRU": 1,
        "NGHTTHRU": 1,
        "MAINTRK": 1,
        "SIDINGTRK": 0,
        "YARDTRK": 0,
        "TRANSITTRK": 0,
        "INDUSTRYTR": 1,
        "OTHRTRK": 1,
        "WDCODE": "Crossbucks",
        "REVISIONDA": "2001/01/01 00:00:00",
        "LASTUPDATE": "9/18/2025",
        "AADT": "000518",
        "AADTYEAR": "2013",
        "STATENAME": "TEXAS",
        "STATEAB": "TX",
        "COUNTYNAME": "RUNNELS",
        "CITYNAME": "BALLINGER",
        "LATDD": 31.7410128,
        "LONGDD": -99.9467429,
        "gridlyProductionCertified": true,
        "gridlyClassification": "PUBLIC_ROADWAY",
        "gridlyDisplayName": "north sixTH STreet",
        "gridlyId": "FRA-021424P"
      }
    },
    {
      "type": "Feature",
      "id": 207500,
      "geometry": {
        "type": "Point",
        "coordinates": [
          -99.9496783996456,
          31.7390204999257
        ]
      },
      "properties": {
        "OBJECTID": 207500,
        "CROSSING": "021426D",
        "EFFDATE": 1758153600000,
        "REASON": "14",
        "StateCode": "48",
        "CountyCode": "48399",
        "STCYFIPS": "48399",
        "CITYCD": "483990400",
        "RAILROAD": "TXPF",
        "RRDIV": "SOUTHERN",
        "RRSUBDIV": "SAN ANGELO",
        "HIGHWAY": "lS0000",
        "STREET": "north eighTH ST",
        "TTSTN": "691170",
        "MILEPOST": "0036.97",
        "TYPEXING": "Public",
        "POSXING": "At Grade",
        "PRVCAT": "14",
        "INIT": "2",
        "LATITUDE": 31.7390205,
        "LONGITUD": -99.9496784,
        "LLSOURCE": "1",
        "WHISTBAN": "0",
        "RRCONT": "3259428164",
        "POLCONT": "8007428905",
        "INV_LINK": "https://safetydata.fra.dot.gov/OfficeofSafety/PublicSite/Crossing/Crossing.aspx?phasetype=C&rpttype=I&txtcrossingnum=021426D",
        "ACC_LINK": "https://safetydata.fra.dot.gov/OfficeofSafety/PublicSite/Crossing/Crossing.aspx?phasetype=C&rpttype=A&txtcrossingnum=021426D",
        "TTSTNNAM": "BALLINGER",
        "XPURPOSE": "1",
        "OPERATINGR": "TXPF",
        "OPERATIN_1": "Primary",
        "DAYTHRU": 1,
        "NGHTTHRU": 1,
        "MAINTRK": 1,
        "SIDINGTRK": 0,
        "YARDTRK": 0,
        "TRANSITTRK": 0,
        "INDUSTRYTR": 0,
        "OTHRTRK": 0,
        "WDCODE": "Crossbucks",
        "REVISIONDA": "2001/01/01 00:00:00",
        "LASTUPDATE": "9/18/2025",
        "AADT": "1238",
        "AADTYEAR": "2023",
        "STATENAME": "TEXAS",
        "STATEAB": "TX",
        "COUNTYNAME": "RUNNELS",
        "CITYNAME": "BALLINGER",
        "LATDD": 31.7390205,
        "LONGDD": -99.9496784,
        "gridlyProductionCertified": true,
        "gridlyClassification": "PUBLIC_ROADWAY",
        "gridlyDisplayName": "north eighTH ST",
        "gridlyId": "FRA-021426D"
      }
    },
    {
      "type": "Feature",
      "id": 207501,
      "geometry": {
        "type": "Point",
        "coordinates": [
          -99.9515017002963,
          31.7376734998864
        ]
      },
      "properties": {
        "OBJECTID": 207501,
        "CROSSING": "021427K",
        "EFFDATE": 1758153600000,
        "REASON": "14",
        "StateCode": "48",
        "CountyCode": "48399",
        "STCYFIPS": "48399",
        "CITYCD": "483990400",
        "RAILROAD": "TXPF",
        "RRDIV": "SOUTHERN",
        "RRSUBDIV": "SAN ANGELO",
        "HIGHWAY": "lS0000",
        "STREET": "north tenTH STreet",
        "TTSTN": "691170",
        "MILEPOST": "0037.12",
        "TYPEXING": "Public",
        "POSXING": "At Grade",
        "PRVCAT": "14",
        "INIT": "2",
        "LATITUDE": 31.7376735,
        "LONGITUD": -99.9515017,
        "LLSOURCE": "1",
        "WHISTBAN": "0",
        "RRCONT": "3259428164",
        "POLCONT": "8007428905",
        "INV_LINK": "https://safetydata.fra.dot.gov/OfficeofSafety/PublicSite/Crossing/Crossing.aspx?phasetype=C&rpttype=I&txtcrossingnum=021427K",
        "ACC_LINK": "https://safetydata.fra.dot.gov/OfficeofSafety/PublicSite/Crossing/Crossing.aspx?phasetype=C&rpttype=A&txtcrossingnum=021427K",
        "TTSTNNAM": "BALLINGER",
        "XPURPOSE": "1",
        "OPERATINGR": "TXPF",
        "OPERATIN_1": "Primary",
        "DAYTHRU": 1,
        "NGHTTHRU": 1,
        "MAINTRK": 1,
        "SIDINGTRK": 1,
        "YARDTRK": 1,
        "TRANSITTRK": 0,
        "INDUSTRYTR": 0,
        "OTHRTRK": 2,
        "WDCODE": "Crossbucks",
        "REVISIONDA": "2001/01/01 00:00:00",
        "LASTUPDATE": "9/18/2025",
        "AADT": "1108",
        "AADTYEAR": "2023",
        "STATENAME": "TEXAS",
        "STATEAB": "TX",
        "COUNTYNAME": "RUNNELS",
        "CITYNAME": "BALLINGER",
        "LATDD": 31.7376735,
        "LONGDD": -99.9515017,
        "gridlyProductionCertified": true,
        "gridlyClassification": "PUBLIC_ROADWAY",
        "gridlyDisplayName": "north tenTH STreet",
        "gridlyId": "FRA-021427K"
      }
    },
    {
      "type": "Feature",
      "id": 207502,
      "geometry": {
        "type": "Point",
        "coordinates": [
          -100.185877899954,
          31.5948049999703
        ]
      },
      "properties": {
        "OBJECTID": 207502,
        "CROSSING": "021453A",
        "EFFDATE": 1758240000000,
        "REASON": "14",
        "StateCode": "48",
        "CountyCode": "48399",
        "STCYFIPS": "48399",
        "CITYCD": "483994580",
        "RAILROAD": "TXPF",
        "RRDIV": "SOUTHERN",
        "RRSUBDIV": "SAN ANGELO",
        "HIGHWAY": "ls0000",
        "STREET": "THIELE STreet",
        "TTSTN": "691197",
        "MILEPOST": "0054.47",
        "TYPEXING": "Public",
        "POSXING": "At Grade",
        "PRVCAT": "14",
        "INIT": "2",
        "LATITUDE": 31.594805,
        "LONGITUD": -100.1858779,
        "LLSOURCE": "1",
        "WHISTBAN": "0",
        "RRCONT": "3259428164",
        "POLCONT": "8007428905",
        "INV_LINK": "https://safetydata.fra.dot.gov/OfficeofSafety/PublicSite/Crossing/Crossing.aspx?phasetype=C&rpttype=I&txtcrossingnum=021453A",
        "ACC_LINK": "https://safetydata.fra.dot.gov/OfficeofSafety/PublicSite/Crossing/Crossing.aspx?phasetype=C&rpttype=A&txtcrossingnum=021453A",
        "TTSTNNAM": "MILES",
        "XPURPOSE": "1",
        "OPERATINGR": "TXPF",
        "OPERATIN_1": "Primary",
        "DAYTHRU": 1,
        "NGHTTHRU": 1,
        "MAINTRK": 1,
        "SIDINGTRK": 0,
        "YARDTRK": 0,
        "TRANSITTRK": 0,
        "INDUSTRYTR": 0,
        "OTHRTRK": 0,
        "WDCODE": "Crossbucks",
        "REVISIONDA": "2001/01/01 00:00:00",
        "LASTUPDATE": "9/19/2025",
        "AADT": "373",
        "AADTYEAR": "2023",
        "STATENAME": "TEXAS",
        "STATEAB": "TX",
        "COUNTYNAME": "RUNNELS",
        "CITYNAME": "MILES",
        "LATDD": 31.594805,
        "LONGDD": -100.1858779,
        "gridlyProductionCertified": true,
        "gridlyClassification": "PUBLIC_ROADWAY",
        "gridlyDisplayName": "THIELE STreet",
        "gridlyId": "FRA-021453A"
      }
    },
    {
      "type": "Feature",
      "id": 207528,
      "geometry": {
        "type": "Point",
        "coordinates": [
          -99.9943443001502,
          31.6960474001806
        ]
      },
      "properties": {
        "OBJECTID": 207528,
        "CROSSING": "021433N",
        "EFFDATE": 1758240000000,
        "REASON": "14",
        "StateCode": "48",
        "CountyCode": "48399",
        "STCYFIPS": "48399",
        "CITYCD": "483990400",
        "RAILROAD": "TXPF",
        "RRDIV": "SOUTHERN",
        "RRSUBDIV": "SAN ANGELO",
        "HIGHWAY": "Cr0407",
        "STREET": "County Road 407",
        "TTSTN": "691170",
        "MILEPOST": "0040.96",
        "TYPEXING": "Public",
        "POSXING": "At Grade",
        "PRVCAT": "14",
        "INIT": "2",
        "LATITUDE": 31.6960474,
        "LONGITUD": -99.9943443,
        "LLSOURCE": "1",
        "WHISTBAN": "0",
        "RRCONT": "3259428164",
        "POLCONT": "8007428905",
        "INV_LINK": "https://safetydata.fra.dot.gov/OfficeofSafety/PublicSite/Crossing/Crossing.aspx?phasetype=C&rpttype=I&txtcrossingnum=021433N",
        "ACC_LINK": "https://safetydata.fra.dot.gov/OfficeofSafety/PublicSite/Crossing/Crossing.aspx?phasetype=C&rpttype=A&txtcrossingnum=021433N",
        "TTSTNNAM": "BALLINGER",
        "XPURPOSE": "1",
        "OPERATINGR": "TXPF",
        "OPERATIN_1": "Primary",
        "DAYTHRU": 1,
        "NGHTTHRU": 1,
        "MAINTRK": 1,
        "SIDINGTRK": 0,
        "YARDTRK": 0,
        "TRANSITTRK": 0,
        "INDUSTRYTR": 0,
        "OTHRTRK": 0,
        "WDCODE": "Crossbucks",
        "REVISIONDA": "2001/01/01 00:00:00",
        "LASTUPDATE": "9/19/2025",
        "AADT": "8",
        "AADTYEAR": "2023",
        "STATENAME": "TEXAS",
        "STATEAB": "TX",
        "COUNTYNAME": "RUNNELS",
        "CITYNAME": "BALLINGER",
        "LATDD": 31.6960474,
        "LONGDD": -99.9943443,
        "gridlyProductionCertified": true,
        "gridlyClassification": "PUBLIC_ROADWAY",
        "gridlyDisplayName": "County Road 407",
        "gridlyId": "FRA-021433N"
      }
    },
    {
      "type": "Feature",
      "id": 207529,
      "geometry": {
        "type": "Point",
        "coordinates": [
          -99.9543247000941,
          31.7356225000149
        ]
      },
      "properties": {
        "OBJECTID": 207529,
        "CROSSING": "021428S",
        "EFFDATE": 1758240000000,
        "REASON": "14",
        "StateCode": "48",
        "CountyCode": "48399",
        "STCYFIPS": "48399",
        "CITYCD": "483990400",
        "RAILROAD": "TXPF",
        "RRDIV": "SOUTHERN",
        "RRSUBDIV": "SAN ANGELO",
        "HIGHWAY": "ls0000",
        "STREET": "north thirteeth street",
        "TTSTN": "691170",
        "MILEPOST": "0037.33",
        "TYPEXING": "Public",
        "POSXING": "At Grade",
        "PRVCAT": "14",
        "INIT": "2",
        "LATITUDE": 31.7356225,
        "LONGITUD": -99.9543247,
        "LLSOURCE": "1",
        "WHISTBAN": "0",
        "RRCONT": "3259428165",
        "POLCONT": "8007428905",
        "INV_LINK": "https://safetydata.fra.dot.gov/OfficeofSafety/PublicSite/Crossing/Crossing.aspx?phasetype=C&rpttype=I&txtcrossingnum=021428S",
        "ACC_LINK": "https://safetydata.fra.dot.gov/OfficeofSafety/PublicSite/Crossing/Crossing.aspx?phasetype=C&rpttype=A&txtcrossingnum=021428S",
        "TTSTNNAM": "BALLINGER",
        "XPURPOSE": "1",
        "OPERATINGR": "TXPF",
        "OPERATIN_1": "Primary",
        "DAYTHRU": 1,
        "NGHTTHRU": 1,
        "MAINTRK": 1,
        "SIDINGTRK": 0,
        "YARDTRK": 4,
        "TRANSITTRK": 0,
        "INDUSTRYTR": 0,
        "OTHRTRK": 4,
        "WDCODE": "Crossbucks",
        "REVISIONDA": "2001/01/01 00:00:00",
        "LASTUPDATE": "9/19/2025",
        "AADT": "1544",
        "AADTYEAR": "2023",
        "STATENAME": "TEXAS",
        "STATEAB": "TX",
        "COUNTYNAME": "RUNNELS",
        "CITYNAME": "BALLINGER",
        "LATDD": 31.7356225,
        "LONGDD": -99.9543247,
        "gridlyProductionCertified": true,
        "gridlyClassification": "PUBLIC_ROADWAY",
        "gridlyDisplayName": "north thirteeth street",
        "gridlyId": "FRA-021428S"
      }
    },
    {
      "type": "Feature",
      "id": 207536,
      "geometry": {
        "type": "Point",
        "coordinates": [
          -100.178549000099,
          31.597691400341
        ]
      },
      "properties": {
        "OBJECTID": 207536,
        "CROSSING": "021451L",
        "EFFDATE": 1758240000000,
        "REASON": "14",
        "StateCode": "48",
        "CountyCode": "48399",
        "STCYFIPS": "48399",
        "CITYCD": "483994580",
        "RAILROAD": "TXPF",
        "RRDIV": "SOUTHERN",
        "RRSUBDIV": "SAN ANGELO",
        "HIGHWAY": "ls0000",
        "STREET": "river road",
        "TTSTN": "691197",
        "MILEPOST": "0053.98",
        "TYPEXING": "Public",
        "POSXING": "At Grade",
        "PRVCAT": "14",
        "INIT": "2",
        "LATITUDE": 31.5976914,
        "LONGITUD": -100.178549,
        "LLSOURCE": "1",
        "WHISTBAN": "0",
        "RRCONT": "3259428164",
        "POLCONT": "8007428905",
        "INV_LINK": "https://safetydata.fra.dot.gov/OfficeofSafety/PublicSite/Crossing/Crossing.aspx?phasetype=C&rpttype=I&txtcrossingnum=021451L",
        "ACC_LINK": "https://safetydata.fra.dot.gov/OfficeofSafety/PublicSite/Crossing/Crossing.aspx?phasetype=C&rpttype=A&txtcrossingnum=021451L",
        "TTSTNNAM": "MILES",
        "XPURPOSE": "1",
        "OPERATINGR": "TXPF",
        "OPERATIN_1": "Primary",
        "DAYTHRU": 1,
        "NGHTTHRU": 1,
        "MAINTRK": 1,
        "SIDINGTRK": 2,
        "YARDTRK": 0,
        "TRANSITTRK": 0,
        "INDUSTRYTR": 0,
        "OTHRTRK": 1,
        "WDCODE": "Crossbucks",
        "REVISIONDA": "2001/01/01 00:00:00",
        "LASTUPDATE": "9/19/2025",
        "AADT": "735",
        "AADTYEAR": "2023",
        "STATENAME": "TEXAS",
        "STATEAB": "TX",
        "COUNTYNAME": "RUNNELS",
        "CITYNAME": "MILES",
        "LATDD": 31.5976914,
        "LONGDD": -100.178549,
        "gridlyProductionCertified": true,
        "gridlyClassification": "PUBLIC_ROADWAY",
        "gridlyDisplayName": "river road",
        "gridlyId": "FRA-021451L"
      }
    },
    {
      "type": "Feature",
      "id": 207542,
      "geometry": {
        "type": "Point",
        "coordinates": [
          -100.063077599642,
          31.6406353002255
        ]
      },
      "properties": {
        "OBJECTID": 207542,
        "CROSSING": "021441F",
        "EFFDATE": 1758240000000,
        "REASON": "14",
        "StateCode": "48",
        "CountyCode": "48399",
        "STCYFIPS": "48399",
        "CITYCD": "483996002",
        "RAILROAD": "TXPF",
        "RRDIV": "SOUTHERN",
        "RRSUBDIV": "SAN ANGELO",
        "HIGHWAY": "cr0398",
        "STREET": "County Road 398",
        "TTSTN": "691193",
        "MILEPOST": "0046.54",
        "TYPEXING": "Public",
        "POSXING": "At Grade",
        "PRVCAT": "14",
        "INIT": "2",
        "LATITUDE": 31.6406353,
        "LONGITUD": -100.0630776,
        "LLSOURCE": "1",
        "WHISTBAN": "0",
        "RRCONT": "3259428164",
        "POLCONT": "8007428905",
        "INV_LINK": "https://safetydata.fra.dot.gov/OfficeofSafety/PublicSite/Crossing/Crossing.aspx?phasetype=C&rpttype=I&txtcrossingnum=021441F",
        "ACC_LINK": "https://safetydata.fra.dot.gov/OfficeofSafety/PublicSite/Crossing/Crossing.aspx?phasetype=C&rpttype=A&txtcrossingnum=021441F",
        "TTSTNNAM": "ROWENA",
        "XPURPOSE": "1",
        "OPERATINGR": "TXPF",
        "OPERATIN_1": "Primary",
        "DAYTHRU": 1,
        "NGHTTHRU": 1,
        "MAINTRK": 1,
        "SIDINGTRK": 0,
        "YARDTRK": 0,
        "TRANSITTRK": 0,
        "INDUSTRYTR": 0,
        "OTHRTRK": 0,
        "WDCODE": "Crossbucks",
        "REVISIONDA": "2001/01/01 00:00:00",
        "LASTUPDATE": "9/19/2025",
        "AADT": "1",
        "AADTYEAR": "2023",
        "STATENAME": "TEXAS",
        "STATEAB": "TX",
        "COUNTYNAME": "RUNNELS",
        "CITYNAME": "ROWENA",
        "LATDD": 31.6406353,
        "LONGDD": -100.0630776,
        "gridlyProductionCertified": true,
        "gridlyClassification": "PUBLIC_ROADWAY",
        "gridlyDisplayName": "County Road 398",
        "gridlyId": "FRA-021441F"
      }
    },
    {
      "type": "Feature",
      "id": 207543,
      "geometry": {
        "type": "Point",
        "coordinates": [
          -99.7548191998287,
          31.7841835996303
        ]
      },
      "properties": {
        "OBJECTID": 207543,
        "CROSSING": "021409M",
        "EFFDATE": 1758153600000,
        "REASON": "14",
        "StateCode": "48",
        "CountyCode": "48399",
        "STCYFIPS": "48399",
        "CITYCD": "480836760",
        "RAILROAD": "TXPF",
        "RRDIV": "SOUTHERN",
        "RRSUBDIV": "SAN ANGELO",
        "HIGHWAY": "Cr0014",
        "STREET": "County Road 14",
        "TTSTN": "690468",
        "MILEPOST": "0023.72",
        "TYPEXING": "Public",
        "POSXING": "At Grade",
        "PRVCAT": "14",
        "INIT": "2",
        "LATITUDE": 31.7841836,
        "LONGITUD": -99.7548192,
        "LLSOURCE": "1",
        "WHISTBAN": "0",
        "RRCONT": "3259428164",
        "POLCONT": "8007428905",
        "INV_LINK": "https://safetydata.fra.dot.gov/OfficeofSafety/PublicSite/Crossing/Crossing.aspx?phasetype=C&rpttype=I&txtcrossingnum=021409M",
        "ACC_LINK": "https://safetydata.fra.dot.gov/OfficeofSafety/PublicSite/Crossing/Crossing.aspx?phasetype=C&rpttype=A&txtcrossingnum=021409M",
        "TTSTNNAM": "TALPA",
        "XPURPOSE": "1",
        "OPERATINGR": "TXPF",
        "OPERATIN_1": "Primary",
        "DAYTHRU": 1,
        "NGHTTHRU": 1,
        "MAINTRK": 1,
        "SIDINGTRK": 0,
        "YARDTRK": 0,
        "TRANSITTRK": 0,
        "INDUSTRYTR": 0,
        "OTHRTRK": 0,
        "WDCODE": "Stop signs",
        "REVISIONDA": "2001/01/01 00:00:00",
        "LASTUPDATE": "9/18/2025",
        "AADT": "36",
        "AADTYEAR": "2023",
        "STATENAME": "TEXAS",
        "STATEAB": "TX",
        "COUNTYNAME": "RUNNELS",
        "CITYNAME": "TALPA",
        "LATDD": 31.7841836,
        "LONGDD": -99.7548192,
        "gridlyProductionCertified": true,
        "gridlyClassification": "PUBLIC_ROADWAY",
        "gridlyDisplayName": "County Road 14",
        "gridlyId": "FRA-021409M"
      }
    },
    {
      "type": "Feature",
      "id": 207544,
      "geometry": {
        "type": "Point",
        "coordinates": [
          -100.144323600101,
          31.6103215997067
        ]
      },
      "properties": {
        "OBJECTID": 207544,
        "CROSSING": "021448D",
        "EFFDATE": 1758240000000,
        "REASON": "14",
        "StateCode": "48",
        "CountyCode": "48399",
        "STCYFIPS": "48399",
        "CITYCD": "483994580",
        "RAILROAD": "TXPF",
        "RRDIV": "SOUTHERN",
        "RRSUBDIV": "SAN ANGELO",
        "HIGHWAY": "cr0357",
        "STREET": "County Road 357",
        "TTSTN": "691197",
        "MILEPOST": "0051.79",
        "TYPEXING": "Public",
        "POSXING": "At Grade",
        "PRVCAT": "14",
        "INIT": "2",
        "LATITUDE": 31.6103216,
        "LONGITUD": -100.1443236,
        "LLSOURCE": "1",
        "WHISTBAN": "0",
        "RRCONT": "3258428164",
        "POLCONT": "8007428905",
        "INV_LINK": "https://safetydata.fra.dot.gov/OfficeofSafety/PublicSite/Crossing/Crossing.aspx?phasetype=C&rpttype=I&txtcrossingnum=021448D",
        "ACC_LINK": "https://safetydata.fra.dot.gov/OfficeofSafety/PublicSite/Crossing/Crossing.aspx?phasetype=C&rpttype=A&txtcrossingnum=021448D",
        "TTSTNNAM": "MILES",
        "XPURPOSE": "1",
        "OPERATINGR": "TXPF",
        "OPERATIN_1": "Primary",
        "DAYTHRU": 1,
        "NGHTTHRU": 1,
        "MAINTRK": 1,
        "SIDINGTRK": 0,
        "YARDTRK": 0,
        "TRANSITTRK": 0,
        "INDUSTRYTR": 0,
        "OTHRTRK": 0,
        "WDCODE": "Crossbucks",
        "REVISIONDA": "2001/01/01 00:00:00",
        "LASTUPDATE": "9/19/2025",
        "AADT": "13",
        "AADTYEAR": "2023",
        "STATENAME": "TEXAS",
        "STATEAB": "TX",
        "COUNTYNAME": "RUNNELS",
        "CITYNAME": "MILES",
        "LATDD": 31.6103216,
        "LONGDD": -100.1443236,
        "gridlyProductionCertified": true,
        "gridlyClassification": "PUBLIC_ROADWAY",
        "gridlyDisplayName": "County Road 357",
        "gridlyId": "FRA-021448D"
      }
    },
    {
      "type": "Feature",
      "id": 207545,
      "geometry": {
        "type": "Point",
        "coordinates": [
          -100.169786600154,
          31.6011619998917
        ]
      },
      "properties": {
        "OBJECTID": 207545,
        "CROSSING": "021450E",
        "EFFDATE": 1758240000000,
        "REASON": "14",
        "StateCode": "48",
        "CountyCode": "48399",
        "STCYFIPS": "48399",
        "CITYCD": "483994580",
        "RAILROAD": "TXPF",
        "RRDIV": "SOUTHERN",
        "RRSUBDIV": "SAN ANGELO",
        "HIGHWAY": "cr0363",
        "STREET": "County Road 363",
        "TTSTN": "691197",
        "MILEPOST": "0053.42",
        "TYPEXING": "Public",
        "POSXING": "At Grade",
        "PRVCAT": "14",
        "INIT": "2",
        "LATITUDE": 31.601162,
        "LONGITUD": -100.1697866,
        "LLSOURCE": "1",
        "WHISTBAN": "0",
        "RRCONT": "3259428164",
        "POLCONT": "8007428905",
        "INV_LINK": "https://safetydata.fra.dot.gov/OfficeofSafety/PublicSite/Crossing/Crossing.aspx?phasetype=C&rpttype=I&txtcrossingnum=021450E",
        "ACC_LINK": "https://safetydata.fra.dot.gov/OfficeofSafety/PublicSite/Crossing/Crossing.aspx?phasetype=C&rpttype=A&txtcrossingnum=021450E",
        "TTSTNNAM": "MILES",
        "XPURPOSE": "1",
        "OPERATINGR": "TXPF",
        "OPERATIN_1": "Primary",
        "DAYTHRU": 1,
        "NGHTTHRU": 1,
        "MAINTRK": 1,
        "SIDINGTRK": 2,
        "YARDTRK": 0,
        "TRANSITTRK": 0,
        "INDUSTRYTR": 0,
        "OTHRTRK": 0,
        "WDCODE": "Crossbucks",
        "REVISIONDA": "2001/01/01 00:00:00",
        "LASTUPDATE": "9/19/2025",
        "AADT": "11",
        "AADTYEAR": "2023",
        "STATENAME": "TEXAS",
        "STATEAB": "TX",
        "COUNTYNAME": "RUNNELS",
        "CITYNAME": "MILES",
        "LATDD": 31.601162,
        "LONGDD": -100.1697866,
        "gridlyProductionCertified": true,
        "gridlyClassification": "PUBLIC_ROADWAY",
        "gridlyDisplayName": "County Road 363",
        "gridlyId": "FRA-021450E"
      }
    },
    {
      "type": "Feature",
      "id": 207546,
      "geometry": {
        "type": "Point",
        "coordinates": [
          -100.109860900239,
          31.621960899647
        ]
      },
      "properties": {
        "OBJECTID": 207546,
        "CROSSING": "021445H",
        "EFFDATE": 1758240000000,
        "REASON": "14",
        "StateCode": "48",
        "CountyCode": "48399",
        "STCYFIPS": "48399",
        "CITYCD": "483994580",
        "RAILROAD": "TXPF",
        "RRDIV": "SOUTHERN",
        "RRSUBDIV": "SAN ANGELO",
        "HIGHWAY": "Cr0347",
        "STREET": "County Road 347",
        "TTSTN": "691193",
        "MILEPOST": "0049.61",
        "TYPEXING": "Public",
        "POSXING": "At Grade",
        "PRVCAT": "14",
        "INIT": "2",
        "LATITUDE": 31.6219609,
        "LONGITUD": -100.1098609,
        "LLSOURCE": "1",
        "WHISTBAN": "0",
        "RRCONT": "3259428164",
        "POLCONT": "8007428905",
        "INV_LINK": "https://safetydata.fra.dot.gov/OfficeofSafety/PublicSite/Crossing/Crossing.aspx?phasetype=C&rpttype=I&txtcrossingnum=021445H",
        "ACC_LINK": "https://safetydata.fra.dot.gov/OfficeofSafety/PublicSite/Crossing/Crossing.aspx?phasetype=C&rpttype=A&txtcrossingnum=021445H",
        "TTSTNNAM": "ROWENA",
        "XPURPOSE": "1",
        "OPERATINGR": "TXPF",
        "OPERATIN_1": "Primary",
        "DAYTHRU": 1,
        "NGHTTHRU": 1,
        "MAINTRK": 1,
        "SIDINGTRK": 0,
        "YARDTRK": 0,
        "TRANSITTRK": 0,
        "INDUSTRYTR": 0,
        "OTHRTRK": 0,
        "WDCODE": "Crossbucks",
        "REVISIONDA": "2001/01/01 00:00:00",
        "LASTUPDATE": "9/19/2025",
        "AADT": "39",
        "AADTYEAR": "2023",
        "STATENAME": "TEXAS",
        "STATEAB": "TX",
        "COUNTYNAME": "RUNNELS",
        "CITYNAME": "MILES",
        "LATDD": 31.6219609,
        "LONGDD": -100.1098609,
        "gridlyProductionCertified": true,
        "gridlyClassification": "PUBLIC_ROADWAY",
        "gridlyDisplayName": "County Road 347",
        "gridlyId": "FRA-021445H"
      }
    },
    {
      "type": "Feature",
      "id": 207547,
      "geometry": {
        "type": "Point",
        "coordinates": [
          -100.009828999979,
          31.6814925002048
        ]
      },
      "properties": {
        "OBJECTID": 207547,
        "CROSSING": "021434V",
        "EFFDATE": 1758240000000,
        "REASON": "14",
        "StateCode": "48",
        "CountyCode": "48399",
        "STCYFIPS": "48399",
        "CITYCD": "483990400",
        "RAILROAD": "TXPF",
        "RRDIV": "SOUTHERN",
        "RRSUBDIV": "SAN ANGELO",
        "HIGHWAY": "Cr0401",
        "STREET": "County Road 401",
        "TTSTN": "691193",
        "MILEPOST": "0042.32",
        "TYPEXING": "Public",
        "POSXING": "At Grade",
        "PRVCAT": "14",
        "INIT": "2",
        "LATITUDE": 31.6814925,
        "LONGITUD": -100.009829,
        "LLSOURCE": "1",
        "WHISTBAN": "0",
        "RRCONT": "3259428164",
        "POLCONT": "8007428905",
        "INV_LINK": "https://safetydata.fra.dot.gov/OfficeofSafety/PublicSite/Crossing/Crossing.aspx?phasetype=C&rpttype=I&txtcrossingnum=021434V",
        "ACC_LINK": "https://safetydata.fra.dot.gov/OfficeofSafety/PublicSite/Crossing/Crossing.aspx?phasetype=C&rpttype=A&txtcrossingnum=021434V",
        "TTSTNNAM": "ROWENA",
        "XPURPOSE": "1",
        "OPERATINGR": "TXPF",
        "OPERATIN_1": "Primary",
        "DAYTHRU": 1,
        "NGHTTHRU": 1,
        "MAINTRK": 1,
        "SIDINGTRK": 0,
        "YARDTRK": 0,
        "TRANSITTRK": 0,
        "INDUSTRYTR": 0,
        "OTHRTRK": 0,
        "WDCODE": "Crossbucks",
        "REVISIONDA": "2001/01/01 00:00:00",
        "LASTUPDATE": "9/19/2025",
        "AADT": "30",
        "AADTYEAR": "2023",
        "STATENAME": "TEXAS",
        "STATEAB": "TX",
        "COUNTYNAME": "RUNNELS",
        "CITYNAME": "BALLINGER",
        "LATDD": 31.6814925,
        "LONGDD": -100.009829,
        "gridlyProductionCertified": true,
        "gridlyClassification": "PUBLIC_ROADWAY",
        "gridlyDisplayName": "County Road 401",
        "gridlyId": "FRA-021434V"
      }
    },
    {
      "type": "Feature",
      "id": 207565,
      "geometry": {
        "type": "Point",
        "coordinates": [
          -100.195824799568,
          31.5908888996586
        ]
      },
      "properties": {
        "OBJECTID": 207565,
        "CROSSING": "021454G",
        "EFFDATE": 1758240000000,
        "REASON": "14",
        "StateCode": "48",
        "CountyCode": "48399",
        "STCYFIPS": "48399",
        "CITYCD": "483994580",
        "RAILROAD": "TXPF",
        "RRDIV": "SOUTHERN",
        "RRSUBDIV": "SAN ANGELO",
        "HIGHWAY": "cr0365",
        "STREET": "County Road 365",
        "TTSTN": "691197",
        "MILEPOST": "0055.11",
        "TYPEXING": "Public",
        "POSXING": "At Grade",
        "PRVCAT": "14",
        "INIT": "2",
        "LATITUDE": 31.5908889,
        "LONGITUD": -100.1958248,
        "LLSOURCE": "1",
        "WHISTBAN": "0",
        "RRCONT": "3259428164",
        "POLCONT": "8007428905",
        "INV_LINK": "https://safetydata.fra.dot.gov/OfficeofSafety/PublicSite/Crossing/Crossing.aspx?phasetype=C&rpttype=I&txtcrossingnum=021454G",
        "ACC_LINK": "https://safetydata.fra.dot.gov/OfficeofSafety/PublicSite/Crossing/Crossing.aspx?phasetype=C&rpttype=A&txtcrossingnum=021454G",
        "TTSTNNAM": "MILES",
        "XPURPOSE": "1",
        "OPERATINGR": "TXPF",
        "OPERATIN_1": "Primary",
        "DAYTHRU": 1,
        "NGHTTHRU": 1,
        "MAINTRK": 1,
        "SIDINGTRK": 0,
        "YARDTRK": 0,
        "TRANSITTRK": 0,
        "INDUSTRYTR": 0,
        "OTHRTRK": 0,
        "WDCODE": "Crossbucks",
        "REVISIONDA": "2001/01/01 00:00:00",
        "LASTUPDATE": "9/19/2025",
        "AADT": "578",
        "AADTYEAR": "2023",
        "STATENAME": "TEXAS",
        "STATEAB": "TX",
        "COUNTYNAME": "RUNNELS",
        "CITYNAME": "MILES",
        "LATDD": 31.5908889,
        "LONGDD": -100.1958248,
        "gridlyProductionCertified": true,
        "gridlyClassification": "PUBLIC_ROADWAY",
        "gridlyDisplayName": "County Road 365",
        "gridlyId": "FRA-021454G"
      }
    },
    {
      "type": "Feature",
      "id": 212726,
      "geometry": {
        "type": "Point",
        "coordinates": [
          -100.206935599584,
          31.5864890999707
        ]
      },
      "properties": {
        "OBJECTID": 212726,
        "CROSSING": "021455N",
        "EFFDATE": 1758672000000,
        "REASON": "14",
        "StateCode": "48",
        "CountyCode": "48399",
        "STCYFIPS": "48399",
        "CITYCD": "483994580",
        "RAILROAD": "TXPF",
        "RRDIV": "SOUTHERN",
        "RRSUBDIV": "SAN ANGELO",
        "HIGHWAY": "cr0366",
        "STREET": "County Road 366",
        "TTSTN": "691197",
        "MILEPOST": "0055.83",
        "TYPEXING": "Public",
        "POSXING": "At Grade",
        "PRVCAT": "14",
        "INIT": "2",
        "LATITUDE": 31.5864891,
        "LONGITUD": -100.2069356,
        "LLSOURCE": "1",
        "WHISTBAN": "0",
        "RRCONT": "3259428164",
        "POLCONT": "8007428905",
        "INV_LINK": "https://safetydata.fra.dot.gov/OfficeofSafety/PublicSite/Crossing/Crossing.aspx?phasetype=C&rpttype=I&txtcrossingnum=021455N",
        "ACC_LINK": "https://safetydata.fra.dot.gov/OfficeofSafety/PublicSite/Crossing/Crossing.aspx?phasetype=C&rpttype=A&txtcrossingnum=021455N",
        "TTSTNNAM": "MILES",
        "XPURPOSE": "1",
        "OPERATINGR": "TXPF",
        "OPERATIN_1": "Primary",
        "DAYTHRU": 1,
        "NGHTTHRU": 1,
        "MAINTRK": 1,
        "SIDINGTRK": 0,
        "YARDTRK": 0,
        "TRANSITTRK": 0,
        "INDUSTRYTR": 0,
        "OTHRTRK": 0,
        "WDCODE": "Crossbucks",
        "REVISIONDA": "2001/01/01 00:00:00",
        "LASTUPDATE": "9/24/2025",
        "AADT": "47",
        "AADTYEAR": "2023",
        "STATENAME": "TEXAS",
        "STATEAB": "TX",
        "COUNTYNAME": "RUNNELS",
        "CITYNAME": "MILES",
        "LATDD": 31.5864891,
        "LONGDD": -100.2069356,
        "gridlyProductionCertified": true,
        "gridlyClassification": "PUBLIC_ROADWAY",
        "gridlyDisplayName": "County Road 366",
        "gridlyId": "FRA-021455N"
      }
    },
    {
      "type": "Feature",
      "id": 213803,
      "geometry": {
        "type": "Point",
        "coordinates": [
          -99.9204730001524,
          31.7437778997072
        ]
      },
      "properties": {
        "OBJECTID": 213803,
        "CROSSING": "021420M",
        "EFFDATE": 1765929600000,
        "REASON": "14",
        "StateCode": "48",
        "CountyCode": "48399",
        "STCYFIPS": "48399",
        "CITYCD": "483990400",
        "RAILROAD": "TXPF",
        "RRDIV": "SOUTHERN",
        "RRSUBDIV": "SAN ANGELO",
        "HIGHWAY": "cr0122",
        "STREET": "County Road 122",
        "TTSTN": "691170",
        "MILEPOST": "0035.07",
        "TYPEXING": "Public",
        "POSXING": "RR Over",
        "PRVCAT": "14",
        "INIT": "2",
        "LATITUDE": 31.7437779,
        "LONGITUD": -99.920473,
        "LLSOURCE": "1",
        "WHISTBAN": "0",
        "RRCONT": "3259429164",
        "POLCONT": "8007428901",
        "INV_LINK": "https://safetydata.fra.dot.gov/OfficeofSafety/PublicSite/Crossing/Crossing.aspx?phasetype=C&rpttype=I&txtcrossingnum=021420M",
        "ACC_LINK": "https://safetydata.fra.dot.gov/OfficeofSafety/PublicSite/Crossing/Crossing.aspx?phasetype=C&rpttype=A&txtcrossingnum=021420M",
        "TTSTNNAM": "BALLINGER",
        "XPURPOSE": "1",
        "OPERATINGR": "TXPF",
        "OPERATIN_1": "Primary",
        "DAYTHRU": 1,
        "NGHTTHRU": 1,
        "MAINTRK": 1,
        "SIDINGTRK": 0,
        "YARDTRK": 0,
        "TRANSITTRK": 0,
        "INDUSTRYTR": 0,
        "OTHRTRK": 0,
        "WDCODE": "",
        "REVISIONDA": "2001/01/01 00:00:00",
        "LASTUPDATE": "12/17/2025",
        "AADT": "58",
        "AADTYEAR": "2023",
        "STATENAME": "TEXAS",
        "STATEAB": "TX",
        "COUNTYNAME": "RUNNELS",
        "CITYNAME": "BALLINGER",
        "LATDD": 31.7437779,
        "LONGDD": -99.920473,
        "gridlyProductionCertified": true,
        "gridlyClassification": "PUBLIC_ROADWAY",
        "gridlyDisplayName": "County Road 122",
        "gridlyId": "FRA-021420M"
      }
    },
    {
      "type": "Feature",
      "id": 213804,
      "geometry": {
        "type": "Point",
        "coordinates": [
          -99.9373226002236,
          31.7451101000745
        ]
      },
      "properties": {
        "OBJECTID": 213804,
        "CROSSING": "021423H",
        "EFFDATE": 1765929600000,
        "REASON": "14",
        "StateCode": "48",
        "CountyCode": "48399",
        "STCYFIPS": "48399",
        "CITYCD": "483990400",
        "RAILROAD": "TXPF",
        "RRDIV": "SOUTHERN",
        "RRSUBDIV": "SAN ANGELO",
        "HIGHWAY": "US0067",
        "STREET": "US0067 / us0083",
        "TTSTN": "691170",
        "MILEPOST": "0036.12",
        "TYPEXING": "Public",
        "POSXING": "RR Under",
        "PRVCAT": "14",
        "INIT": "2",
        "LATITUDE": 31.7451101,
        "LONGITUD": -99.9373226,
        "LLSOURCE": "1",
        "WHISTBAN": "0",
        "RRCONT": "3259428164",
        "POLCONT": "8007428905",
        "INV_LINK": "https://safetydata.fra.dot.gov/OfficeofSafety/PublicSite/Crossing/Crossing.aspx?phasetype=C&rpttype=I&txtcrossingnum=021423H",
        "ACC_LINK": "https://safetydata.fra.dot.gov/OfficeofSafety/PublicSite/Crossing/Crossing.aspx?phasetype=C&rpttype=A&txtcrossingnum=021423H",
        "TTSTNNAM": "BALLINGER",
        "XPURPOSE": "1",
        "OPERATINGR": "TXPF",
        "OPERATIN_1": "Primary",
        "DAYTHRU": 1,
        "NGHTTHRU": 1,
        "MAINTRK": 1,
        "SIDINGTRK": 0,
        "YARDTRK": 0,
        "TRANSITTRK": 0,
        "INDUSTRYTR": 0,
        "OTHRTRK": 0,
        "WDCODE": "",
        "REVISIONDA": "2001/01/01 00:00:00",
        "LASTUPDATE": "12/17/2025",
        "AADT": "7706",
        "AADTYEAR": "2024",
        "STATENAME": "TEXAS",
        "STATEAB": "TX",
        "COUNTYNAME": "RUNNELS",
        "CITYNAME": "BALLINGER",
        "LATDD": 31.7451101,
        "LONGDD": -99.9373226,
        "gridlyProductionCertified": true,
        "gridlyClassification": "PUBLIC_ROADWAY",
        "gridlyDisplayName": "US0067 / us0083",
        "gridlyId": "FRA-021423H"
      }
    },
    {
      "type": "Feature",
      "id": 214035,
      "geometry": {
        "type": "Point",
        "coordinates": [
          -99.9477342998437,
          31.7403360997926
        ]
      },
      "properties": {
        "OBJECTID": 214035,
        "CROSSING": "021425W",
        "EFFDATE": 1767830400000,
        "REASON": "14",
        "StateCode": "48",
        "CountyCode": "48399",
        "STCYFIPS": "48399",
        "CITYCD": "483990400",
        "RAILROAD": "TXPF",
        "RRDIV": "SOUTHERN",
        "RRSUBDIV": "SAN ANGELO",
        "HIGHWAY": "SH0158",
        "STREET": "SH0158 / north boradway street",
        "TTSTN": "691170",
        "MILEPOST": "0036.83",
        "TYPEXING": "Public",
        "POSXING": "At Grade",
        "PRVCAT": "14",
        "INIT": "2",
        "LATITUDE": 31.7403361,
        "LONGITUD": -99.9477343,
        "LLSOURCE": "1",
        "WHISTBAN": "0",
        "RRCONT": "3259428164",
        "POLCONT": "8007428905",
        "INV_LINK": "https://safetydata.fra.dot.gov/OfficeofSafety/PublicSite/Crossing/Crossing.aspx?phasetype=C&rpttype=I&txtcrossingnum=021425W",
        "ACC_LINK": "https://safetydata.fra.dot.gov/OfficeofSafety/PublicSite/Crossing/Crossing.aspx?phasetype=C&rpttype=A&txtcrossingnum=021425W",
        "TTSTNNAM": "BALLINGER",
        "XPURPOSE": "1",
        "OPERATINGR": "TXPF",
        "OPERATIN_1": "Primary",
        "DAYTHRU": 1,
        "NGHTTHRU": 1,
        "MAINTRK": 1,
        "SIDINGTRK": 0,
        "YARDTRK": 0,
        "TRANSITTRK": 0,
        "INDUSTRYTR": 0,
        "OTHRTRK": 0,
        "WDCODE": "All other Gates",
        "REVISIONDA": "2001/01/01 00:00:00",
        "LASTUPDATE": "1/8/2026",
        "AADT": "5263",
        "AADTYEAR": "2023",
        "STATENAME": "TEXAS",
        "STATEAB": "TX",
        "COUNTYNAME": "RUNNELS",
        "CITYNAME": "BALLINGER",
        "LATDD": 31.7403361,
        "LONGDD": -99.9477343,
        "gridlyProductionCertified": true,
        "gridlyClassification": "PUBLIC_ROADWAY",
        "gridlyDisplayName": "SH0158 / north boradway street",
        "gridlyId": "FRA-021425W"
      }
    },
    {
      "type": "Feature",
      "id": 214036,
      "geometry": {
        "type": "Point",
        "coordinates": [
          -99.9643801997377,
          31.7244700003036
        ]
      },
      "properties": {
        "OBJECTID": 214036,
        "CROSSING": "021430T",
        "EFFDATE": 1767830400000,
        "REASON": "14",
        "StateCode": "48",
        "CountyCode": "48399",
        "STCYFIPS": "48399",
        "CITYCD": "483990400",
        "RAILROAD": "TXPF",
        "RRDIV": "SOUTHERN",
        "RRSUBDIV": "SAN ANGELO",
        "HIGHWAY": "FM2133",
        "STREET": "FM2133",
        "TTSTN": "691170",
        "MILEPOST": "0038.34",
        "TYPEXING": "Public",
        "POSXING": "At Grade",
        "PRVCAT": "14",
        "INIT": "2",
        "LATITUDE": 31.72447,
        "LONGITUD": -99.9643802,
        "LLSOURCE": "1",
        "WHISTBAN": "0",
        "RRCONT": "3259428164",
        "POLCONT": "8007428905",
        "INV_LINK": "https://safetydata.fra.dot.gov/OfficeofSafety/PublicSite/Crossing/Crossing.aspx?phasetype=C&rpttype=I&txtcrossingnum=021430T",
        "ACC_LINK": "https://safetydata.fra.dot.gov/OfficeofSafety/PublicSite/Crossing/Crossing.aspx?phasetype=C&rpttype=A&txtcrossingnum=021430T",
        "TTSTNNAM": "BALLINGER",
        "XPURPOSE": "1",
        "OPERATINGR": "TXPF",
        "OPERATIN_1": "Primary",
        "DAYTHRU": 1,
        "NGHTTHRU": 1,
        "MAINTRK": 1,
        "SIDINGTRK": 0,
        "YARDTRK": 0,
        "TRANSITTRK": 0,
        "INDUSTRYTR": 0,
        "OTHRTRK": 0,
        "WDCODE": "Flashing lights",
        "REVISIONDA": "2001/01/01 00:00:00",
        "LASTUPDATE": "1/8/2026",
        "AADT": "328",
        "AADTYEAR": "2023",
        "STATENAME": "TEXAS",
        "STATEAB": "TX",
        "COUNTYNAME": "RUNNELS",
        "CITYNAME": "BALLINGER",
        "LATDD": 31.72447,
        "LONGDD": -99.9643802,
        "gridlyProductionCertified": true,
        "gridlyClassification": "PUBLIC_ROADWAY",
        "gridlyDisplayName": "FM2133",
        "gridlyId": "FRA-021430T"
      }
    },
    {
      "type": "Feature",
      "id": 214037,
      "geometry": {
        "type": "Point",
        "coordinates": [
          -100.1817829998,
          31.596407800095
        ]
      },
      "properties": {
        "OBJECTID": 214037,
        "CROSSING": "021452T",
        "EFFDATE": 1767830400000,
        "REASON": "14",
        "StateCode": "48",
        "CountyCode": "48399",
        "STCYFIPS": "48399",
        "CITYCD": "483994580",
        "RAILROAD": "TXPF",
        "RRDIV": "SOUTHERN",
        "RRSUBDIV": "SAN ANGELO",
        "HIGHWAY": "FM1692",
        "STREET": "FM1692 / robinson Street",
        "TTSTN": "691197",
        "MILEPOST": "0054.20",
        "TYPEXING": "Public",
        "POSXING": "At Grade",
        "PRVCAT": "14",
        "INIT": "2",
        "LATITUDE": 31.5964078,
        "LONGITUD": -100.181783,
        "LLSOURCE": "1",
        "WHISTBAN": "0",
        "RRCONT": "3259428164",
        "POLCONT": "8007428905",
        "INV_LINK": "https://safetydata.fra.dot.gov/OfficeofSafety/PublicSite/Crossing/Crossing.aspx?phasetype=C&rpttype=I&txtcrossingnum=021452T",
        "ACC_LINK": "https://safetydata.fra.dot.gov/OfficeofSafety/PublicSite/Crossing/Crossing.aspx?phasetype=C&rpttype=A&txtcrossingnum=021452T",
        "TTSTNNAM": "MILES",
        "XPURPOSE": "1",
        "OPERATINGR": "TXPF",
        "OPERATIN_1": "Primary",
        "DAYTHRU": 1,
        "NGHTTHRU": 1,
        "MAINTRK": 1,
        "SIDINGTRK": 0,
        "YARDTRK": 2,
        "TRANSITTRK": 0,
        "INDUSTRYTR": 0,
        "OTHRTRK": 3,
        "WDCODE": "Flashing lights",
        "REVISIONDA": "2001/01/01 00:00:00",
        "LASTUPDATE": "1/8/2026",
        "AADT": "001241",
        "AADTYEAR": "2014",
        "STATENAME": "TEXAS",
        "STATEAB": "TX",
        "COUNTYNAME": "RUNNELS",
        "CITYNAME": "MILES",
        "LATDD": 31.5964078,
        "LONGDD": -100.181783,
        "gridlyProductionCertified": true,
        "gridlyClassification": "PUBLIC_ROADWAY",
        "gridlyDisplayName": "FM1692 / robinson Street",
        "gridlyId": "FRA-021452T"
      }
    },
    {
      "type": "Feature",
      "id": 214038,
      "geometry": {
        "type": "Point",
        "coordinates": [
          -100.046129399587,
          31.6527844003226
        ]
      },
      "properties": {
        "OBJECTID": 214038,
        "CROSSING": "021439E",
        "EFFDATE": 1767830400000,
        "REASON": "14",
        "StateCode": "48",
        "CountyCode": "48399",
        "STCYFIPS": "48399",
        "CITYCD": "483996002",
        "RAILROAD": "TXPF",
        "RRDIV": "SOUTHERN",
        "RRSUBDIV": "SAN ANGELO",
        "HIGHWAY": "FM2133",
        "STREET": "FM2133",
        "TTSTN": "691193",
        "MILEPOST": "0045.24",
        "TYPEXING": "Public",
        "POSXING": "At Grade",
        "PRVCAT": "14",
        "INIT": "2",
        "LATITUDE": 31.6527844,
        "LONGITUD": -100.0461294,
        "LLSOURCE": "1",
        "WHISTBAN": "0",
        "RRCONT": "3259428164",
        "POLCONT": "8007428905",
        "INV_LINK": "https://safetydata.fra.dot.gov/OfficeofSafety/PublicSite/Crossing/Crossing.aspx?phasetype=C&rpttype=I&txtcrossingnum=021439E",
        "ACC_LINK": "https://safetydata.fra.dot.gov/OfficeofSafety/PublicSite/Crossing/Crossing.aspx?phasetype=C&rpttype=A&txtcrossingnum=021439E",
        "TTSTNNAM": "ROWENA",
        "XPURPOSE": "1",
        "OPERATINGR": "TXPF",
        "OPERATIN_1": "Primary",
        "DAYTHRU": 1,
        "NGHTTHRU": 1,
        "MAINTRK": 1,
        "SIDINGTRK": 0,
        "YARDTRK": 0,
        "TRANSITTRK": 0,
        "INDUSTRYTR": 0,
        "OTHRTRK": 0,
        "WDCODE": "Flashing lights",
        "REVISIONDA": "2001/01/01 00:00:00",
        "LASTUPDATE": "1/8/2026",
        "AADT": "229",
        "AADTYEAR": "2023",
        "STATENAME": "TEXAS",
        "STATEAB": "TX",
        "COUNTYNAME": "RUNNELS",
        "CITYNAME": "ROWENA",
        "LATDD": 31.6527844,
        "LONGDD": -100.0461294,
        "gridlyProductionCertified": true,
        "gridlyClassification": "PUBLIC_ROADWAY",
        "gridlyDisplayName": "FM2133",
        "gridlyId": "FRA-021439E"
      }
    },
    {
      "type": "Feature",
      "id": 214039,
      "geometry": {
        "type": "Point",
        "coordinates": [
          -100.051191600249,
          31.6491524998519
        ]
      },
      "properties": {
        "OBJECTID": 214039,
        "CROSSING": "021440Y",
        "EFFDATE": 1767830400000,
        "REASON": "14",
        "StateCode": "48",
        "CountyCode": "48399",
        "STCYFIPS": "48399",
        "CITYCD": "483996002",
        "RAILROAD": "TXPF",
        "RRDIV": "SOUTHERN",
        "RRSUBDIV": "SAN ANGELO",
        "HIGHWAY": "FM2872",
        "STREET": "FM2872",
        "TTSTN": "691193",
        "MILEPOST": "0045.63",
        "TYPEXING": "Public",
        "POSXING": "At Grade",
        "PRVCAT": "14",
        "INIT": "2",
        "LATITUDE": 31.6491525,
        "LONGITUD": -100.0511916,
        "LLSOURCE": "1",
        "WHISTBAN": "0",
        "RRCONT": "3259748164",
        "POLCONT": "8007428905",
        "INV_LINK": "https://safetydata.fra.dot.gov/OfficeofSafety/PublicSite/Crossing/Crossing.aspx?phasetype=C&rpttype=I&txtcrossingnum=021440Y",
        "ACC_LINK": "https://safetydata.fra.dot.gov/OfficeofSafety/PublicSite/Crossing/Crossing.aspx?phasetype=C&rpttype=A&txtcrossingnum=021440Y",
        "TTSTNNAM": "ROWENA",
        "XPURPOSE": "1",
        "OPERATINGR": "TXPF",
        "OPERATIN_1": "Primary",
        "DAYTHRU": 1,
        "NGHTTHRU": 1,
        "MAINTRK": 1,
        "SIDINGTRK": 1,
        "YARDTRK": 0,
        "TRANSITTRK": 0,
        "INDUSTRYTR": 0,
        "OTHRTRK": 0,
        "WDCODE": "Flashing lights",
        "REVISIONDA": "2001/01/01 00:00:00",
        "LASTUPDATE": "1/8/2026",
        "AADT": "103",
        "AADTYEAR": "2023",
        "STATENAME": "TEXAS",
        "STATEAB": "TX",
        "COUNTYNAME": "RUNNELS",
        "CITYNAME": "ROWENA",
        "LATDD": 31.6491525,
        "LONGDD": -100.0511916,
        "gridlyProductionCertified": true,
        "gridlyClassification": "PUBLIC_ROADWAY",
        "gridlyDisplayName": "FM2872",
        "gridlyId": "FRA-021440Y"
      }
    }
  ]
}
