{
  "type": "FeatureCollection",
  "features": [
    {
      "type": "Feature",
      "id": 200663,
      "geometry": {
        "type": "Point",
        "coordinates": [
          -98.869629999826,
          31.229754999661
        ]
      },
      "properties": {
        "OBJECTID": 200663,
        "CROSSING": "024756U",
        "EFFDATE": 1071619200000,
        "REASON": "14",
        "StateCode": "48",
        "CountyCode": "48411",
        "STCYFIPS": "48411",
        "CITYCD": "484115750",
        "RAILROAD": "GCSR",
        "RRDIV": "SOUTHERN",
        "RRSUBDIV": "SAN SABA",
        "HIGHWAY": "",
        "STREET": "PRIVATE ROAD",
        "TTSTN": "690543",
        "MILEPOST": "0033.51",
        "TYPEXING": "Private",
        "POSXING": "At Grade",
        "PRVCAT": "14",
        "INIT": "2",
        "LATITUDE": 31.229755,
        "LONGITUD": -98.86963,
        "LLSOURCE": "",
        "WHISTBAN": "0",
        "RRCONT": "",
        "POLCONT": "",
        "INV_LINK": "https://safetydata.fra.dot.gov/OfficeofSafety/PublicSite/Crossing/Crossing.aspx?phasetype=C&rpttype=I&txtcrossingnum=024756U",
        "ACC_LINK": "https://safetydata.fra.dot.gov/OfficeofSafety/PublicSite/Crossing/Crossing.aspx?phasetype=C&rpttype=A&txtcrossingnum=024756U",
        "TTSTNNAM": "ALGERITA",
        "XPURPOSE": "1",
        "OPERATINGR": "GCSR",
        "OPERATIN_1": "Primary",
        "DAYTHRU": 0,
        "NGHTTHRU": 0,
        "MAINTRK": 0,
        "SIDINGTRK": 0,
        "YARDTRK": 0,
        "TRANSITTRK": 0,
        "INDUSTRYTR": 0,
        "OTHRTRK": 0,
        "WDCODE": "No signs or signals",
        "REVISIONDA": "1993/01/01 00:00:00",
        "LASTUPDATE": "12/17/2003",
        "AADT": "",
        "AADTYEAR": "1970",
        "STATENAME": "TEXAS",
        "STATEAB": "TX",
        "COUNTYNAME": "SAN SABA",
        "CITYNAME": "RICHLAND SPGS",
        "LATDD": 31.229755,
        "LONGDD": -98.86963,
        "gridlyProductionCertified": true,
        "gridlyClassification": "PUBLIC_ROADWAY",
        "gridlyDisplayName": "PRIVATE ROAD",
        "gridlyId": "FRA-024756U"
      }
    },
    {
      "type": "Feature",
      "id": 200664,
      "geometry": {
        "type": "Point",
        "coordinates": [
          -98.843242999858,
          31.222960000352
        ]
      },
      "properties": {
        "OBJECTID": 200664,
        "CROSSING": "024753Y",
        "EFFDATE": 1071619200000,
        "REASON": "14",
        "StateCode": "48",
        "CountyCode": "48411",
        "STCYFIPS": "48411",
        "CITYCD": "484115750",
        "RAILROAD": "GCSR",
        "RRDIV": "SOUTHERN",
        "RRSUBDIV": "SAN SABA",
        "HIGHWAY": "",
        "STREET": "PRIVATE ROAD",
        "TTSTN": "690543",
        "MILEPOST": "0031.88",
        "TYPEXING": "Private",
        "POSXING": "At Grade",
        "PRVCAT": "14",
        "INIT": "2",
        "LATITUDE": 31.22296,
        "LONGITUD": -98.843243,
        "LLSOURCE": "",
        "WHISTBAN": "0",
        "RRCONT": "",
        "POLCONT": "",
        "INV_LINK": "https://safetydata.fra.dot.gov/OfficeofSafety/PublicSite/Crossing/Crossing.aspx?phasetype=C&rpttype=I&txtcrossingnum=024753Y",
        "ACC_LINK": "https://safetydata.fra.dot.gov/OfficeofSafety/PublicSite/Crossing/Crossing.aspx?phasetype=C&rpttype=A&txtcrossingnum=024753Y",
        "TTSTNNAM": "ALGERITA",
        "XPURPOSE": "1",
        "OPERATINGR": "GCSR",
        "OPERATIN_1": "Primary",
        "DAYTHRU": 0,
        "NGHTTHRU": 0,
        "MAINTRK": 0,
        "SIDINGTRK": 0,
        "YARDTRK": 0,
        "TRANSITTRK": 0,
        "INDUSTRYTR": 0,
        "OTHRTRK": 0,
        "WDCODE": "No signs or signals",
        "REVISIONDA": "1993/01/01 00:00:00",
        "LASTUPDATE": "12/17/2003",
        "AADT": "",
        "AADTYEAR": "1970",
        "STATENAME": "TEXAS",
        "STATEAB": "TX",
        "COUNTYNAME": "SAN SABA",
        "CITYNAME": "RICHLAND SPGS",
        "LATDD": 31.22296,
        "LONGDD": -98.843243,
        "gridlyProductionCertified": true,
        "gridlyClassification": "PUBLIC_ROADWAY",
        "gridlyDisplayName": "PRIVATE ROAD",
        "gridlyId": "FRA-024753Y"
      }
    },
    {
      "type": "Feature",
      "id": 200665,
      "geometry": {
        "type": "Point",
        "coordinates": [
          -98.9326690000047,
          31.2671240002485
        ]
      },
      "properties": {
        "OBJECTID": 200665,
        "CROSSING": "024763E",
        "EFFDATE": 1071619200000,
        "REASON": "14",
        "StateCode": "48",
        "CountyCode": "48411",
        "STCYFIPS": "48411",
        "CITYCD": "484115750",
        "RAILROAD": "GCSR",
        "RRDIV": "SOUTHERN",
        "RRSUBDIV": "SAN SABA",
        "HIGHWAY": "",
        "STREET": "PRIVATE ROAD",
        "TTSTN": "690545",
        "MILEPOST": "0038.18",
        "TYPEXING": "Private",
        "POSXING": "At Grade",
        "PRVCAT": "14",
        "INIT": "2",
        "LATITUDE": 31.267124,
        "LONGITUD": -98.932669,
        "LLSOURCE": "",
        "WHISTBAN": "0",
        "RRCONT": "",
        "POLCONT": "",
        "INV_LINK": "https://safetydata.fra.dot.gov/OfficeofSafety/PublicSite/Crossing/Crossing.aspx?phasetype=C&rpttype=I&txtcrossingnum=024763E",
        "ACC_LINK": "https://safetydata.fra.dot.gov/OfficeofSafety/PublicSite/Crossing/Crossing.aspx?phasetype=C&rpttype=A&txtcrossingnum=024763E",
        "TTSTNNAM": "RICHLAND SPRG",
        "XPURPOSE": "1",
        "OPERATINGR": "GCSR",
        "OPERATIN_1": "Primary",
        "DAYTHRU": 0,
        "NGHTTHRU": 0,
        "MAINTRK": 0,
        "SIDINGTRK": 0,
        "YARDTRK": 0,
        "TRANSITTRK": 0,
        "INDUSTRYTR": 0,
        "OTHRTRK": 0,
        "WDCODE": "No signs or signals",
        "REVISIONDA": "1993/01/01 00:00:00",
        "LASTUPDATE": "12/17/2003",
        "AADT": "",
        "AADTYEAR": "1970",
        "STATENAME": "TEXAS",
        "STATEAB": "TX",
        "COUNTYNAME": "SAN SABA",
        "CITYNAME": "RICHLAND SPGS",
        "LATDD": 31.267124,
        "LONGDD": -98.932669,
        "gridlyProductionCertified": true,
        "gridlyClassification": "PUBLIC_ROADWAY",
        "gridlyDisplayName": "PRIVATE ROAD",
        "gridlyId": "FRA-024763E"
      }
    },
    {
      "type": "Feature",
      "id": 200666,
      "geometry": {
        "type": "Point",
        "coordinates": [
          -99.0323019997692,
          31.2883599996975
        ]
      },
      "properties": {
        "OBJECTID": 200666,
        "CROSSING": "024778U",
        "EFFDATE": 1071619200000,
        "REASON": "14",
        "StateCode": "48",
        "CountyCode": "48411",
        "STCYFIPS": "48411",
        "CITYCD": "484115750",
        "RAILROAD": "GCSR",
        "RRDIV": "SOUTHERN",
        "RRSUBDIV": "SAN SABA",
        "HIGHWAY": "",
        "STREET": "PRIVATE ROAD",
        "TTSTN": "690549",
        "MILEPOST": "0044.61",
        "TYPEXING": "Private",
        "POSXING": "At Grade",
        "PRVCAT": "14",
        "INIT": "2",
        "LATITUDE": 31.28836,
        "LONGITUD": -99.032302,
        "LLSOURCE": "",
        "WHISTBAN": "0",
        "RRCONT": "",
        "POLCONT": "",
        "INV_LINK": "https://safetydata.fra.dot.gov/OfficeofSafety/PublicSite/Crossing/Crossing.aspx?phasetype=C&rpttype=I&txtcrossingnum=024778U",
        "ACC_LINK": "https://safetydata.fra.dot.gov/OfficeofSafety/PublicSite/Crossing/Crossing.aspx?phasetype=C&rpttype=A&txtcrossingnum=024778U",
        "TTSTNNAM": "",
        "XPURPOSE": "1",
        "OPERATINGR": "GCSR",
        "OPERATIN_1": "Primary",
        "DAYTHRU": 0,
        "NGHTTHRU": 0,
        "MAINTRK": 0,
        "SIDINGTRK": 0,
        "YARDTRK": 0,
        "TRANSITTRK": 0,
        "INDUSTRYTR": 0,
        "OTHRTRK": 0,
        "WDCODE": "No signs or signals",
        "REVISIONDA": "1993/01/01 00:00:00",
        "LASTUPDATE": "12/17/2003",
        "AADT": "",
        "AADTYEAR": "1970",
        "STATENAME": "TEXAS",
        "STATEAB": "TX",
        "COUNTYNAME": "SAN SABA",
        "CITYNAME": "RICHLAND SPGS",
        "LATDD": 31.28836,
        "LONGDD": -99.032302,
        "gridlyProductionCertified": true,
        "gridlyClassification": "PUBLIC_ROADWAY",
        "gridlyDisplayName": "PRIVATE ROAD",
        "gridlyId": "FRA-024778U"
      }
    },
    {
      "type": "Feature",
      "id": 200667,
      "geometry": {
        "type": "Point",
        "coordinates": [
          -99.061339000181,
          31.2815750001897
        ]
      },
      "properties": {
        "OBJECTID": 200667,
        "CROSSING": "024781C",
        "EFFDATE": 1071619200000,
        "REASON": "14",
        "StateCode": "48",
        "CountyCode": "48411",
        "STCYFIPS": "48411",
        "CITYCD": "484115750",
        "RAILROAD": "GCSR",
        "RRDIV": "SOUTHERN",
        "RRSUBDIV": "SAN SABA",
        "HIGHWAY": "",
        "STREET": "PRIVATE ROAD",
        "TTSTN": "690549",
        "MILEPOST": "0046.42",
        "TYPEXING": "Private",
        "POSXING": "At Grade",
        "PRVCAT": "14",
        "INIT": "2",
        "LATITUDE": 31.281575,
        "LONGITUD": -99.061339,
        "LLSOURCE": "",
        "WHISTBAN": "0",
        "RRCONT": "",
        "POLCONT": "",
        "INV_LINK": "https://safetydata.fra.dot.gov/OfficeofSafety/PublicSite/Crossing/Crossing.aspx?phasetype=C&rpttype=I&txtcrossingnum=024781C",
        "ACC_LINK": "https://safetydata.fra.dot.gov/OfficeofSafety/PublicSite/Crossing/Crossing.aspx?phasetype=C&rpttype=A&txtcrossingnum=024781C",
        "TTSTNNAM": "",
        "XPURPOSE": "1",
        "OPERATINGR": "GCSR",
        "OPERATIN_1": "Primary",
        "DAYTHRU": 0,
        "NGHTTHRU": 0,
        "MAINTRK": 0,
        "SIDINGTRK": 0,
        "YARDTRK": 0,
        "TRANSITTRK": 0,
        "INDUSTRYTR": 0,
        "OTHRTRK": 0,
        "WDCODE": "No signs or signals",
        "REVISIONDA": "1993/01/01 00:00:00",
        "LASTUPDATE": "12/17/2003",
        "AADT": "",
        "AADTYEAR": "1970",
        "STATENAME": "TEXAS",
        "STATEAB": "TX",
        "COUNTYNAME": "SAN SABA",
        "CITYNAME": "RICHLAND SPGS",
        "LATDD": 31.281575,
        "LONGDD": -99.061339,
        "gridlyProductionCertified": true,
        "gridlyClassification": "PUBLIC_ROADWAY",
        "gridlyDisplayName": "PRIVATE ROAD",
        "gridlyId": "FRA-024781C"
      }
    },
    {
      "type": "Feature",
      "id": 200673,
      "geometry": {
        "type": "Point",
        "coordinates": [
          -99.0466109998253,
          31.2870690001384
        ]
      },
      "properties": {
        "OBJECTID": 200673,
        "CROSSING": "024779B",
        "EFFDATE": 1071619200000,
        "REASON": "14",
        "StateCode": "48",
        "CountyCode": "48411",
        "STCYFIPS": "48411",
        "CITYCD": "484115750",
        "RAILROAD": "GCSR",
        "RRDIV": "SOUTHERN",
        "RRSUBDIV": "SAN SABA",
        "HIGHWAY": "",
        "STREET": "PRIVATE ROAD",
        "TTSTN": "690549",
        "MILEPOST": "0045.47",
        "TYPEXING": "Private",
        "POSXING": "RR Over",
        "PRVCAT": "14",
        "INIT": "2",
        "LATITUDE": 31.287069,
        "LONGITUD": -99.046611,
        "LLSOURCE": "",
        "WHISTBAN": "0",
        "RRCONT": "",
        "POLCONT": "",
        "INV_LINK": "https://safetydata.fra.dot.gov/OfficeofSafety/PublicSite/Crossing/Crossing.aspx?phasetype=C&rpttype=I&txtcrossingnum=024779B",
        "ACC_LINK": "https://safetydata.fra.dot.gov/OfficeofSafety/PublicSite/Crossing/Crossing.aspx?phasetype=C&rpttype=A&txtcrossingnum=024779B",
        "TTSTNNAM": "",
        "XPURPOSE": "1",
        "OPERATINGR": "GCSR",
        "OPERATIN_1": "Primary",
        "DAYTHRU": 0,
        "NGHTTHRU": 0,
        "MAINTRK": 0,
        "SIDINGTRK": 0,
        "YARDTRK": 0,
        "TRANSITTRK": 0,
        "INDUSTRYTR": 0,
        "OTHRTRK": 0,
        "WDCODE": "No signs or signals",
        "REVISIONDA": "1993/01/01 00:00:00",
        "LASTUPDATE": "12/17/2003",
        "AADT": "",
        "AADTYEAR": "1970",
        "STATENAME": "TEXAS",
        "STATEAB": "TX",
        "COUNTYNAME": "SAN SABA",
        "CITYNAME": "RICHLAND SPGS",
        "LATDD": 31.287069,
        "LONGDD": -99.046611,
        "gridlyProductionCertified": true,
        "gridlyClassification": "PUBLIC_ROADWAY",
        "gridlyDisplayName": "PRIVATE ROAD",
        "gridlyId": "FRA-024779B"
      }
    },
    {
      "type": "Feature",
      "id": 200674,
      "geometry": {
        "type": "Point",
        "coordinates": [
          -98.9249110000907,
          31.257149000078
        ]
      },
      "properties": {
        "OBJECTID": 200674,
        "CROSSING": "024775Y",
        "EFFDATE": 1071619200000,
        "REASON": "14",
        "StateCode": "48",
        "CountyCode": "48411",
        "STCYFIPS": "48411",
        "CITYCD": "484115750",
        "RAILROAD": "GCSR",
        "RRDIV": "SOUTHERN",
        "RRSUBDIV": "SAN SABA",
        "HIGHWAY": "",
        "STREET": "PRIVATE ROAD",
        "TTSTN": "690545",
        "MILEPOST": "0042.85",
        "TYPEXING": "Private",
        "POSXING": "At Grade",
        "PRVCAT": "14",
        "INIT": "2",
        "LATITUDE": 31.257149,
        "LONGITUD": -98.924911,
        "LLSOURCE": "",
        "WHISTBAN": "0",
        "RRCONT": "",
        "POLCONT": "",
        "INV_LINK": "https://safetydata.fra.dot.gov/OfficeofSafety/PublicSite/Crossing/Crossing.aspx?phasetype=C&rpttype=I&txtcrossingnum=024775Y",
        "ACC_LINK": "https://safetydata.fra.dot.gov/OfficeofSafety/PublicSite/Crossing/Crossing.aspx?phasetype=C&rpttype=A&txtcrossingnum=024775Y",
        "TTSTNNAM": "RICHLAND SPRG",
        "XPURPOSE": "1",
        "OPERATINGR": "GCSR",
        "OPERATIN_1": "Primary",
        "DAYTHRU": 0,
        "NGHTTHRU": 0,
        "MAINTRK": 0,
        "SIDINGTRK": 0,
        "YARDTRK": 0,
        "TRANSITTRK": 0,
        "INDUSTRYTR": 0,
        "OTHRTRK": 0,
        "WDCODE": "No signs or signals",
        "REVISIONDA": "1993/01/01 00:00:00",
        "LASTUPDATE": "12/17/2003",
        "AADT": "",
        "AADTYEAR": "1970",
        "STATENAME": "TEXAS",
        "STATEAB": "TX",
        "COUNTYNAME": "SAN SABA",
        "CITYNAME": "RICHLAND SPGS",
        "LATDD": 31.257149,
        "LONGDD": -98.924911,
        "gridlyProductionCertified": true,
        "gridlyClassification": "PUBLIC_ROADWAY",
        "gridlyDisplayName": "PRIVATE ROAD",
        "gridlyId": "FRA-024775Y"
      }
    },
    {
      "type": "Feature",
      "id": 200675,
      "geometry": {
        "type": "Point",
        "coordinates": [
          -98.9166340003179,
          31.2510910003763
        ]
      },
      "properties": {
        "OBJECTID": 200675,
        "CROSSING": "024774S",
        "EFFDATE": 1071619200000,
        "REASON": "14",
        "StateCode": "48",
        "CountyCode": "48411",
        "STCYFIPS": "48411",
        "CITYCD": "484115750",
        "RAILROAD": "GCSR",
        "RRDIV": "SOUTHERN",
        "RRSUBDIV": "SAN SABA",
        "HIGHWAY": "",
        "STREET": "PRIVATE ROAD",
        "TTSTN": "690545",
        "MILEPOST": "0041.61",
        "TYPEXING": "Private",
        "POSXING": "At Grade",
        "PRVCAT": "14",
        "INIT": "2",
        "LATITUDE": 31.251091,
        "LONGITUD": -98.916634,
        "LLSOURCE": "",
        "WHISTBAN": "0",
        "RRCONT": "",
        "POLCONT": "",
        "INV_LINK": "https://safetydata.fra.dot.gov/OfficeofSafety/PublicSite/Crossing/Crossing.aspx?phasetype=C&rpttype=I&txtcrossingnum=024774S",
        "ACC_LINK": "https://safetydata.fra.dot.gov/OfficeofSafety/PublicSite/Crossing/Crossing.aspx?phasetype=C&rpttype=A&txtcrossingnum=024774S",
        "TTSTNNAM": "RICHLAND SPRG",
        "XPURPOSE": "1",
        "OPERATINGR": "GCSR",
        "OPERATIN_1": "Primary",
        "DAYTHRU": 0,
        "NGHTTHRU": 0,
        "MAINTRK": 0,
        "SIDINGTRK": 0,
        "YARDTRK": 0,
        "TRANSITTRK": 0,
        "INDUSTRYTR": 0,
        "OTHRTRK": 0,
        "WDCODE": "No signs or signals",
        "REVISIONDA": "1993/01/01 00:00:00",
        "LASTUPDATE": "12/17/2003",
        "AADT": "",
        "AADTYEAR": "1970",
        "STATENAME": "TEXAS",
        "STATEAB": "TX",
        "COUNTYNAME": "SAN SABA",
        "CITYNAME": "RICHLAND SPGS",
        "LATDD": 31.251091,
        "LONGDD": -98.916634,
        "gridlyProductionCertified": true,
        "gridlyClassification": "PUBLIC_ROADWAY",
        "gridlyDisplayName": "PRIVATE ROAD",
        "gridlyId": "FRA-024774S"
      }
    },
    {
      "type": "Feature",
      "id": 200676,
      "geometry": {
        "type": "Point",
        "coordinates": [
          -99.0645949996238,
          31.2803600001176
        ]
      },
      "properties": {
        "OBJECTID": 200676,
        "CROSSING": "024782J",
        "EFFDATE": 1071619200000,
        "REASON": "14",
        "StateCode": "48",
        "CountyCode": "48411",
        "STCYFIPS": "48411",
        "CITYCD": "484115750",
        "RAILROAD": "GCSR",
        "RRDIV": "SOUTHERN",
        "RRSUBDIV": "SAN SABA",
        "HIGHWAY": "",
        "STREET": "PRIVATE ROAD",
        "TTSTN": "690549",
        "MILEPOST": "0046.63",
        "TYPEXING": "Private",
        "POSXING": "At Grade",
        "PRVCAT": "14",
        "INIT": "2",
        "LATITUDE": 31.28036,
        "LONGITUD": -99.064595,
        "LLSOURCE": "",
        "WHISTBAN": "0",
        "RRCONT": "",
        "POLCONT": "",
        "INV_LINK": "https://safetydata.fra.dot.gov/OfficeofSafety/PublicSite/Crossing/Crossing.aspx?phasetype=C&rpttype=I&txtcrossingnum=024782J",
        "ACC_LINK": "https://safetydata.fra.dot.gov/OfficeofSafety/PublicSite/Crossing/Crossing.aspx?phasetype=C&rpttype=A&txtcrossingnum=024782J",
        "TTSTNNAM": "",
        "XPURPOSE": "1",
        "OPERATINGR": "GCSR",
        "OPERATIN_1": "Primary",
        "DAYTHRU": 0,
        "NGHTTHRU": 0,
        "MAINTRK": 0,
        "SIDINGTRK": 0,
        "YARDTRK": 0,
        "TRANSITTRK": 0,
        "INDUSTRYTR": 0,
        "OTHRTRK": 0,
        "WDCODE": "No signs or signals",
        "REVISIONDA": "1993/01/01 00:00:00",
        "LASTUPDATE": "12/17/2003",
        "AADT": "",
        "AADTYEAR": "1970",
        "STATENAME": "TEXAS",
        "STATEAB": "TX",
        "COUNTYNAME": "SAN SABA",
        "CITYNAME": "RICHLAND SPGS",
        "LATDD": 31.28036,
        "LONGDD": -99.064595,
        "gridlyProductionCertified": true,
        "gridlyClassification": "PUBLIC_ROADWAY",
        "gridlyDisplayName": "PRIVATE ROAD",
        "gridlyId": "FRA-024782J"
      }
    },
    {
      "type": "Feature",
      "id": 200677,
      "geometry": {
        "type": "Point",
        "coordinates": [
          -98.8340599997139,
          31.2205999998111
        ]
      },
      "properties": {
        "OBJECTID": 200677,
        "CROSSING": "024752S",
        "EFFDATE": 1071619200000,
        "REASON": "14",
        "StateCode": "48",
        "CountyCode": "48411",
        "STCYFIPS": "48411",
        "CITYCD": "484116190",
        "RAILROAD": "GCSR",
        "RRDIV": "SOUTHERN",
        "RRSUBDIV": "SAN SABA",
        "HIGHWAY": "",
        "STREET": "PRIVATE ROAD",
        "TTSTN": "690543",
        "MILEPOST": "0031.32",
        "TYPEXING": "Private",
        "POSXING": "At Grade",
        "PRVCAT": "14",
        "INIT": "2",
        "LATITUDE": 31.2206,
        "LONGITUD": -98.83406,
        "LLSOURCE": "",
        "WHISTBAN": "0",
        "RRCONT": "",
        "POLCONT": "",
        "INV_LINK": "https://safetydata.fra.dot.gov/OfficeofSafety/PublicSite/Crossing/Crossing.aspx?phasetype=C&rpttype=I&txtcrossingnum=024752S",
        "ACC_LINK": "https://safetydata.fra.dot.gov/OfficeofSafety/PublicSite/Crossing/Crossing.aspx?phasetype=C&rpttype=A&txtcrossingnum=024752S",
        "TTSTNNAM": "ALGERITA",
        "XPURPOSE": "1",
        "OPERATINGR": "GCSR",
        "OPERATIN_1": "Primary",
        "DAYTHRU": 0,
        "NGHTTHRU": 0,
        "MAINTRK": 0,
        "SIDINGTRK": 0,
        "YARDTRK": 0,
        "TRANSITTRK": 0,
        "INDUSTRYTR": 0,
        "OTHRTRK": 0,
        "WDCODE": "No signs or signals",
        "REVISIONDA": "1993/01/01 00:00:00",
        "LASTUPDATE": "12/17/2003",
        "AADT": "",
        "AADTYEAR": "1970",
        "STATENAME": "TEXAS",
        "STATEAB": "TX",
        "COUNTYNAME": "SAN SABA",
        "CITYNAME": "SAN SABA",
        "LATDD": 31.2206,
        "LONGDD": -98.83406,
        "gridlyProductionCertified": true,
        "gridlyClassification": "PUBLIC_ROADWAY",
        "gridlyDisplayName": "PRIVATE ROAD",
        "gridlyId": "FRA-024752S"
      }
    },
    {
      "type": "Feature",
      "id": 200678,
      "geometry": {
        "type": "Point",
        "coordinates": [
          -98.8294839996229,
          31.2194169997896
        ]
      },
      "properties": {
        "OBJECTID": 200678,
        "CROSSING": "024751K",
        "EFFDATE": 1071619200000,
        "REASON": "14",
        "StateCode": "48",
        "CountyCode": "48411",
        "STCYFIPS": "48411",
        "CITYCD": "484116190",
        "RAILROAD": "GCSR",
        "RRDIV": "SOUTHERN",
        "RRSUBDIV": "SAN SABA",
        "HIGHWAY": "",
        "STREET": "PRIVATE ROAD",
        "TTSTN": "690543",
        "MILEPOST": "0031.03",
        "TYPEXING": "Private",
        "POSXING": "At Grade",
        "PRVCAT": "14",
        "INIT": "2",
        "LATITUDE": 31.219417,
        "LONGITUD": -98.829484,
        "LLSOURCE": "",
        "WHISTBAN": "0",
        "RRCONT": "",
        "POLCONT": "",
        "INV_LINK": "https://safetydata.fra.dot.gov/OfficeofSafety/PublicSite/Crossing/Crossing.aspx?phasetype=C&rpttype=I&txtcrossingnum=024751K",
        "ACC_LINK": "https://safetydata.fra.dot.gov/OfficeofSafety/PublicSite/Crossing/Crossing.aspx?phasetype=C&rpttype=A&txtcrossingnum=024751K",
        "TTSTNNAM": "ALGERITA",
        "XPURPOSE": "1",
        "OPERATINGR": "GCSR",
        "OPERATIN_1": "Primary",
        "DAYTHRU": 0,
        "NGHTTHRU": 0,
        "MAINTRK": 0,
        "SIDINGTRK": 0,
        "YARDTRK": 0,
        "TRANSITTRK": 0,
        "INDUSTRYTR": 0,
        "OTHRTRK": 0,
        "WDCODE": "No signs or signals",
        "REVISIONDA": "1993/01/01 00:00:00",
        "LASTUPDATE": "12/17/2003",
        "AADT": "",
        "AADTYEAR": "1970",
        "STATENAME": "TEXAS",
        "STATEAB": "TX",
        "COUNTYNAME": "SAN SABA",
        "CITYNAME": "SAN SABA",
        "LATDD": 31.219417,
        "LONGDD": -98.829484,
        "gridlyProductionCertified": true,
        "gridlyClassification": "PUBLIC_ROADWAY",
        "gridlyDisplayName": "PRIVATE ROAD",
        "gridlyId": "FRA-024751K"
      }
    },
    {
      "type": "Feature",
      "id": 211682,
      "geometry": {
        "type": "Point",
        "coordinates": [
          -98.6290117001094,
          31.2277755998059
        ]
      },
      "properties": {
        "OBJECTID": 211682,
        "CROSSING": "024719S",
        "EFFDATE": 1760486400000,
        "REASON": "14",
        "StateCode": "48",
        "CountyCode": "48411",
        "STCYFIPS": "48411",
        "CITYCD": "484116190",
        "RAILROAD": "GCSR",
        "RRDIV": "SOUTHERN",
        "RRSUBDIV": "SAN SABA",
        "HIGHWAY": "Cr0128",
        "STREET": "county road 128",
        "TTSTN": "690530",
        "MILEPOST": "0018.35",
        "TYPEXING": "Public",
        "POSXING": "RR Over",
        "PRVCAT": "14",
        "INIT": "2",
        "LATITUDE": 31.2277756,
        "LONGITUD": -98.6290117,
        "LLSOURCE": "1",
        "WHISTBAN": "0",
        "RRCONT": "",
        "POLCONT": "",
        "INV_LINK": "https://safetydata.fra.dot.gov/OfficeofSafety/PublicSite/Crossing/Crossing.aspx?phasetype=C&rpttype=I&txtcrossingnum=024719S",
        "ACC_LINK": "https://safetydata.fra.dot.gov/OfficeofSafety/PublicSite/Crossing/Crossing.aspx?phasetype=C&rpttype=A&txtcrossingnum=024719S",
        "TTSTNNAM": "SAN SABA",
        "XPURPOSE": "1",
        "OPERATINGR": "GCSR",
        "OPERATIN_1": "Primary",
        "DAYTHRU": 0,
        "NGHTTHRU": 0,
        "MAINTRK": 0,
        "SIDINGTRK": 0,
        "YARDTRK": 0,
        "TRANSITTRK": 0,
        "INDUSTRYTR": 0,
        "OTHRTRK": 0,
        "WDCODE": "",
        "REVISIONDA": "1993/01/01 00:00:00",
        "LASTUPDATE": "10/15/2025",
        "AADT": "000044",
        "AADTYEAR": "2007",
        "STATENAME": "TEXAS",
        "STATEAB": "TX",
        "COUNTYNAME": "SAN SABA",
        "CITYNAME": "SAN SABA",
        "LATDD": 31.2277756,
        "LONGDD": -98.6290117,
        "gridlyProductionCertified": true,
        "gridlyClassification": "PUBLIC_ROADWAY",
        "gridlyDisplayName": "county road 128",
        "gridlyId": "FRA-024719S"
      }
    },
    {
      "type": "Feature",
      "id": 211683,
      "geometry": {
        "type": "Point",
        "coordinates": [
          -98.7061138000098,
          31.1969465999841
        ]
      },
      "properties": {
        "OBJECTID": 211683,
        "CROSSING": "024728R",
        "EFFDATE": 1760486400000,
        "REASON": "14",
        "StateCode": "48",
        "CountyCode": "48411",
        "STCYFIPS": "48411",
        "CITYCD": "484116190",
        "RAILROAD": "GCSR",
        "RRDIV": "SOUTHERN",
        "RRSUBDIV": "SAN SABA",
        "HIGHWAY": "ls0000",
        "STREET": "RISIEN PARK",
        "TTSTN": "690530",
        "MILEPOST": "0023.50",
        "TYPEXING": "Public",
        "POSXING": "RR Over",
        "PRVCAT": "14",
        "INIT": "2",
        "LATITUDE": 31.1969466,
        "LONGITUD": -98.7061138,
        "LLSOURCE": "1",
        "WHISTBAN": "0",
        "RRCONT": "",
        "POLCONT": "",
        "INV_LINK": "https://safetydata.fra.dot.gov/OfficeofSafety/PublicSite/Crossing/Crossing.aspx?phasetype=C&rpttype=I&txtcrossingnum=024728R",
        "ACC_LINK": "https://safetydata.fra.dot.gov/OfficeofSafety/PublicSite/Crossing/Crossing.aspx?phasetype=C&rpttype=A&txtcrossingnum=024728R",
        "TTSTNNAM": "SAN SABA",
        "XPURPOSE": "1",
        "OPERATINGR": "GCSR",
        "OPERATIN_1": "Primary",
        "DAYTHRU": 0,
        "NGHTTHRU": 0,
        "MAINTRK": 0,
        "SIDINGTRK": 0,
        "YARDTRK": 0,
        "TRANSITTRK": 0,
        "INDUSTRYTR": 0,
        "OTHRTRK": 0,
        "WDCODE": "",
        "REVISIONDA": "1993/01/01 00:00:00",
        "LASTUPDATE": "10/15/2025",
        "AADT": "5",
        "AADTYEAR": "2022",
        "STATENAME": "TEXAS",
        "STATEAB": "TX",
        "COUNTYNAME": "SAN SABA",
        "CITYNAME": "SAN SABA",
        "LATDD": 31.1969466,
        "LONGDD": -98.7061138,
        "gridlyProductionCertified": true,
        "gridlyClassification": "PUBLIC_ROADWAY",
        "gridlyDisplayName": "RISIEN PARK",
        "gridlyId": "FRA-024728R"
      }
    },
    {
      "type": "Feature",
      "id": 212092,
      "geometry": {
        "type": "Point",
        "coordinates": [
          -98.7165488998447,
          31.1982993996587
        ]
      },
      "properties": {
        "OBJECTID": 212092,
        "CROSSING": "024729X",
        "EFFDATE": 1760486400000,
        "REASON": "14",
        "StateCode": "48",
        "CountyCode": "48411",
        "STCYFIPS": "48411",
        "CITYCD": "484116190",
        "RAILROAD": "GCSR",
        "RRDIV": "SOUTHERN",
        "RRSUBDIV": "SAN SABA",
        "HIGHWAY": "ls0000",
        "STREET": "north LIVE OAK street",
        "TTSTN": "690530",
        "MILEPOST": "0024.20",
        "TYPEXING": "Public",
        "POSXING": "RR Over",
        "PRVCAT": "14",
        "INIT": "2",
        "LATITUDE": 31.1982994,
        "LONGITUD": -98.7165489,
        "LLSOURCE": "",
        "WHISTBAN": "0",
        "RRCONT": "",
        "POLCONT": "",
        "INV_LINK": "https://safetydata.fra.dot.gov/OfficeofSafety/PublicSite/Crossing/Crossing.aspx?phasetype=C&rpttype=I&txtcrossingnum=024729X",
        "ACC_LINK": "https://safetydata.fra.dot.gov/OfficeofSafety/PublicSite/Crossing/Crossing.aspx?phasetype=C&rpttype=A&txtcrossingnum=024729X",
        "TTSTNNAM": "SAN SABA",
        "XPURPOSE": "1",
        "OPERATINGR": "GCSR",
        "OPERATIN_1": "Primary",
        "DAYTHRU": 0,
        "NGHTTHRU": 0,
        "MAINTRK": 0,
        "SIDINGTRK": 0,
        "YARDTRK": 0,
        "TRANSITTRK": 0,
        "INDUSTRYTR": 0,
        "OTHRTRK": 0,
        "WDCODE": "",
        "REVISIONDA": "1993/01/01 00:00:00",
        "LASTUPDATE": "10/15/2025",
        "AADT": "506",
        "AADTYEAR": "2022",
        "STATENAME": "TEXAS",
        "STATEAB": "TX",
        "COUNTYNAME": "SAN SABA",
        "CITYNAME": "SAN SABA",
        "LATDD": 31.1982994,
        "LONGDD": -98.7165489,
        "gridlyProductionCertified": true,
        "gridlyClassification": "PUBLIC_ROADWAY",
        "gridlyDisplayName": "north LIVE OAK street",
        "gridlyId": "FRA-024729X"
      }
    },
    {
      "type": "Feature",
      "id": 212097,
      "geometry": {
        "type": "Point",
        "coordinates": [
          -98.7184788996899,
          31.1985960002887
        ]
      },
      "properties": {
        "OBJECTID": 212097,
        "CROSSING": "024730S",
        "EFFDATE": 1760486400000,
        "REASON": "14",
        "StateCode": "48",
        "CountyCode": "48411",
        "STCYFIPS": "48411",
        "CITYCD": "484116190",
        "RAILROAD": "GCSR",
        "RRDIV": "SOUTHERN",
        "RRSUBDIV": "SAN SABA",
        "HIGHWAY": "SH0016",
        "STREET": "SH0016 / north high street",
        "TTSTN": "690530",
        "MILEPOST": "0024.30",
        "TYPEXING": "Public",
        "POSXING": "RR Over",
        "PRVCAT": "14",
        "INIT": "2",
        "LATITUDE": 31.198596,
        "LONGITUD": -98.7184789,
        "LLSOURCE": "1",
        "WHISTBAN": "0",
        "RRCONT": "",
        "POLCONT": "",
        "INV_LINK": "https://safetydata.fra.dot.gov/OfficeofSafety/PublicSite/Crossing/Crossing.aspx?phasetype=C&rpttype=I&txtcrossingnum=024730S",
        "ACC_LINK": "https://safetydata.fra.dot.gov/OfficeofSafety/PublicSite/Crossing/Crossing.aspx?phasetype=C&rpttype=A&txtcrossingnum=024730S",
        "TTSTNNAM": "SAN SABA",
        "XPURPOSE": "1",
        "OPERATINGR": "GCSR",
        "OPERATIN_1": "Primary",
        "DAYTHRU": 0,
        "NGHTTHRU": 0,
        "MAINTRK": 0,
        "SIDINGTRK": 0,
        "YARDTRK": 0,
        "TRANSITTRK": 0,
        "INDUSTRYTR": 0,
        "OTHRTRK": 0,
        "WDCODE": "",
        "REVISIONDA": "1993/01/01 00:00:00",
        "LASTUPDATE": "10/15/2025",
        "AADT": "3523",
        "AADTYEAR": "2024",
        "STATENAME": "TEXAS",
        "STATEAB": "TX",
        "COUNTYNAME": "SAN SABA",
        "CITYNAME": "SAN SABA",
        "LATDD": 31.198596,
        "LONGDD": -98.7184789,
        "gridlyProductionCertified": true,
        "gridlyClassification": "PUBLIC_ROADWAY",
        "gridlyDisplayName": "SH0016 / north high street",
        "gridlyId": "FRA-024730S"
      }
    },
    {
      "type": "Feature",
      "id": 214040,
      "geometry": {
        "type": "Point",
        "coordinates": [
          -98.9253620001774,
          31.2578350001905
        ]
      },
      "properties": {
        "OBJECTID": 214040,
        "CROSSING": "024776F",
        "EFFDATE": 1767830400000,
        "REASON": "14",
        "StateCode": "48",
        "CountyCode": "48411",
        "STCYFIPS": "48411",
        "CITYCD": "484115750",
        "RAILROAD": "CTXR",
        "RRDIV": "SOUTHERN",
        "RRSUBDIV": "SAN SABA",
        "HIGHWAY": "Private",
        "STREET": "PRIVATE ROAD",
        "TTSTN": "690545",
        "MILEPOST": "0043.30",
        "TYPEXING": "Private",
        "POSXING": "At Grade",
        "PRVCAT": "14",
        "INIT": "1",
        "LATITUDE": 31.257835,
        "LONGITUD": -98.925362,
        "LLSOURCE": "1",
        "WHISTBAN": "0",
        "RRCONT": "3255972359",
        "POLCONT": "8005339416",
        "INV_LINK": "https://safetydata.fra.dot.gov/OfficeofSafety/PublicSite/Crossing/Crossing.aspx?phasetype=C&rpttype=I&txtcrossingnum=024776F",
        "ACC_LINK": "https://safetydata.fra.dot.gov/OfficeofSafety/PublicSite/Crossing/Crossing.aspx?phasetype=C&rpttype=A&txtcrossingnum=024776F",
        "TTSTNNAM": "RICHLAND SPRG",
        "XPURPOSE": "1",
        "OPERATINGR": "CTXR",
        "OPERATIN_1": "Primary",
        "DAYTHRU": 1,
        "NGHTTHRU": 0,
        "MAINTRK": 1,
        "SIDINGTRK": 0,
        "YARDTRK": 0,
        "TRANSITTRK": 0,
        "INDUSTRYTR": 0,
        "OTHRTRK": 0,
        "WDCODE": "",
        "REVISIONDA": "2016/07/26 00:00:00",
        "LASTUPDATE": "1/8/2026",
        "AADT": "",
        "AADTYEAR": "1970",
        "STATENAME": "TEXAS",
        "STATEAB": "TX",
        "COUNTYNAME": "SAN SABA",
        "CITYNAME": "RICHLAND SPGS",
        "LATDD": 31.257835,
        "LONGDD": -98.925362,
        "gridlyProductionCertified": true,
        "gridlyClassification": "PUBLIC_ROADWAY",
        "gridlyDisplayName": "PRIVATE ROAD",
        "gridlyId": "FRA-024776F"
      }
    },
    {
      "type": "Feature",
      "id": 214041,
      "geometry": {
        "type": "Point",
        "coordinates": [
          -98.91684600003,
          31.2511900003017
        ]
      },
      "properties": {
        "OBJECTID": 214041,
        "CROSSING": "024761R",
        "EFFDATE": 1767830400000,
        "REASON": "14",
        "StateCode": "48",
        "CountyCode": "48411",
        "STCYFIPS": "48411",
        "CITYCD": "484115750",
        "RAILROAD": "CTXR",
        "RRDIV": "SOUTHERN",
        "RRSUBDIV": "SAN SABA",
        "HIGHWAY": "Private",
        "STREET": "PRIVATE ROAD",
        "TTSTN": "690545",
        "MILEPOST": "0036.71",
        "TYPEXING": "Private",
        "POSXING": "At Grade",
        "PRVCAT": "14",
        "INIT": "1",
        "LATITUDE": 31.25119,
        "LONGITUD": -98.916846,
        "LLSOURCE": "1",
        "WHISTBAN": "0",
        "RRCONT": "3255972359",
        "POLCONT": "8005339416",
        "INV_LINK": "https://safetydata.fra.dot.gov/OfficeofSafety/PublicSite/Crossing/Crossing.aspx?phasetype=C&rpttype=I&txtcrossingnum=024761R",
        "ACC_LINK": "https://safetydata.fra.dot.gov/OfficeofSafety/PublicSite/Crossing/Crossing.aspx?phasetype=C&rpttype=A&txtcrossingnum=024761R",
        "TTSTNNAM": "RICHLAND SPRG",
        "XPURPOSE": "1",
        "OPERATINGR": "CTXR",
        "OPERATIN_1": "Primary",
        "DAYTHRU": 1,
        "NGHTTHRU": 0,
        "MAINTRK": 1,
        "SIDINGTRK": 0,
        "YARDTRK": 0,
        "TRANSITTRK": 0,
        "INDUSTRYTR": 0,
        "OTHRTRK": 0,
        "WDCODE": "",
        "REVISIONDA": "2016/07/26 00:00:00",
        "LASTUPDATE": "1/8/2026",
        "AADT": "",
        "AADTYEAR": "1970",
        "STATENAME": "TEXAS",
        "STATEAB": "TX",
        "COUNTYNAME": "SAN SABA",
        "CITYNAME": "RICHLAND SPGS",
        "LATDD": 31.25119,
        "LONGDD": -98.916846,
        "gridlyProductionCertified": true,
        "gridlyClassification": "PUBLIC_ROADWAY",
        "gridlyDisplayName": "PRIVATE ROAD",
        "gridlyId": "FRA-024761R"
      }
    },
    {
      "type": "Feature",
      "id": 214043,
      "geometry": {
        "type": "Point",
        "coordinates": [
          -98.9115069996828,
          31.2478640003012
        ]
      },
      "properties": {
        "OBJECTID": 214043,
        "CROSSING": "024773K",
        "EFFDATE": 1767830400000,
        "REASON": "14",
        "StateCode": "48",
        "CountyCode": "48411",
        "STCYFIPS": "48411",
        "CITYCD": "484115750",
        "RAILROAD": "CTXR",
        "RRDIV": "SOUTHERN",
        "RRSUBDIV": "SAN SABA",
        "HIGHWAY": "Private",
        "STREET": "PRIVATE ROAD",
        "TTSTN": "690545",
        "MILEPOST": "0041.10",
        "TYPEXING": "Private",
        "POSXING": "At Grade",
        "PRVCAT": "14",
        "INIT": "1",
        "LATITUDE": 31.247864,
        "LONGITUD": -98.911507,
        "LLSOURCE": "1",
        "WHISTBAN": "0",
        "RRCONT": "3255972359",
        "POLCONT": "8005339416",
        "INV_LINK": "https://safetydata.fra.dot.gov/OfficeofSafety/PublicSite/Crossing/Crossing.aspx?phasetype=C&rpttype=I&txtcrossingnum=024773K",
        "ACC_LINK": "https://safetydata.fra.dot.gov/OfficeofSafety/PublicSite/Crossing/Crossing.aspx?phasetype=C&rpttype=A&txtcrossingnum=024773K",
        "TTSTNNAM": "RICHLAND SPRG",
        "XPURPOSE": "1",
        "OPERATINGR": "CTXR",
        "OPERATIN_1": "Primary",
        "DAYTHRU": 1,
        "NGHTTHRU": 0,
        "MAINTRK": 1,
        "SIDINGTRK": 0,
        "YARDTRK": 0,
        "TRANSITTRK": 0,
        "INDUSTRYTR": 0,
        "OTHRTRK": 0,
        "WDCODE": "",
        "REVISIONDA": "2016/07/26 00:00:00",
        "LASTUPDATE": "1/8/2026",
        "AADT": "",
        "AADTYEAR": "1970",
        "STATENAME": "TEXAS",
        "STATEAB": "TX",
        "COUNTYNAME": "SAN SABA",
        "CITYNAME": "RICHLAND SPGS",
        "LATDD": 31.247864,
        "LONGDD": -98.911507,
        "gridlyProductionCertified": true,
        "gridlyClassification": "PUBLIC_ROADWAY",
        "gridlyDisplayName": "PRIVATE ROAD",
        "gridlyId": "FRA-024773K"
      }
    },
    {
      "type": "Feature",
      "id": 214044,
      "geometry": {
        "type": "Point",
        "coordinates": [
          -98.9669620000247,
          31.2838999997758
        ]
      },
      "properties": {
        "OBJECTID": 214044,
        "CROSSING": "024771W",
        "EFFDATE": 1767830400000,
        "REASON": "14",
        "StateCode": "48",
        "CountyCode": "48411",
        "STCYFIPS": "48411",
        "CITYCD": "484115750",
        "RAILROAD": "CTXR",
        "RRDIV": "SOUTHERN",
        "RRSUBDIV": "SAN SABA",
        "HIGHWAY": "Private",
        "STREET": "PRIVATE ROAD",
        "TTSTN": "690545",
        "MILEPOST": "0040.57",
        "TYPEXING": "Private",
        "POSXING": "At Grade",
        "PRVCAT": "14",
        "INIT": "1",
        "LATITUDE": 31.2839,
        "LONGITUD": -98.966962,
        "LLSOURCE": "1",
        "WHISTBAN": "0",
        "RRCONT": "3255972359",
        "POLCONT": "8005339416",
        "INV_LINK": "https://safetydata.fra.dot.gov/OfficeofSafety/PublicSite/Crossing/Crossing.aspx?phasetype=C&rpttype=I&txtcrossingnum=024771W",
        "ACC_LINK": "https://safetydata.fra.dot.gov/OfficeofSafety/PublicSite/Crossing/Crossing.aspx?phasetype=C&rpttype=A&txtcrossingnum=024771W",
        "TTSTNNAM": "RICHLAND SPRG",
        "XPURPOSE": "1",
        "OPERATINGR": "CTXR",
        "OPERATIN_1": "Primary",
        "DAYTHRU": 1,
        "NGHTTHRU": 0,
        "MAINTRK": 1,
        "SIDINGTRK": 0,
        "YARDTRK": 0,
        "TRANSITTRK": 0,
        "INDUSTRYTR": 0,
        "OTHRTRK": 0,
        "WDCODE": "",
        "REVISIONDA": "2016/07/26 00:00:00",
        "LASTUPDATE": "1/8/2026",
        "AADT": "",
        "AADTYEAR": "1970",
        "STATENAME": "TEXAS",
        "STATEAB": "TX",
        "COUNTYNAME": "SAN SABA",
        "CITYNAME": "RICHLAND SPGS",
        "LATDD": 31.2839,
        "LONGDD": -98.966962,
        "gridlyProductionCertified": true,
        "gridlyClassification": "PUBLIC_ROADWAY",
        "gridlyDisplayName": "PRIVATE ROAD",
        "gridlyId": "FRA-024771W"
      }
    },
    {
      "type": "Feature",
      "id": 214046,
      "geometry": {
        "type": "Point",
        "coordinates": [
          -98.9090727997231,
          31.2460633002264
        ]
      },
      "properties": {
        "OBJECTID": 214046,
        "CROSSING": "024760J",
        "EFFDATE": 1767830400000,
        "REASON": "14",
        "StateCode": "48",
        "CountyCode": "48411",
        "STCYFIPS": "48411",
        "CITYCD": "484115750",
        "RAILROAD": "CTXR",
        "RRDIV": "SOUTHERN",
        "RRSUBDIV": "SAN SABA",
        "HIGHWAY": "overpass",
        "STREET": "overpass",
        "TTSTN": "690545",
        "MILEPOST": "0036.50",
        "TYPEXING": "Private",
        "POSXING": "RR Over",
        "PRVCAT": "14",
        "INIT": "1",
        "LATITUDE": 31.2460633,
        "LONGITUD": -98.9090728,
        "LLSOURCE": "1",
        "WHISTBAN": "0",
        "RRCONT": "3255972359",
        "POLCONT": "8005339416",
        "INV_LINK": "https://safetydata.fra.dot.gov/OfficeofSafety/PublicSite/Crossing/Crossing.aspx?phasetype=C&rpttype=I&txtcrossingnum=024760J",
        "ACC_LINK": "https://safetydata.fra.dot.gov/OfficeofSafety/PublicSite/Crossing/Crossing.aspx?phasetype=C&rpttype=A&txtcrossingnum=024760J",
        "TTSTNNAM": "RICHLAND SPRG",
        "XPURPOSE": "1",
        "OPERATINGR": "CTXR",
        "OPERATIN_1": "Primary",
        "DAYTHRU": 0,
        "NGHTTHRU": 0,
        "MAINTRK": 0,
        "SIDINGTRK": 0,
        "YARDTRK": 0,
        "TRANSITTRK": 0,
        "INDUSTRYTR": 0,
        "OTHRTRK": 0,
        "WDCODE": "",
        "REVISIONDA": "2016/07/26 00:00:00",
        "LASTUPDATE": "1/8/2026",
        "AADT": "",
        "AADTYEAR": "1970",
        "STATENAME": "TEXAS",
        "STATEAB": "TX",
        "COUNTYNAME": "SAN SABA",
        "CITYNAME": "RICHLAND SPGS",
        "LATDD": 31.2460633,
        "LONGDD": -98.9090728,
        "gridlyProductionCertified": true,
        "gridlyClassification": "PUBLIC_ROADWAY",
        "gridlyDisplayName": "overpass",
        "gridlyId": "FRA-024760J"
      }
    },
    {
      "type": "Feature",
      "id": 214047,
      "geometry": {
        "type": "Point",
        "coordinates": [
          -98.9689760004338,
          31.2841160001089
        ]
      },
      "properties": {
        "OBJECTID": 214047,
        "CROSSING": "024772D",
        "EFFDATE": 1767830400000,
        "REASON": "14",
        "StateCode": "48",
        "CountyCode": "48411",
        "STCYFIPS": "48411",
        "CITYCD": "484115750",
        "RAILROAD": "CTXR",
        "RRDIV": "SOUTHERN",
        "RRSUBDIV": "SAN SABA",
        "HIGHWAY": "Private",
        "STREET": "PRIVATE ROAD",
        "TTSTN": "690545",
        "MILEPOST": "0040.69",
        "TYPEXING": "Private",
        "POSXING": "At Grade",
        "PRVCAT": "14",
        "INIT": "1",
        "LATITUDE": 31.284116,
        "LONGITUD": -98.968976,
        "LLSOURCE": "1",
        "WHISTBAN": "0",
        "RRCONT": "3255972359",
        "POLCONT": "8005339416",
        "INV_LINK": "https://safetydata.fra.dot.gov/OfficeofSafety/PublicSite/Crossing/Crossing.aspx?phasetype=C&rpttype=I&txtcrossingnum=024772D",
        "ACC_LINK": "https://safetydata.fra.dot.gov/OfficeofSafety/PublicSite/Crossing/Crossing.aspx?phasetype=C&rpttype=A&txtcrossingnum=024772D",
        "TTSTNNAM": "RICHLAND SPRG",
        "XPURPOSE": "1",
        "OPERATINGR": "CTXR",
        "OPERATIN_1": "Primary",
        "DAYTHRU": 1,
        "NGHTTHRU": 0,
        "MAINTRK": 1,
        "SIDINGTRK": 0,
        "YARDTRK": 0,
        "TRANSITTRK": 0,
        "INDUSTRYTR": 0,
        "OTHRTRK": 0,
        "WDCODE": "",
        "REVISIONDA": "2016/07/26 00:00:00",
        "LASTUPDATE": "1/8/2026",
        "AADT": "",
        "AADTYEAR": "1970",
        "STATENAME": "TEXAS",
        "STATEAB": "TX",
        "COUNTYNAME": "SAN SABA",
        "CITYNAME": "RICHLAND SPGS",
        "LATDD": 31.284116,
        "LONGDD": -98.968976,
        "gridlyProductionCertified": true,
        "gridlyClassification": "PUBLIC_ROADWAY",
        "gridlyDisplayName": "PRIVATE ROAD",
        "gridlyId": "FRA-024772D"
      }
    },
    {
      "type": "Feature",
      "id": 214048,
      "geometry": {
        "type": "Point",
        "coordinates": [
          -98.8196109999158,
          31.2168739999355
        ]
      },
      "properties": {
        "OBJECTID": 214048,
        "CROSSING": "024748C",
        "EFFDATE": 1767830400000,
        "REASON": "14",
        "StateCode": "48",
        "CountyCode": "48411",
        "STCYFIPS": "48411",
        "CITYCD": "484116190",
        "RAILROAD": "CTXR",
        "RRDIV": "SOUTHERN",
        "RRSUBDIV": "SAN SABA",
        "HIGHWAY": "Private",
        "STREET": "PRIVATE ROAD",
        "TTSTN": "690543",
        "MILEPOST": "0030.42",
        "TYPEXING": "Private",
        "POSXING": "At Grade",
        "PRVCAT": "14",
        "INIT": "1",
        "LATITUDE": 31.216874,
        "LONGITUD": -98.819611,
        "LLSOURCE": "1",
        "WHISTBAN": "0",
        "RRCONT": "3255972359",
        "POLCONT": "8005339416",
        "INV_LINK": "https://safetydata.fra.dot.gov/OfficeofSafety/PublicSite/Crossing/Crossing.aspx?phasetype=C&rpttype=I&txtcrossingnum=024748C",
        "ACC_LINK": "https://safetydata.fra.dot.gov/OfficeofSafety/PublicSite/Crossing/Crossing.aspx?phasetype=C&rpttype=A&txtcrossingnum=024748C",
        "TTSTNNAM": "ALGERITA",
        "XPURPOSE": "1",
        "OPERATINGR": "CTXR",
        "OPERATIN_1": "Primary",
        "DAYTHRU": 1,
        "NGHTTHRU": 0,
        "MAINTRK": 1,
        "SIDINGTRK": 0,
        "YARDTRK": 0,
        "TRANSITTRK": 0,
        "INDUSTRYTR": 0,
        "OTHRTRK": 0,
        "WDCODE": "",
        "REVISIONDA": "2016/07/26 00:00:00",
        "LASTUPDATE": "1/8/2026",
        "AADT": "",
        "AADTYEAR": "1970",
        "STATENAME": "TEXAS",
        "STATEAB": "TX",
        "COUNTYNAME": "SAN SABA",
        "CITYNAME": "SAN SABA",
        "LATDD": 31.216874,
        "LONGDD": -98.819611,
        "gridlyProductionCertified": true,
        "gridlyClassification": "PUBLIC_ROADWAY",
        "gridlyDisplayName": "PRIVATE ROAD",
        "gridlyId": "FRA-024748C"
      }
    },
    {
      "type": "Feature",
      "id": 214050,
      "geometry": {
        "type": "Point",
        "coordinates": [
          -98.8103709998702,
          31.2144899996205
        ]
      },
      "properties": {
        "OBJECTID": 214050,
        "CROSSING": "024746N",
        "EFFDATE": 1767830400000,
        "REASON": "14",
        "StateCode": "48",
        "CountyCode": "48411",
        "STCYFIPS": "48411",
        "CITYCD": "484116190",
        "RAILROAD": "CTXR",
        "RRDIV": "SOUTHERN",
        "RRSUBDIV": "SAN SABA",
        "HIGHWAY": "PRIVATE",
        "STREET": "PRIVATE",
        "TTSTN": "690543",
        "MILEPOST": "0029.86",
        "TYPEXING": "Private",
        "POSXING": "At Grade",
        "PRVCAT": "14",
        "INIT": "1",
        "LATITUDE": 31.21449,
        "LONGITUD": -98.810371,
        "LLSOURCE": "1",
        "WHISTBAN": "0",
        "RRCONT": "3255972359",
        "POLCONT": "8005339416",
        "INV_LINK": "https://safetydata.fra.dot.gov/OfficeofSafety/PublicSite/Crossing/Crossing.aspx?phasetype=C&rpttype=I&txtcrossingnum=024746N",
        "ACC_LINK": "https://safetydata.fra.dot.gov/OfficeofSafety/PublicSite/Crossing/Crossing.aspx?phasetype=C&rpttype=A&txtcrossingnum=024746N",
        "TTSTNNAM": "ALGERITA",
        "XPURPOSE": "1",
        "OPERATINGR": "CTXR",
        "OPERATIN_1": "Primary",
        "DAYTHRU": 1,
        "NGHTTHRU": 0,
        "MAINTRK": 1,
        "SIDINGTRK": 0,
        "YARDTRK": 0,
        "TRANSITTRK": 0,
        "INDUSTRYTR": 0,
        "OTHRTRK": 0,
        "WDCODE": "",
        "REVISIONDA": "2016/07/26 00:00:00",
        "LASTUPDATE": "1/8/2026",
        "AADT": "000160",
        "AADTYEAR": "1993",
        "STATENAME": "TEXAS",
        "STATEAB": "TX",
        "COUNTYNAME": "SAN SABA",
        "CITYNAME": "SAN SABA",
        "LATDD": 31.21449,
        "LONGDD": -98.810371,
        "gridlyProductionCertified": true,
        "gridlyClassification": "PUBLIC_ROADWAY",
        "gridlyDisplayName": "PRIVATE",
        "gridlyId": "FRA-024746N"
      }
    },
    {
      "type": "Feature",
      "id": 214053,
      "geometry": {
        "type": "Point",
        "coordinates": [
          -98.8243040001827,
          31.2180829998275
        ]
      },
      "properties": {
        "OBJECTID": 214053,
        "CROSSING": "024750D",
        "EFFDATE": 1767830400000,
        "REASON": "14",
        "StateCode": "48",
        "CountyCode": "48411",
        "STCYFIPS": "48411",
        "CITYCD": "484116190",
        "RAILROAD": "CTXR",
        "RRDIV": "SOUTHERN",
        "RRSUBDIV": "SAN SABA",
        "HIGHWAY": "Private",
        "STREET": "PRIVATE ROAD",
        "TTSTN": "690543",
        "MILEPOST": "0030.71",
        "TYPEXING": "Private",
        "POSXING": "At Grade",
        "PRVCAT": "14",
        "INIT": "1",
        "LATITUDE": 31.218083,
        "LONGITUD": -98.824304,
        "LLSOURCE": "1",
        "WHISTBAN": "0",
        "RRCONT": "3255972359",
        "POLCONT": "8005339416",
        "INV_LINK": "https://safetydata.fra.dot.gov/OfficeofSafety/PublicSite/Crossing/Crossing.aspx?phasetype=C&rpttype=I&txtcrossingnum=024750D",
        "ACC_LINK": "https://safetydata.fra.dot.gov/OfficeofSafety/PublicSite/Crossing/Crossing.aspx?phasetype=C&rpttype=A&txtcrossingnum=024750D",
        "TTSTNNAM": "ALGERITA",
        "XPURPOSE": "1",
        "OPERATINGR": "CTXR",
        "OPERATIN_1": "Primary",
        "DAYTHRU": 1,
        "NGHTTHRU": 0,
        "MAINTRK": 1,
        "SIDINGTRK": 0,
        "YARDTRK": 0,
        "TRANSITTRK": 0,
        "INDUSTRYTR": 0,
        "OTHRTRK": 0,
        "WDCODE": "",
        "REVISIONDA": "2016/07/26 00:00:00",
        "LASTUPDATE": "1/8/2026",
        "AADT": "",
        "AADTYEAR": "1970",
        "STATENAME": "TEXAS",
        "STATEAB": "TX",
        "COUNTYNAME": "SAN SABA",
        "CITYNAME": "SAN SABA",
        "LATDD": 31.218083,
        "LONGDD": -98.824304,
        "gridlyProductionCertified": true,
        "gridlyClassification": "PUBLIC_ROADWAY",
        "gridlyDisplayName": "PRIVATE ROAD",
        "gridlyId": "FRA-024750D"
      }
    },
    {
      "type": "Feature",
      "id": 214054,
      "geometry": {
        "type": "Point",
        "coordinates": [
          -98.8152690001765,
          31.2157590002962
        ]
      },
      "properties": {
        "OBJECTID": 214054,
        "CROSSING": "024747V",
        "EFFDATE": 1767830400000,
        "REASON": "14",
        "StateCode": "48",
        "CountyCode": "48411",
        "STCYFIPS": "48411",
        "CITYCD": "484116190",
        "RAILROAD": "CTXR",
        "RRDIV": "SOUTHERN",
        "RRSUBDIV": "SAN SABA",
        "HIGHWAY": "Private",
        "STREET": "PRIVATE ROAD",
        "TTSTN": "690543",
        "MILEPOST": "0030.17",
        "TYPEXING": "Private",
        "POSXING": "At Grade",
        "PRVCAT": "14",
        "INIT": "1",
        "LATITUDE": 31.215759,
        "LONGITUD": -98.815269,
        "LLSOURCE": "1",
        "WHISTBAN": "0",
        "RRCONT": "3255972359",
        "POLCONT": "8005339416",
        "INV_LINK": "https://safetydata.fra.dot.gov/OfficeofSafety/PublicSite/Crossing/Crossing.aspx?phasetype=C&rpttype=I&txtcrossingnum=024747V",
        "ACC_LINK": "https://safetydata.fra.dot.gov/OfficeofSafety/PublicSite/Crossing/Crossing.aspx?phasetype=C&rpttype=A&txtcrossingnum=024747V",
        "TTSTNNAM": "ALGERITA",
        "XPURPOSE": "1",
        "OPERATINGR": "CTXR",
        "OPERATIN_1": "Primary",
        "DAYTHRU": 1,
        "NGHTTHRU": 0,
        "MAINTRK": 1,
        "SIDINGTRK": 0,
        "YARDTRK": 0,
        "TRANSITTRK": 0,
        "INDUSTRYTR": 0,
        "OTHRTRK": 0,
        "WDCODE": "",
        "REVISIONDA": "2016/07/26 00:00:00",
        "LASTUPDATE": "1/8/2026",
        "AADT": "",
        "AADTYEAR": "1970",
        "STATENAME": "TEXAS",
        "STATEAB": "TX",
        "COUNTYNAME": "SAN SABA",
        "CITYNAME": "SAN SABA",
        "LATDD": 31.215759,
        "LONGDD": -98.815269,
        "gridlyProductionCertified": true,
        "gridlyClassification": "PUBLIC_ROADWAY",
        "gridlyDisplayName": "PRIVATE ROAD",
        "gridlyId": "FRA-024747V"
      }
    },
    {
      "type": "Feature",
      "id": 215464,
      "geometry": {
        "type": "Point",
        "coordinates": [
          -98.9298214995558,
          31.2652343996651
        ]
      },
      "properties": {
        "OBJECTID": 215464,
        "CROSSING": "024762X",
        "EFFDATE": 1767744000000,
        "REASON": "20",
        "StateCode": "48",
        "CountyCode": "48411",
        "STCYFIPS": "48411",
        "CITYCD": "484115750",
        "RAILROAD": "CTXR",
        "RRDIV": "Central Texas",
        "RRSUBDIV": "Lometa",
        "HIGHWAY": "cr0352",
        "STREET": "County Road 352",
        "TTSTN": "690545",
        "MILEPOST": "0037.97",
        "TYPEXING": "Public",
        "POSXING": "At Grade",
        "PRVCAT": "20",
        "INIT": "1",
        "LATITUDE": 31.2652344,
        "LONGITUD": -98.9298215,
        "LLSOURCE": "1",
        "WHISTBAN": "0",
        "RRCONT": "3255972359",
        "POLCONT": "8005339416",
        "INV_LINK": "https://safetydata.fra.dot.gov/OfficeofSafety/PublicSite/Crossing/Crossing.aspx?phasetype=C&rpttype=I&txtcrossingnum=024762X",
        "ACC_LINK": "https://safetydata.fra.dot.gov/OfficeofSafety/PublicSite/Crossing/Crossing.aspx?phasetype=C&rpttype=A&txtcrossingnum=024762X",
        "TTSTNNAM": "RICHLAND SPRG",
        "XPURPOSE": "1",
        "OPERATINGR": "CTXR",
        "OPERATIN_1": "Primary",
        "DAYTHRU": 1,
        "NGHTTHRU": 0,
        "MAINTRK": 1,
        "SIDINGTRK": 0,
        "YARDTRK": 0,
        "TRANSITTRK": 0,
        "INDUSTRYTR": 0,
        "OTHRTRK": 0,
        "WDCODE": "No signs or signals",
        "REVISIONDA": "2016/07/26 00:00:00",
        "LASTUPDATE": "1/7/2026",
        "AADT": "51",
        "AADTYEAR": "2022",
        "STATENAME": "TEXAS",
        "STATEAB": "TX",
        "COUNTYNAME": "SAN SABA",
        "CITYNAME": "RICHLAND SPGS",
        "LATDD": 31.2652344,
        "LONGDD": -98.9298215,
        "gridlyProductionCertified": true,
        "gridlyClassification": "PUBLIC_ROADWAY",
        "gridlyDisplayName": "County Road 352",
        "gridlyId": "FRA-024762X"
      }
    },
    {
      "type": "Feature",
      "id": 215465,
      "geometry": {
        "type": "Point",
        "coordinates": [
          -98.8801294001707,
          31.2329490002004
        ]
      },
      "properties": {
        "OBJECTID": 215465,
        "CROSSING": "024757B",
        "EFFDATE": 1767744000000,
        "REASON": "20",
        "StateCode": "48",
        "CountyCode": "48411",
        "STCYFIPS": "48411",
        "CITYCD": "484115750",
        "RAILROAD": "CTXR",
        "RRDIV": "Central Texas",
        "RRSUBDIV": "Lometa",
        "HIGHWAY": "Cr0137",
        "STREET": "County Road 137",
        "TTSTN": "690543",
        "MILEPOST": "0034.18",
        "TYPEXING": "Public",
        "POSXING": "At Grade",
        "PRVCAT": "20",
        "INIT": "1",
        "LATITUDE": 31.232949,
        "LONGITUD": -98.8801294,
        "LLSOURCE": "1",
        "WHISTBAN": "0",
        "RRCONT": "3255972359",
        "POLCONT": "8005339416",
        "INV_LINK": "https://safetydata.fra.dot.gov/OfficeofSafety/PublicSite/Crossing/Crossing.aspx?phasetype=C&rpttype=I&txtcrossingnum=024757B",
        "ACC_LINK": "https://safetydata.fra.dot.gov/OfficeofSafety/PublicSite/Crossing/Crossing.aspx?phasetype=C&rpttype=A&txtcrossingnum=024757B",
        "TTSTNNAM": "ALGERITA",
        "XPURPOSE": "1",
        "OPERATINGR": "CTXR",
        "OPERATIN_1": "Primary",
        "DAYTHRU": 1,
        "NGHTTHRU": 0,
        "MAINTRK": 1,
        "SIDINGTRK": 0,
        "YARDTRK": 0,
        "TRANSITTRK": 0,
        "INDUSTRYTR": 0,
        "OTHRTRK": 0,
        "WDCODE": "Crossbucks",
        "REVISIONDA": "2016/07/26 00:00:00",
        "LASTUPDATE": "1/7/2026",
        "AADT": "37",
        "AADTYEAR": "",
        "STATENAME": "TEXAS",
        "STATEAB": "TX",
        "COUNTYNAME": "SAN SABA",
        "CITYNAME": "RICHLAND SPGS",
        "LATDD": 31.232949,
        "LONGDD": -98.8801294,
        "gridlyProductionCertified": true,
        "gridlyClassification": "PUBLIC_ROADWAY",
        "gridlyDisplayName": "County Road 137",
        "gridlyId": "FRA-024757B"
      }
    },
    {
      "type": "Feature",
      "id": 215466,
      "geometry": {
        "type": "Point",
        "coordinates": [
          -98.9504561995857,
          31.2767715000808
        ]
      },
      "properties": {
        "OBJECTID": 215466,
        "CROSSING": "024769V",
        "EFFDATE": 1767744000000,
        "REASON": "20",
        "StateCode": "48",
        "CountyCode": "48411",
        "STCYFIPS": "48411",
        "CITYCD": "484115750",
        "RAILROAD": "CTXR",
        "RRDIV": "Central Texas",
        "RRSUBDIV": "Lometa",
        "HIGHWAY": "LS0000",
        "STREET": "OFF MARION STREET",
        "TTSTN": "690545",
        "MILEPOST": "0039.43",
        "TYPEXING": "Public",
        "POSXING": "At Grade",
        "PRVCAT": "20",
        "INIT": "1",
        "LATITUDE": 31.2767715,
        "LONGITUD": -98.9504562,
        "LLSOURCE": "1",
        "WHISTBAN": "0",
        "RRCONT": "3255972359",
        "POLCONT": "8005339416",
        "INV_LINK": "https://safetydata.fra.dot.gov/OfficeofSafety/PublicSite/Crossing/Crossing.aspx?phasetype=C&rpttype=I&txtcrossingnum=024769V",
        "ACC_LINK": "https://safetydata.fra.dot.gov/OfficeofSafety/PublicSite/Crossing/Crossing.aspx?phasetype=C&rpttype=A&txtcrossingnum=024769V",
        "TTSTNNAM": "RICHLAND SPRG",
        "XPURPOSE": "1",
        "OPERATINGR": "CTXR",
        "OPERATIN_1": "Primary",
        "DAYTHRU": 1,
        "NGHTTHRU": 0,
        "MAINTRK": 1,
        "SIDINGTRK": 0,
        "YARDTRK": 0,
        "TRANSITTRK": 0,
        "INDUSTRYTR": 0,
        "OTHRTRK": 2,
        "WDCODE": "Crossbucks",
        "REVISIONDA": "2016/07/26 00:00:00",
        "LASTUPDATE": "1/7/2026",
        "AADT": "10",
        "AADTYEAR": "2024",
        "STATENAME": "TEXAS",
        "STATEAB": "TX",
        "COUNTYNAME": "SAN SABA",
        "CITYNAME": "RICHLAND SPGS",
        "LATDD": 31.2767715,
        "LONGDD": -98.9504562,
        "gridlyProductionCertified": true,
        "gridlyClassification": "PUBLIC_ROADWAY",
        "gridlyDisplayName": "OFF MARION STREET",
        "gridlyId": "FRA-024769V"
      }
    },
    {
      "type": "Feature",
      "id": 215467,
      "geometry": {
        "type": "Point",
        "coordinates": [
          -99.0517691001356,
          31.285300099741
        ]
      },
      "properties": {
        "OBJECTID": 215467,
        "CROSSING": "024780V",
        "EFFDATE": 1767744000000,
        "REASON": "20",
        "StateCode": "48",
        "CountyCode": "48411",
        "STCYFIPS": "48411",
        "CITYCD": "484115750",
        "RAILROAD": "CTXR",
        "RRDIV": "Central Texas",
        "RRSUBDIV": "Lometa",
        "HIGHWAY": "FM2997",
        "STREET": "FM2997",
        "TTSTN": "690549",
        "MILEPOST": "0045.81",
        "TYPEXING": "Public",
        "POSXING": "At Grade",
        "PRVCAT": "20",
        "INIT": "1",
        "LATITUDE": 31.2853001,
        "LONGITUD": -99.0517691,
        "LLSOURCE": "1",
        "WHISTBAN": "0",
        "RRCONT": "3255972359",
        "POLCONT": "8005339416",
        "INV_LINK": "https://safetydata.fra.dot.gov/OfficeofSafety/PublicSite/Crossing/Crossing.aspx?phasetype=C&rpttype=I&txtcrossingnum=024780V",
        "ACC_LINK": "https://safetydata.fra.dot.gov/OfficeofSafety/PublicSite/Crossing/Crossing.aspx?phasetype=C&rpttype=A&txtcrossingnum=024780V",
        "TTSTNNAM": "",
        "XPURPOSE": "1",
        "OPERATINGR": "CTXR",
        "OPERATIN_1": "Primary",
        "DAYTHRU": 1,
        "NGHTTHRU": 0,
        "MAINTRK": 1,
        "SIDINGTRK": 0,
        "YARDTRK": 0,
        "TRANSITTRK": 0,
        "INDUSTRYTR": 0,
        "OTHRTRK": 0,
        "WDCODE": "Crossbucks",
        "REVISIONDA": "2016/07/26 00:00:00",
        "LASTUPDATE": "1/7/2026",
        "AADT": "89",
        "AADTYEAR": "2019",
        "STATENAME": "TEXAS",
        "STATEAB": "TX",
        "COUNTYNAME": "SAN SABA",
        "CITYNAME": "RICHLAND SPGS",
        "LATDD": 31.2853001,
        "LONGDD": -99.0517691,
        "gridlyProductionCertified": true,
        "gridlyClassification": "PUBLIC_ROADWAY",
        "gridlyDisplayName": "FM2997",
        "gridlyId": "FRA-024780V"
      }
    },
    {
      "type": "Feature",
      "id": 215468,
      "geometry": {
        "type": "Point",
        "coordinates": [
          -98.9639979000486,
          31.2837503003433
        ]
      },
      "properties": {
        "OBJECTID": 215468,
        "CROSSING": "024770P",
        "EFFDATE": 1767744000000,
        "REASON": "20",
        "StateCode": "48",
        "CountyCode": "48411",
        "STCYFIPS": "48411",
        "CITYCD": "484115750",
        "RAILROAD": "CTXR",
        "RRDIV": "Central Texas",
        "RRSUBDIV": "Lometa",
        "HIGHWAY": "cr0260",
        "STREET": "County Road 260",
        "TTSTN": "690545",
        "MILEPOST": "0040.39",
        "TYPEXING": "Public",
        "POSXING": "At Grade",
        "PRVCAT": "20",
        "INIT": "1",
        "LATITUDE": 31.2837503,
        "LONGITUD": -98.9639979,
        "LLSOURCE": "1",
        "WHISTBAN": "0",
        "RRCONT": "3255972359",
        "POLCONT": "8005339416",
        "INV_LINK": "https://safetydata.fra.dot.gov/OfficeofSafety/PublicSite/Crossing/Crossing.aspx?phasetype=C&rpttype=I&txtcrossingnum=024770P",
        "ACC_LINK": "https://safetydata.fra.dot.gov/OfficeofSafety/PublicSite/Crossing/Crossing.aspx?phasetype=C&rpttype=A&txtcrossingnum=024770P",
        "TTSTNNAM": "RICHLAND SPRG",
        "XPURPOSE": "1",
        "OPERATINGR": "CTXR",
        "OPERATIN_1": "Primary",
        "DAYTHRU": 1,
        "NGHTTHRU": 0,
        "MAINTRK": 1,
        "SIDINGTRK": 0,
        "YARDTRK": 0,
        "TRANSITTRK": 0,
        "INDUSTRYTR": 0,
        "OTHRTRK": 0,
        "WDCODE": "No signs or signals",
        "REVISIONDA": "2016/07/26 00:00:00",
        "LASTUPDATE": "1/7/2026",
        "AADT": "9",
        "AADTYEAR": "2022",
        "STATENAME": "TEXAS",
        "STATEAB": "TX",
        "COUNTYNAME": "SAN SABA",
        "CITYNAME": "RICHLAND SPGS",
        "LATDD": 31.2837503,
        "LONGDD": -98.9639979,
        "gridlyProductionCertified": true,
        "gridlyClassification": "PUBLIC_ROADWAY",
        "gridlyDisplayName": "County Road 260",
        "gridlyId": "FRA-024770P"
      }
    },
    {
      "type": "Feature",
      "id": 215469,
      "geometry": {
        "type": "Point",
        "coordinates": [
          -98.945266699563,
          31.2732137003284
        ]
      },
      "properties": {
        "OBJECTID": 215469,
        "CROSSING": "024767G",
        "EFFDATE": 1767744000000,
        "REASON": "20",
        "StateCode": "48",
        "CountyCode": "48411",
        "STCYFIPS": "48411",
        "CITYCD": "484115750",
        "RAILROAD": "CTXR",
        "RRDIV": "Central Texas",
        "RRSUBDIV": "Lometa",
        "HIGHWAY": "ST 0000",
        "STREET": "west commerce street",
        "TTSTN": "690545",
        "MILEPOST": "0039.04",
        "TYPEXING": "Public",
        "POSXING": "At Grade",
        "PRVCAT": "20",
        "INIT": "1",
        "LATITUDE": 31.2732137,
        "LONGITUD": -98.9452667,
        "LLSOURCE": "1",
        "WHISTBAN": "0",
        "RRCONT": "3255972359",
        "POLCONT": "8005339416",
        "INV_LINK": "https://safetydata.fra.dot.gov/OfficeofSafety/PublicSite/Crossing/Crossing.aspx?phasetype=C&rpttype=I&txtcrossingnum=024767G",
        "ACC_LINK": "https://safetydata.fra.dot.gov/OfficeofSafety/PublicSite/Crossing/Crossing.aspx?phasetype=C&rpttype=A&txtcrossingnum=024767G",
        "TTSTNNAM": "RICHLAND SPRG",
        "XPURPOSE": "1",
        "OPERATINGR": "CTXR",
        "OPERATIN_1": "Primary",
        "DAYTHRU": 1,
        "NGHTTHRU": 0,
        "MAINTRK": 1,
        "SIDINGTRK": 0,
        "YARDTRK": 0,
        "TRANSITTRK": 0,
        "INDUSTRYTR": 0,
        "OTHRTRK": 0,
        "WDCODE": "Crossbucks",
        "REVISIONDA": "2016/07/26 00:00:00",
        "LASTUPDATE": "1/7/2026",
        "AADT": "129",
        "AADTYEAR": "2022",
        "STATENAME": "TEXAS",
        "STATEAB": "TX",
        "COUNTYNAME": "SAN SABA",
        "CITYNAME": "RICHLAND SPGS",
        "LATDD": 31.2732137,
        "LONGDD": -98.9452667,
        "gridlyProductionCertified": true,
        "gridlyClassification": "PUBLIC_ROADWAY",
        "gridlyDisplayName": "west commerce street",
        "gridlyId": "FRA-024767G"
      }
    },
    {
      "type": "Feature",
      "id": 215470,
      "geometry": {
        "type": "Point",
        "coordinates": [
          -98.9437582000289,
          31.2725078999536
        ]
      },
      "properties": {
        "OBJECTID": 215470,
        "CROSSING": "024765T",
        "EFFDATE": 1767744000000,
        "REASON": "20",
        "StateCode": "48",
        "CountyCode": "48411",
        "STCYFIPS": "48411",
        "CITYCD": "484115750",
        "RAILROAD": "CTXR",
        "RRDIV": "Central Texas",
        "RRSUBDIV": "Lometa",
        "HIGHWAY": "ls0000",
        "STREET": "south hall street",
        "TTSTN": "690545",
        "MILEPOST": "0038.93",
        "TYPEXING": "Public",
        "POSXING": "At Grade",
        "PRVCAT": "20",
        "INIT": "1",
        "LATITUDE": 31.2725079,
        "LONGITUD": -98.9437582,
        "LLSOURCE": "1",
        "WHISTBAN": "0",
        "RRCONT": "3255972359",
        "POLCONT": "8005339416",
        "INV_LINK": "https://safetydata.fra.dot.gov/OfficeofSafety/PublicSite/Crossing/Crossing.aspx?phasetype=C&rpttype=I&txtcrossingnum=024765T",
        "ACC_LINK": "https://safetydata.fra.dot.gov/OfficeofSafety/PublicSite/Crossing/Crossing.aspx?phasetype=C&rpttype=A&txtcrossingnum=024765T",
        "TTSTNNAM": "RICHLAND SPRG",
        "XPURPOSE": "1",
        "OPERATINGR": "CTXR",
        "OPERATIN_1": "Primary",
        "DAYTHRU": 1,
        "NGHTTHRU": 0,
        "MAINTRK": 1,
        "SIDINGTRK": 0,
        "YARDTRK": 0,
        "TRANSITTRK": 0,
        "INDUSTRYTR": 0,
        "OTHRTRK": 0,
        "WDCODE": "Crossbucks",
        "REVISIONDA": "2016/07/26 00:00:00",
        "LASTUPDATE": "1/7/2026",
        "AADT": "195",
        "AADTYEAR": "2022",
        "STATENAME": "TEXAS",
        "STATEAB": "TX",
        "COUNTYNAME": "SAN SABA",
        "CITYNAME": "RICHLAND SPGS",
        "LATDD": 31.2725079,
        "LONGDD": -98.9437582,
        "gridlyProductionCertified": true,
        "gridlyClassification": "PUBLIC_ROADWAY",
        "gridlyDisplayName": "south hall street",
        "gridlyId": "FRA-024765T"
      }
    },
    {
      "type": "Feature",
      "id": 215471,
      "geometry": {
        "type": "Point",
        "coordinates": [
          -98.8583131999465,
          31.2267877002827
        ]
      },
      "properties": {
        "OBJECTID": 215471,
        "CROSSING": "024755M",
        "EFFDATE": 1767744000000,
        "REASON": "20",
        "StateCode": "48",
        "CountyCode": "48411",
        "STCYFIPS": "48411",
        "CITYCD": "484115750",
        "RAILROAD": "CTXR",
        "RRDIV": "Central Texas",
        "RRSUBDIV": "Lometa",
        "HIGHWAY": "cr0332",
        "STREET": "County Road 332",
        "TTSTN": "690543",
        "MILEPOST": "0032.78",
        "TYPEXING": "Public",
        "POSXING": "At Grade",
        "PRVCAT": "20",
        "INIT": "1",
        "LATITUDE": 31.2267877,
        "LONGITUD": -98.8583132,
        "LLSOURCE": "1",
        "WHISTBAN": "0",
        "RRCONT": "3255972359",
        "POLCONT": "8005339416",
        "INV_LINK": "https://safetydata.fra.dot.gov/OfficeofSafety/PublicSite/Crossing/Crossing.aspx?phasetype=C&rpttype=I&txtcrossingnum=024755M",
        "ACC_LINK": "https://safetydata.fra.dot.gov/OfficeofSafety/PublicSite/Crossing/Crossing.aspx?phasetype=C&rpttype=A&txtcrossingnum=024755M",
        "TTSTNNAM": "ALGERITA",
        "XPURPOSE": "1",
        "OPERATINGR": "CTXR",
        "OPERATIN_1": "Primary",
        "DAYTHRU": 1,
        "NGHTTHRU": 0,
        "MAINTRK": 1,
        "SIDINGTRK": 1,
        "YARDTRK": 0,
        "TRANSITTRK": 0,
        "INDUSTRYTR": 0,
        "OTHRTRK": 1,
        "WDCODE": "Crossbucks",
        "REVISIONDA": "2016/07/26 00:00:00",
        "LASTUPDATE": "1/7/2026",
        "AADT": "20",
        "AADTYEAR": "2019",
        "STATENAME": "TEXAS",
        "STATEAB": "TX",
        "COUNTYNAME": "SAN SABA",
        "CITYNAME": "RICHLAND SPGS",
        "LATDD": 31.2267877,
        "LONGDD": -98.8583132,
        "gridlyProductionCertified": true,
        "gridlyClassification": "PUBLIC_ROADWAY",
        "gridlyDisplayName": "County Road 332",
        "gridlyId": "FRA-024755M"
      }
    },
    {
      "type": "Feature",
      "id": 215472,
      "geometry": {
        "type": "Point",
        "coordinates": [
          -98.9449172998332,
          31.2730517998295
        ]
      },
      "properties": {
        "OBJECTID": 215472,
        "CROSSING": "024766A",
        "EFFDATE": 1767744000000,
        "REASON": "20",
        "StateCode": "48",
        "CountyCode": "48411",
        "STCYFIPS": "48411",
        "CITYCD": "484115750",
        "RAILROAD": "CTXR",
        "RRDIV": "Central Texas",
        "RRSUBDIV": "Lometa",
        "HIGHWAY": "FM0045",
        "STREET": "FM0045 / CARTER STREET",
        "TTSTN": "690545",
        "MILEPOST": "0039.02",
        "TYPEXING": "Public",
        "POSXING": "At Grade",
        "PRVCAT": "20",
        "INIT": "1",
        "LATITUDE": 31.2730518,
        "LONGITUD": -98.9449173,
        "LLSOURCE": "1",
        "WHISTBAN": "0",
        "RRCONT": "3255972359",
        "POLCONT": "8005339416",
        "INV_LINK": "https://safetydata.fra.dot.gov/OfficeofSafety/PublicSite/Crossing/Crossing.aspx?phasetype=C&rpttype=I&txtcrossingnum=024766A",
        "ACC_LINK": "https://safetydata.fra.dot.gov/OfficeofSafety/PublicSite/Crossing/Crossing.aspx?phasetype=C&rpttype=A&txtcrossingnum=024766A",
        "TTSTNNAM": "RICHLAND SPRG",
        "XPURPOSE": "1",
        "OPERATINGR": "CTXR",
        "OPERATIN_1": "Primary",
        "DAYTHRU": 1,
        "NGHTTHRU": 0,
        "MAINTRK": 1,
        "SIDINGTRK": 0,
        "YARDTRK": 0,
        "TRANSITTRK": 0,
        "INDUSTRYTR": 0,
        "OTHRTRK": 0,
        "WDCODE": "Crossbucks",
        "REVISIONDA": "2016/07/26 00:00:00",
        "LASTUPDATE": "1/7/2026",
        "AADT": "1373",
        "AADTYEAR": "2023",
        "STATENAME": "TEXAS",
        "STATEAB": "TX",
        "COUNTYNAME": "SAN SABA",
        "CITYNAME": "RICHLAND SPGS",
        "LATDD": 31.2730518,
        "LONGDD": -98.9449173,
        "gridlyProductionCertified": true,
        "gridlyClassification": "PUBLIC_ROADWAY",
        "gridlyDisplayName": "FM0045 / CARTER STREET",
        "gridlyId": "FRA-024766A"
      }
    },
    {
      "type": "Feature",
      "id": 215473,
      "geometry": {
        "type": "Point",
        "coordinates": [
          -98.9382832001375,
          31.2698982000204
        ]
      },
      "properties": {
        "OBJECTID": 215473,
        "CROSSING": "024764L",
        "EFFDATE": 1767744000000,
        "REASON": "20",
        "StateCode": "48",
        "CountyCode": "48411",
        "STCYFIPS": "48411",
        "CITYCD": "484115750",
        "RAILROAD": "CTXR",
        "RRDIV": "Central Texas",
        "RRSUBDIV": "Lometa",
        "HIGHWAY": "lS0000",
        "STREET": "BROADWAY street",
        "TTSTN": "690545",
        "MILEPOST": "0038.57",
        "TYPEXING": "Public",
        "POSXING": "At Grade",
        "PRVCAT": "20",
        "INIT": "1",
        "LATITUDE": 31.2698982,
        "LONGITUD": -98.9382832,
        "LLSOURCE": "1",
        "WHISTBAN": "0",
        "RRCONT": "3255972359",
        "POLCONT": "8005339416",
        "INV_LINK": "https://safetydata.fra.dot.gov/OfficeofSafety/PublicSite/Crossing/Crossing.aspx?phasetype=C&rpttype=I&txtcrossingnum=024764L",
        "ACC_LINK": "https://safetydata.fra.dot.gov/OfficeofSafety/PublicSite/Crossing/Crossing.aspx?phasetype=C&rpttype=A&txtcrossingnum=024764L",
        "TTSTNNAM": "RICHLAND SPRG",
        "XPURPOSE": "1",
        "OPERATINGR": "CTXR",
        "OPERATIN_1": "Primary",
        "DAYTHRU": 1,
        "NGHTTHRU": 0,
        "MAINTRK": 1,
        "SIDINGTRK": 0,
        "YARDTRK": 0,
        "TRANSITTRK": 0,
        "INDUSTRYTR": 0,
        "OTHRTRK": 0,
        "WDCODE": "Crossbucks",
        "REVISIONDA": "2016/07/26 00:00:00",
        "LASTUPDATE": "1/7/2026",
        "AADT": "81",
        "AADTYEAR": "2022",
        "STATENAME": "TEXAS",
        "STATEAB": "TX",
        "COUNTYNAME": "SAN SABA",
        "CITYNAME": "RICHLAND SPGS",
        "LATDD": 31.2698982,
        "LONGDD": -98.9382832,
        "gridlyProductionCertified": true,
        "gridlyClassification": "PUBLIC_ROADWAY",
        "gridlyDisplayName": "BROADWAY street",
        "gridlyId": "FRA-024764L"
      }
    },
    {
      "type": "Feature",
      "id": 215474,
      "geometry": {
        "type": "Point",
        "coordinates": [
          -98.9469642001413,
          31.2742200999682
        ]
      },
      "properties": {
        "OBJECTID": 215474,
        "CROSSING": "024768N",
        "EFFDATE": 1767744000000,
        "REASON": "20",
        "StateCode": "48",
        "CountyCode": "48411",
        "STCYFIPS": "48411",
        "CITYCD": "484115750",
        "RAILROAD": "CTXR",
        "RRDIV": "Central Texas",
        "RRSUBDIV": "Lometa",
        "HIGHWAY": "lS0000",
        "STREET": "west MAIN STreet",
        "TTSTN": "690545",
        "MILEPOST": "0039.16",
        "TYPEXING": "Public",
        "POSXING": "At Grade",
        "PRVCAT": "20",
        "INIT": "1",
        "LATITUDE": 31.2742201,
        "LONGITUD": -98.9469642,
        "LLSOURCE": "1",
        "WHISTBAN": "0",
        "RRCONT": "3255972359",
        "POLCONT": "8005339416",
        "INV_LINK": "https://safetydata.fra.dot.gov/OfficeofSafety/PublicSite/Crossing/Crossing.aspx?phasetype=C&rpttype=I&txtcrossingnum=024768N",
        "ACC_LINK": "https://safetydata.fra.dot.gov/OfficeofSafety/PublicSite/Crossing/Crossing.aspx?phasetype=C&rpttype=A&txtcrossingnum=024768N",
        "TTSTNNAM": "RICHLAND SPRG",
        "XPURPOSE": "1",
        "OPERATINGR": "CTXR",
        "OPERATIN_1": "Primary",
        "DAYTHRU": 1,
        "NGHTTHRU": 0,
        "MAINTRK": 1,
        "SIDINGTRK": 0,
        "YARDTRK": 0,
        "TRANSITTRK": 0,
        "INDUSTRYTR": 0,
        "OTHRTRK": 0,
        "WDCODE": "Crossbucks",
        "REVISIONDA": "2016/07/26 00:00:00",
        "LASTUPDATE": "1/7/2026",
        "AADT": "172",
        "AADTYEAR": "2022",
        "STATENAME": "TEXAS",
        "STATEAB": "TX",
        "COUNTYNAME": "SAN SABA",
        "CITYNAME": "RICHLAND SPGS",
        "LATDD": 31.2742201,
        "LONGDD": -98.9469642,
        "gridlyProductionCertified": true,
        "gridlyClassification": "PUBLIC_ROADWAY",
        "gridlyDisplayName": "west MAIN STreet",
        "gridlyId": "FRA-024768N"
      }
    },
    {
      "type": "Feature",
      "id": 215475,
      "geometry": {
        "type": "Point",
        "coordinates": [
          -98.6676545996533,
          31.2037202998247
        ]
      },
      "properties": {
        "OBJECTID": 215475,
        "CROSSING": "024724N",
        "EFFDATE": 1767744000000,
        "REASON": "20",
        "StateCode": "48",
        "CountyCode": "48411",
        "STCYFIPS": "48411",
        "CITYCD": "484116190",
        "RAILROAD": "CTXR",
        "RRDIV": "Central Texas",
        "RRSUBDIV": "Lometa",
        "HIGHWAY": "cr0120",
        "STREET": "County Road 120",
        "TTSTN": "690530",
        "MILEPOST": "0021.21",
        "TYPEXING": "Public",
        "POSXING": "At Grade",
        "PRVCAT": "20",
        "INIT": "1",
        "LATITUDE": 31.2037203,
        "LONGITUD": -98.6676546,
        "LLSOURCE": "1",
        "WHISTBAN": "0",
        "RRCONT": "3255972359",
        "POLCONT": "8005339416",
        "INV_LINK": "https://safetydata.fra.dot.gov/OfficeofSafety/PublicSite/Crossing/Crossing.aspx?phasetype=C&rpttype=I&txtcrossingnum=024724N",
        "ACC_LINK": "https://safetydata.fra.dot.gov/OfficeofSafety/PublicSite/Crossing/Crossing.aspx?phasetype=C&rpttype=A&txtcrossingnum=024724N",
        "TTSTNNAM": "SAN SABA",
        "XPURPOSE": "1",
        "OPERATINGR": "CTXR",
        "OPERATIN_1": "Primary",
        "DAYTHRU": 1,
        "NGHTTHRU": 0,
        "MAINTRK": 1,
        "SIDINGTRK": 0,
        "YARDTRK": 0,
        "TRANSITTRK": 0,
        "INDUSTRYTR": 0,
        "OTHRTRK": 0,
        "WDCODE": "Crossbucks",
        "REVISIONDA": "2016/07/26 00:00:00",
        "LASTUPDATE": "1/7/2026",
        "AADT": "19",
        "AADTYEAR": "2019",
        "STATENAME": "TEXAS",
        "STATEAB": "TX",
        "COUNTYNAME": "SAN SABA",
        "CITYNAME": "SAN SABA",
        "LATDD": 31.2037203,
        "LONGDD": -98.6676546,
        "gridlyProductionCertified": true,
        "gridlyClassification": "PUBLIC_ROADWAY",
        "gridlyDisplayName": "County Road 120",
        "gridlyId": "FRA-024724N"
      }
    },
    {
      "type": "Feature",
      "id": 215477,
      "geometry": {
        "type": "Point",
        "coordinates": [
          -98.786005800383,
          31.2083574001618
        ]
      },
      "properties": {
        "OBJECTID": 215477,
        "CROSSING": "024745G",
        "EFFDATE": 1767744000000,
        "REASON": "20",
        "StateCode": "48",
        "CountyCode": "48411",
        "STCYFIPS": "48411",
        "CITYCD": "484116190",
        "RAILROAD": "CTXR",
        "RRDIV": "Central Texas",
        "RRSUBDIV": "Lometa",
        "HIGHWAY": "cr0304",
        "STREET": "County road 304",
        "TTSTN": "690530",
        "MILEPOST": "0028.36",
        "TYPEXING": "Public",
        "POSXING": "At Grade",
        "PRVCAT": "20",
        "INIT": "1",
        "LATITUDE": 31.2083574,
        "LONGITUD": -98.7860058,
        "LLSOURCE": "1",
        "WHISTBAN": "0",
        "RRCONT": "3255972359",
        "POLCONT": "8005339416",
        "INV_LINK": "https://safetydata.fra.dot.gov/OfficeofSafety/PublicSite/Crossing/Crossing.aspx?phasetype=C&rpttype=I&txtcrossingnum=024745G",
        "ACC_LINK": "https://safetydata.fra.dot.gov/OfficeofSafety/PublicSite/Crossing/Crossing.aspx?phasetype=C&rpttype=A&txtcrossingnum=024745G",
        "TTSTNNAM": "SAN SABA",
        "XPURPOSE": "1",
        "OPERATINGR": "CTXR",
        "OPERATIN_1": "Primary",
        "DAYTHRU": 1,
        "NGHTTHRU": 0,
        "MAINTRK": 1,
        "SIDINGTRK": 0,
        "YARDTRK": 0,
        "TRANSITTRK": 0,
        "INDUSTRYTR": 0,
        "OTHRTRK": 0,
        "WDCODE": "Stop signs",
        "REVISIONDA": "2016/07/26 00:00:00",
        "LASTUPDATE": "1/7/2026",
        "AADT": "130",
        "AADTYEAR": "2022",
        "STATENAME": "TEXAS",
        "STATEAB": "TX",
        "COUNTYNAME": "SAN SABA",
        "CITYNAME": "SAN SABA",
        "LATDD": 31.2083574,
        "LONGDD": -98.7860058,
        "gridlyProductionCertified": true,
        "gridlyClassification": "PUBLIC_ROADWAY",
        "gridlyDisplayName": "County road 304",
        "gridlyId": "FRA-024745G"
      }
    },
    {
      "type": "Feature",
      "id": 215480,
      "geometry": {
        "type": "Point",
        "coordinates": [
          -98.6997091003932,
          31.1977007998664
        ]
      },
      "properties": {
        "OBJECTID": 215480,
        "CROSSING": "024726C",
        "EFFDATE": 1767744000000,
        "REASON": "20",
        "StateCode": "48",
        "CountyCode": "48411",
        "STCYFIPS": "48411",
        "CITYCD": "484116190",
        "RAILROAD": "CTXR",
        "RRDIV": "Central Texas",
        "RRSUBDIV": "Lometa",
        "HIGHWAY": "Cr0104",
        "STREET": "County Road 104",
        "TTSTN": "690530",
        "MILEPOST": "0023.16",
        "TYPEXING": "Public",
        "POSXING": "At Grade",
        "PRVCAT": "20",
        "INIT": "1",
        "LATITUDE": 31.1977008,
        "LONGITUD": -98.6997091,
        "LLSOURCE": "1",
        "WHISTBAN": "0",
        "RRCONT": "3255972359",
        "POLCONT": "8005339416",
        "INV_LINK": "https://safetydata.fra.dot.gov/OfficeofSafety/PublicSite/Crossing/Crossing.aspx?phasetype=C&rpttype=I&txtcrossingnum=024726C",
        "ACC_LINK": "https://safetydata.fra.dot.gov/OfficeofSafety/PublicSite/Crossing/Crossing.aspx?phasetype=C&rpttype=A&txtcrossingnum=024726C",
        "TTSTNNAM": "SAN SABA",
        "XPURPOSE": "1",
        "OPERATINGR": "CTXR",
        "OPERATIN_1": "Primary",
        "DAYTHRU": 1,
        "NGHTTHRU": 0,
        "MAINTRK": 1,
        "SIDINGTRK": 0,
        "YARDTRK": 0,
        "TRANSITTRK": 0,
        "INDUSTRYTR": 0,
        "OTHRTRK": 0,
        "WDCODE": "Crossbucks",
        "REVISIONDA": "2016/07/26 00:00:00",
        "LASTUPDATE": "1/7/2026",
        "AADT": "414",
        "AADTYEAR": "2022",
        "STATENAME": "TEXAS",
        "STATEAB": "TX",
        "COUNTYNAME": "SAN SABA",
        "CITYNAME": "SAN SABA",
        "LATDD": 31.1977008,
        "LONGDD": -98.6997091,
        "gridlyProductionCertified": true,
        "gridlyClassification": "PUBLIC_ROADWAY",
        "gridlyDisplayName": "County Road 104",
        "gridlyId": "FRA-024726C"
      }
    },
    {
      "type": "Feature",
      "id": 215484,
      "geometry": {
        "type": "Point",
        "coordinates": [
          -98.8531931998824,
          31.2254491000054
        ]
      },
      "properties": {
        "OBJECTID": 215484,
        "CROSSING": "024754F",
        "EFFDATE": 1767744000000,
        "REASON": "20",
        "StateCode": "48",
        "CountyCode": "48411",
        "STCYFIPS": "48411",
        "CITYCD": "484116190",
        "RAILROAD": "CTXR",
        "RRDIV": "Central Texas",
        "RRSUBDIV": "Lometa",
        "HIGHWAY": "cr0226",
        "STREET": "County Road 226",
        "TTSTN": "690543",
        "MILEPOST": "0032.62",
        "TYPEXING": "Public",
        "POSXING": "At Grade",
        "PRVCAT": "20",
        "INIT": "1",
        "LATITUDE": 31.2254491,
        "LONGITUD": -98.8531932,
        "LLSOURCE": "1",
        "WHISTBAN": "0",
        "RRCONT": "3255972359",
        "POLCONT": "8005339416",
        "INV_LINK": "https://safetydata.fra.dot.gov/OfficeofSafety/PublicSite/Crossing/Crossing.aspx?phasetype=C&rpttype=I&txtcrossingnum=024754F",
        "ACC_LINK": "https://safetydata.fra.dot.gov/OfficeofSafety/PublicSite/Crossing/Crossing.aspx?phasetype=C&rpttype=A&txtcrossingnum=024754F",
        "TTSTNNAM": "ALGERITA",
        "XPURPOSE": "1",
        "OPERATINGR": "CTXR",
        "OPERATIN_1": "Primary",
        "DAYTHRU": 1,
        "NGHTTHRU": 0,
        "MAINTRK": 1,
        "SIDINGTRK": 0,
        "YARDTRK": 0,
        "TRANSITTRK": 0,
        "INDUSTRYTR": 0,
        "OTHRTRK": 0,
        "WDCODE": "Crossbucks",
        "REVISIONDA": "2016/07/26 00:00:00",
        "LASTUPDATE": "1/7/2026",
        "AADT": "113",
        "AADTYEAR": "2022",
        "STATENAME": "TEXAS",
        "STATEAB": "TX",
        "COUNTYNAME": "SAN SABA",
        "CITYNAME": "SAN SABA",
        "LATDD": 31.2254491,
        "LONGDD": -98.8531932,
        "gridlyProductionCertified": true,
        "gridlyClassification": "PUBLIC_ROADWAY",
        "gridlyDisplayName": "County Road 226",
        "gridlyId": "FRA-024754F"
      }
    },
    {
      "type": "Feature",
      "id": 215485,
      "geometry": {
        "type": "Point",
        "coordinates": [
          -98.8214811998108,
          31.2172821002128
        ]
      },
      "properties": {
        "OBJECTID": 215485,
        "CROSSING": "024749J",
        "EFFDATE": 1767744000000,
        "REASON": "20",
        "StateCode": "48",
        "CountyCode": "48411",
        "STCYFIPS": "48411",
        "CITYCD": "484116190",
        "RAILROAD": "CTXR",
        "RRDIV": "Central Texas",
        "RRSUBDIV": "Lometa",
        "HIGHWAY": "Cr0601",
        "STREET": "County Road 601",
        "TTSTN": "690543",
        "MILEPOST": "0030.54",
        "TYPEXING": "Public",
        "POSXING": "At Grade",
        "PRVCAT": "20",
        "INIT": "1",
        "LATITUDE": 31.2172821,
        "LONGITUD": -98.8214812,
        "LLSOURCE": "1",
        "WHISTBAN": "0",
        "RRCONT": "3255972359",
        "POLCONT": "8005339416",
        "INV_LINK": "https://safetydata.fra.dot.gov/OfficeofSafety/PublicSite/Crossing/Crossing.aspx?phasetype=C&rpttype=I&txtcrossingnum=024749J",
        "ACC_LINK": "https://safetydata.fra.dot.gov/OfficeofSafety/PublicSite/Crossing/Crossing.aspx?phasetype=C&rpttype=A&txtcrossingnum=024749J",
        "TTSTNNAM": "ALGERITA",
        "XPURPOSE": "1",
        "OPERATINGR": "CTXR",
        "OPERATIN_1": "Primary",
        "DAYTHRU": 1,
        "NGHTTHRU": 0,
        "MAINTRK": 1,
        "SIDINGTRK": 0,
        "YARDTRK": 0,
        "TRANSITTRK": 0,
        "INDUSTRYTR": 0,
        "OTHRTRK": 0,
        "WDCODE": "Crossbucks",
        "REVISIONDA": "2016/07/26 00:00:00",
        "LASTUPDATE": "1/7/2026",
        "AADT": "20",
        "AADTYEAR": "2019",
        "STATENAME": "TEXAS",
        "STATEAB": "TX",
        "COUNTYNAME": "SAN SABA",
        "CITYNAME": "SAN SABA",
        "LATDD": 31.2172821,
        "LONGDD": -98.8214812,
        "gridlyProductionCertified": true,
        "gridlyClassification": "PUBLIC_ROADWAY",
        "gridlyDisplayName": "County Road 601",
        "gridlyId": "FRA-024749J"
      }
    },
    {
      "type": "Feature",
      "id": 215486,
      "geometry": {
        "type": "Point",
        "coordinates": [
          -98.7272308001258,
          31.1998769997672
        ]
      },
      "properties": {
        "OBJECTID": 215486,
        "CROSSING": "024731Y",
        "EFFDATE": 1767744000000,
        "REASON": "20",
        "StateCode": "48",
        "CountyCode": "48411",
        "STCYFIPS": "48411",
        "CITYCD": "484116190",
        "RAILROAD": "CTXR",
        "RRDIV": "Central Texas",
        "RRSUBDIV": "Lometa",
        "HIGHWAY": "ls0000",
        "STREET": "north EIGHTH street",
        "TTSTN": "690530",
        "MILEPOST": "0024.82",
        "TYPEXING": "Public",
        "POSXING": "At Grade",
        "PRVCAT": "20",
        "INIT": "1",
        "LATITUDE": 31.199877,
        "LONGITUD": -98.7272308,
        "LLSOURCE": "1",
        "WHISTBAN": "0",
        "RRCONT": "3255972359",
        "POLCONT": "8005339416",
        "INV_LINK": "https://safetydata.fra.dot.gov/OfficeofSafety/PublicSite/Crossing/Crossing.aspx?phasetype=C&rpttype=I&txtcrossingnum=024731Y",
        "ACC_LINK": "https://safetydata.fra.dot.gov/OfficeofSafety/PublicSite/Crossing/Crossing.aspx?phasetype=C&rpttype=A&txtcrossingnum=024731Y",
        "TTSTNNAM": "SAN SABA",
        "XPURPOSE": "1",
        "OPERATINGR": "CTXR",
        "OPERATIN_1": "Primary",
        "DAYTHRU": 1,
        "NGHTTHRU": 0,
        "MAINTRK": 1,
        "SIDINGTRK": 1,
        "YARDTRK": 0,
        "TRANSITTRK": 0,
        "INDUSTRYTR": 0,
        "OTHRTRK": 1,
        "WDCODE": "Crossbucks",
        "REVISIONDA": "2016/07/26 00:00:00",
        "LASTUPDATE": "1/7/2026",
        "AADT": "549",
        "AADTYEAR": "2022",
        "STATENAME": "TEXAS",
        "STATEAB": "TX",
        "COUNTYNAME": "SAN SABA",
        "CITYNAME": "SAN SABA",
        "LATDD": 31.199877,
        "LONGDD": -98.7272308,
        "gridlyProductionCertified": true,
        "gridlyClassification": "PUBLIC_ROADWAY",
        "gridlyDisplayName": "north EIGHTH street",
        "gridlyId": "FRA-024731Y"
      }
    },
    {
      "type": "Feature",
      "id": 215487,
      "geometry": {
        "type": "Point",
        "coordinates": [
          -98.7028088998761,
          31.1972654003514
        ]
      },
      "properties": {
        "OBJECTID": 215487,
        "CROSSING": "024727J",
        "EFFDATE": 1767744000000,
        "REASON": "20",
        "StateCode": "48",
        "CountyCode": "48411",
        "STCYFIPS": "48411",
        "CITYCD": "484116190",
        "RAILROAD": "CTXR",
        "RRDIV": "Central Texas",
        "RRSUBDIV": "Lometa",
        "HIGHWAY": "cr0102",
        "STREET": "County Road 102",
        "TTSTN": "690530",
        "MILEPOST": "0023.35",
        "TYPEXING": "Public",
        "POSXING": "At Grade",
        "PRVCAT": "20",
        "INIT": "1",
        "LATITUDE": 31.1972654,
        "LONGITUD": -98.7028089,
        "LLSOURCE": "1",
        "WHISTBAN": "0",
        "RRCONT": "3255972359",
        "POLCONT": "8005339416",
        "INV_LINK": "https://safetydata.fra.dot.gov/OfficeofSafety/PublicSite/Crossing/Crossing.aspx?phasetype=C&rpttype=I&txtcrossingnum=024727J",
        "ACC_LINK": "https://safetydata.fra.dot.gov/OfficeofSafety/PublicSite/Crossing/Crossing.aspx?phasetype=C&rpttype=A&txtcrossingnum=024727J",
        "TTSTNNAM": "SAN SABA",
        "XPURPOSE": "1",
        "OPERATINGR": "CTXR",
        "OPERATIN_1": "Primary",
        "DAYTHRU": 1,
        "NGHTTHRU": 0,
        "MAINTRK": 1,
        "SIDINGTRK": 0,
        "YARDTRK": 0,
        "TRANSITTRK": 0,
        "INDUSTRYTR": 0,
        "OTHRTRK": 0,
        "WDCODE": "Crossbucks",
        "REVISIONDA": "2016/07/26 00:00:00",
        "LASTUPDATE": "1/7/2026",
        "AADT": "1050",
        "AADTYEAR": "2022",
        "STATENAME": "TEXAS",
        "STATEAB": "TX",
        "COUNTYNAME": "SAN SABA",
        "CITYNAME": "SAN SABA",
        "LATDD": 31.1972654,
        "LONGDD": -98.7028089,
        "gridlyProductionCertified": true,
        "gridlyClassification": "PUBLIC_ROADWAY",
        "gridlyDisplayName": "County Road 102",
        "gridlyId": "FRA-024727J"
      }
    },
    {
      "type": "Feature",
      "id": 215489,
      "geometry": {
        "type": "Point",
        "coordinates": [
          -98.5962504004124,
          31.2273514003184
        ]
      },
      "properties": {
        "OBJECTID": 215489,
        "CROSSING": "024717D",
        "EFFDATE": 1767744000000,
        "REASON": "20",
        "StateCode": "48",
        "CountyCode": "48411",
        "STCYFIPS": "48411",
        "CITYCD": "484116190",
        "RAILROAD": "CTXR",
        "RRDIV": "Central Texas",
        "RRSUBDIV": "Lometa",
        "HIGHWAY": "Cr0132",
        "STREET": "County Road 132",
        "TTSTN": "690530",
        "MILEPOST": "0016.08",
        "TYPEXING": "Public",
        "POSXING": "At Grade",
        "PRVCAT": "20",
        "INIT": "1",
        "LATITUDE": 31.2273514,
        "LONGITUD": -98.5962504,
        "LLSOURCE": "1",
        "WHISTBAN": "0",
        "RRCONT": "3255972359",
        "POLCONT": "8005339416",
        "INV_LINK": "https://safetydata.fra.dot.gov/OfficeofSafety/PublicSite/Crossing/Crossing.aspx?phasetype=C&rpttype=I&txtcrossingnum=024717D",
        "ACC_LINK": "https://safetydata.fra.dot.gov/OfficeofSafety/PublicSite/Crossing/Crossing.aspx?phasetype=C&rpttype=A&txtcrossingnum=024717D",
        "TTSTNNAM": "SAN SABA",
        "XPURPOSE": "1",
        "OPERATINGR": "CTXR",
        "OPERATIN_1": "Primary",
        "DAYTHRU": 1,
        "NGHTTHRU": 0,
        "MAINTRK": 1,
        "SIDINGTRK": 0,
        "YARDTRK": 0,
        "TRANSITTRK": 0,
        "INDUSTRYTR": 0,
        "OTHRTRK": 0,
        "WDCODE": "Crossbucks",
        "REVISIONDA": "2016/07/26 00:00:00",
        "LASTUPDATE": "1/7/2026",
        "AADT": "59",
        "AADTYEAR": "2022",
        "STATENAME": "TEXAS",
        "STATEAB": "TX",
        "COUNTYNAME": "SAN SABA",
        "CITYNAME": "SAN SABA",
        "LATDD": 31.2273514,
        "LONGDD": -98.5962504,
        "gridlyProductionCertified": true,
        "gridlyClassification": "PUBLIC_ROADWAY",
        "gridlyDisplayName": "County Road 132",
        "gridlyId": "FRA-024717D"
      }
    },
    {
      "type": "Feature",
      "id": 215490,
      "geometry": {
        "type": "Point",
        "coordinates": [
          -98.7776135000469,
          31.2071374002214
        ]
      },
      "properties": {
        "OBJECTID": 215490,
        "CROSSING": "024743T",
        "EFFDATE": 1767744000000,
        "REASON": "20",
        "StateCode": "48",
        "CountyCode": "48411",
        "STCYFIPS": "48411",
        "CITYCD": "484116190",
        "RAILROAD": "CTXR",
        "RRDIV": "Central Texas",
        "RRSUBDIV": "Lometa",
        "HIGHWAY": "cr0204",
        "STREET": "County Road 204",
        "TTSTN": "690530",
        "MILEPOST": "0027.84",
        "TYPEXING": "Public",
        "POSXING": "At Grade",
        "PRVCAT": "20",
        "INIT": "1",
        "LATITUDE": 31.2071374,
        "LONGITUD": -98.7776135,
        "LLSOURCE": "1",
        "WHISTBAN": "0",
        "RRCONT": "3255972359",
        "POLCONT": "8005339416",
        "INV_LINK": "https://safetydata.fra.dot.gov/OfficeofSafety/PublicSite/Crossing/Crossing.aspx?phasetype=C&rpttype=I&txtcrossingnum=024743T",
        "ACC_LINK": "https://safetydata.fra.dot.gov/OfficeofSafety/PublicSite/Crossing/Crossing.aspx?phasetype=C&rpttype=A&txtcrossingnum=024743T",
        "TTSTNNAM": "SAN SABA",
        "XPURPOSE": "1",
        "OPERATINGR": "CTXR",
        "OPERATIN_1": "Primary",
        "DAYTHRU": 1,
        "NGHTTHRU": 0,
        "MAINTRK": 1,
        "SIDINGTRK": 0,
        "YARDTRK": 0,
        "TRANSITTRK": 0,
        "INDUSTRYTR": 0,
        "OTHRTRK": 0,
        "WDCODE": "Crossbucks",
        "REVISIONDA": "2016/07/26 00:00:00",
        "LASTUPDATE": "1/7/2026",
        "AADT": "49",
        "AADTYEAR": "2022",
        "STATENAME": "TEXAS",
        "STATEAB": "TX",
        "COUNTYNAME": "SAN SABA",
        "CITYNAME": "SAN SABA",
        "LATDD": 31.2071374,
        "LONGDD": -98.7776135,
        "gridlyProductionCertified": true,
        "gridlyClassification": "PUBLIC_ROADWAY",
        "gridlyDisplayName": "County Road 204",
        "gridlyId": "FRA-024743T"
      }
    },
    {
      "type": "Feature",
      "id": 215491,
      "geometry": {
        "type": "Point",
        "coordinates": [
          -98.7284734998455,
          31.2000547999238
        ]
      },
      "properties": {
        "OBJECTID": 215491,
        "CROSSING": "024732F",
        "EFFDATE": 1767744000000,
        "REASON": "20",
        "StateCode": "48",
        "CountyCode": "48411",
        "STCYFIPS": "48411",
        "CITYCD": "484116190",
        "RAILROAD": "CTXR",
        "RRDIV": "Central Texas",
        "RRSUBDIV": "Lometa",
        "HIGHWAY": "ls0000",
        "STREET": "north NINTH street",
        "TTSTN": "690530",
        "MILEPOST": "0024.89",
        "TYPEXING": "Public",
        "POSXING": "At Grade",
        "PRVCAT": "20",
        "INIT": "1",
        "LATITUDE": 31.2000548,
        "LONGITUD": -98.7284735,
        "LLSOURCE": "1",
        "WHISTBAN": "0",
        "RRCONT": "3255972359",
        "POLCONT": "8005339416",
        "INV_LINK": "https://safetydata.fra.dot.gov/OfficeofSafety/PublicSite/Crossing/Crossing.aspx?phasetype=C&rpttype=I&txtcrossingnum=024732F",
        "ACC_LINK": "https://safetydata.fra.dot.gov/OfficeofSafety/PublicSite/Crossing/Crossing.aspx?phasetype=C&rpttype=A&txtcrossingnum=024732F",
        "TTSTNNAM": "SAN SABA",
        "XPURPOSE": "1",
        "OPERATINGR": "CTXR",
        "OPERATIN_1": "Primary",
        "DAYTHRU": 1,
        "NGHTTHRU": 0,
        "MAINTRK": 1,
        "SIDINGTRK": 0,
        "YARDTRK": 0,
        "TRANSITTRK": 0,
        "INDUSTRYTR": 0,
        "OTHRTRK": 0,
        "WDCODE": "Crossbucks",
        "REVISIONDA": "2016/07/26 00:00:00",
        "LASTUPDATE": "1/7/2026",
        "AADT": "117",
        "AADTYEAR": "2022",
        "STATENAME": "TEXAS",
        "STATEAB": "TX",
        "COUNTYNAME": "SAN SABA",
        "CITYNAME": "SAN SABA",
        "LATDD": 31.2000548,
        "LONGDD": -98.7284735,
        "gridlyProductionCertified": true,
        "gridlyClassification": "PUBLIC_ROADWAY",
        "gridlyDisplayName": "north NINTH street",
        "gridlyId": "FRA-024732F"
      }
    },
    {
      "type": "Feature",
      "id": 215492,
      "geometry": {
        "type": "Point",
        "coordinates": [
          -98.7357280003309,
          31.2010937001956
        ]
      },
      "properties": {
        "OBJECTID": 215492,
        "CROSSING": "024735B",
        "EFFDATE": 1767744000000,
        "REASON": "20",
        "StateCode": "48",
        "CountyCode": "48411",
        "STCYFIPS": "48411",
        "CITYCD": "484116190",
        "RAILROAD": "CTXR",
        "RRDIV": "Central Texas",
        "RRSUBDIV": "Lometa",
        "HIGHWAY": "ls0000",
        "STREET": "CHINA CREEK RoaD",
        "TTSTN": "690530",
        "MILEPOST": "0025.33",
        "TYPEXING": "Public",
        "POSXING": "At Grade",
        "PRVCAT": "20",
        "INIT": "1",
        "LATITUDE": 31.2010937,
        "LONGITUD": -98.735728,
        "LLSOURCE": "1",
        "WHISTBAN": "0",
        "RRCONT": "3255972359",
        "POLCONT": "8005339416",
        "INV_LINK": "https://safetydata.fra.dot.gov/OfficeofSafety/PublicSite/Crossing/Crossing.aspx?phasetype=C&rpttype=I&txtcrossingnum=024735B",
        "ACC_LINK": "https://safetydata.fra.dot.gov/OfficeofSafety/PublicSite/Crossing/Crossing.aspx?phasetype=C&rpttype=A&txtcrossingnum=024735B",
        "TTSTNNAM": "SAN SABA",
        "XPURPOSE": "1",
        "OPERATINGR": "CTXR",
        "OPERATIN_1": "Primary",
        "DAYTHRU": 1,
        "NGHTTHRU": 0,
        "MAINTRK": 1,
        "SIDINGTRK": 0,
        "YARDTRK": 0,
        "TRANSITTRK": 0,
        "INDUSTRYTR": 0,
        "OTHRTRK": 0,
        "WDCODE": "Crossbucks",
        "REVISIONDA": "2016/07/26 00:00:00",
        "LASTUPDATE": "1/7/2026",
        "AADT": "143",
        "AADTYEAR": "2022",
        "STATENAME": "TEXAS",
        "STATEAB": "TX",
        "COUNTYNAME": "SAN SABA",
        "CITYNAME": "SAN SABA",
        "LATDD": 31.2010937,
        "LONGDD": -98.735728,
        "gridlyProductionCertified": true,
        "gridlyClassification": "PUBLIC_ROADWAY",
        "gridlyDisplayName": "CHINA CREEK RoaD",
        "gridlyId": "FRA-024735B"
      }
    }
  ]
}
