{
  "type": "FeatureCollection",
  "features": [
    {
      "type": "Feature",
      "id": 201161,
      "geometry": {
        "type": "Point",
        "coordinates": [
          -99.2160220002315,
          28.5166000000179
        ]
      },
      "properties": {
        "OBJECTID": 201161,
        "CROSSING": "973835Y",
        "EFFDATE": 1557792000000,
        "REASON": "22",
        "StateCode": "48",
        "CountyCode": "48283",
        "STCYFIPS": "48283",
        "CITYCD": "482831580",
        "RAILROAD": "UP",
        "RRDIV": "SOUTH TEXAS",
        "RRSUBDIV": "LAREDO SUB",
        "HIGHWAY": "TBD",
        "STREET": "I 35",
        "TTSTN": "",
        "MILEPOST": "0339.617",
        "TYPEXING": "Public",
        "POSXING": "RR Under",
        "PRVCAT": "22",
        "INIT": "1",
        "LATITUDE": 28.5166,
        "LONGITUD": -99.216022,
        "LLSOURCE": "1",
        "WHISTBAN": "",
        "RRCONT": "4025443721",
        "POLCONT": "8008488715",
        "INV_LINK": "https://safetydata.fra.dot.gov/OfficeofSafety/PublicSite/Crossing/Crossing.aspx?phasetype=C&rpttype=I&txtcrossingnum=973835Y",
        "ACC_LINK": "https://safetydata.fra.dot.gov/OfficeofSafety/PublicSite/Crossing/Crossing.aspx?phasetype=C&rpttype=A&txtcrossingnum=973835Y",
        "TTSTNNAM": "",
        "XPURPOSE": "1",
        "OPERATINGR": "UP",
        "OPERATIN_1": "Primary",
        "DAYTHRU": 0,
        "NGHTTHRU": 0,
        "MAINTRK": 1,
        "SIDINGTRK": 0,
        "YARDTRK": 0,
        "TRANSITTRK": 0,
        "INDUSTRYTR": 0,
        "OTHRTRK": 0,
        "WDCODE": "",
        "REVISIONDA": "1975/01/01 00:00:00",
        "LASTUPDATE": "5/14/2019",
        "AADT": "",
        "AADTYEAR": "",
        "STATENAME": "TEXAS",
        "STATEAB": "TX",
        "COUNTYNAME": "LA SALLE",
        "CITYNAME": "COTULLA",
        "LATDD": 28.5166,
        "LONGDD": -99.216022,
        "gridlyProductionCertified": true,
        "gridlyClassification": "PUBLIC_ROADWAY",
        "gridlyDisplayName": "I 35",
        "gridlyId": "FRA-973835Y"
      }
    },
    {
      "type": "Feature",
      "id": 201489,
      "geometry": {
        "type": "Point",
        "coordinates": [
          -99.2164271000005,
          28.5170931000204
        ]
      },
      "properties": {
        "OBJECTID": 201489,
        "CROSSING": "967923V",
        "EFFDATE": 1663027200000,
        "REASON": "20",
        "StateCode": "48",
        "CountyCode": "48283",
        "STCYFIPS": "48283",
        "CITYCD": "482831580",
        "RAILROAD": "GRD",
        "RRDIV": "#N\\A",
        "RRSUBDIV": "#N\\A",
        "HIGHWAY": "na",
        "STREET": "na",
        "TTSTN": "",
        "MILEPOST": "0000.00",
        "TYPEXING": "Private",
        "POSXING": "At Grade",
        "PRVCAT": "20",
        "INIT": "1",
        "LATITUDE": 28.5170931,
        "LONGITUD": -99.2164271,
        "LLSOURCE": "2",
        "WHISTBAN": "",
        "RRCONT": "8308794212",
        "POLCONT": "8308794212",
        "INV_LINK": "https://safetydata.fra.dot.gov/OfficeofSafety/PublicSite/Crossing/Crossing.aspx?phasetype=C&rpttype=I&txtcrossingnum=967923V",
        "ACC_LINK": "https://safetydata.fra.dot.gov/OfficeofSafety/PublicSite/Crossing/Crossing.aspx?phasetype=C&rpttype=A&txtcrossingnum=967923V",
        "TTSTNNAM": "na",
        "XPURPOSE": "1",
        "OPERATINGR": "GRD",
        "OPERATIN_1": "Primary",
        "DAYTHRU": 0,
        "NGHTTHRU": 0,
        "MAINTRK": 1,
        "SIDINGTRK": 0,
        "YARDTRK": 1,
        "TRANSITTRK": 0,
        "INDUSTRYTR": 0,
        "OTHRTRK": 0,
        "WDCODE": "",
        "REVISIONDA": "2010/01/01 00:00:00",
        "LASTUPDATE": "9/13/2022",
        "AADT": "",
        "AADTYEAR": "",
        "STATENAME": "TEXAS",
        "STATEAB": "TX",
        "COUNTYNAME": "LA SALLE",
        "CITYNAME": "COTULLA",
        "LATDD": 28.5170931,
        "LONGDD": -99.2164271,
        "gridlyProductionCertified": true,
        "gridlyClassification": "PUBLIC_ROADWAY",
        "gridlyDisplayName": "na",
        "gridlyId": "FRA-967923V"
      }
    },
    {
      "type": "Feature",
      "id": 202389,
      "geometry": {
        "type": "Point",
        "coordinates": [
          -99.1969501999127,
          28.5778772999852
        ]
      },
      "properties": {
        "OBJECTID": 202389,
        "CROSSING": "448979H",
        "EFFDATE": 1767744000000,
        "REASON": "14",
        "StateCode": "48",
        "CountyCode": "48283",
        "STCYFIPS": "48283",
        "CITYCD": "481631930",
        "RAILROAD": "UP",
        "RRDIV": "SOUTH TEXAS",
        "RRSUBDIV": "LAREDO SUB",
        "HIGHWAY": "FM0469",
        "STREET": "FM0469",
        "TTSTN": "698187",
        "MILEPOST": "0335.260",
        "TYPEXING": "Public",
        "POSXING": "At Grade",
        "PRVCAT": "14",
        "INIT": "2",
        "LATITUDE": 28.5778773,
        "LONGITUD": -99.1969502,
        "LLSOURCE": "1",
        "WHISTBAN": "0",
        "RRCONT": "4025443721",
        "POLCONT": "8008488715",
        "INV_LINK": "https://safetydata.fra.dot.gov/OfficeofSafety/PublicSite/Crossing/Crossing.aspx?phasetype=C&rpttype=I&txtcrossingnum=448979H",
        "ACC_LINK": "https://safetydata.fra.dot.gov/OfficeofSafety/PublicSite/Crossing/Crossing.aspx?phasetype=C&rpttype=A&txtcrossingnum=448979H",
        "TTSTNNAM": "",
        "XPURPOSE": "1",
        "OPERATINGR": "UP",
        "OPERATIN_1": "Primary",
        "DAYTHRU": 20,
        "NGHTTHRU": 20,
        "MAINTRK": 1,
        "SIDINGTRK": 0,
        "YARDTRK": 0,
        "TRANSITTRK": 0,
        "INDUSTRYTR": 0,
        "OTHRTRK": 0,
        "WDCODE": "All other Gates",
        "REVISIONDA": "1975/01/01 00:00:00",
        "LASTUPDATE": "1/7/2026",
        "AADT": "1036",
        "AADTYEAR": "2024",
        "STATENAME": "TEXAS",
        "STATEAB": "TX",
        "COUNTYNAME": "LA SALLE",
        "CITYNAME": "DILLEY",
        "LATDD": 28.5778773,
        "LONGDD": -99.1969502,
        "gridlyProductionCertified": true,
        "gridlyClassification": "PUBLIC_ROADWAY",
        "gridlyDisplayName": "FM0469",
        "gridlyId": "FRA-448979H"
      }
    },
    {
      "type": "Feature",
      "id": 202390,
      "geometry": {
        "type": "Point",
        "coordinates": [
          -99.1896288998044,
          28.6022213999996
        ]
      },
      "properties": {
        "OBJECTID": 202390,
        "CROSSING": "448977U",
        "EFFDATE": 1767744000000,
        "REASON": "14",
        "StateCode": "48",
        "CountyCode": "48283",
        "STCYFIPS": "48283",
        "CITYCD": "481631930",
        "RAILROAD": "UP",
        "RRDIV": "SOUTH TEXAS",
        "RRSUBDIV": "Laredo SUB",
        "HIGHWAY": "R0000",
        "STREET": "LEDWIG RANCH ROAD",
        "TTSTN": "698187",
        "MILEPOST": "0333.500",
        "TYPEXING": "Public",
        "POSXING": "At Grade",
        "PRVCAT": "14",
        "INIT": "2",
        "LATITUDE": 28.6022214,
        "LONGITUD": -99.1896289,
        "LLSOURCE": "1",
        "WHISTBAN": "0",
        "RRCONT": "4025443721",
        "POLCONT": "8008488715",
        "INV_LINK": "https://safetydata.fra.dot.gov/OfficeofSafety/PublicSite/Crossing/Crossing.aspx?phasetype=C&rpttype=I&txtcrossingnum=448977U",
        "ACC_LINK": "https://safetydata.fra.dot.gov/OfficeofSafety/PublicSite/Crossing/Crossing.aspx?phasetype=C&rpttype=A&txtcrossingnum=448977U",
        "TTSTNNAM": "",
        "XPURPOSE": "1",
        "OPERATINGR": "UP",
        "OPERATIN_1": "Primary",
        "DAYTHRU": 8,
        "NGHTTHRU": 8,
        "MAINTRK": 1,
        "SIDINGTRK": 0,
        "YARDTRK": 0,
        "TRANSITTRK": 0,
        "INDUSTRYTR": 0,
        "OTHRTRK": 0,
        "WDCODE": "Stop signs",
        "REVISIONDA": "1975/01/01 00:00:00",
        "LASTUPDATE": "1/7/2026",
        "AADT": "213",
        "AADTYEAR": "2023",
        "STATENAME": "TEXAS",
        "STATEAB": "TX",
        "COUNTYNAME": "LA SALLE",
        "CITYNAME": "DILLEY",
        "LATDD": 28.6022214,
        "LONGDD": -99.1896289,
        "gridlyProductionCertified": true,
        "gridlyClassification": "PUBLIC_ROADWAY",
        "gridlyDisplayName": "LEDWIG RANCH ROAD",
        "gridlyId": "FRA-448977U"
      }
    },
    {
      "type": "Feature",
      "id": 202391,
      "geometry": {
        "type": "Point",
        "coordinates": [
          -99.1790955997359,
          28.6372615001732
        ]
      },
      "properties": {
        "OBJECTID": 202391,
        "CROSSING": "448972K",
        "EFFDATE": 1767744000000,
        "REASON": "14",
        "StateCode": "48",
        "CountyCode": "48163",
        "STCYFIPS": "48163",
        "CITYCD": "481631930",
        "RAILROAD": "UP",
        "RRDIV": "SOUTH TEXAS",
        "RRSUBDIV": "LAREDO SUB",
        "HIGHWAY": "CR0000",
        "STREET": "VERGARA ROAD",
        "TTSTN": "698187",
        "MILEPOST": "0331.020",
        "TYPEXING": "Public",
        "POSXING": "At Grade",
        "PRVCAT": "14",
        "INIT": "2",
        "LATITUDE": 28.6372615,
        "LONGITUD": -99.1790956,
        "LLSOURCE": "1",
        "WHISTBAN": "0",
        "RRCONT": "4025443721",
        "POLCONT": "8008488715",
        "INV_LINK": "https://safetydata.fra.dot.gov/OfficeofSafety/PublicSite/Crossing/Crossing.aspx?phasetype=C&rpttype=I&txtcrossingnum=448972K",
        "ACC_LINK": "https://safetydata.fra.dot.gov/OfficeofSafety/PublicSite/Crossing/Crossing.aspx?phasetype=C&rpttype=A&txtcrossingnum=448972K",
        "TTSTNNAM": "",
        "XPURPOSE": "1",
        "OPERATINGR": "UP",
        "OPERATIN_1": "Primary",
        "DAYTHRU": 8,
        "NGHTTHRU": 8,
        "MAINTRK": 1,
        "SIDINGTRK": 0,
        "YARDTRK": 0,
        "TRANSITTRK": 0,
        "INDUSTRYTR": 0,
        "OTHRTRK": 0,
        "WDCODE": "All other Gates",
        "REVISIONDA": "1975/01/01 00:00:00",
        "LASTUPDATE": "1/7/2026",
        "AADT": "25",
        "AADTYEAR": "2023",
        "STATENAME": "TEXAS",
        "STATEAB": "TX",
        "COUNTYNAME": "FRIO",
        "CITYNAME": "DILLEY",
        "LATDD": 28.6372615,
        "LONGDD": -99.1790956,
        "gridlyProductionCertified": true,
        "gridlyClassification": "PUBLIC_ROADWAY",
        "gridlyDisplayName": "VERGARA ROAD",
        "gridlyId": "FRA-448972K"
      }
    },
    {
      "type": "Feature",
      "id": 202737,
      "geometry": {
        "type": "Point",
        "coordinates": [
          -99.2331987002539,
          28.432466800189
        ]
      },
      "properties": {
        "OBJECTID": 202737,
        "CROSSING": "448998M",
        "EFFDATE": 1776038400000,
        "REASON": "22",
        "StateCode": "48",
        "CountyCode": "48283",
        "STCYFIPS": "48283",
        "CITYCD": "482831580",
        "RAILROAD": "UP",
        "RRDIV": "SOUTH TEXAS",
        "RRSUBDIV": "LAREDO SUB",
        "HIGHWAY": "LS0000",
        "STREET": "NORTH FRONT STREET / JOHNSTON ST",
        "TTSTN": "698650",
        "MILEPOST": "0345.510",
        "TYPEXING": "Public",
        "POSXING": "At Grade",
        "PRVCAT": "22",
        "INIT": "1",
        "LATITUDE": 28.4324668,
        "LONGITUD": -99.2331987,
        "LLSOURCE": "1",
        "WHISTBAN": "0",
        "RRCONT": "4025443721",
        "POLCONT": "8008488715",
        "INV_LINK": "https://safetydata.fra.dot.gov/OfficeofSafety/PublicSite/Crossing/Crossing.aspx?phasetype=C&rpttype=I&txtcrossingnum=448998M",
        "ACC_LINK": "https://safetydata.fra.dot.gov/OfficeofSafety/PublicSite/Crossing/Crossing.aspx?phasetype=C&rpttype=A&txtcrossingnum=448998M",
        "TTSTNNAM": "",
        "XPURPOSE": "1",
        "OPERATINGR": "UP",
        "OPERATIN_1": "Primary",
        "DAYTHRU": 8,
        "NGHTTHRU": 7,
        "MAINTRK": 1,
        "SIDINGTRK": 0,
        "YARDTRK": 0,
        "TRANSITTRK": 0,
        "INDUSTRYTR": 0,
        "OTHRTRK": 0,
        "WDCODE": "All other Gates",
        "REVISIONDA": "1975/01/01 00:00:00",
        "LASTUPDATE": "4/13/2026",
        "AADT": "1539",
        "AADTYEAR": "2023",
        "STATENAME": "TEXAS",
        "STATEAB": "TX",
        "COUNTYNAME": "LA SALLE",
        "CITYNAME": "COTULLA",
        "LATDD": 28.4324668,
        "LONGDD": -99.2331987,
        "gridlyProductionCertified": true,
        "gridlyClassification": "PUBLIC_ROADWAY",
        "gridlyDisplayName": "NORTH FRONT STREET / JOHNSTON ST",
        "gridlyId": "FRA-448998M"
      }
    },
    {
      "type": "Feature",
      "id": 206660,
      "geometry": {
        "type": "Point",
        "coordinates": [
          -99.2356247003917,
          28.4480047996795
        ]
      },
      "properties": {
        "OBJECTID": 206660,
        "CROSSING": "448994K",
        "EFFDATE": 1756684800000,
        "REASON": "14",
        "StateCode": "48",
        "CountyCode": "48283",
        "STCYFIPS": "48283",
        "CITYCD": "482831580",
        "RAILROAD": "UP",
        "RRDIV": "SOUTH TEXAS",
        "RRSUBDIV": "LAREDO SUB",
        "HIGHWAY": "NA",
        "STREET": "PRIVATE",
        "TTSTN": "698633",
        "MILEPOST": "0344.460",
        "TYPEXING": "Private",
        "POSXING": "At Grade",
        "PRVCAT": "14",
        "INIT": "1",
        "LATITUDE": 28.4480048,
        "LONGITUD": -99.2356247,
        "LLSOURCE": "1",
        "WHISTBAN": "0",
        "RRCONT": "4025443721",
        "POLCONT": "8008488715",
        "INV_LINK": "https://safetydata.fra.dot.gov/OfficeofSafety/PublicSite/Crossing/Crossing.aspx?phasetype=C&rpttype=I&txtcrossingnum=448994K",
        "ACC_LINK": "https://safetydata.fra.dot.gov/OfficeofSafety/PublicSite/Crossing/Crossing.aspx?phasetype=C&rpttype=A&txtcrossingnum=448994K",
        "TTSTNNAM": "",
        "XPURPOSE": "1",
        "OPERATINGR": "UP",
        "OPERATIN_1": "Primary",
        "DAYTHRU": 8,
        "NGHTTHRU": 7,
        "MAINTRK": 1,
        "SIDINGTRK": 0,
        "YARDTRK": 0,
        "TRANSITTRK": 0,
        "INDUSTRYTR": 0,
        "OTHRTRK": 0,
        "WDCODE": "",
        "REVISIONDA": "1975/01/01 00:00:00",
        "LASTUPDATE": "9/1/2025",
        "AADT": "1",
        "AADTYEAR": "1990",
        "STATENAME": "TEXAS",
        "STATEAB": "TX",
        "COUNTYNAME": "LA SALLE",
        "CITYNAME": "COTULLA",
        "LATDD": 28.4480048,
        "LONGDD": -99.2356247,
        "gridlyProductionCertified": true,
        "gridlyClassification": "PUBLIC_ROADWAY",
        "gridlyDisplayName": "PRIVATE",
        "gridlyId": "FRA-448994K"
      }
    },
    {
      "type": "Feature",
      "id": 206661,
      "geometry": {
        "type": "Point",
        "coordinates": [
          -99.2079499995999,
          28.5413323996058
        ]
      },
      "properties": {
        "OBJECTID": 206661,
        "CROSSING": "448983X",
        "EFFDATE": 1756684800000,
        "REASON": "14",
        "StateCode": "48",
        "CountyCode": "48283",
        "STCYFIPS": "48283",
        "CITYCD": "482831580",
        "RAILROAD": "UP",
        "RRDIV": "SOUTH TEXAS",
        "RRSUBDIV": "Laredo SUB",
        "HIGHWAY": "TBD",
        "STREET": "TAYLOR ROAD",
        "TTSTN": "698633",
        "MILEPOST": "0337.860",
        "TYPEXING": "Private",
        "POSXING": "At Grade",
        "PRVCAT": "14",
        "INIT": "1",
        "LATITUDE": 28.5413324,
        "LONGITUD": -99.20795,
        "LLSOURCE": "1",
        "WHISTBAN": "0",
        "RRCONT": "4025443721",
        "POLCONT": "8008488715",
        "INV_LINK": "https://safetydata.fra.dot.gov/OfficeofSafety/PublicSite/Crossing/Crossing.aspx?phasetype=C&rpttype=I&txtcrossingnum=448983X",
        "ACC_LINK": "https://safetydata.fra.dot.gov/OfficeofSafety/PublicSite/Crossing/Crossing.aspx?phasetype=C&rpttype=A&txtcrossingnum=448983X",
        "TTSTNNAM": "",
        "XPURPOSE": "1",
        "OPERATINGR": "UP",
        "OPERATIN_1": "Primary",
        "DAYTHRU": 8,
        "NGHTTHRU": 8,
        "MAINTRK": 1,
        "SIDINGTRK": 0,
        "YARDTRK": 0,
        "TRANSITTRK": 0,
        "INDUSTRYTR": 0,
        "OTHRTRK": 0,
        "WDCODE": "",
        "REVISIONDA": "1975/01/01 00:00:00",
        "LASTUPDATE": "9/1/2025",
        "AADT": "1",
        "AADTYEAR": "1990",
        "STATENAME": "TEXAS",
        "STATEAB": "TX",
        "COUNTYNAME": "LA SALLE",
        "CITYNAME": "COTULLA",
        "LATDD": 28.5413324,
        "LONGDD": -99.20795,
        "gridlyProductionCertified": true,
        "gridlyClassification": "PUBLIC_ROADWAY",
        "gridlyDisplayName": "TAYLOR ROAD",
        "gridlyId": "FRA-448983X"
      }
    },
    {
      "type": "Feature",
      "id": 210868,
      "geometry": {
        "type": "Point",
        "coordinates": [
          -99.2315959997858,
          28.4626289997579
        ]
      },
      "properties": {
        "OBJECTID": 210868,
        "CROSSING": "440850D",
        "EFFDATE": 1756339200000,
        "REASON": "14",
        "StateCode": "48",
        "CountyCode": "48283",
        "STCYFIPS": "48283",
        "CITYCD": "482831580",
        "RAILROAD": "UP",
        "RRDIV": "South Texas",
        "RRSUBDIV": "Laredo Sub",
        "HIGHWAY": "TBD",
        "STREET": "Cotulla Truck Relief Route",
        "TTSTN": "",
        "MILEPOST": "0343.430",
        "TYPEXING": "Public",
        "POSXING": "RR Under",
        "PRVCAT": "14",
        "INIT": "1",
        "LATITUDE": 28.462629,
        "LONGITUD": -99.231596,
        "LLSOURCE": "1",
        "WHISTBAN": "",
        "RRCONT": "4025443721",
        "POLCONT": "8008488715",
        "INV_LINK": "https://safetydata.fra.dot.gov/OfficeofSafety/PublicSite/Crossing/Crossing.aspx?phasetype=C&rpttype=I&txtcrossingnum=440850D",
        "ACC_LINK": "https://safetydata.fra.dot.gov/OfficeofSafety/PublicSite/Crossing/Crossing.aspx?phasetype=C&rpttype=A&txtcrossingnum=440850D",
        "TTSTNNAM": "",
        "XPURPOSE": "1",
        "OPERATINGR": "UP",
        "OPERATIN_1": "Primary",
        "DAYTHRU": 7,
        "NGHTTHRU": 7,
        "MAINTRK": 1,
        "SIDINGTRK": 0,
        "YARDTRK": 0,
        "TRANSITTRK": 0,
        "INDUSTRYTR": 0,
        "OTHRTRK": 0,
        "WDCODE": "",
        "REVISIONDA": "1975/01/01 00:00:00",
        "LASTUPDATE": "8/28/2025",
        "AADT": "",
        "AADTYEAR": "",
        "STATENAME": "TEXAS",
        "STATEAB": "TX",
        "COUNTYNAME": "LA SALLE",
        "CITYNAME": "COTULLA",
        "LATDD": 28.462629,
        "LONGDD": -99.231596,
        "gridlyProductionCertified": true,
        "gridlyClassification": "PUBLIC_ROADWAY",
        "gridlyDisplayName": "Cotulla Truck Relief Route",
        "gridlyId": "FRA-440850D"
      }
    },
    {
      "type": "Feature",
      "id": 210892,
      "geometry": {
        "type": "Point",
        "coordinates": [
          -99.2707513001644,
          28.3515379999164
        ]
      },
      "properties": {
        "OBJECTID": 210892,
        "CROSSING": "447849H",
        "EFFDATE": 1756339200000,
        "REASON": "14",
        "StateCode": "48",
        "CountyCode": "48283",
        "STCYFIPS": "48283",
        "CITYCD": "482831580",
        "RAILROAD": "UP",
        "RRDIV": "SOUTH TEXAS",
        "RRSUBDIV": "LAREDO SUB",
        "HIGHWAY": "NA",
        "STREET": "PRIVATE",
        "TTSTN": "698650",
        "MILEPOST": "0351.680",
        "TYPEXING": "Private",
        "POSXING": "At Grade",
        "PRVCAT": "14",
        "INIT": "1",
        "LATITUDE": 28.351538,
        "LONGITUD": -99.2707513,
        "LLSOURCE": "1",
        "WHISTBAN": "0",
        "RRCONT": "4025443721",
        "POLCONT": "8008488715",
        "INV_LINK": "https://safetydata.fra.dot.gov/OfficeofSafety/PublicSite/Crossing/Crossing.aspx?phasetype=C&rpttype=I&txtcrossingnum=447849H",
        "ACC_LINK": "https://safetydata.fra.dot.gov/OfficeofSafety/PublicSite/Crossing/Crossing.aspx?phasetype=C&rpttype=A&txtcrossingnum=447849H",
        "TTSTNNAM": "",
        "XPURPOSE": "1",
        "OPERATINGR": "UP",
        "OPERATIN_1": "Primary",
        "DAYTHRU": 8,
        "NGHTTHRU": 7,
        "MAINTRK": 1,
        "SIDINGTRK": 0,
        "YARDTRK": 0,
        "TRANSITTRK": 0,
        "INDUSTRYTR": 0,
        "OTHRTRK": 0,
        "WDCODE": "",
        "REVISIONDA": "1975/01/01 00:00:00",
        "LASTUPDATE": "8/28/2025",
        "AADT": "1",
        "AADTYEAR": "1990",
        "STATENAME": "TEXAS",
        "STATEAB": "TX",
        "COUNTYNAME": "LA SALLE",
        "CITYNAME": "COTULLA",
        "LATDD": 28.351538,
        "LONGDD": -99.2707513,
        "gridlyProductionCertified": true,
        "gridlyClassification": "PUBLIC_ROADWAY",
        "gridlyDisplayName": "PRIVATE",
        "gridlyId": "FRA-447849H"
      }
    },
    {
      "type": "Feature",
      "id": 210893,
      "geometry": {
        "type": "Point",
        "coordinates": [
          -99.2715091997865,
          28.3414767997979
        ]
      },
      "properties": {
        "OBJECTID": 210893,
        "CROSSING": "447850C",
        "EFFDATE": 1756339200000,
        "REASON": "14",
        "StateCode": "48",
        "CountyCode": "48283",
        "STCYFIPS": "48283",
        "CITYCD": "482831580",
        "RAILROAD": "UP",
        "RRDIV": "SOUTH TEXAS",
        "RRSUBDIV": "LAREDO SUB",
        "HIGHWAY": "NA",
        "STREET": "PRIVATE",
        "TTSTN": "698650",
        "MILEPOST": "0352.390",
        "TYPEXING": "Private",
        "POSXING": "At Grade",
        "PRVCAT": "14",
        "INIT": "1",
        "LATITUDE": 28.3414768,
        "LONGITUD": -99.2715092,
        "LLSOURCE": "1",
        "WHISTBAN": "0",
        "RRCONT": "4025443721",
        "POLCONT": "8008488715",
        "INV_LINK": "https://safetydata.fra.dot.gov/OfficeofSafety/PublicSite/Crossing/Crossing.aspx?phasetype=C&rpttype=I&txtcrossingnum=447850C",
        "ACC_LINK": "https://safetydata.fra.dot.gov/OfficeofSafety/PublicSite/Crossing/Crossing.aspx?phasetype=C&rpttype=A&txtcrossingnum=447850C",
        "TTSTNNAM": "",
        "XPURPOSE": "1",
        "OPERATINGR": "UP",
        "OPERATIN_1": "Primary",
        "DAYTHRU": 8,
        "NGHTTHRU": 7,
        "MAINTRK": 1,
        "SIDINGTRK": 0,
        "YARDTRK": 0,
        "TRANSITTRK": 0,
        "INDUSTRYTR": 0,
        "OTHRTRK": 0,
        "WDCODE": "",
        "REVISIONDA": "1975/01/01 00:00:00",
        "LASTUPDATE": "8/28/2025",
        "AADT": "1",
        "AADTYEAR": "1990",
        "STATENAME": "TEXAS",
        "STATEAB": "TX",
        "COUNTYNAME": "LA SALLE",
        "CITYNAME": "COTULLA",
        "LATDD": 28.3414768,
        "LONGDD": -99.2715092,
        "gridlyProductionCertified": true,
        "gridlyClassification": "PUBLIC_ROADWAY",
        "gridlyDisplayName": "PRIVATE",
        "gridlyId": "FRA-447850C"
      }
    },
    {
      "type": "Feature",
      "id": 210894,
      "geometry": {
        "type": "Point",
        "coordinates": [
          -99.2730543999915,
          28.3210803998363
        ]
      },
      "properties": {
        "OBJECTID": 210894,
        "CROSSING": "447851J",
        "EFFDATE": 1756339200000,
        "REASON": "14",
        "StateCode": "48",
        "CountyCode": "48283",
        "STCYFIPS": "48283",
        "CITYCD": "482831580",
        "RAILROAD": "UP",
        "RRDIV": "SOUTH TEXAS",
        "RRSUBDIV": "LAREDO SUB",
        "HIGHWAY": "NA",
        "STREET": "PRIVATE",
        "TTSTN": "698650",
        "MILEPOST": "0353.800",
        "TYPEXING": "Private",
        "POSXING": "At Grade",
        "PRVCAT": "14",
        "INIT": "1",
        "LATITUDE": 28.3210804,
        "LONGITUD": -99.2730544,
        "LLSOURCE": "1",
        "WHISTBAN": "0",
        "RRCONT": "4025443721",
        "POLCONT": "8008488715",
        "INV_LINK": "https://safetydata.fra.dot.gov/OfficeofSafety/PublicSite/Crossing/Crossing.aspx?phasetype=C&rpttype=I&txtcrossingnum=447851J",
        "ACC_LINK": "https://safetydata.fra.dot.gov/OfficeofSafety/PublicSite/Crossing/Crossing.aspx?phasetype=C&rpttype=A&txtcrossingnum=447851J",
        "TTSTNNAM": "",
        "XPURPOSE": "1",
        "OPERATINGR": "UP",
        "OPERATIN_1": "Primary",
        "DAYTHRU": 8,
        "NGHTTHRU": 7,
        "MAINTRK": 1,
        "SIDINGTRK": 0,
        "YARDTRK": 0,
        "TRANSITTRK": 0,
        "INDUSTRYTR": 0,
        "OTHRTRK": 0,
        "WDCODE": "",
        "REVISIONDA": "1975/01/01 00:00:00",
        "LASTUPDATE": "8/28/2025",
        "AADT": "1",
        "AADTYEAR": "1990",
        "STATENAME": "TEXAS",
        "STATEAB": "TX",
        "COUNTYNAME": "LA SALLE",
        "CITYNAME": "COTULLA",
        "LATDD": 28.3210804,
        "LONGDD": -99.2730544,
        "gridlyProductionCertified": true,
        "gridlyClassification": "PUBLIC_ROADWAY",
        "gridlyDisplayName": "PRIVATE",
        "gridlyId": "FRA-447851J"
      }
    },
    {
      "type": "Feature",
      "id": 210895,
      "geometry": {
        "type": "Point",
        "coordinates": [
          -99.2920442002945,
          28.256462199803
        ]
      },
      "properties": {
        "OBJECTID": 210895,
        "CROSSING": "447856T",
        "EFFDATE": 1756339200000,
        "REASON": "14",
        "StateCode": "48",
        "CountyCode": "48283",
        "STCYFIPS": "48283",
        "CITYCD": "482830275",
        "RAILROAD": "UP",
        "RRDIV": "SOUTH TEXAS",
        "RRSUBDIV": "LAREDO SUB",
        "HIGHWAY": "NA",
        "STREET": "PRIVATE",
        "TTSTN": "698693",
        "MILEPOST": "0358.370",
        "TYPEXING": "Private",
        "POSXING": "At Grade",
        "PRVCAT": "14",
        "INIT": "1",
        "LATITUDE": 28.2564622,
        "LONGITUD": -99.2920442,
        "LLSOURCE": "1",
        "WHISTBAN": "0",
        "RRCONT": "4025443721",
        "POLCONT": "8008488715",
        "INV_LINK": "https://safetydata.fra.dot.gov/OfficeofSafety/PublicSite/Crossing/Crossing.aspx?phasetype=C&rpttype=I&txtcrossingnum=447856T",
        "ACC_LINK": "https://safetydata.fra.dot.gov/OfficeofSafety/PublicSite/Crossing/Crossing.aspx?phasetype=C&rpttype=A&txtcrossingnum=447856T",
        "TTSTNNAM": "",
        "XPURPOSE": "1",
        "OPERATINGR": "UP",
        "OPERATIN_1": "Primary",
        "DAYTHRU": 8,
        "NGHTTHRU": 7,
        "MAINTRK": 1,
        "SIDINGTRK": 0,
        "YARDTRK": 0,
        "TRANSITTRK": 0,
        "INDUSTRYTR": 0,
        "OTHRTRK": 0,
        "WDCODE": "",
        "REVISIONDA": "1975/01/01 00:00:00",
        "LASTUPDATE": "8/28/2025",
        "AADT": "1",
        "AADTYEAR": "1990",
        "STATENAME": "TEXAS",
        "STATEAB": "TX",
        "COUNTYNAME": "LA SALLE",
        "CITYNAME": "ARTESIA WELLS",
        "LATDD": 28.2564622,
        "LONGDD": -99.2920442,
        "gridlyProductionCertified": true,
        "gridlyClassification": "PUBLIC_ROADWAY",
        "gridlyDisplayName": "PRIVATE",
        "gridlyId": "FRA-447856T"
      }
    },
    {
      "type": "Feature",
      "id": 210896,
      "geometry": {
        "type": "Point",
        "coordinates": [
          -99.2969574998084,
          28.2404156002877
        ]
      },
      "properties": {
        "OBJECTID": 210896,
        "CROSSING": "447858G",
        "EFFDATE": 1756339200000,
        "REASON": "14",
        "StateCode": "48",
        "CountyCode": "48283",
        "STCYFIPS": "48283",
        "CITYCD": "482830275",
        "RAILROAD": "UP",
        "RRDIV": "SOUTH TEXAS",
        "RRSUBDIV": "LAREDO SUB",
        "HIGHWAY": "NA",
        "STREET": "PRIVATE",
        "TTSTN": "698693",
        "MILEPOST": "0359.530",
        "TYPEXING": "Private",
        "POSXING": "At Grade",
        "PRVCAT": "14",
        "INIT": "1",
        "LATITUDE": 28.2404156,
        "LONGITUD": -99.2969575,
        "LLSOURCE": "1",
        "WHISTBAN": "0",
        "RRCONT": "4025443721",
        "POLCONT": "8008488715",
        "INV_LINK": "https://safetydata.fra.dot.gov/OfficeofSafety/PublicSite/Crossing/Crossing.aspx?phasetype=C&rpttype=I&txtcrossingnum=447858G",
        "ACC_LINK": "https://safetydata.fra.dot.gov/OfficeofSafety/PublicSite/Crossing/Crossing.aspx?phasetype=C&rpttype=A&txtcrossingnum=447858G",
        "TTSTNNAM": "",
        "XPURPOSE": "1",
        "OPERATINGR": "UP",
        "OPERATIN_1": "Primary",
        "DAYTHRU": 8,
        "NGHTTHRU": 7,
        "MAINTRK": 1,
        "SIDINGTRK": 0,
        "YARDTRK": 0,
        "TRANSITTRK": 0,
        "INDUSTRYTR": 0,
        "OTHRTRK": 0,
        "WDCODE": "",
        "REVISIONDA": "1975/01/01 00:00:00",
        "LASTUPDATE": "8/28/2025",
        "AADT": "10",
        "AADTYEAR": "1988",
        "STATENAME": "TEXAS",
        "STATEAB": "TX",
        "COUNTYNAME": "LA SALLE",
        "CITYNAME": "ARTESIA WELLS",
        "LATDD": 28.2404156,
        "LONGDD": -99.2969575,
        "gridlyProductionCertified": true,
        "gridlyClassification": "PUBLIC_ROADWAY",
        "gridlyDisplayName": "PRIVATE",
        "gridlyId": "FRA-447858G"
      }
    },
    {
      "type": "Feature",
      "id": 210897,
      "geometry": {
        "type": "Point",
        "coordinates": [
          -99.3076199003597,
          28.205572999868
        ]
      },
      "properties": {
        "OBJECTID": 210897,
        "CROSSING": "447859N",
        "EFFDATE": 1756339200000,
        "REASON": "14",
        "StateCode": "48",
        "CountyCode": "48283",
        "STCYFIPS": "48283",
        "CITYCD": "482830275",
        "RAILROAD": "UP",
        "RRDIV": "SOUTH TEXAS",
        "RRSUBDIV": "LAREDO SUB",
        "HIGHWAY": "NA",
        "STREET": "PRIVATE",
        "TTSTN": "698693",
        "MILEPOST": "0361.990",
        "TYPEXING": "Private",
        "POSXING": "At Grade",
        "PRVCAT": "14",
        "INIT": "1",
        "LATITUDE": 28.205573,
        "LONGITUD": -99.3076199,
        "LLSOURCE": "1",
        "WHISTBAN": "0",
        "RRCONT": "4025443721",
        "POLCONT": "8008488715",
        "INV_LINK": "https://safetydata.fra.dot.gov/OfficeofSafety/PublicSite/Crossing/Crossing.aspx?phasetype=C&rpttype=I&txtcrossingnum=447859N",
        "ACC_LINK": "https://safetydata.fra.dot.gov/OfficeofSafety/PublicSite/Crossing/Crossing.aspx?phasetype=C&rpttype=A&txtcrossingnum=447859N",
        "TTSTNNAM": "",
        "XPURPOSE": "1",
        "OPERATINGR": "UP",
        "OPERATIN_1": "Primary",
        "DAYTHRU": 8,
        "NGHTTHRU": 7,
        "MAINTRK": 1,
        "SIDINGTRK": 0,
        "YARDTRK": 0,
        "TRANSITTRK": 0,
        "INDUSTRYTR": 0,
        "OTHRTRK": 0,
        "WDCODE": "",
        "REVISIONDA": "1975/01/01 00:00:00",
        "LASTUPDATE": "8/28/2025",
        "AADT": "1",
        "AADTYEAR": "1990",
        "STATENAME": "TEXAS",
        "STATEAB": "TX",
        "COUNTYNAME": "LA SALLE",
        "CITYNAME": "ARTESIA WELLS",
        "LATDD": 28.205573,
        "LONGDD": -99.3076199,
        "gridlyProductionCertified": true,
        "gridlyClassification": "PUBLIC_ROADWAY",
        "gridlyDisplayName": "PRIVATE",
        "gridlyId": "FRA-447859N"
      }
    },
    {
      "type": "Feature",
      "id": 210898,
      "geometry": {
        "type": "Point",
        "coordinates": [
          -99.3198414995631,
          28.1707334002857
        ]
      },
      "properties": {
        "OBJECTID": 210898,
        "CROSSING": "447860H",
        "EFFDATE": 1756339200000,
        "REASON": "14",
        "StateCode": "48",
        "CountyCode": "48283",
        "STCYFIPS": "48283",
        "CITYCD": "482830275",
        "RAILROAD": "UP",
        "RRDIV": "SOUTH TEXAS",
        "RRSUBDIV": "LAREDO SUB",
        "HIGHWAY": "NA",
        "STREET": "PRIVATE",
        "TTSTN": "698693",
        "MILEPOST": "0364.480",
        "TYPEXING": "Private",
        "POSXING": "At Grade",
        "PRVCAT": "14",
        "INIT": "1",
        "LATITUDE": 28.1707334,
        "LONGITUD": -99.3198415,
        "LLSOURCE": "1",
        "WHISTBAN": "0",
        "RRCONT": "4025443721",
        "POLCONT": "8008488715",
        "INV_LINK": "https://safetydata.fra.dot.gov/OfficeofSafety/PublicSite/Crossing/Crossing.aspx?phasetype=C&rpttype=I&txtcrossingnum=447860H",
        "ACC_LINK": "https://safetydata.fra.dot.gov/OfficeofSafety/PublicSite/Crossing/Crossing.aspx?phasetype=C&rpttype=A&txtcrossingnum=447860H",
        "TTSTNNAM": "",
        "XPURPOSE": "1",
        "OPERATINGR": "UP",
        "OPERATIN_1": "Primary",
        "DAYTHRU": 8,
        "NGHTTHRU": 7,
        "MAINTRK": 1,
        "SIDINGTRK": 0,
        "YARDTRK": 0,
        "TRANSITTRK": 0,
        "INDUSTRYTR": 0,
        "OTHRTRK": 0,
        "WDCODE": "",
        "REVISIONDA": "1975/01/01 00:00:00",
        "LASTUPDATE": "8/28/2025",
        "AADT": "1",
        "AADTYEAR": "1990",
        "STATENAME": "TEXAS",
        "STATEAB": "TX",
        "COUNTYNAME": "LA SALLE",
        "CITYNAME": "ARTESIA WELLS",
        "LATDD": 28.1707334,
        "LONGDD": -99.3198415,
        "gridlyProductionCertified": true,
        "gridlyClassification": "PUBLIC_ROADWAY",
        "gridlyDisplayName": "PRIVATE",
        "gridlyId": "FRA-447860H"
      }
    },
    {
      "type": "Feature",
      "id": 210899,
      "geometry": {
        "type": "Point",
        "coordinates": [
          -99.3256753000536,
          28.154738000362
        ]
      },
      "properties": {
        "OBJECTID": 210899,
        "CROSSING": "447861P",
        "EFFDATE": 1756339200000,
        "REASON": "14",
        "StateCode": "48",
        "CountyCode": "48283",
        "STCYFIPS": "48283",
        "CITYCD": "482830275",
        "RAILROAD": "UP",
        "RRDIV": "SOUTH TEXAS",
        "RRSUBDIV": "LAREDO SUB",
        "HIGHWAY": "NA",
        "STREET": "PRIVATE",
        "TTSTN": "698693",
        "MILEPOST": "0365.640",
        "TYPEXING": "Private",
        "POSXING": "At Grade",
        "PRVCAT": "14",
        "INIT": "1",
        "LATITUDE": 28.154738,
        "LONGITUD": -99.3256753,
        "LLSOURCE": "1",
        "WHISTBAN": "0",
        "RRCONT": "4025443721",
        "POLCONT": "8008488715",
        "INV_LINK": "https://safetydata.fra.dot.gov/OfficeofSafety/PublicSite/Crossing/Crossing.aspx?phasetype=C&rpttype=I&txtcrossingnum=447861P",
        "ACC_LINK": "https://safetydata.fra.dot.gov/OfficeofSafety/PublicSite/Crossing/Crossing.aspx?phasetype=C&rpttype=A&txtcrossingnum=447861P",
        "TTSTNNAM": "",
        "XPURPOSE": "1",
        "OPERATINGR": "UP",
        "OPERATIN_1": "Primary",
        "DAYTHRU": 8,
        "NGHTTHRU": 7,
        "MAINTRK": 1,
        "SIDINGTRK": 0,
        "YARDTRK": 0,
        "TRANSITTRK": 0,
        "INDUSTRYTR": 0,
        "OTHRTRK": 0,
        "WDCODE": "",
        "REVISIONDA": "1975/01/01 00:00:00",
        "LASTUPDATE": "8/28/2025",
        "AADT": "1",
        "AADTYEAR": "1990",
        "STATENAME": "TEXAS",
        "STATEAB": "TX",
        "COUNTYNAME": "LA SALLE",
        "CITYNAME": "ARTESIA WELLS",
        "LATDD": 28.154738,
        "LONGDD": -99.3256753,
        "gridlyProductionCertified": true,
        "gridlyClassification": "PUBLIC_ROADWAY",
        "gridlyDisplayName": "PRIVATE",
        "gridlyId": "FRA-447861P"
      }
    },
    {
      "type": "Feature",
      "id": 210900,
      "geometry": {
        "type": "Point",
        "coordinates": [
          -99.3268608004459,
          28.1334666001685
        ]
      },
      "properties": {
        "OBJECTID": 210900,
        "CROSSING": "447862W",
        "EFFDATE": 1756339200000,
        "REASON": "14",
        "StateCode": "48",
        "CountyCode": "48283",
        "STCYFIPS": "48283",
        "CITYCD": "482830275",
        "RAILROAD": "UP",
        "RRDIV": "SOUTH TEXAS",
        "RRSUBDIV": "LAREDO SUB",
        "HIGHWAY": "NA",
        "STREET": "PRIVATE",
        "TTSTN": "698693",
        "MILEPOST": "0367.150",
        "TYPEXING": "Private",
        "POSXING": "At Grade",
        "PRVCAT": "14",
        "INIT": "1",
        "LATITUDE": 28.1334666,
        "LONGITUD": -99.3268608,
        "LLSOURCE": "1",
        "WHISTBAN": "0",
        "RRCONT": "4025443721",
        "POLCONT": "8008488715",
        "INV_LINK": "https://safetydata.fra.dot.gov/OfficeofSafety/PublicSite/Crossing/Crossing.aspx?phasetype=C&rpttype=I&txtcrossingnum=447862W",
        "ACC_LINK": "https://safetydata.fra.dot.gov/OfficeofSafety/PublicSite/Crossing/Crossing.aspx?phasetype=C&rpttype=A&txtcrossingnum=447862W",
        "TTSTNNAM": "",
        "XPURPOSE": "1",
        "OPERATINGR": "UP",
        "OPERATIN_1": "Primary",
        "DAYTHRU": 8,
        "NGHTTHRU": 7,
        "MAINTRK": 1,
        "SIDINGTRK": 0,
        "YARDTRK": 0,
        "TRANSITTRK": 0,
        "INDUSTRYTR": 0,
        "OTHRTRK": 0,
        "WDCODE": "",
        "REVISIONDA": "1975/01/01 00:00:00",
        "LASTUPDATE": "8/28/2025",
        "AADT": "1",
        "AADTYEAR": "1990",
        "STATENAME": "TEXAS",
        "STATEAB": "TX",
        "COUNTYNAME": "LA SALLE",
        "CITYNAME": "ARTESIA WELLS",
        "LATDD": 28.1334666,
        "LONGDD": -99.3268608,
        "gridlyProductionCertified": true,
        "gridlyClassification": "PUBLIC_ROADWAY",
        "gridlyDisplayName": "PRIVATE",
        "gridlyId": "FRA-447862W"
      }
    },
    {
      "type": "Feature",
      "id": 210904,
      "geometry": {
        "type": "Point",
        "coordinates": [
          -99.2734040000456,
          28.3174640001332
        ]
      },
      "properties": {
        "OBJECTID": 210904,
        "CROSSING": "447852R",
        "EFFDATE": 1756339200000,
        "REASON": "14",
        "StateCode": "48",
        "CountyCode": "48283",
        "STCYFIPS": "48283",
        "CITYCD": "482831580",
        "RAILROAD": "UP",
        "RRDIV": "SOUTH TEXAS",
        "RRSUBDIV": "LAREDO SUB",
        "HIGHWAY": "IH 0035",
        "STREET": "I 35",
        "TTSTN": "698650",
        "MILEPOST": "0354.040",
        "TYPEXING": "Public",
        "POSXING": "RR Under",
        "PRVCAT": "14",
        "INIT": "1",
        "LATITUDE": 28.317464,
        "LONGITUD": -99.273404,
        "LLSOURCE": "1",
        "WHISTBAN": "0",
        "RRCONT": "4025443721",
        "POLCONT": "8008488715",
        "INV_LINK": "https://safetydata.fra.dot.gov/OfficeofSafety/PublicSite/Crossing/Crossing.aspx?phasetype=C&rpttype=I&txtcrossingnum=447852R",
        "ACC_LINK": "https://safetydata.fra.dot.gov/OfficeofSafety/PublicSite/Crossing/Crossing.aspx?phasetype=C&rpttype=A&txtcrossingnum=447852R",
        "TTSTNNAM": "",
        "XPURPOSE": "1",
        "OPERATINGR": "UP",
        "OPERATIN_1": "Primary",
        "DAYTHRU": 7,
        "NGHTTHRU": 7,
        "MAINTRK": 1,
        "SIDINGTRK": 0,
        "YARDTRK": 0,
        "TRANSITTRK": 0,
        "INDUSTRYTR": 0,
        "OTHRTRK": 0,
        "WDCODE": "",
        "REVISIONDA": "1975/01/01 00:00:00",
        "LASTUPDATE": "8/28/2025",
        "AADT": "14150",
        "AADTYEAR": "2011",
        "STATENAME": "TEXAS",
        "STATEAB": "TX",
        "COUNTYNAME": "LA SALLE",
        "CITYNAME": "COTULLA",
        "LATDD": 28.317464,
        "LONGDD": -99.273404,
        "gridlyProductionCertified": true,
        "gridlyClassification": "PUBLIC_ROADWAY",
        "gridlyDisplayName": "I 35",
        "gridlyId": "FRA-447852R"
      }
    },
    {
      "type": "Feature",
      "id": 210908,
      "geometry": {
        "type": "Point",
        "coordinates": [
          -99.2266620003928,
          28.4790600000219
        ]
      },
      "properties": {
        "OBJECTID": 210908,
        "CROSSING": "978416T",
        "EFFDATE": 1756339200000,
        "REASON": "14",
        "StateCode": "48",
        "CountyCode": "48283",
        "STCYFIPS": "48283",
        "CITYCD": "482831580",
        "RAILROAD": "UP",
        "RRDIV": "South Texas",
        "RRSUBDIV": "Laredo Sub",
        "HIGHWAY": "TBD",
        "STREET": "Private",
        "TTSTN": "",
        "MILEPOST": "0342.290",
        "TYPEXING": "Private",
        "POSXING": "At Grade",
        "PRVCAT": "14",
        "INIT": "1",
        "LATITUDE": 28.47906,
        "LONGITUD": -99.226662,
        "LLSOURCE": "1",
        "WHISTBAN": "",
        "RRCONT": "4025443721",
        "POLCONT": "8008488715",
        "INV_LINK": "https://safetydata.fra.dot.gov/OfficeofSafety/PublicSite/Crossing/Crossing.aspx?phasetype=C&rpttype=I&txtcrossingnum=978416T",
        "ACC_LINK": "https://safetydata.fra.dot.gov/OfficeofSafety/PublicSite/Crossing/Crossing.aspx?phasetype=C&rpttype=A&txtcrossingnum=978416T",
        "TTSTNNAM": "",
        "XPURPOSE": "1",
        "OPERATINGR": "UP",
        "OPERATIN_1": "Primary",
        "DAYTHRU": 8,
        "NGHTTHRU": 7,
        "MAINTRK": 1,
        "SIDINGTRK": 0,
        "YARDTRK": 0,
        "TRANSITTRK": 0,
        "INDUSTRYTR": 0,
        "OTHRTRK": 0,
        "WDCODE": "",
        "REVISIONDA": "1975/01/01 00:00:00",
        "LASTUPDATE": "8/28/2025",
        "AADT": "",
        "AADTYEAR": "",
        "STATENAME": "TEXAS",
        "STATEAB": "TX",
        "COUNTYNAME": "LA SALLE",
        "CITYNAME": "COTULLA",
        "LATDD": 28.47906,
        "LONGDD": -99.226662,
        "gridlyProductionCertified": true,
        "gridlyClassification": "PUBLIC_ROADWAY",
        "gridlyDisplayName": "Private",
        "gridlyId": "FRA-978416T"
      }
    },
    {
      "type": "Feature",
      "id": 210912,
      "geometry": {
        "type": "Point",
        "coordinates": [
          -99.334433099726,
          28.1088549003853
        ]
      },
      "properties": {
        "OBJECTID": 210912,
        "CROSSING": "447864K",
        "EFFDATE": 1756339200000,
        "REASON": "14",
        "StateCode": "48",
        "CountyCode": "48283",
        "STCYFIPS": "48283",
        "CITYCD": "482832225",
        "RAILROAD": "UP",
        "RRDIV": "SOUTH TEXAS",
        "RRSUBDIV": "LAREDO SUB",
        "HIGHWAY": "NA",
        "STREET": "PRIVATE",
        "TTSTN": "698693",
        "MILEPOST": "0368.870",
        "TYPEXING": "Private",
        "POSXING": "At Grade",
        "PRVCAT": "14",
        "INIT": "1",
        "LATITUDE": 28.1088549,
        "LONGITUD": -99.3344331,
        "LLSOURCE": "1",
        "WHISTBAN": "0",
        "RRCONT": "4025443721",
        "POLCONT": "8008488715",
        "INV_LINK": "https://safetydata.fra.dot.gov/OfficeofSafety/PublicSite/Crossing/Crossing.aspx?phasetype=C&rpttype=I&txtcrossingnum=447864K",
        "ACC_LINK": "https://safetydata.fra.dot.gov/OfficeofSafety/PublicSite/Crossing/Crossing.aspx?phasetype=C&rpttype=A&txtcrossingnum=447864K",
        "TTSTNNAM": "",
        "XPURPOSE": "1",
        "OPERATINGR": "UP",
        "OPERATIN_1": "Primary",
        "DAYTHRU": 8,
        "NGHTTHRU": 7,
        "MAINTRK": 1,
        "SIDINGTRK": 0,
        "YARDTRK": 0,
        "TRANSITTRK": 0,
        "INDUSTRYTR": 0,
        "OTHRTRK": 0,
        "WDCODE": "",
        "REVISIONDA": "1975/01/01 00:00:00",
        "LASTUPDATE": "8/28/2025",
        "AADT": "1",
        "AADTYEAR": "1990",
        "STATENAME": "TEXAS",
        "STATEAB": "TX",
        "COUNTYNAME": "LA SALLE",
        "CITYNAME": "ENCINAL",
        "LATDD": 28.1088549,
        "LONGDD": -99.3344331,
        "gridlyProductionCertified": true,
        "gridlyClassification": "PUBLIC_ROADWAY",
        "gridlyDisplayName": "PRIVATE",
        "gridlyId": "FRA-447864K"
      }
    },
    {
      "type": "Feature",
      "id": 210950,
      "geometry": {
        "type": "Point",
        "coordinates": [
          -99.1814576002996,
          28.6294193003904
        ]
      },
      "properties": {
        "OBJECTID": 210950,
        "CROSSING": "448973S",
        "EFFDATE": 1756339200000,
        "REASON": "14",
        "StateCode": "48",
        "CountyCode": "48283",
        "STCYFIPS": "48283",
        "CITYCD": "482831580",
        "RAILROAD": "UP",
        "RRDIV": "SOUTH TEXAS",
        "RRSUBDIV": "LAREDO SUB",
        "HIGHWAY": "NA",
        "STREET": "PRIVATE",
        "TTSTN": "698187",
        "MILEPOST": "0331.570",
        "TYPEXING": "Private",
        "POSXING": "At Grade",
        "PRVCAT": "14",
        "INIT": "1",
        "LATITUDE": 28.6294193,
        "LONGITUD": -99.1814576,
        "LLSOURCE": "1",
        "WHISTBAN": "0",
        "RRCONT": "4025443721",
        "POLCONT": "8008488715",
        "INV_LINK": "https://safetydata.fra.dot.gov/OfficeofSafety/PublicSite/Crossing/Crossing.aspx?phasetype=C&rpttype=I&txtcrossingnum=448973S",
        "ACC_LINK": "https://safetydata.fra.dot.gov/OfficeofSafety/PublicSite/Crossing/Crossing.aspx?phasetype=C&rpttype=A&txtcrossingnum=448973S",
        "TTSTNNAM": "",
        "XPURPOSE": "1",
        "OPERATINGR": "UP",
        "OPERATIN_1": "Primary",
        "DAYTHRU": 8,
        "NGHTTHRU": 8,
        "MAINTRK": 1,
        "SIDINGTRK": 0,
        "YARDTRK": 0,
        "TRANSITTRK": 0,
        "INDUSTRYTR": 0,
        "OTHRTRK": 0,
        "WDCODE": "",
        "REVISIONDA": "1975/01/01 00:00:00",
        "LASTUPDATE": "8/28/2025",
        "AADT": "1",
        "AADTYEAR": "1970",
        "STATENAME": "TEXAS",
        "STATEAB": "TX",
        "COUNTYNAME": "LA SALLE",
        "CITYNAME": "COTULLA",
        "LATDD": 28.6294193,
        "LONGDD": -99.1814576,
        "gridlyProductionCertified": true,
        "gridlyClassification": "PUBLIC_ROADWAY",
        "gridlyDisplayName": "PRIVATE",
        "gridlyId": "FRA-448973S"
      }
    },
    {
      "type": "Feature",
      "id": 210951,
      "geometry": {
        "type": "Point",
        "coordinates": [
          -99.1869560004058,
          28.6111249003084
        ]
      },
      "properties": {
        "OBJECTID": 210951,
        "CROSSING": "448976M",
        "EFFDATE": 1756339200000,
        "REASON": "14",
        "StateCode": "48",
        "CountyCode": "48283",
        "STCYFIPS": "48283",
        "CITYCD": "482831580",
        "RAILROAD": "UP",
        "RRDIV": "SOUTH TEXAS",
        "RRSUBDIV": "LAREDO SUB",
        "HIGHWAY": "NA",
        "STREET": "PRIVATE",
        "TTSTN": "698187",
        "MILEPOST": "0332.860",
        "TYPEXING": "Private",
        "POSXING": "At Grade",
        "PRVCAT": "14",
        "INIT": "1",
        "LATITUDE": 28.6111249,
        "LONGITUD": -99.186956,
        "LLSOURCE": "1",
        "WHISTBAN": "0",
        "RRCONT": "4025443721",
        "POLCONT": "8008488715",
        "INV_LINK": "https://safetydata.fra.dot.gov/OfficeofSafety/PublicSite/Crossing/Crossing.aspx?phasetype=C&rpttype=I&txtcrossingnum=448976M",
        "ACC_LINK": "https://safetydata.fra.dot.gov/OfficeofSafety/PublicSite/Crossing/Crossing.aspx?phasetype=C&rpttype=A&txtcrossingnum=448976M",
        "TTSTNNAM": "",
        "XPURPOSE": "1",
        "OPERATINGR": "UP",
        "OPERATIN_1": "Primary",
        "DAYTHRU": 8,
        "NGHTTHRU": 8,
        "MAINTRK": 1,
        "SIDINGTRK": 0,
        "YARDTRK": 0,
        "TRANSITTRK": 0,
        "INDUSTRYTR": 0,
        "OTHRTRK": 0,
        "WDCODE": "",
        "REVISIONDA": "1975/01/01 00:00:00",
        "LASTUPDATE": "8/28/2025",
        "AADT": "1",
        "AADTYEAR": "1970",
        "STATENAME": "TEXAS",
        "STATEAB": "TX",
        "COUNTYNAME": "LA SALLE",
        "CITYNAME": "COTULLA",
        "LATDD": 28.6111249,
        "LONGDD": -99.186956,
        "gridlyProductionCertified": true,
        "gridlyClassification": "PUBLIC_ROADWAY",
        "gridlyDisplayName": "PRIVATE",
        "gridlyId": "FRA-448976M"
      }
    },
    {
      "type": "Feature",
      "id": 210966,
      "geometry": {
        "type": "Point",
        "coordinates": [
          -99.3280591000343,
          28.1295764997607
        ]
      },
      "properties": {
        "OBJECTID": 210966,
        "CROSSING": "447863D",
        "EFFDATE": 1756339200000,
        "REASON": "14",
        "StateCode": "48",
        "CountyCode": "48283",
        "STCYFIPS": "48283",
        "CITYCD": "482830275",
        "RAILROAD": "UP",
        "RRDIV": "SOUTH TEXAS",
        "RRSUBDIV": "LAREDO SUB",
        "HIGHWAY": "NA",
        "STREET": "PRIVATE",
        "TTSTN": "698693",
        "MILEPOST": "0367.430",
        "TYPEXING": "Private",
        "POSXING": "At Grade",
        "PRVCAT": "14",
        "INIT": "1",
        "LATITUDE": 28.1295765,
        "LONGITUD": -99.3280591,
        "LLSOURCE": "1",
        "WHISTBAN": "0",
        "RRCONT": "4025443721",
        "POLCONT": "8008488715",
        "INV_LINK": "https://safetydata.fra.dot.gov/OfficeofSafety/PublicSite/Crossing/Crossing.aspx?phasetype=C&rpttype=I&txtcrossingnum=447863D",
        "ACC_LINK": "https://safetydata.fra.dot.gov/OfficeofSafety/PublicSite/Crossing/Crossing.aspx?phasetype=C&rpttype=A&txtcrossingnum=447863D",
        "TTSTNNAM": "",
        "XPURPOSE": "1",
        "OPERATINGR": "UP",
        "OPERATIN_1": "Primary",
        "DAYTHRU": 8,
        "NGHTTHRU": 7,
        "MAINTRK": 1,
        "SIDINGTRK": 0,
        "YARDTRK": 0,
        "TRANSITTRK": 0,
        "INDUSTRYTR": 0,
        "OTHRTRK": 0,
        "WDCODE": "",
        "REVISIONDA": "1975/01/01 00:00:00",
        "LASTUPDATE": "8/28/2025",
        "AADT": "1",
        "AADTYEAR": "1990",
        "STATENAME": "TEXAS",
        "STATEAB": "TX",
        "COUNTYNAME": "LA SALLE",
        "CITYNAME": "ARTESIA WELLS",
        "LATDD": 28.1295765,
        "LONGDD": -99.3280591,
        "gridlyProductionCertified": true,
        "gridlyClassification": "PUBLIC_ROADWAY",
        "gridlyDisplayName": "PRIVATE",
        "gridlyId": "FRA-447863D"
      }
    },
    {
      "type": "Feature",
      "id": 210968,
      "geometry": {
        "type": "Point",
        "coordinates": [
          -99.2110432997717,
          28.5310065996809
        ]
      },
      "properties": {
        "OBJECTID": 210968,
        "CROSSING": "448984E",
        "EFFDATE": 1756339200000,
        "REASON": "14",
        "StateCode": "48",
        "CountyCode": "48283",
        "STCYFIPS": "48283",
        "CITYCD": "482831580",
        "RAILROAD": "UP",
        "RRDIV": "SOUTH TEXAS",
        "RRSUBDIV": "LAREDO SUB",
        "HIGHWAY": "NA",
        "STREET": "PRIVATE",
        "TTSTN": "698633",
        "MILEPOST": "0338.590",
        "TYPEXING": "Private",
        "POSXING": "At Grade",
        "PRVCAT": "14",
        "INIT": "1",
        "LATITUDE": 28.5310066,
        "LONGITUD": -99.2110433,
        "LLSOURCE": "1",
        "WHISTBAN": "0",
        "RRCONT": "4025443721",
        "POLCONT": "8008488715",
        "INV_LINK": "https://safetydata.fra.dot.gov/OfficeofSafety/PublicSite/Crossing/Crossing.aspx?phasetype=C&rpttype=I&txtcrossingnum=448984E",
        "ACC_LINK": "https://safetydata.fra.dot.gov/OfficeofSafety/PublicSite/Crossing/Crossing.aspx?phasetype=C&rpttype=A&txtcrossingnum=448984E",
        "TTSTNNAM": "",
        "XPURPOSE": "1",
        "OPERATINGR": "UP",
        "OPERATIN_1": "Primary",
        "DAYTHRU": 8,
        "NGHTTHRU": 8,
        "MAINTRK": 1,
        "SIDINGTRK": 0,
        "YARDTRK": 0,
        "TRANSITTRK": 0,
        "INDUSTRYTR": 0,
        "OTHRTRK": 0,
        "WDCODE": "",
        "REVISIONDA": "1975/01/01 00:00:00",
        "LASTUPDATE": "8/28/2025",
        "AADT": "1",
        "AADTYEAR": "1990",
        "STATENAME": "TEXAS",
        "STATEAB": "TX",
        "COUNTYNAME": "LA SALLE",
        "CITYNAME": "COTULLA",
        "LATDD": 28.5310066,
        "LONGDD": -99.2110433,
        "gridlyProductionCertified": true,
        "gridlyClassification": "PUBLIC_ROADWAY",
        "gridlyDisplayName": "PRIVATE",
        "gridlyId": "FRA-448984E"
      }
    },
    {
      "type": "Feature",
      "id": 210969,
      "geometry": {
        "type": "Point",
        "coordinates": [
          -99.345701999638,
          28.0723815000876
        ]
      },
      "properties": {
        "OBJECTID": 210969,
        "CROSSING": "447865S",
        "EFFDATE": 1756339200000,
        "REASON": "14",
        "StateCode": "48",
        "CountyCode": "48283",
        "STCYFIPS": "48283",
        "CITYCD": "482832225",
        "RAILROAD": "UP",
        "RRDIV": "SOUTH TEXAS",
        "RRSUBDIV": "LAREDO SUB",
        "HIGHWAY": "NA",
        "STREET": "PRIVATE",
        "TTSTN": "698697",
        "MILEPOST": "0371.440",
        "TYPEXING": "Private",
        "POSXING": "At Grade",
        "PRVCAT": "14",
        "INIT": "1",
        "LATITUDE": 28.0723815,
        "LONGITUD": -99.345702,
        "LLSOURCE": "1",
        "WHISTBAN": "0",
        "RRCONT": "4025443721",
        "POLCONT": "8008488715",
        "INV_LINK": "https://safetydata.fra.dot.gov/OfficeofSafety/PublicSite/Crossing/Crossing.aspx?phasetype=C&rpttype=I&txtcrossingnum=447865S",
        "ACC_LINK": "https://safetydata.fra.dot.gov/OfficeofSafety/PublicSite/Crossing/Crossing.aspx?phasetype=C&rpttype=A&txtcrossingnum=447865S",
        "TTSTNNAM": "",
        "XPURPOSE": "1",
        "OPERATINGR": "UP",
        "OPERATIN_1": "Primary",
        "DAYTHRU": 8,
        "NGHTTHRU": 7,
        "MAINTRK": 1,
        "SIDINGTRK": 1,
        "YARDTRK": 0,
        "TRANSITTRK": 0,
        "INDUSTRYTR": 0,
        "OTHRTRK": 0,
        "WDCODE": "",
        "REVISIONDA": "1975/01/01 00:00:00",
        "LASTUPDATE": "8/28/2025",
        "AADT": "1",
        "AADTYEAR": "1990",
        "STATENAME": "TEXAS",
        "STATEAB": "TX",
        "COUNTYNAME": "LA SALLE",
        "CITYNAME": "ENCINAL",
        "LATDD": 28.0723815,
        "LONGDD": -99.345702,
        "gridlyProductionCertified": true,
        "gridlyClassification": "PUBLIC_ROADWAY",
        "gridlyDisplayName": "PRIVATE",
        "gridlyId": "FRA-447865S"
      }
    },
    {
      "type": "Feature",
      "id": 211007,
      "geometry": {
        "type": "Point",
        "coordinates": [
          -99.2847868997603,
          28.2801914002763
        ]
      },
      "properties": {
        "OBJECTID": 211007,
        "CROSSING": "447854E",
        "EFFDATE": 1767657600000,
        "REASON": "14",
        "StateCode": "48",
        "CountyCode": "48283",
        "STCYFIPS": "48283",
        "CITYCD": "482830275",
        "RAILROAD": "UP",
        "RRDIV": "SOUTH TEXAS",
        "RRSUBDIV": "LAREDO SUB",
        "HIGHWAY": "FM0133",
        "STREET": "FM0133",
        "TTSTN": "698650",
        "MILEPOST": "0356.680",
        "TYPEXING": "Public",
        "POSXING": "At Grade",
        "PRVCAT": "14",
        "INIT": "2",
        "LATITUDE": 28.2801914,
        "LONGITUD": -99.2847869,
        "LLSOURCE": "1",
        "WHISTBAN": "0",
        "RRCONT": "4025443721",
        "POLCONT": "8008488715",
        "INV_LINK": "https://safetydata.fra.dot.gov/OfficeofSafety/PublicSite/Crossing/Crossing.aspx?phasetype=C&rpttype=I&txtcrossingnum=447854E",
        "ACC_LINK": "https://safetydata.fra.dot.gov/OfficeofSafety/PublicSite/Crossing/Crossing.aspx?phasetype=C&rpttype=A&txtcrossingnum=447854E",
        "TTSTNNAM": "",
        "XPURPOSE": "1",
        "OPERATINGR": "UP",
        "OPERATIN_1": "Primary",
        "DAYTHRU": 8,
        "NGHTTHRU": 7,
        "MAINTRK": 1,
        "SIDINGTRK": 0,
        "YARDTRK": 0,
        "TRANSITTRK": 0,
        "INDUSTRYTR": 0,
        "OTHRTRK": 0,
        "WDCODE": "All other Gates",
        "REVISIONDA": "1975/01/01 00:00:00",
        "LASTUPDATE": "1/6/2026",
        "AADT": "2039",
        "AADTYEAR": "2024",
        "STATENAME": "TEXAS",
        "STATEAB": "TX",
        "COUNTYNAME": "LA SALLE",
        "CITYNAME": "ARTESIA WELLS",
        "LATDD": 28.2801914,
        "LONGDD": -99.2847869,
        "gridlyProductionCertified": true,
        "gridlyClassification": "PUBLIC_ROADWAY",
        "gridlyDisplayName": "FM0133",
        "gridlyId": "FRA-447854E"
      }
    },
    {
      "type": "Feature",
      "id": 211740,
      "geometry": {
        "type": "Point",
        "coordinates": [
          -99.2156189998254,
          28.517901999948
        ]
      },
      "properties": {
        "OBJECTID": 211740,
        "CROSSING": "448988G",
        "EFFDATE": 1758499200000,
        "REASON": "14",
        "StateCode": "48",
        "CountyCode": "48283",
        "STCYFIPS": "48283",
        "CITYCD": "482831580",
        "RAILROAD": "UP",
        "RRDIV": "SOUTH TEXAS",
        "RRSUBDIV": "LAREDO SUB",
        "HIGHWAY": "IH 0035",
        "STREET": "I 35",
        "TTSTN": "698633",
        "MILEPOST": "0339.542",
        "TYPEXING": "Public",
        "POSXING": "RR Under",
        "PRVCAT": "14",
        "INIT": "1",
        "LATITUDE": 28.517902,
        "LONGITUD": -99.215619,
        "LLSOURCE": "1",
        "WHISTBAN": "0",
        "RRCONT": "4025443721",
        "POLCONT": "8008488715",
        "INV_LINK": "https://safetydata.fra.dot.gov/OfficeofSafety/PublicSite/Crossing/Crossing.aspx?phasetype=C&rpttype=I&txtcrossingnum=448988G",
        "ACC_LINK": "https://safetydata.fra.dot.gov/OfficeofSafety/PublicSite/Crossing/Crossing.aspx?phasetype=C&rpttype=A&txtcrossingnum=448988G",
        "TTSTNNAM": "",
        "XPURPOSE": "1",
        "OPERATINGR": "UP",
        "OPERATIN_1": "Primary",
        "DAYTHRU": 0,
        "NGHTTHRU": 0,
        "MAINTRK": 1,
        "SIDINGTRK": 0,
        "YARDTRK": 0,
        "TRANSITTRK": 0,
        "INDUSTRYTR": 0,
        "OTHRTRK": 0,
        "WDCODE": "",
        "REVISIONDA": "1975/01/01 00:00:00",
        "LASTUPDATE": "9/22/2025",
        "AADT": "17420",
        "AADTYEAR": "2011",
        "STATENAME": "TEXAS",
        "STATEAB": "TX",
        "COUNTYNAME": "LA SALLE",
        "CITYNAME": "COTULLA",
        "LATDD": 28.517902,
        "LONGDD": -99.215619,
        "gridlyProductionCertified": true,
        "gridlyClassification": "PUBLIC_ROADWAY",
        "gridlyDisplayName": "I 35",
        "gridlyId": "FRA-448988G"
      }
    },
    {
      "type": "Feature",
      "id": 213156,
      "geometry": {
        "type": "Point",
        "coordinates": [
          -99.2745029998625,
          28.3137279999195
        ]
      },
      "properties": {
        "OBJECTID": 213156,
        "CROSSING": "975244C",
        "EFFDATE": 1758585600000,
        "REASON": "14",
        "StateCode": "48",
        "CountyCode": "48283",
        "STCYFIPS": "48283",
        "CITYCD": "482830275",
        "RAILROAD": "UP",
        "RRDIV": "South Texas",
        "RRSUBDIV": "Laredo Sub",
        "HIGHWAY": "NA",
        "STREET": "Private UPRR",
        "TTSTN": "",
        "MILEPOST": "0354.310",
        "TYPEXING": "Private",
        "POSXING": "At Grade",
        "PRVCAT": "14",
        "INIT": "1",
        "LATITUDE": 28.313728,
        "LONGITUD": -99.274503,
        "LLSOURCE": "1",
        "WHISTBAN": "",
        "RRCONT": "4025443721",
        "POLCONT": "8008488715",
        "INV_LINK": "https://safetydata.fra.dot.gov/OfficeofSafety/PublicSite/Crossing/Crossing.aspx?phasetype=C&rpttype=I&txtcrossingnum=975244C",
        "ACC_LINK": "https://safetydata.fra.dot.gov/OfficeofSafety/PublicSite/Crossing/Crossing.aspx?phasetype=C&rpttype=A&txtcrossingnum=975244C",
        "TTSTNNAM": "",
        "XPURPOSE": "1",
        "OPERATINGR": "UP",
        "OPERATIN_1": "Primary",
        "DAYTHRU": 7,
        "NGHTTHRU": 7,
        "MAINTRK": 1,
        "SIDINGTRK": 0,
        "YARDTRK": 0,
        "TRANSITTRK": 0,
        "INDUSTRYTR": 0,
        "OTHRTRK": 0,
        "WDCODE": "",
        "REVISIONDA": "1975/01/01 00:00:00",
        "LASTUPDATE": "9/23/2025",
        "AADT": "",
        "AADTYEAR": "",
        "STATENAME": "TEXAS",
        "STATEAB": "TX",
        "COUNTYNAME": "LA SALLE",
        "CITYNAME": "ARTESIA WELLS",
        "LATDD": 28.313728,
        "LONGDD": -99.274503,
        "gridlyProductionCertified": true,
        "gridlyClassification": "PUBLIC_ROADWAY",
        "gridlyDisplayName": "Private UPRR",
        "gridlyId": "FRA-975244C"
      }
    },
    {
      "type": "Feature",
      "id": 213224,
      "geometry": {
        "type": "Point",
        "coordinates": [
          -99.2754700003332,
          28.3105959996123
        ]
      },
      "properties": {
        "OBJECTID": 213224,
        "CROSSING": "975245J",
        "EFFDATE": 1758585600000,
        "REASON": "14",
        "StateCode": "48",
        "CountyCode": "48283",
        "STCYFIPS": "48283",
        "CITYCD": "482830275",
        "RAILROAD": "UP",
        "RRDIV": "South Texas",
        "RRSUBDIV": "Laredo Sub",
        "HIGHWAY": "NA",
        "STREET": "Private UPRR",
        "TTSTN": "",
        "MILEPOST": "0354.530",
        "TYPEXING": "Private",
        "POSXING": "At Grade",
        "PRVCAT": "14",
        "INIT": "1",
        "LATITUDE": 28.310596,
        "LONGITUD": -99.27547,
        "LLSOURCE": "1",
        "WHISTBAN": "",
        "RRCONT": "4025443721",
        "POLCONT": "8008488715",
        "INV_LINK": "https://safetydata.fra.dot.gov/OfficeofSafety/PublicSite/Crossing/Crossing.aspx?phasetype=C&rpttype=I&txtcrossingnum=975245J",
        "ACC_LINK": "https://safetydata.fra.dot.gov/OfficeofSafety/PublicSite/Crossing/Crossing.aspx?phasetype=C&rpttype=A&txtcrossingnum=975245J",
        "TTSTNNAM": "",
        "XPURPOSE": "1",
        "OPERATINGR": "UP",
        "OPERATIN_1": "Primary",
        "DAYTHRU": 7,
        "NGHTTHRU": 7,
        "MAINTRK": 1,
        "SIDINGTRK": 0,
        "YARDTRK": 0,
        "TRANSITTRK": 0,
        "INDUSTRYTR": 0,
        "OTHRTRK": 0,
        "WDCODE": "",
        "REVISIONDA": "1975/01/01 00:00:00",
        "LASTUPDATE": "9/23/2025",
        "AADT": "",
        "AADTYEAR": "",
        "STATENAME": "TEXAS",
        "STATEAB": "TX",
        "COUNTYNAME": "LA SALLE",
        "CITYNAME": "ARTESIA WELLS",
        "LATDD": 28.310596,
        "LONGDD": -99.27547,
        "gridlyProductionCertified": true,
        "gridlyClassification": "PUBLIC_ROADWAY",
        "gridlyDisplayName": "Private UPRR",
        "gridlyId": "FRA-975245J"
      }
    },
    {
      "type": "Feature",
      "id": 213899,
      "geometry": {
        "type": "Point",
        "coordinates": [
          -99.2336098995836,
          28.4370741000925
        ]
      },
      "properties": {
        "OBJECTID": 213899,
        "CROSSING": "448996Y",
        "EFFDATE": 1767830400000,
        "REASON": "14",
        "StateCode": "48",
        "CountyCode": "48283",
        "STCYFIPS": "48283",
        "CITYCD": "482831580",
        "RAILROAD": "UP",
        "RRDIV": "SOUTH TEXAS",
        "RRSUBDIV": "LAREDO SUB",
        "HIGHWAY": "SH0097",
        "STREET": "SH0097 / TILDEN Street",
        "TTSTN": "698650",
        "MILEPOST": "0345.220",
        "TYPEXING": "Public",
        "POSXING": "At Grade",
        "PRVCAT": "14",
        "INIT": "2",
        "LATITUDE": 28.4370741,
        "LONGITUD": -99.2336099,
        "LLSOURCE": "1",
        "WHISTBAN": "0",
        "RRCONT": "4025443721",
        "POLCONT": "8008488715",
        "INV_LINK": "https://safetydata.fra.dot.gov/OfficeofSafety/PublicSite/Crossing/Crossing.aspx?phasetype=C&rpttype=I&txtcrossingnum=448996Y",
        "ACC_LINK": "https://safetydata.fra.dot.gov/OfficeofSafety/PublicSite/Crossing/Crossing.aspx?phasetype=C&rpttype=A&txtcrossingnum=448996Y",
        "TTSTNNAM": "",
        "XPURPOSE": "1",
        "OPERATINGR": "UP",
        "OPERATIN_1": "Primary",
        "DAYTHRU": 8,
        "NGHTTHRU": 7,
        "MAINTRK": 1,
        "SIDINGTRK": 0,
        "YARDTRK": 0,
        "TRANSITTRK": 0,
        "INDUSTRYTR": 0,
        "OTHRTRK": 0,
        "WDCODE": "All other Gates",
        "REVISIONDA": "1975/01/01 00:00:00",
        "LASTUPDATE": "1/8/2026",
        "AADT": "7008",
        "AADTYEAR": "2024",
        "STATENAME": "TEXAS",
        "STATEAB": "TX",
        "COUNTYNAME": "LA SALLE",
        "CITYNAME": "COTULLA",
        "LATDD": 28.4370741,
        "LONGDD": -99.2336099,
        "gridlyProductionCertified": true,
        "gridlyClassification": "PUBLIC_ROADWAY",
        "gridlyDisplayName": "SH0097 / TILDEN Street",
        "gridlyId": "FRA-448996Y"
      }
    },
    {
      "type": "Feature",
      "id": 213900,
      "geometry": {
        "type": "Point",
        "coordinates": [
          -99.2331387996924,
          28.4340127001848
        ]
      },
      "properties": {
        "OBJECTID": 213900,
        "CROSSING": "448997F",
        "EFFDATE": 1767830400000,
        "REASON": "14",
        "StateCode": "48",
        "CountyCode": "48283",
        "STCYFIPS": "48283",
        "CITYCD": "482831580",
        "RAILROAD": "UP",
        "RRDIV": "SOUTH TEXAS",
        "RRSUBDIV": "LAREDO SUB",
        "HIGHWAY": "LS0000",
        "STREET": "GOFT Street",
        "TTSTN": "698650",
        "MILEPOST": "0345.410",
        "TYPEXING": "Public",
        "POSXING": "At Grade",
        "PRVCAT": "14",
        "INIT": "2",
        "LATITUDE": 28.4340127,
        "LONGITUD": -99.2331388,
        "LLSOURCE": "1",
        "WHISTBAN": "0",
        "RRCONT": "4025443721",
        "POLCONT": "8008488715",
        "INV_LINK": "https://safetydata.fra.dot.gov/OfficeofSafety/PublicSite/Crossing/Crossing.aspx?phasetype=C&rpttype=I&txtcrossingnum=448997F",
        "ACC_LINK": "https://safetydata.fra.dot.gov/OfficeofSafety/PublicSite/Crossing/Crossing.aspx?phasetype=C&rpttype=A&txtcrossingnum=448997F",
        "TTSTNNAM": "",
        "XPURPOSE": "1",
        "OPERATINGR": "UP",
        "OPERATIN_1": "Primary",
        "DAYTHRU": 8,
        "NGHTTHRU": 7,
        "MAINTRK": 1,
        "SIDINGTRK": 0,
        "YARDTRK": 0,
        "TRANSITTRK": 0,
        "INDUSTRYTR": 0,
        "OTHRTRK": 0,
        "WDCODE": "All other Gates",
        "REVISIONDA": "1975/01/01 00:00:00",
        "LASTUPDATE": "1/8/2026",
        "AADT": "4779",
        "AADTYEAR": "2023",
        "STATENAME": "TEXAS",
        "STATEAB": "TX",
        "COUNTYNAME": "LA SALLE",
        "CITYNAME": "COTULLA",
        "LATDD": 28.4340127,
        "LONGDD": -99.2331388,
        "gridlyProductionCertified": true,
        "gridlyClassification": "PUBLIC_ROADWAY",
        "gridlyDisplayName": "GOFT Street",
        "gridlyId": "FRA-448997F"
      }
    },
    {
      "type": "Feature",
      "id": 213901,
      "geometry": {
        "type": "Point",
        "coordinates": [
          -99.2157000997292,
          28.5156746999773
        ]
      },
      "properties": {
        "OBJECTID": 213901,
        "CROSSING": "448990H",
        "EFFDATE": 1767830400000,
        "REASON": "14",
        "StateCode": "48",
        "CountyCode": "48283",
        "STCYFIPS": "48283",
        "CITYCD": "482831580",
        "RAILROAD": "UP",
        "RRDIV": "SOUTH TEXAS",
        "RRSUBDIV": "LAREDO SUB",
        "HIGHWAY": "CR0037",
        "STREET": "OXFORD STREET",
        "TTSTN": "698633",
        "MILEPOST": "0339.680",
        "TYPEXING": "Public",
        "POSXING": "At Grade",
        "PRVCAT": "14",
        "INIT": "2",
        "LATITUDE": 28.5156747,
        "LONGITUD": -99.2157001,
        "LLSOURCE": "1",
        "WHISTBAN": "0",
        "RRCONT": "4025443721",
        "POLCONT": "8008488715",
        "INV_LINK": "https://safetydata.fra.dot.gov/OfficeofSafety/PublicSite/Crossing/Crossing.aspx?phasetype=C&rpttype=I&txtcrossingnum=448990H",
        "ACC_LINK": "https://safetydata.fra.dot.gov/OfficeofSafety/PublicSite/Crossing/Crossing.aspx?phasetype=C&rpttype=A&txtcrossingnum=448990H",
        "TTSTNNAM": "",
        "XPURPOSE": "1",
        "OPERATINGR": "UP",
        "OPERATIN_1": "Primary",
        "DAYTHRU": 8,
        "NGHTTHRU": 7,
        "MAINTRK": 1,
        "SIDINGTRK": 1,
        "YARDTRK": 0,
        "TRANSITTRK": 0,
        "INDUSTRYTR": 1,
        "OTHRTRK": 2,
        "WDCODE": "All other Gates",
        "REVISIONDA": "1975/01/01 00:00:00",
        "LASTUPDATE": "1/8/2026",
        "AADT": "305",
        "AADTYEAR": "2023",
        "STATENAME": "TEXAS",
        "STATEAB": "TX",
        "COUNTYNAME": "LA SALLE",
        "CITYNAME": "COTULLA",
        "LATDD": 28.5156747,
        "LONGDD": -99.2157001,
        "gridlyProductionCertified": true,
        "gridlyClassification": "PUBLIC_ROADWAY",
        "gridlyDisplayName": "OXFORD STREET",
        "gridlyId": "FRA-448990H"
      }
    },
    {
      "type": "Feature",
      "id": 213902,
      "geometry": {
        "type": "Point",
        "coordinates": [
          -99.2034374996197,
          28.5562586999356
        ]
      },
      "properties": {
        "OBJECTID": 213902,
        "CROSSING": "448982R",
        "EFFDATE": 1767830400000,
        "REASON": "14",
        "StateCode": "48",
        "CountyCode": "48283",
        "STCYFIPS": "48283",
        "CITYCD": "482831580",
        "RAILROAD": "UP",
        "RRDIV": "SOUTH TEXAS",
        "RRSUBDIV": "LAREDO SUB",
        "HIGHWAY": "CR0000",
        "STREET": "LOS ALAMOS ROAD",
        "TTSTN": "",
        "MILEPOST": "0336.790",
        "TYPEXING": "Public",
        "POSXING": "At Grade",
        "PRVCAT": "14",
        "INIT": "2",
        "LATITUDE": 28.5562587,
        "LONGITUD": -99.2034375,
        "LLSOURCE": "1",
        "WHISTBAN": "0",
        "RRCONT": "4025443721",
        "POLCONT": "8008488715",
        "INV_LINK": "https://safetydata.fra.dot.gov/OfficeofSafety/PublicSite/Crossing/Crossing.aspx?phasetype=C&rpttype=I&txtcrossingnum=448982R",
        "ACC_LINK": "https://safetydata.fra.dot.gov/OfficeofSafety/PublicSite/Crossing/Crossing.aspx?phasetype=C&rpttype=A&txtcrossingnum=448982R",
        "TTSTNNAM": "",
        "XPURPOSE": "1",
        "OPERATINGR": "UP",
        "OPERATIN_1": "Primary",
        "DAYTHRU": 8,
        "NGHTTHRU": 8,
        "MAINTRK": 1,
        "SIDINGTRK": 0,
        "YARDTRK": 0,
        "TRANSITTRK": 0,
        "INDUSTRYTR": 0,
        "OTHRTRK": 0,
        "WDCODE": "All other Gates",
        "REVISIONDA": "1975/01/01 00:00:00",
        "LASTUPDATE": "1/8/2026",
        "AADT": "111",
        "AADTYEAR": "2023",
        "STATENAME": "TEXAS",
        "STATEAB": "TX",
        "COUNTYNAME": "LA SALLE",
        "CITYNAME": "COTULLA",
        "LATDD": 28.5562587,
        "LONGDD": -99.2034375,
        "gridlyProductionCertified": true,
        "gridlyClassification": "PUBLIC_ROADWAY",
        "gridlyDisplayName": "LOS ALAMOS ROAD",
        "gridlyId": "FRA-448982R"
      }
    },
    {
      "type": "Feature",
      "id": 213903,
      "geometry": {
        "type": "Point",
        "coordinates": [
          -99.2162486999749,
          28.5176313998815
        ]
      },
      "properties": {
        "OBJECTID": 213903,
        "CROSSING": "448989N",
        "EFFDATE": 1767830400000,
        "REASON": "14",
        "StateCode": "48",
        "CountyCode": "48283",
        "STCYFIPS": "48283",
        "CITYCD": "482831580",
        "RAILROAD": "UP",
        "RRDIV": "SOUTH TEXAS",
        "RRSUBDIV": "LAREDO SUB",
        "HIGHWAY": "IH0035",
        "STREET": "IH0035 FRONTAGE ROAD",
        "TTSTN": "698633",
        "MILEPOST": "0339.585",
        "TYPEXING": "Public",
        "POSXING": "At Grade",
        "PRVCAT": "14",
        "INIT": "2",
        "LATITUDE": 28.5176314,
        "LONGITUD": -99.2162487,
        "LLSOURCE": "1",
        "WHISTBAN": "0",
        "RRCONT": "4025443721",
        "POLCONT": "8008488715",
        "INV_LINK": "https://safetydata.fra.dot.gov/OfficeofSafety/PublicSite/Crossing/Crossing.aspx?phasetype=C&rpttype=I&txtcrossingnum=448989N",
        "ACC_LINK": "https://safetydata.fra.dot.gov/OfficeofSafety/PublicSite/Crossing/Crossing.aspx?phasetype=C&rpttype=A&txtcrossingnum=448989N",
        "TTSTNNAM": "",
        "XPURPOSE": "1",
        "OPERATINGR": "UP",
        "OPERATIN_1": "Primary",
        "DAYTHRU": 2,
        "NGHTTHRU": 2,
        "MAINTRK": 1,
        "SIDINGTRK": 0,
        "YARDTRK": 0,
        "TRANSITTRK": 0,
        "INDUSTRYTR": 0,
        "OTHRTRK": 1,
        "WDCODE": "Flashing lights",
        "REVISIONDA": "1975/01/01 00:00:00",
        "LASTUPDATE": "1/8/2026",
        "AADT": "718",
        "AADTYEAR": "2024",
        "STATENAME": "TEXAS",
        "STATEAB": "TX",
        "COUNTYNAME": "LA SALLE",
        "CITYNAME": "COTULLA",
        "LATDD": 28.5176314,
        "LONGDD": -99.2162487,
        "gridlyProductionCertified": true,
        "gridlyClassification": "PUBLIC_ROADWAY",
        "gridlyDisplayName": "IH0035 FRONTAGE ROAD",
        "gridlyId": "FRA-448989N"
      }
    },
    {
      "type": "Feature",
      "id": 213904,
      "geometry": {
        "type": "Point",
        "coordinates": [
          -99.2139202002832,
          28.5214344003429
        ]
      },
      "properties": {
        "OBJECTID": 213904,
        "CROSSING": "448985L",
        "EFFDATE": 1767830400000,
        "REASON": "14",
        "StateCode": "48",
        "CountyCode": "48283",
        "STCYFIPS": "48283",
        "CITYCD": "482831580",
        "RAILROAD": "UP",
        "RRDIV": "SOUTH TEXAS",
        "RRSUBDIV": "LAREDO SUB",
        "HIGHWAY": "CR0000",
        "STREET": "INMAN STREET",
        "TTSTN": "698633",
        "MILEPOST": "0339.270",
        "TYPEXING": "Public",
        "POSXING": "At Grade",
        "PRVCAT": "14",
        "INIT": "2",
        "LATITUDE": 28.5214344,
        "LONGITUD": -99.2139202,
        "LLSOURCE": "1",
        "WHISTBAN": "0",
        "RRCONT": "4025443721",
        "POLCONT": "8008488715",
        "INV_LINK": "https://safetydata.fra.dot.gov/OfficeofSafety/PublicSite/Crossing/Crossing.aspx?phasetype=C&rpttype=I&txtcrossingnum=448985L",
        "ACC_LINK": "https://safetydata.fra.dot.gov/OfficeofSafety/PublicSite/Crossing/Crossing.aspx?phasetype=C&rpttype=A&txtcrossingnum=448985L",
        "TTSTNNAM": "",
        "XPURPOSE": "1",
        "OPERATINGR": "UP",
        "OPERATIN_1": "Primary",
        "DAYTHRU": 12,
        "NGHTTHRU": 12,
        "MAINTRK": 1,
        "SIDINGTRK": 1,
        "YARDTRK": 0,
        "TRANSITTRK": 0,
        "INDUSTRYTR": 0,
        "OTHRTRK": 1,
        "WDCODE": "Crossbucks",
        "REVISIONDA": "1975/01/01 00:00:00",
        "LASTUPDATE": "1/8/2026",
        "AADT": "415",
        "AADTYEAR": "2023",
        "STATENAME": "TEXAS",
        "STATEAB": "TX",
        "COUNTYNAME": "LA SALLE",
        "CITYNAME": "COTULLA",
        "LATDD": 28.5214344,
        "LONGDD": -99.2139202,
        "gridlyProductionCertified": true,
        "gridlyClassification": "PUBLIC_ROADWAY",
        "gridlyDisplayName": "INMAN STREET",
        "gridlyId": "FRA-448985L"
      }
    },
    {
      "type": "Feature",
      "id": 213905,
      "geometry": {
        "type": "Point",
        "coordinates": [
          -99.2164236998771,
          28.5170829003372
        ]
      },
      "properties": {
        "OBJECTID": 213905,
        "CROSSING": "448987A",
        "EFFDATE": 1767830400000,
        "REASON": "14",
        "StateCode": "48",
        "CountyCode": "48283",
        "STCYFIPS": "48283",
        "CITYCD": "482831580",
        "RAILROAD": "UP",
        "RRDIV": "SOUTH TEXAS",
        "RRSUBDIV": "LAREDO SUB",
        "HIGHWAY": "IH0035",
        "STREET": "IH0035 Frontage Road",
        "TTSTN": "698633",
        "MILEPOST": "0339.574",
        "TYPEXING": "Public",
        "POSXING": "At Grade",
        "PRVCAT": "14",
        "INIT": "2",
        "LATITUDE": 28.5170829,
        "LONGITUD": -99.2164237,
        "LLSOURCE": "1",
        "WHISTBAN": "0",
        "RRCONT": "4025443721",
        "POLCONT": "8008488715",
        "INV_LINK": "https://safetydata.fra.dot.gov/OfficeofSafety/PublicSite/Crossing/Crossing.aspx?phasetype=C&rpttype=I&txtcrossingnum=448987A",
        "ACC_LINK": "https://safetydata.fra.dot.gov/OfficeofSafety/PublicSite/Crossing/Crossing.aspx?phasetype=C&rpttype=A&txtcrossingnum=448987A",
        "TTSTNNAM": "",
        "XPURPOSE": "1",
        "OPERATINGR": "UP",
        "OPERATIN_1": "Primary",
        "DAYTHRU": 2,
        "NGHTTHRU": 2,
        "MAINTRK": 1,
        "SIDINGTRK": 0,
        "YARDTRK": 0,
        "TRANSITTRK": 0,
        "INDUSTRYTR": 0,
        "OTHRTRK": 0,
        "WDCODE": "Flashing lights",
        "REVISIONDA": "1975/01/01 00:00:00",
        "LASTUPDATE": "1/8/2026",
        "AADT": "718",
        "AADTYEAR": "2024",
        "STATENAME": "TEXAS",
        "STATEAB": "TX",
        "COUNTYNAME": "LA SALLE",
        "CITYNAME": "COTULLA",
        "LATDD": 28.5170829,
        "LONGDD": -99.2164237,
        "gridlyProductionCertified": true,
        "gridlyClassification": "PUBLIC_ROADWAY",
        "gridlyDisplayName": "IH0035 Frontage Road",
        "gridlyId": "FRA-448987A"
      }
    },
    {
      "type": "Feature",
      "id": 215443,
      "geometry": {
        "type": "Point",
        "coordinates": [
          -99.2477491000847,
          28.4080205003208
        ]
      },
      "properties": {
        "OBJECTID": 215443,
        "CROSSING": "448980C",
        "EFFDATE": 1767744000000,
        "REASON": "14",
        "StateCode": "48",
        "CountyCode": "48283",
        "STCYFIPS": "48283",
        "CITYCD": "482831580",
        "RAILROAD": "UP",
        "RRDIV": "SOUTH TEXAS",
        "RRSUBDIV": "LAREDO SUB",
        "HIGHWAY": "FM3408",
        "STREET": "FM3408",
        "TTSTN": "698650",
        "MILEPOST": "0347.420",
        "TYPEXING": "Public",
        "POSXING": "At Grade",
        "PRVCAT": "14",
        "INIT": "2",
        "LATITUDE": 28.4080205,
        "LONGITUD": -99.2477491,
        "LLSOURCE": "1",
        "WHISTBAN": "0",
        "RRCONT": "4025443721",
        "POLCONT": "8008488715",
        "INV_LINK": "https://safetydata.fra.dot.gov/OfficeofSafety/PublicSite/Crossing/Crossing.aspx?phasetype=C&rpttype=I&txtcrossingnum=448980C",
        "ACC_LINK": "https://safetydata.fra.dot.gov/OfficeofSafety/PublicSite/Crossing/Crossing.aspx?phasetype=C&rpttype=A&txtcrossingnum=448980C",
        "TTSTNNAM": "",
        "XPURPOSE": "1",
        "OPERATINGR": "UP",
        "OPERATIN_1": "Primary",
        "DAYTHRU": 8,
        "NGHTTHRU": 7,
        "MAINTRK": 1,
        "SIDINGTRK": 0,
        "YARDTRK": 0,
        "TRANSITTRK": 0,
        "INDUSTRYTR": 0,
        "OTHRTRK": 0,
        "WDCODE": "All other Gates",
        "REVISIONDA": "1975/01/01 00:00:00",
        "LASTUPDATE": "1/7/2026",
        "AADT": "339",
        "AADTYEAR": "2024",
        "STATENAME": "TEXAS",
        "STATEAB": "TX",
        "COUNTYNAME": "LA SALLE",
        "CITYNAME": "COTULLA",
        "LATDD": 28.4080205,
        "LONGDD": -99.2477491,
        "gridlyProductionCertified": true,
        "gridlyClassification": "PUBLIC_ROADWAY",
        "gridlyDisplayName": "FM3408",
        "gridlyId": "FRA-448980C"
      }
    },
    {
      "type": "Feature",
      "id": 215444,
      "geometry": {
        "type": "Point",
        "coordinates": [
          -99.233645000355,
          28.4305356001216
        ]
      },
      "properties": {
        "OBJECTID": 215444,
        "CROSSING": "448975F",
        "EFFDATE": 1767744000000,
        "REASON": "14",
        "StateCode": "48",
        "CountyCode": "48283",
        "STCYFIPS": "48283",
        "CITYCD": "482831580",
        "RAILROAD": "UP",
        "RRDIV": "SOUTH TEXAS",
        "RRSUBDIV": "LAREDO SUB",
        "HIGHWAY": "LS0000",
        "STREET": "THORNTON STREET",
        "TTSTN": "698650",
        "MILEPOST": "0345.630",
        "TYPEXING": "Public",
        "POSXING": "At Grade",
        "PRVCAT": "14",
        "INIT": "2",
        "LATITUDE": 28.4305356,
        "LONGITUD": -99.233645,
        "LLSOURCE": "1",
        "WHISTBAN": "0",
        "RRCONT": "4025443721",
        "POLCONT": "8008488715",
        "INV_LINK": "https://safetydata.fra.dot.gov/OfficeofSafety/PublicSite/Crossing/Crossing.aspx?phasetype=C&rpttype=I&txtcrossingnum=448975F",
        "ACC_LINK": "https://safetydata.fra.dot.gov/OfficeofSafety/PublicSite/Crossing/Crossing.aspx?phasetype=C&rpttype=A&txtcrossingnum=448975F",
        "TTSTNNAM": "",
        "XPURPOSE": "1",
        "OPERATINGR": "UP",
        "OPERATIN_1": "Primary",
        "DAYTHRU": 8,
        "NGHTTHRU": 7,
        "MAINTRK": 1,
        "SIDINGTRK": 0,
        "YARDTRK": 0,
        "TRANSITTRK": 0,
        "INDUSTRYTR": 0,
        "OTHRTRK": 0,
        "WDCODE": "All other Gates",
        "REVISIONDA": "1975/01/01 00:00:00",
        "LASTUPDATE": "1/7/2026",
        "AADT": "2641",
        "AADTYEAR": "2023",
        "STATENAME": "TEXAS",
        "STATEAB": "TX",
        "COUNTYNAME": "LA SALLE",
        "CITYNAME": "COTULLA",
        "LATDD": 28.4305356,
        "LONGDD": -99.233645,
        "gridlyProductionCertified": true,
        "gridlyClassification": "PUBLIC_ROADWAY",
        "gridlyDisplayName": "THORNTON STREET",
        "gridlyId": "FRA-448975F"
      }
    },
    {
      "type": "Feature",
      "id": 215445,
      "geometry": {
        "type": "Point",
        "coordinates": [
          -99.1830665000414,
          28.6241045003491
        ]
      },
      "properties": {
        "OBJECTID": 215445,
        "CROSSING": "448974Y",
        "EFFDATE": 1767744000000,
        "REASON": "14",
        "StateCode": "48",
        "CountyCode": "48283",
        "STCYFIPS": "48283",
        "CITYCD": "482831580",
        "RAILROAD": "UP",
        "RRDIV": "SOUTH TEXAS",
        "RRSUBDIV": "LAREDO SUB",
        "HIGHWAY": "Cr0021",
        "STREET": "JOE MATHEWS ROAD",
        "TTSTN": "698187",
        "MILEPOST": "0331.940",
        "TYPEXING": "Public",
        "POSXING": "At Grade",
        "PRVCAT": "14",
        "INIT": "2",
        "LATITUDE": 28.6241045,
        "LONGITUD": -99.1830665,
        "LLSOURCE": "1",
        "WHISTBAN": "0",
        "RRCONT": "4025443721",
        "POLCONT": "8008488715",
        "INV_LINK": "https://safetydata.fra.dot.gov/OfficeofSafety/PublicSite/Crossing/Crossing.aspx?phasetype=C&rpttype=I&txtcrossingnum=448974Y",
        "ACC_LINK": "https://safetydata.fra.dot.gov/OfficeofSafety/PublicSite/Crossing/Crossing.aspx?phasetype=C&rpttype=A&txtcrossingnum=448974Y",
        "TTSTNNAM": "",
        "XPURPOSE": "1",
        "OPERATINGR": "UP",
        "OPERATIN_1": "Primary",
        "DAYTHRU": 8,
        "NGHTTHRU": 8,
        "MAINTRK": 1,
        "SIDINGTRK": 0,
        "YARDTRK": 0,
        "TRANSITTRK": 0,
        "INDUSTRYTR": 0,
        "OTHRTRK": 0,
        "WDCODE": "All other Gates",
        "REVISIONDA": "1975/01/01 00:00:00",
        "LASTUPDATE": "1/7/2026",
        "AADT": "47",
        "AADTYEAR": "2023",
        "STATENAME": "TEXAS",
        "STATEAB": "TX",
        "COUNTYNAME": "LA SALLE",
        "CITYNAME": "COTULLA",
        "LATDD": 28.6241045,
        "LONGDD": -99.1830665,
        "gridlyProductionCertified": true,
        "gridlyClassification": "PUBLIC_ROADWAY",
        "gridlyDisplayName": "JOE MATHEWS ROAD",
        "gridlyId": "FRA-448974Y"
      }
    },
    {
      "type": "Feature",
      "id": 215503,
      "geometry": {
        "type": "Point",
        "coordinates": [
          -99.3537749003816,
          28.0461669003553
        ]
      },
      "properties": {
        "OBJECTID": 215503,
        "CROSSING": "446656F",
        "EFFDATE": 1771545600000,
        "REASON": "14",
        "StateCode": "48",
        "CountyCode": "48283",
        "STCYFIPS": "48283",
        "CITYCD": "482832225",
        "RAILROAD": "UP",
        "RRDIV": "SOUTH TEXAS",
        "RRSUBDIV": "LAREDO SUB",
        "HIGHWAY": "SH0044",
        "STREET": "sh0044",
        "TTSTN": "698697",
        "MILEPOST": "0373.340",
        "TYPEXING": "Public",
        "POSXING": "At Grade",
        "PRVCAT": "14",
        "INIT": "2",
        "LATITUDE": 28.0461669,
        "LONGITUD": -99.3537749,
        "LLSOURCE": "1",
        "WHISTBAN": "0",
        "RRCONT": "4025443721",
        "POLCONT": "8008488715",
        "INV_LINK": "https://safetydata.fra.dot.gov/OfficeofSafety/PublicSite/Crossing/Crossing.aspx?phasetype=C&rpttype=I&txtcrossingnum=446656F",
        "ACC_LINK": "https://safetydata.fra.dot.gov/OfficeofSafety/PublicSite/Crossing/Crossing.aspx?phasetype=C&rpttype=A&txtcrossingnum=446656F",
        "TTSTNNAM": "",
        "XPURPOSE": "1",
        "OPERATINGR": "UP",
        "OPERATIN_1": "Primary",
        "DAYTHRU": 8,
        "NGHTTHRU": 7,
        "MAINTRK": 1,
        "SIDINGTRK": 0,
        "YARDTRK": 1,
        "TRANSITTRK": 0,
        "INDUSTRYTR": 0,
        "OTHRTRK": 1,
        "WDCODE": "All other Gates",
        "REVISIONDA": "1975/01/01 00:00:00",
        "LASTUPDATE": "2/20/2026",
        "AADT": "2885",
        "AADTYEAR": "2024",
        "STATENAME": "TEXAS",
        "STATEAB": "TX",
        "COUNTYNAME": "LA SALLE",
        "CITYNAME": "ENCINAL",
        "LATDD": 28.0461669,
        "LONGDD": -99.3537749,
        "gridlyProductionCertified": true,
        "gridlyClassification": "PUBLIC_ROADWAY",
        "gridlyDisplayName": "sh0044",
        "gridlyId": "FRA-446656F"
      }
    },
    {
      "type": "Feature",
      "id": 215598,
      "geometry": {
        "type": "Point",
        "coordinates": [
          -99.3558568996644,
          28.0392143998289
        ]
      },
      "properties": {
        "OBJECTID": 215598,
        "CROSSING": "446659B",
        "EFFDATE": 1769731200000,
        "REASON": "14",
        "StateCode": "48",
        "CountyCode": "48283",
        "STCYFIPS": "48283",
        "CITYCD": "482832225",
        "RAILROAD": "UP",
        "RRDIV": "SOUTH TEXAS",
        "RRSUBDIV": "LAREDO SUB",
        "HIGHWAY": "LS0000",
        "STREET": "HOLCOMB ROAD",
        "TTSTN": "698697",
        "MILEPOST": "0373.830",
        "TYPEXING": "Public",
        "POSXING": "At Grade",
        "PRVCAT": "14",
        "INIT": "2",
        "LATITUDE": 28.0392144,
        "LONGITUD": -99.3558569,
        "LLSOURCE": "1",
        "WHISTBAN": "0",
        "RRCONT": "4025443721",
        "POLCONT": "8008488715",
        "INV_LINK": "https://safetydata.fra.dot.gov/OfficeofSafety/PublicSite/Crossing/Crossing.aspx?phasetype=C&rpttype=I&txtcrossingnum=446659B",
        "ACC_LINK": "https://safetydata.fra.dot.gov/OfficeofSafety/PublicSite/Crossing/Crossing.aspx?phasetype=C&rpttype=A&txtcrossingnum=446659B",
        "TTSTNNAM": "",
        "XPURPOSE": "1",
        "OPERATINGR": "UP",
        "OPERATIN_1": "Primary",
        "DAYTHRU": 8,
        "NGHTTHRU": 7,
        "MAINTRK": 1,
        "SIDINGTRK": 0,
        "YARDTRK": 1,
        "TRANSITTRK": 0,
        "INDUSTRYTR": 0,
        "OTHRTRK": 1,
        "WDCODE": "All other Gates",
        "REVISIONDA": "1975/01/01 00:00:00",
        "LASTUPDATE": "1/30/2026",
        "AADT": "707",
        "AADTYEAR": "2023",
        "STATENAME": "TEXAS",
        "STATEAB": "TX",
        "COUNTYNAME": "LA SALLE",
        "CITYNAME": "ENCINAL",
        "LATDD": 28.0392144,
        "LONGDD": -99.3558569,
        "gridlyProductionCertified": true,
        "gridlyClassification": "PUBLIC_ROADWAY",
        "gridlyDisplayName": "HOLCOMB ROAD",
        "gridlyId": "FRA-446659B"
      }
    },
    {
      "type": "Feature",
      "id": 215599,
      "geometry": {
        "type": "Point",
        "coordinates": [
          -99.3553925003069,
          28.0407343999216
        ]
      },
      "properties": {
        "OBJECTID": 215599,
        "CROSSING": "446658U",
        "EFFDATE": 1769731200000,
        "REASON": "14",
        "StateCode": "48",
        "CountyCode": "48283",
        "STCYFIPS": "48283",
        "CITYCD": "482832225",
        "RAILROAD": "UP",
        "RRDIV": "SOUTH TEXAS",
        "RRSUBDIV": "LAREDO SUB",
        "HIGHWAY": "LS0000",
        "STREET": "ENCINAL BOULEVARD",
        "TTSTN": "698697",
        "MILEPOST": "0373.730",
        "TYPEXING": "Public",
        "POSXING": "At Grade",
        "PRVCAT": "14",
        "INIT": "2",
        "LATITUDE": 28.0407344,
        "LONGITUD": -99.3553925,
        "LLSOURCE": "1",
        "WHISTBAN": "0",
        "RRCONT": "4025443721",
        "POLCONT": "8008488715",
        "INV_LINK": "https://safetydata.fra.dot.gov/OfficeofSafety/PublicSite/Crossing/Crossing.aspx?phasetype=C&rpttype=I&txtcrossingnum=446658U",
        "ACC_LINK": "https://safetydata.fra.dot.gov/OfficeofSafety/PublicSite/Crossing/Crossing.aspx?phasetype=C&rpttype=A&txtcrossingnum=446658U",
        "TTSTNNAM": "",
        "XPURPOSE": "1",
        "OPERATINGR": "UP",
        "OPERATIN_1": "Primary",
        "DAYTHRU": 8,
        "NGHTTHRU": 7,
        "MAINTRK": 1,
        "SIDINGTRK": 0,
        "YARDTRK": 1,
        "TRANSITTRK": 0,
        "INDUSTRYTR": 0,
        "OTHRTRK": 1,
        "WDCODE": "All other Gates",
        "REVISIONDA": "1975/01/01 00:00:00",
        "LASTUPDATE": "1/30/2026",
        "AADT": "1435",
        "AADTYEAR": "2024",
        "STATENAME": "TEXAS",
        "STATEAB": "TX",
        "COUNTYNAME": "LA SALLE",
        "CITYNAME": "ENCINAL",
        "LATDD": 28.0407344,
        "LONGDD": -99.3553925,
        "gridlyProductionCertified": true,
        "gridlyClassification": "PUBLIC_ROADWAY",
        "gridlyDisplayName": "ENCINAL BOULEVARD",
        "gridlyId": "FRA-446658U"
      }
    }
  ]
}
