{
  "type": "FeatureCollection",
  "features": [
    {
      "type": "Feature",
      "id": 203243,
      "geometry": {
        "type": "Point",
        "coordinates": [
          -103.325103999622,
          30.6194519997633
        ]
      },
      "properties": {
        "OBJECTID": 203243,
        "CROSSING": "019017L",
        "EFFDATE": 1704758400000,
        "REASON": "14",
        "StateCode": "48",
        "CountyCode": "48043",
        "STCYFIPS": "48043",
        "CITYCD": "480430100",
        "RAILROAD": "TXPF",
        "RRDIV": "SOUTHERN",
        "RRSUBDIV": "ALPINE",
        "HIGHWAY": "private",
        "STREET": "PRIVATE ROAD",
        "TTSTN": "697216",
        "MILEPOST": "0944.00",
        "TYPEXING": "Private",
        "POSXING": "At Grade",
        "PRVCAT": "14",
        "INIT": "1",
        "LATITUDE": 30.619452,
        "LONGITUD": -103.325104,
        "LLSOURCE": "1",
        "WHISTBAN": "0",
        "RRCONT": "3259428164",
        "POLCONT": "8007428905",
        "INV_LINK": "https://safetydata.fra.dot.gov/OfficeofSafety/PublicSite/Crossing/Crossing.aspx?phasetype=C&rpttype=I&txtcrossingnum=019017L",
        "ACC_LINK": "https://safetydata.fra.dot.gov/OfficeofSafety/PublicSite/Crossing/Crossing.aspx?phasetype=C&rpttype=A&txtcrossingnum=019017L",
        "TTSTNNAM": "ALPINE",
        "XPURPOSE": "1",
        "OPERATINGR": "TXPF",
        "OPERATIN_1": "Primary",
        "DAYTHRU": 0,
        "NGHTTHRU": 0,
        "MAINTRK": 1,
        "SIDINGTRK": 0,
        "YARDTRK": 0,
        "TRANSITTRK": 0,
        "INDUSTRYTR": 0,
        "OTHRTRK": 0,
        "WDCODE": "",
        "REVISIONDA": "2001/01/01 00:00:00",
        "LASTUPDATE": "1/9/2024",
        "AADT": "",
        "AADTYEAR": "1970",
        "STATENAME": "TEXAS",
        "STATEAB": "TX",
        "COUNTYNAME": "BREWSTER",
        "CITYNAME": "ALPINE",
        "LATDD": 30.619452,
        "LONGDD": -103.325104,
        "gridlyProductionCertified": true,
        "gridlyClassification": "PUBLIC_ROADWAY",
        "gridlyDisplayName": "PRIVATE ROAD",
        "gridlyId": "FRA-019017L"
      }
    },
    {
      "type": "Feature",
      "id": 203289,
      "geometry": {
        "type": "Point",
        "coordinates": [
          -102.617598999925,
          31.0284210002808
        ]
      },
      "properties": {
        "OBJECTID": 203289,
        "CROSSING": "018910B",
        "EFFDATE": 1704758400000,
        "REASON": "14",
        "StateCode": "48",
        "CountyCode": "48371",
        "STCYFIPS": "48371",
        "CITYCD": "483712440",
        "RAILROAD": "TXPF",
        "RRDIV": "SOUTHERN",
        "RRSUBDIV": "BIG LAKE",
        "HIGHWAY": "us67",
        "STREET": "PRIVATE ROAD",
        "TTSTN": "695126",
        "MILEPOST": "0863.67",
        "TYPEXING": "Private",
        "POSXING": "At Grade",
        "PRVCAT": "14",
        "INIT": "1",
        "LATITUDE": 31.028421,
        "LONGITUD": -102.617599,
        "LLSOURCE": "1",
        "WHISTBAN": "0",
        "RRCONT": "3259428164",
        "POLCONT": "8007428905",
        "INV_LINK": "https://safetydata.fra.dot.gov/OfficeofSafety/PublicSite/Crossing/Crossing.aspx?phasetype=C&rpttype=I&txtcrossingnum=018910B",
        "ACC_LINK": "https://safetydata.fra.dot.gov/OfficeofSafety/PublicSite/Crossing/Crossing.aspx?phasetype=C&rpttype=A&txtcrossingnum=018910B",
        "TTSTNNAM": "BALDRIDGE",
        "XPURPOSE": "1",
        "OPERATINGR": "TXPF",
        "OPERATIN_1": "Primary",
        "DAYTHRU": 1,
        "NGHTTHRU": 1,
        "MAINTRK": 1,
        "SIDINGTRK": 0,
        "YARDTRK": 0,
        "TRANSITTRK": 0,
        "INDUSTRYTR": 0,
        "OTHRTRK": 0,
        "WDCODE": "",
        "REVISIONDA": "2001/01/01 00:00:00",
        "LASTUPDATE": "1/9/2024",
        "AADT": "",
        "AADTYEAR": "1970",
        "STATENAME": "TEXAS",
        "STATEAB": "TX",
        "COUNTYNAME": "PECOS",
        "CITYNAME": "FORT STOCKTON",
        "LATDD": 31.028421,
        "LONGDD": -102.617599,
        "gridlyProductionCertified": true,
        "gridlyClassification": "PUBLIC_ROADWAY",
        "gridlyDisplayName": "PRIVATE ROAD",
        "gridlyId": "FRA-018910B"
      }
    },
    {
      "type": "Feature",
      "id": 203290,
      "geometry": {
        "type": "Point",
        "coordinates": [
          -102.626922999636,
          31.0251729998648
        ]
      },
      "properties": {
        "OBJECTID": 203290,
        "CROSSING": "018911H",
        "EFFDATE": 1704758400000,
        "REASON": "14",
        "StateCode": "48",
        "CountyCode": "48371",
        "STCYFIPS": "48371",
        "CITYCD": "483712440",
        "RAILROAD": "TXPF",
        "RRDIV": "SOUTHERN",
        "RRSUBDIV": "BIG LAKE",
        "HIGHWAY": "us67",
        "STREET": "PRIVATE ROAD",
        "TTSTN": "695126",
        "MILEPOST": "0864.38",
        "TYPEXING": "Private",
        "POSXING": "At Grade",
        "PRVCAT": "14",
        "INIT": "1",
        "LATITUDE": 31.025173,
        "LONGITUD": -102.626923,
        "LLSOURCE": "1",
        "WHISTBAN": "0",
        "RRCONT": "3259428164",
        "POLCONT": "8007428905",
        "INV_LINK": "https://safetydata.fra.dot.gov/OfficeofSafety/PublicSite/Crossing/Crossing.aspx?phasetype=C&rpttype=I&txtcrossingnum=018911H",
        "ACC_LINK": "https://safetydata.fra.dot.gov/OfficeofSafety/PublicSite/Crossing/Crossing.aspx?phasetype=C&rpttype=A&txtcrossingnum=018911H",
        "TTSTNNAM": "BALDRIDGE",
        "XPURPOSE": "1",
        "OPERATINGR": "TXPF",
        "OPERATIN_1": "Primary",
        "DAYTHRU": 1,
        "NGHTTHRU": 1,
        "MAINTRK": 1,
        "SIDINGTRK": 0,
        "YARDTRK": 0,
        "TRANSITTRK": 0,
        "INDUSTRYTR": 0,
        "OTHRTRK": 0,
        "WDCODE": "",
        "REVISIONDA": "2001/01/01 00:00:00",
        "LASTUPDATE": "1/9/2024",
        "AADT": "",
        "AADTYEAR": "1970",
        "STATENAME": "TEXAS",
        "STATEAB": "TX",
        "COUNTYNAME": "PECOS",
        "CITYNAME": "FORT STOCKTON",
        "LATDD": 31.025173,
        "LONGDD": -102.626923,
        "gridlyProductionCertified": true,
        "gridlyClassification": "PUBLIC_ROADWAY",
        "gridlyDisplayName": "PRIVATE ROAD",
        "gridlyId": "FRA-018911H"
      }
    },
    {
      "type": "Feature",
      "id": 203291,
      "geometry": {
        "type": "Point",
        "coordinates": [
          -102.67338599963,
          31.0080090001739
        ]
      },
      "properties": {
        "OBJECTID": 203291,
        "CROSSING": "018912P",
        "EFFDATE": 1704758400000,
        "REASON": "14",
        "StateCode": "48",
        "CountyCode": "48371",
        "STCYFIPS": "48371",
        "CITYCD": "483712440",
        "RAILROAD": "TXPF",
        "RRDIV": "SOUTHERN",
        "RRSUBDIV": "BIG LAKE",
        "HIGHWAY": "CO 0000",
        "STREET": "PRIVATE",
        "TTSTN": "695102",
        "MILEPOST": "0867.40",
        "TYPEXING": "Private",
        "POSXING": "At Grade",
        "PRVCAT": "14",
        "INIT": "1",
        "LATITUDE": 31.008009,
        "LONGITUD": -102.673386,
        "LLSOURCE": "1",
        "WHISTBAN": "0",
        "RRCONT": "3259428164",
        "POLCONT": "8007428905",
        "INV_LINK": "https://safetydata.fra.dot.gov/OfficeofSafety/PublicSite/Crossing/Crossing.aspx?phasetype=C&rpttype=I&txtcrossingnum=018912P",
        "ACC_LINK": "https://safetydata.fra.dot.gov/OfficeofSafety/PublicSite/Crossing/Crossing.aspx?phasetype=C&rpttype=A&txtcrossingnum=018912P",
        "TTSTNNAM": "SULPHR SP JCT",
        "XPURPOSE": "1",
        "OPERATINGR": "TXPF",
        "OPERATIN_1": "Primary",
        "DAYTHRU": 1,
        "NGHTTHRU": 1,
        "MAINTRK": 1,
        "SIDINGTRK": 0,
        "YARDTRK": 0,
        "TRANSITTRK": 0,
        "INDUSTRYTR": 0,
        "OTHRTRK": 0,
        "WDCODE": "",
        "REVISIONDA": "2001/01/01 00:00:00",
        "LASTUPDATE": "1/9/2024",
        "AADT": "000010",
        "AADTYEAR": "1987",
        "STATENAME": "TEXAS",
        "STATEAB": "TX",
        "COUNTYNAME": "PECOS",
        "CITYNAME": "FORT STOCKTON",
        "LATDD": 31.008009,
        "LONGDD": -102.673386,
        "gridlyProductionCertified": true,
        "gridlyClassification": "PUBLIC_ROADWAY",
        "gridlyDisplayName": "PRIVATE",
        "gridlyId": "FRA-018912P"
      }
    },
    {
      "type": "Feature",
      "id": 203292,
      "geometry": {
        "type": "Point",
        "coordinates": [
          -102.678428999701,
          31.0061070001142
        ]
      },
      "properties": {
        "OBJECTID": 203292,
        "CROSSING": "018936D",
        "EFFDATE": 1704758400000,
        "REASON": "14",
        "StateCode": "48",
        "CountyCode": "48371",
        "STCYFIPS": "48371",
        "CITYCD": "483712440",
        "RAILROAD": "TXPF",
        "RRDIV": "SOUTHERN",
        "RRSUBDIV": "BIG LAKE",
        "HIGHWAY": "us67",
        "STREET": "PRIVATE ROAD",
        "TTSTN": "695102",
        "MILEPOST": "0867.79",
        "TYPEXING": "Private",
        "POSXING": "At Grade",
        "PRVCAT": "14",
        "INIT": "1",
        "LATITUDE": 31.006107,
        "LONGITUD": -102.678429,
        "LLSOURCE": "1",
        "WHISTBAN": "0",
        "RRCONT": "3259428164",
        "POLCONT": "8007428905",
        "INV_LINK": "https://safetydata.fra.dot.gov/OfficeofSafety/PublicSite/Crossing/Crossing.aspx?phasetype=C&rpttype=I&txtcrossingnum=018936D",
        "ACC_LINK": "https://safetydata.fra.dot.gov/OfficeofSafety/PublicSite/Crossing/Crossing.aspx?phasetype=C&rpttype=A&txtcrossingnum=018936D",
        "TTSTNNAM": "SULPHR SP JCT",
        "XPURPOSE": "1",
        "OPERATINGR": "TXPF",
        "OPERATIN_1": "Primary",
        "DAYTHRU": 1,
        "NGHTTHRU": 1,
        "MAINTRK": 1,
        "SIDINGTRK": 0,
        "YARDTRK": 0,
        "TRANSITTRK": 0,
        "INDUSTRYTR": 0,
        "OTHRTRK": 0,
        "WDCODE": "",
        "REVISIONDA": "2001/01/01 00:00:00",
        "LASTUPDATE": "1/9/2024",
        "AADT": "",
        "AADTYEAR": "1981",
        "STATENAME": "TEXAS",
        "STATEAB": "TX",
        "COUNTYNAME": "PECOS",
        "CITYNAME": "FORT STOCKTON",
        "LATDD": 31.006107,
        "LONGDD": -102.678429,
        "gridlyProductionCertified": true,
        "gridlyClassification": "PUBLIC_ROADWAY",
        "gridlyDisplayName": "PRIVATE ROAD",
        "gridlyId": "FRA-018936D"
      }
    },
    {
      "type": "Feature",
      "id": 203293,
      "geometry": {
        "type": "Point",
        "coordinates": [
          -102.901923999747,
          30.8776280000092
        ]
      },
      "properties": {
        "OBJECTID": 203293,
        "CROSSING": "018986G",
        "EFFDATE": 1704758400000,
        "REASON": "14",
        "StateCode": "48",
        "CountyCode": "48371",
        "STCYFIPS": "48371",
        "CITYCD": "483712440",
        "RAILROAD": "TXPF",
        "RRDIV": "SOUTHERN",
        "RRSUBDIV": "ALPINE",
        "HIGHWAY": "ST 0000",
        "STREET": "EL PASO ST",
        "TTSTN": "695150",
        "MILEPOST": "0883.61",
        "TYPEXING": "Private",
        "POSXING": "At Grade",
        "PRVCAT": "14",
        "INIT": "1",
        "LATITUDE": 30.877628,
        "LONGITUD": -102.901924,
        "LLSOURCE": "1",
        "WHISTBAN": "0",
        "RRCONT": "3259428164",
        "POLCONT": "8007428905",
        "INV_LINK": "https://safetydata.fra.dot.gov/OfficeofSafety/PublicSite/Crossing/Crossing.aspx?phasetype=C&rpttype=I&txtcrossingnum=018986G",
        "ACC_LINK": "https://safetydata.fra.dot.gov/OfficeofSafety/PublicSite/Crossing/Crossing.aspx?phasetype=C&rpttype=A&txtcrossingnum=018986G",
        "TTSTNNAM": "FT STOCKTON",
        "XPURPOSE": "1",
        "OPERATINGR": "TXPF",
        "OPERATIN_1": "Primary",
        "DAYTHRU": 1,
        "NGHTTHRU": 1,
        "MAINTRK": 1,
        "SIDINGTRK": 0,
        "YARDTRK": 0,
        "TRANSITTRK": 0,
        "INDUSTRYTR": 0,
        "OTHRTRK": 0,
        "WDCODE": "",
        "REVISIONDA": "2001/01/01 00:00:00",
        "LASTUPDATE": "1/9/2024",
        "AADT": "000010",
        "AADTYEAR": "1993",
        "STATENAME": "TEXAS",
        "STATEAB": "TX",
        "COUNTYNAME": "PECOS",
        "CITYNAME": "FORT STOCKTON",
        "LATDD": 30.877628,
        "LONGDD": -102.901924,
        "gridlyProductionCertified": true,
        "gridlyClassification": "PUBLIC_ROADWAY",
        "gridlyDisplayName": "EL PASO ST",
        "gridlyId": "FRA-018986G"
      }
    },
    {
      "type": "Feature",
      "id": 203294,
      "geometry": {
        "type": "Point",
        "coordinates": [
          -102.896278000152,
          30.8800870001664
        ]
      },
      "properties": {
        "OBJECTID": 203294,
        "CROSSING": "018988V",
        "EFFDATE": 1704758400000,
        "REASON": "14",
        "StateCode": "48",
        "CountyCode": "48371",
        "STCYFIPS": "48371",
        "CITYCD": "483712440",
        "RAILROAD": "TXPF",
        "RRDIV": "SOUTHERN",
        "RRSUBDIV": "ALPINE",
        "HIGHWAY": "us67",
        "STREET": "PRIVATE ROAD",
        "TTSTN": "695150",
        "MILEPOST": "0884.29",
        "TYPEXING": "Private",
        "POSXING": "At Grade",
        "PRVCAT": "14",
        "INIT": "1",
        "LATITUDE": 30.880087,
        "LONGITUD": -102.896278,
        "LLSOURCE": "1",
        "WHISTBAN": "0",
        "RRCONT": "3259428164",
        "POLCONT": "8007428905",
        "INV_LINK": "https://safetydata.fra.dot.gov/OfficeofSafety/PublicSite/Crossing/Crossing.aspx?phasetype=C&rpttype=I&txtcrossingnum=018988V",
        "ACC_LINK": "https://safetydata.fra.dot.gov/OfficeofSafety/PublicSite/Crossing/Crossing.aspx?phasetype=C&rpttype=A&txtcrossingnum=018988V",
        "TTSTNNAM": "FT STOCKTON",
        "XPURPOSE": "1",
        "OPERATINGR": "TXPF",
        "OPERATIN_1": "Primary",
        "DAYTHRU": 1,
        "NGHTTHRU": 1,
        "MAINTRK": 1,
        "SIDINGTRK": 0,
        "YARDTRK": 0,
        "TRANSITTRK": 0,
        "INDUSTRYTR": 0,
        "OTHRTRK": 0,
        "WDCODE": "",
        "REVISIONDA": "2001/01/01 00:00:00",
        "LASTUPDATE": "1/9/2024",
        "AADT": "",
        "AADTYEAR": "1970",
        "STATENAME": "TEXAS",
        "STATEAB": "TX",
        "COUNTYNAME": "PECOS",
        "CITYNAME": "FORT STOCKTON",
        "LATDD": 30.880087,
        "LONGDD": -102.896278,
        "gridlyProductionCertified": true,
        "gridlyClassification": "PUBLIC_ROADWAY",
        "gridlyDisplayName": "PRIVATE ROAD",
        "gridlyId": "FRA-018988V"
      }
    },
    {
      "type": "Feature",
      "id": 203295,
      "geometry": {
        "type": "Point",
        "coordinates": [
          -102.912421999618,
          30.8714240002622
        ]
      },
      "properties": {
        "OBJECTID": 203295,
        "CROSSING": "018989C",
        "EFFDATE": 1704758400000,
        "REASON": "14",
        "StateCode": "48",
        "CountyCode": "48371",
        "STCYFIPS": "48371",
        "CITYCD": "483712440",
        "RAILROAD": "TXPF",
        "RRDIV": "SOUTHERN",
        "RRSUBDIV": "ALPINE",
        "HIGHWAY": "us67",
        "STREET": "PRIVATE ROAD",
        "TTSTN": "695150",
        "MILEPOST": "0885.20",
        "TYPEXING": "Private",
        "POSXING": "At Grade",
        "PRVCAT": "14",
        "INIT": "1",
        "LATITUDE": 30.871424,
        "LONGITUD": -102.912422,
        "LLSOURCE": "1",
        "WHISTBAN": "0",
        "RRCONT": "3259428164",
        "POLCONT": "8007428905",
        "INV_LINK": "https://safetydata.fra.dot.gov/OfficeofSafety/PublicSite/Crossing/Crossing.aspx?phasetype=C&rpttype=I&txtcrossingnum=018989C",
        "ACC_LINK": "https://safetydata.fra.dot.gov/OfficeofSafety/PublicSite/Crossing/Crossing.aspx?phasetype=C&rpttype=A&txtcrossingnum=018989C",
        "TTSTNNAM": "FT STOCKTON",
        "XPURPOSE": "1",
        "OPERATINGR": "TXPF",
        "OPERATIN_1": "Primary",
        "DAYTHRU": 1,
        "NGHTTHRU": 1,
        "MAINTRK": 1,
        "SIDINGTRK": 0,
        "YARDTRK": 0,
        "TRANSITTRK": 0,
        "INDUSTRYTR": 0,
        "OTHRTRK": 0,
        "WDCODE": "",
        "REVISIONDA": "2001/01/01 00:00:00",
        "LASTUPDATE": "1/9/2024",
        "AADT": "",
        "AADTYEAR": "1976",
        "STATENAME": "TEXAS",
        "STATEAB": "TX",
        "COUNTYNAME": "PECOS",
        "CITYNAME": "FORT STOCKTON",
        "LATDD": 30.871424,
        "LONGDD": -102.912422,
        "gridlyProductionCertified": true,
        "gridlyClassification": "PUBLIC_ROADWAY",
        "gridlyDisplayName": "PRIVATE ROAD",
        "gridlyId": "FRA-018989C"
      }
    },
    {
      "type": "Feature",
      "id": 203296,
      "geometry": {
        "type": "Point",
        "coordinates": [
          -102.918029999579,
          30.86762799963
        ]
      },
      "properties": {
        "OBJECTID": 203296,
        "CROSSING": "018990W",
        "EFFDATE": 1704758400000,
        "REASON": "14",
        "StateCode": "48",
        "CountyCode": "48371",
        "STCYFIPS": "48371",
        "CITYCD": "483712440",
        "RAILROAD": "TXPF",
        "RRDIV": "SOUTHERN",
        "RRSUBDIV": "ALPINE",
        "HIGHWAY": "us67",
        "STREET": "PRIVATE ROAD",
        "TTSTN": "695150",
        "MILEPOST": "0886.20",
        "TYPEXING": "Private",
        "POSXING": "At Grade",
        "PRVCAT": "14",
        "INIT": "1",
        "LATITUDE": 30.867628,
        "LONGITUD": -102.91803,
        "LLSOURCE": "1",
        "WHISTBAN": "0",
        "RRCONT": "3259428164",
        "POLCONT": "8007428905",
        "INV_LINK": "https://safetydata.fra.dot.gov/OfficeofSafety/PublicSite/Crossing/Crossing.aspx?phasetype=C&rpttype=I&txtcrossingnum=018990W",
        "ACC_LINK": "https://safetydata.fra.dot.gov/OfficeofSafety/PublicSite/Crossing/Crossing.aspx?phasetype=C&rpttype=A&txtcrossingnum=018990W",
        "TTSTNNAM": "FT STOCKTON",
        "XPURPOSE": "1",
        "OPERATINGR": "TXPF",
        "OPERATIN_1": "Primary",
        "DAYTHRU": 1,
        "NGHTTHRU": 1,
        "MAINTRK": 1,
        "SIDINGTRK": 0,
        "YARDTRK": 0,
        "TRANSITTRK": 0,
        "INDUSTRYTR": 0,
        "OTHRTRK": 0,
        "WDCODE": "",
        "REVISIONDA": "2001/01/01 00:00:00",
        "LASTUPDATE": "1/9/2024",
        "AADT": "",
        "AADTYEAR": "1970",
        "STATENAME": "TEXAS",
        "STATEAB": "TX",
        "COUNTYNAME": "PECOS",
        "CITYNAME": "FORT STOCKTON",
        "LATDD": 30.867628,
        "LONGDD": -102.91803,
        "gridlyProductionCertified": true,
        "gridlyClassification": "PUBLIC_ROADWAY",
        "gridlyDisplayName": "PRIVATE ROAD",
        "gridlyId": "FRA-018990W"
      }
    },
    {
      "type": "Feature",
      "id": 203297,
      "geometry": {
        "type": "Point",
        "coordinates": [
          -102.926682000169,
          30.861340000276
        ]
      },
      "properties": {
        "OBJECTID": 203297,
        "CROSSING": "018991D",
        "EFFDATE": 1704758400000,
        "REASON": "14",
        "StateCode": "48",
        "CountyCode": "48371",
        "STCYFIPS": "48371",
        "CITYCD": "483712440",
        "RAILROAD": "TXPF",
        "RRDIV": "SOUTHERN",
        "RRSUBDIV": "ALPINE",
        "HIGHWAY": "us67",
        "STREET": "PRIVATE ROAD",
        "TTSTN": "695161",
        "MILEPOST": "0887.33",
        "TYPEXING": "Private",
        "POSXING": "At Grade",
        "PRVCAT": "14",
        "INIT": "1",
        "LATITUDE": 30.86134,
        "LONGITUD": -102.926682,
        "LLSOURCE": "1",
        "WHISTBAN": "0",
        "RRCONT": "3259428164",
        "POLCONT": "8007428905",
        "INV_LINK": "https://safetydata.fra.dot.gov/OfficeofSafety/PublicSite/Crossing/Crossing.aspx?phasetype=C&rpttype=I&txtcrossingnum=018991D",
        "ACC_LINK": "https://safetydata.fra.dot.gov/OfficeofSafety/PublicSite/Crossing/Crossing.aspx?phasetype=C&rpttype=A&txtcrossingnum=018991D",
        "TTSTNNAM": "BELDING",
        "XPURPOSE": "1",
        "OPERATINGR": "TXPF",
        "OPERATIN_1": "Primary",
        "DAYTHRU": 1,
        "NGHTTHRU": 1,
        "MAINTRK": 1,
        "SIDINGTRK": 0,
        "YARDTRK": 0,
        "TRANSITTRK": 0,
        "INDUSTRYTR": 0,
        "OTHRTRK": 0,
        "WDCODE": "",
        "REVISIONDA": "2001/01/01 00:00:00",
        "LASTUPDATE": "1/9/2024",
        "AADT": "",
        "AADTYEAR": "1970",
        "STATENAME": "TEXAS",
        "STATEAB": "TX",
        "COUNTYNAME": "PECOS",
        "CITYNAME": "FORT STOCKTON",
        "LATDD": 30.86134,
        "LONGDD": -102.926682,
        "gridlyProductionCertified": true,
        "gridlyClassification": "PUBLIC_ROADWAY",
        "gridlyDisplayName": "PRIVATE ROAD",
        "gridlyId": "FRA-018991D"
      }
    },
    {
      "type": "Feature",
      "id": 203298,
      "geometry": {
        "type": "Point",
        "coordinates": [
          -102.935386999564,
          30.8550150001395
        ]
      },
      "properties": {
        "OBJECTID": 203298,
        "CROSSING": "018992K",
        "EFFDATE": 1704758400000,
        "REASON": "14",
        "StateCode": "48",
        "CountyCode": "48371",
        "STCYFIPS": "48371",
        "CITYCD": "483712440",
        "RAILROAD": "TXPF",
        "RRDIV": "SOUTHERN",
        "RRSUBDIV": "ALPINE",
        "HIGHWAY": "us67",
        "STREET": "PRIVATE ROAD",
        "TTSTN": "695161",
        "MILEPOST": "0889.24",
        "TYPEXING": "Private",
        "POSXING": "At Grade",
        "PRVCAT": "14",
        "INIT": "1",
        "LATITUDE": 30.855015,
        "LONGITUD": -102.935387,
        "LLSOURCE": "1",
        "WHISTBAN": "0",
        "RRCONT": "3259428164",
        "POLCONT": "8007428905",
        "INV_LINK": "https://safetydata.fra.dot.gov/OfficeofSafety/PublicSite/Crossing/Crossing.aspx?phasetype=C&rpttype=I&txtcrossingnum=018992K",
        "ACC_LINK": "https://safetydata.fra.dot.gov/OfficeofSafety/PublicSite/Crossing/Crossing.aspx?phasetype=C&rpttype=A&txtcrossingnum=018992K",
        "TTSTNNAM": "BELDING",
        "XPURPOSE": "1",
        "OPERATINGR": "TXPF",
        "OPERATIN_1": "Primary",
        "DAYTHRU": 1,
        "NGHTTHRU": 1,
        "MAINTRK": 1,
        "SIDINGTRK": 0,
        "YARDTRK": 0,
        "TRANSITTRK": 0,
        "INDUSTRYTR": 0,
        "OTHRTRK": 0,
        "WDCODE": "",
        "REVISIONDA": "2001/01/01 00:00:00",
        "LASTUPDATE": "1/9/2024",
        "AADT": "",
        "AADTYEAR": "1970",
        "STATENAME": "TEXAS",
        "STATEAB": "TX",
        "COUNTYNAME": "PECOS",
        "CITYNAME": "FORT STOCKTON",
        "LATDD": 30.855015,
        "LONGDD": -102.935387,
        "gridlyProductionCertified": true,
        "gridlyClassification": "PUBLIC_ROADWAY",
        "gridlyDisplayName": "PRIVATE ROAD",
        "gridlyId": "FRA-018992K"
      }
    },
    {
      "type": "Feature",
      "id": 203299,
      "geometry": {
        "type": "Point",
        "coordinates": [
          -102.953377000108,
          30.8419339999088
        ]
      },
      "properties": {
        "OBJECTID": 203299,
        "CROSSING": "018993S",
        "EFFDATE": 1704758400000,
        "REASON": "14",
        "StateCode": "48",
        "CountyCode": "48371",
        "STCYFIPS": "48371",
        "CITYCD": "483712440",
        "RAILROAD": "TXPF",
        "RRDIV": "SOUTHERN",
        "RRSUBDIV": "ALPINE",
        "HIGHWAY": "CO 0000",
        "STREET": "PRIVATE",
        "TTSTN": "695161",
        "MILEPOST": "0892.02",
        "TYPEXING": "Private",
        "POSXING": "At Grade",
        "PRVCAT": "14",
        "INIT": "1",
        "LATITUDE": 30.841934,
        "LONGITUD": -102.953377,
        "LLSOURCE": "1",
        "WHISTBAN": "0",
        "RRCONT": "3259428164",
        "POLCONT": "8007428905",
        "INV_LINK": "https://safetydata.fra.dot.gov/OfficeofSafety/PublicSite/Crossing/Crossing.aspx?phasetype=C&rpttype=I&txtcrossingnum=018993S",
        "ACC_LINK": "https://safetydata.fra.dot.gov/OfficeofSafety/PublicSite/Crossing/Crossing.aspx?phasetype=C&rpttype=A&txtcrossingnum=018993S",
        "TTSTNNAM": "BELDING",
        "XPURPOSE": "1",
        "OPERATINGR": "TXPF",
        "OPERATIN_1": "Primary",
        "DAYTHRU": 1,
        "NGHTTHRU": 1,
        "MAINTRK": 1,
        "SIDINGTRK": 0,
        "YARDTRK": 0,
        "TRANSITTRK": 0,
        "INDUSTRYTR": 0,
        "OTHRTRK": 0,
        "WDCODE": "",
        "REVISIONDA": "2001/01/01 00:00:00",
        "LASTUPDATE": "1/9/2024",
        "AADT": "000030",
        "AADTYEAR": "1993",
        "STATENAME": "TEXAS",
        "STATEAB": "TX",
        "COUNTYNAME": "PECOS",
        "CITYNAME": "FORT STOCKTON",
        "LATDD": 30.841934,
        "LONGDD": -102.953377,
        "gridlyProductionCertified": true,
        "gridlyClassification": "PUBLIC_ROADWAY",
        "gridlyDisplayName": "PRIVATE",
        "gridlyId": "FRA-018993S"
      }
    },
    {
      "type": "Feature",
      "id": 203300,
      "geometry": {
        "type": "Point",
        "coordinates": [
          -102.961960000203,
          30.8356360001625
        ]
      },
      "properties": {
        "OBJECTID": 203300,
        "CROSSING": "018994Y",
        "EFFDATE": 1704758400000,
        "REASON": "14",
        "StateCode": "48",
        "CountyCode": "48371",
        "STCYFIPS": "48371",
        "CITYCD": "483712440",
        "RAILROAD": "TXPF",
        "RRDIV": "SOUTHERN",
        "RRSUBDIV": "ALPINE",
        "HIGHWAY": "us67",
        "STREET": "PRIVATE ROAD",
        "TTSTN": "695161",
        "MILEPOST": "0892.90",
        "TYPEXING": "Private",
        "POSXING": "At Grade",
        "PRVCAT": "14",
        "INIT": "1",
        "LATITUDE": 30.835636,
        "LONGITUD": -102.96196,
        "LLSOURCE": "1",
        "WHISTBAN": "0",
        "RRCONT": "3259428164",
        "POLCONT": "8007428905",
        "INV_LINK": "https://safetydata.fra.dot.gov/OfficeofSafety/PublicSite/Crossing/Crossing.aspx?phasetype=C&rpttype=I&txtcrossingnum=018994Y",
        "ACC_LINK": "https://safetydata.fra.dot.gov/OfficeofSafety/PublicSite/Crossing/Crossing.aspx?phasetype=C&rpttype=A&txtcrossingnum=018994Y",
        "TTSTNNAM": "BELDING",
        "XPURPOSE": "1",
        "OPERATINGR": "TXPF",
        "OPERATIN_1": "Primary",
        "DAYTHRU": 1,
        "NGHTTHRU": 1,
        "MAINTRK": 1,
        "SIDINGTRK": 1,
        "YARDTRK": 0,
        "TRANSITTRK": 0,
        "INDUSTRYTR": 0,
        "OTHRTRK": 0,
        "WDCODE": "",
        "REVISIONDA": "2001/01/01 00:00:00",
        "LASTUPDATE": "1/9/2024",
        "AADT": "",
        "AADTYEAR": "1976",
        "STATENAME": "TEXAS",
        "STATEAB": "TX",
        "COUNTYNAME": "PECOS",
        "CITYNAME": "FORT STOCKTON",
        "LATDD": 30.835636,
        "LONGDD": -102.96196,
        "gridlyProductionCertified": true,
        "gridlyClassification": "PUBLIC_ROADWAY",
        "gridlyDisplayName": "PRIVATE ROAD",
        "gridlyId": "FRA-018994Y"
      }
    },
    {
      "type": "Feature",
      "id": 203301,
      "geometry": {
        "type": "Point",
        "coordinates": [
          -102.970215000234,
          30.829525000168
        ]
      },
      "properties": {
        "OBJECTID": 203301,
        "CROSSING": "018995F",
        "EFFDATE": 1704758400000,
        "REASON": "14",
        "StateCode": "48",
        "CountyCode": "48371",
        "STCYFIPS": "48371",
        "CITYCD": "483712440",
        "RAILROAD": "TXPF",
        "RRDIV": "SOUTHERN",
        "RRSUBDIV": "ALPINE",
        "HIGHWAY": "us67",
        "STREET": "PRIVATE ROAD",
        "TTSTN": "695161",
        "MILEPOST": "0894.22",
        "TYPEXING": "Private",
        "POSXING": "At Grade",
        "PRVCAT": "14",
        "INIT": "1",
        "LATITUDE": 30.829525,
        "LONGITUD": -102.970215,
        "LLSOURCE": "1",
        "WHISTBAN": "0",
        "RRCONT": "3259428164",
        "POLCONT": "8007428905",
        "INV_LINK": "https://safetydata.fra.dot.gov/OfficeofSafety/PublicSite/Crossing/Crossing.aspx?phasetype=C&rpttype=I&txtcrossingnum=018995F",
        "ACC_LINK": "https://safetydata.fra.dot.gov/OfficeofSafety/PublicSite/Crossing/Crossing.aspx?phasetype=C&rpttype=A&txtcrossingnum=018995F",
        "TTSTNNAM": "BELDING",
        "XPURPOSE": "1",
        "OPERATINGR": "TXPF",
        "OPERATIN_1": "Primary",
        "DAYTHRU": 1,
        "NGHTTHRU": 1,
        "MAINTRK": 1,
        "SIDINGTRK": 0,
        "YARDTRK": 0,
        "TRANSITTRK": 0,
        "INDUSTRYTR": 0,
        "OTHRTRK": 0,
        "WDCODE": "",
        "REVISIONDA": "2001/01/01 00:00:00",
        "LASTUPDATE": "1/9/2024",
        "AADT": "",
        "AADTYEAR": "1970",
        "STATENAME": "TEXAS",
        "STATEAB": "TX",
        "COUNTYNAME": "PECOS",
        "CITYNAME": "FORT STOCKTON",
        "LATDD": 30.829525,
        "LONGDD": -102.970215,
        "gridlyProductionCertified": true,
        "gridlyClassification": "PUBLIC_ROADWAY",
        "gridlyDisplayName": "PRIVATE ROAD",
        "gridlyId": "FRA-018995F"
      }
    },
    {
      "type": "Feature",
      "id": 203302,
      "geometry": {
        "type": "Point",
        "coordinates": [
          -102.97535700004,
          30.8257180001611
        ]
      },
      "properties": {
        "OBJECTID": 203302,
        "CROSSING": "018996M",
        "EFFDATE": 1704758400000,
        "REASON": "14",
        "StateCode": "48",
        "CountyCode": "48371",
        "STCYFIPS": "48371",
        "CITYCD": "483712440",
        "RAILROAD": "TXPF",
        "RRDIV": "SOUTHERN",
        "RRSUBDIV": "ALPINE",
        "HIGHWAY": "us67",
        "STREET": "PRIVATE ROAD",
        "TTSTN": "695161",
        "MILEPOST": "0895.03",
        "TYPEXING": "Private",
        "POSXING": "At Grade",
        "PRVCAT": "14",
        "INIT": "1",
        "LATITUDE": 30.825718,
        "LONGITUD": -102.975357,
        "LLSOURCE": "1",
        "WHISTBAN": "0",
        "RRCONT": "3259428164",
        "POLCONT": "8007428905",
        "INV_LINK": "https://safetydata.fra.dot.gov/OfficeofSafety/PublicSite/Crossing/Crossing.aspx?phasetype=C&rpttype=I&txtcrossingnum=018996M",
        "ACC_LINK": "https://safetydata.fra.dot.gov/OfficeofSafety/PublicSite/Crossing/Crossing.aspx?phasetype=C&rpttype=A&txtcrossingnum=018996M",
        "TTSTNNAM": "BELDING",
        "XPURPOSE": "1",
        "OPERATINGR": "TXPF",
        "OPERATIN_1": "Primary",
        "DAYTHRU": 1,
        "NGHTTHRU": 1,
        "MAINTRK": 1,
        "SIDINGTRK": 0,
        "YARDTRK": 0,
        "TRANSITTRK": 0,
        "INDUSTRYTR": 0,
        "OTHRTRK": 0,
        "WDCODE": "",
        "REVISIONDA": "2001/01/01 00:00:00",
        "LASTUPDATE": "1/9/2024",
        "AADT": "",
        "AADTYEAR": "1970",
        "STATENAME": "TEXAS",
        "STATEAB": "TX",
        "COUNTYNAME": "PECOS",
        "CITYNAME": "FORT STOCKTON",
        "LATDD": 30.825718,
        "LONGDD": -102.975357,
        "gridlyProductionCertified": true,
        "gridlyClassification": "PUBLIC_ROADWAY",
        "gridlyDisplayName": "PRIVATE ROAD",
        "gridlyId": "FRA-018996M"
      }
    },
    {
      "type": "Feature",
      "id": 203303,
      "geometry": {
        "type": "Point",
        "coordinates": [
          -102.98149100043,
          30.8211749998192
        ]
      },
      "properties": {
        "OBJECTID": 203303,
        "CROSSING": "018997U",
        "EFFDATE": 1704758400000,
        "REASON": "14",
        "StateCode": "48",
        "CountyCode": "48371",
        "STCYFIPS": "48371",
        "CITYCD": "483712440",
        "RAILROAD": "TXPF",
        "RRDIV": "SOUTHERN",
        "RRSUBDIV": "ALPINE",
        "HIGHWAY": "us67",
        "STREET": "PRIVATE ROAD",
        "TTSTN": "695161",
        "MILEPOST": "0895.93",
        "TYPEXING": "Private",
        "POSXING": "At Grade",
        "PRVCAT": "14",
        "INIT": "1",
        "LATITUDE": 30.821175,
        "LONGITUD": -102.981491,
        "LLSOURCE": "1",
        "WHISTBAN": "0",
        "RRCONT": "3259428164",
        "POLCONT": "8007428905",
        "INV_LINK": "https://safetydata.fra.dot.gov/OfficeofSafety/PublicSite/Crossing/Crossing.aspx?phasetype=C&rpttype=I&txtcrossingnum=018997U",
        "ACC_LINK": "https://safetydata.fra.dot.gov/OfficeofSafety/PublicSite/Crossing/Crossing.aspx?phasetype=C&rpttype=A&txtcrossingnum=018997U",
        "TTSTNNAM": "BELDING",
        "XPURPOSE": "1",
        "OPERATINGR": "TXPF",
        "OPERATIN_1": "Primary",
        "DAYTHRU": 1,
        "NGHTTHRU": 1,
        "MAINTRK": 1,
        "SIDINGTRK": 0,
        "YARDTRK": 0,
        "TRANSITTRK": 0,
        "INDUSTRYTR": 0,
        "OTHRTRK": 0,
        "WDCODE": "",
        "REVISIONDA": "2001/01/01 00:00:00",
        "LASTUPDATE": "1/9/2024",
        "AADT": "",
        "AADTYEAR": "1970",
        "STATENAME": "TEXAS",
        "STATEAB": "TX",
        "COUNTYNAME": "PECOS",
        "CITYNAME": "FORT STOCKTON",
        "LATDD": 30.821175,
        "LONGDD": -102.981491,
        "gridlyProductionCertified": true,
        "gridlyClassification": "PUBLIC_ROADWAY",
        "gridlyDisplayName": "PRIVATE ROAD",
        "gridlyId": "FRA-018997U"
      }
    },
    {
      "type": "Feature",
      "id": 203304,
      "geometry": {
        "type": "Point",
        "coordinates": [
          -103.028336000015,
          30.7868310002818
        ]
      },
      "properties": {
        "OBJECTID": 203304,
        "CROSSING": "018998B",
        "EFFDATE": 1704758400000,
        "REASON": "14",
        "StateCode": "48",
        "CountyCode": "48371",
        "STCYFIPS": "48371",
        "CITYCD": "483712440",
        "RAILROAD": "TXPF",
        "RRDIV": "SOUTHERN",
        "RRSUBDIV": "ALPINE",
        "HIGHWAY": "us67",
        "STREET": "PRIVATE ROAD",
        "TTSTN": "695163",
        "MILEPOST": "0902.80",
        "TYPEXING": "Private",
        "POSXING": "At Grade",
        "PRVCAT": "14",
        "INIT": "1",
        "LATITUDE": 30.786831,
        "LONGITUD": -103.028336,
        "LLSOURCE": "1",
        "WHISTBAN": "0",
        "RRCONT": "3259428164",
        "POLCONT": "8007428905",
        "INV_LINK": "https://safetydata.fra.dot.gov/OfficeofSafety/PublicSite/Crossing/Crossing.aspx?phasetype=C&rpttype=I&txtcrossingnum=018998B",
        "ACC_LINK": "https://safetydata.fra.dot.gov/OfficeofSafety/PublicSite/Crossing/Crossing.aspx?phasetype=C&rpttype=A&txtcrossingnum=018998B",
        "TTSTNNAM": "BELDING",
        "XPURPOSE": "1",
        "OPERATINGR": "TXPF",
        "OPERATIN_1": "Primary",
        "DAYTHRU": 1,
        "NGHTTHRU": 1,
        "MAINTRK": 1,
        "SIDINGTRK": 0,
        "YARDTRK": 0,
        "TRANSITTRK": 0,
        "INDUSTRYTR": 0,
        "OTHRTRK": 0,
        "WDCODE": "",
        "REVISIONDA": "2001/01/01 00:00:00",
        "LASTUPDATE": "1/9/2024",
        "AADT": "",
        "AADTYEAR": "1970",
        "STATENAME": "TEXAS",
        "STATEAB": "TX",
        "COUNTYNAME": "PECOS",
        "CITYNAME": "FORT STOCKTON",
        "LATDD": 30.786831,
        "LONGDD": -103.028336,
        "gridlyProductionCertified": true,
        "gridlyClassification": "PUBLIC_ROADWAY",
        "gridlyDisplayName": "PRIVATE ROAD",
        "gridlyId": "FRA-018998B"
      }
    },
    {
      "type": "Feature",
      "id": 203305,
      "geometry": {
        "type": "Point",
        "coordinates": [
          -103.037437000144,
          30.7802769999891
        ]
      },
      "properties": {
        "OBJECTID": 203305,
        "CROSSING": "019001P",
        "EFFDATE": 1704758400000,
        "REASON": "14",
        "StateCode": "48",
        "CountyCode": "48371",
        "STCYFIPS": "48371",
        "CITYCD": "483712440",
        "RAILROAD": "TXPF",
        "RRDIV": "SOUTHERN",
        "RRSUBDIV": "ALPINE",
        "HIGHWAY": "us67",
        "STREET": "PRIVATE ROAD",
        "TTSTN": "695163",
        "MILEPOST": "0904.13",
        "TYPEXING": "Private",
        "POSXING": "At Grade",
        "PRVCAT": "14",
        "INIT": "1",
        "LATITUDE": 30.780277,
        "LONGITUD": -103.037437,
        "LLSOURCE": "1",
        "WHISTBAN": "0",
        "RRCONT": "3259428164",
        "POLCONT": "8007428905",
        "INV_LINK": "https://safetydata.fra.dot.gov/OfficeofSafety/PublicSite/Crossing/Crossing.aspx?phasetype=C&rpttype=I&txtcrossingnum=019001P",
        "ACC_LINK": "https://safetydata.fra.dot.gov/OfficeofSafety/PublicSite/Crossing/Crossing.aspx?phasetype=C&rpttype=A&txtcrossingnum=019001P",
        "TTSTNNAM": "BELDING",
        "XPURPOSE": "1",
        "OPERATINGR": "TXPF",
        "OPERATIN_1": "Primary",
        "DAYTHRU": 1,
        "NGHTTHRU": 1,
        "MAINTRK": 1,
        "SIDINGTRK": 0,
        "YARDTRK": 0,
        "TRANSITTRK": 0,
        "INDUSTRYTR": 0,
        "OTHRTRK": 0,
        "WDCODE": "",
        "REVISIONDA": "2001/01/01 00:00:00",
        "LASTUPDATE": "1/9/2024",
        "AADT": "",
        "AADTYEAR": "1970",
        "STATENAME": "TEXAS",
        "STATEAB": "TX",
        "COUNTYNAME": "PECOS",
        "CITYNAME": "FORT STOCKTON",
        "LATDD": 30.780277,
        "LONGDD": -103.037437,
        "gridlyProductionCertified": true,
        "gridlyClassification": "PUBLIC_ROADWAY",
        "gridlyDisplayName": "PRIVATE ROAD",
        "gridlyId": "FRA-019001P"
      }
    },
    {
      "type": "Feature",
      "id": 203306,
      "geometry": {
        "type": "Point",
        "coordinates": [
          -103.107619999943,
          30.7310559997895
        ]
      },
      "properties": {
        "OBJECTID": 203306,
        "CROSSING": "019060S",
        "EFFDATE": 1704758400000,
        "REASON": "14",
        "StateCode": "48",
        "CountyCode": "48371",
        "STCYFIPS": "48371",
        "CITYCD": "480430100",
        "RAILROAD": "TXPF",
        "RRDIV": "SOUTHERN",
        "RRSUBDIV": "ALPINE",
        "HIGHWAY": "NONE",
        "STREET": "PRIVATE ROAD",
        "TTSTN": "695167",
        "MILEPOST": "0914.30",
        "TYPEXING": "Private",
        "POSXING": "RR Over",
        "PRVCAT": "14",
        "INIT": "1",
        "LATITUDE": 30.731056,
        "LONGITUD": -103.10762,
        "LLSOURCE": "1",
        "WHISTBAN": "0",
        "RRCONT": "3259428164",
        "POLCONT": "8007428905",
        "INV_LINK": "https://safetydata.fra.dot.gov/OfficeofSafety/PublicSite/Crossing/Crossing.aspx?phasetype=C&rpttype=I&txtcrossingnum=019060S",
        "ACC_LINK": "https://safetydata.fra.dot.gov/OfficeofSafety/PublicSite/Crossing/Crossing.aspx?phasetype=C&rpttype=A&txtcrossingnum=019060S",
        "TTSTNNAM": "HOVEY",
        "XPURPOSE": "1",
        "OPERATINGR": "TXPF",
        "OPERATIN_1": "Primary",
        "DAYTHRU": 1,
        "NGHTTHRU": 1,
        "MAINTRK": 1,
        "SIDINGTRK": 0,
        "YARDTRK": 0,
        "TRANSITTRK": 0,
        "INDUSTRYTR": 0,
        "OTHRTRK": 0,
        "WDCODE": "",
        "REVISIONDA": "2001/01/01 00:00:00",
        "LASTUPDATE": "1/9/2024",
        "AADT": "",
        "AADTYEAR": "1976",
        "STATENAME": "TEXAS",
        "STATEAB": "TX",
        "COUNTYNAME": "PECOS",
        "CITYNAME": "ALPINE",
        "LATDD": 30.731056,
        "LONGDD": -103.10762,
        "gridlyProductionCertified": true,
        "gridlyClassification": "PUBLIC_ROADWAY",
        "gridlyDisplayName": "PRIVATE ROAD",
        "gridlyId": "FRA-019060S"
      }
    },
    {
      "type": "Feature",
      "id": 203307,
      "geometry": {
        "type": "Point",
        "coordinates": [
          -103.282692000013,
          30.6283050003486
        ]
      },
      "properties": {
        "OBJECTID": 203307,
        "CROSSING": "019012C",
        "EFFDATE": 1704758400000,
        "REASON": "14",
        "StateCode": "48",
        "CountyCode": "48043",
        "STCYFIPS": "48043",
        "CITYCD": "480430100",
        "RAILROAD": "TXPF",
        "RRDIV": "SOUTHERN",
        "RRSUBDIV": "ALPINE",
        "HIGHWAY": "private",
        "STREET": "PRIVATE ROAD",
        "TTSTN": "697212",
        "MILEPOST": "0938.54",
        "TYPEXING": "Private",
        "POSXING": "At Grade",
        "PRVCAT": "14",
        "INIT": "1",
        "LATITUDE": 30.628305,
        "LONGITUD": -103.282692,
        "LLSOURCE": "1",
        "WHISTBAN": "0",
        "RRCONT": "3259428164",
        "POLCONT": "8007428905",
        "INV_LINK": "https://safetydata.fra.dot.gov/OfficeofSafety/PublicSite/Crossing/Crossing.aspx?phasetype=C&rpttype=I&txtcrossingnum=019012C",
        "ACC_LINK": "https://safetydata.fra.dot.gov/OfficeofSafety/PublicSite/Crossing/Crossing.aspx?phasetype=C&rpttype=A&txtcrossingnum=019012C",
        "TTSTNNAM": "ALPINE",
        "XPURPOSE": "1",
        "OPERATINGR": "TXPF",
        "OPERATIN_1": "Primary",
        "DAYTHRU": 0,
        "NGHTTHRU": 0,
        "MAINTRK": 1,
        "SIDINGTRK": 0,
        "YARDTRK": 0,
        "TRANSITTRK": 0,
        "INDUSTRYTR": 0,
        "OTHRTRK": 0,
        "WDCODE": "",
        "REVISIONDA": "2001/01/01 00:00:00",
        "LASTUPDATE": "1/9/2024",
        "AADT": "",
        "AADTYEAR": "1970",
        "STATENAME": "TEXAS",
        "STATEAB": "TX",
        "COUNTYNAME": "BREWSTER",
        "CITYNAME": "ALPINE",
        "LATDD": 30.628305,
        "LONGDD": -103.282692,
        "gridlyProductionCertified": true,
        "gridlyClassification": "PUBLIC_ROADWAY",
        "gridlyDisplayName": "PRIVATE ROAD",
        "gridlyId": "FRA-019012C"
      }
    },
    {
      "type": "Feature",
      "id": 203308,
      "geometry": {
        "type": "Point",
        "coordinates": [
          -103.309647000244,
          30.6226770001438
        ]
      },
      "properties": {
        "OBJECTID": 203308,
        "CROSSING": "019013J",
        "EFFDATE": 1704758400000,
        "REASON": "14",
        "StateCode": "48",
        "CountyCode": "48043",
        "STCYFIPS": "48043",
        "CITYCD": "480430100",
        "RAILROAD": "TXPF",
        "RRDIV": "SOUTHERN",
        "RRSUBDIV": "ALPINE",
        "HIGHWAY": "private",
        "STREET": "PRIVATE ROAD",
        "TTSTN": "697216",
        "MILEPOST": "0942.01",
        "TYPEXING": "Private",
        "POSXING": "At Grade",
        "PRVCAT": "14",
        "INIT": "1",
        "LATITUDE": 30.622677,
        "LONGITUD": -103.309647,
        "LLSOURCE": "1",
        "WHISTBAN": "0",
        "RRCONT": "3259428164",
        "POLCONT": "8007428905",
        "INV_LINK": "https://safetydata.fra.dot.gov/OfficeofSafety/PublicSite/Crossing/Crossing.aspx?phasetype=C&rpttype=I&txtcrossingnum=019013J",
        "ACC_LINK": "https://safetydata.fra.dot.gov/OfficeofSafety/PublicSite/Crossing/Crossing.aspx?phasetype=C&rpttype=A&txtcrossingnum=019013J",
        "TTSTNNAM": "ALPINE",
        "XPURPOSE": "1",
        "OPERATINGR": "TXPF",
        "OPERATIN_1": "Primary",
        "DAYTHRU": 0,
        "NGHTTHRU": 0,
        "MAINTRK": 1,
        "SIDINGTRK": 0,
        "YARDTRK": 0,
        "TRANSITTRK": 0,
        "INDUSTRYTR": 0,
        "OTHRTRK": 0,
        "WDCODE": "",
        "REVISIONDA": "2001/01/01 00:00:00",
        "LASTUPDATE": "1/9/2024",
        "AADT": "",
        "AADTYEAR": "1970",
        "STATENAME": "TEXAS",
        "STATEAB": "TX",
        "COUNTYNAME": "BREWSTER",
        "CITYNAME": "ALPINE",
        "LATDD": 30.622677,
        "LONGDD": -103.309647,
        "gridlyProductionCertified": true,
        "gridlyClassification": "PUBLIC_ROADWAY",
        "gridlyDisplayName": "PRIVATE ROAD",
        "gridlyId": "FRA-019013J"
      }
    },
    {
      "type": "Feature",
      "id": 203309,
      "geometry": {
        "type": "Point",
        "coordinates": [
          -103.312828000242,
          30.622013000336
        ]
      },
      "properties": {
        "OBJECTID": 203309,
        "CROSSING": "019014R",
        "EFFDATE": 1704758400000,
        "REASON": "14",
        "StateCode": "48",
        "CountyCode": "48043",
        "STCYFIPS": "48043",
        "CITYCD": "480430100",
        "RAILROAD": "TXPF",
        "RRDIV": "SOUTHERN",
        "RRSUBDIV": "ALPINE",
        "HIGHWAY": "private",
        "STREET": "PRIVATE ROAD",
        "TTSTN": "697216",
        "MILEPOST": "0942.42",
        "TYPEXING": "Private",
        "POSXING": "At Grade",
        "PRVCAT": "14",
        "INIT": "1",
        "LATITUDE": 30.622013,
        "LONGITUD": -103.312828,
        "LLSOURCE": "1",
        "WHISTBAN": "0",
        "RRCONT": "3259428164",
        "POLCONT": "8007428905",
        "INV_LINK": "https://safetydata.fra.dot.gov/OfficeofSafety/PublicSite/Crossing/Crossing.aspx?phasetype=C&rpttype=I&txtcrossingnum=019014R",
        "ACC_LINK": "https://safetydata.fra.dot.gov/OfficeofSafety/PublicSite/Crossing/Crossing.aspx?phasetype=C&rpttype=A&txtcrossingnum=019014R",
        "TTSTNNAM": "ALPINE",
        "XPURPOSE": "1",
        "OPERATINGR": "TXPF",
        "OPERATIN_1": "Primary",
        "DAYTHRU": 0,
        "NGHTTHRU": 0,
        "MAINTRK": 1,
        "SIDINGTRK": 0,
        "YARDTRK": 0,
        "TRANSITTRK": 0,
        "INDUSTRYTR": 0,
        "OTHRTRK": 0,
        "WDCODE": "",
        "REVISIONDA": "2001/01/01 00:00:00",
        "LASTUPDATE": "1/9/2024",
        "AADT": "",
        "AADTYEAR": "1970",
        "STATENAME": "TEXAS",
        "STATEAB": "TX",
        "COUNTYNAME": "BREWSTER",
        "CITYNAME": "ALPINE",
        "LATDD": 30.622013,
        "LONGDD": -103.312828,
        "gridlyProductionCertified": true,
        "gridlyClassification": "PUBLIC_ROADWAY",
        "gridlyDisplayName": "PRIVATE ROAD",
        "gridlyId": "FRA-019014R"
      }
    },
    {
      "type": "Feature",
      "id": 203310,
      "geometry": {
        "type": "Point",
        "coordinates": [
          -103.228584000084,
          30.6580100001372
        ]
      },
      "properties": {
        "OBJECTID": 203310,
        "CROSSING": "019010N",
        "EFFDATE": 1704758400000,
        "REASON": "14",
        "StateCode": "48",
        "CountyCode": "48043",
        "STCYFIPS": "48043",
        "CITYCD": "480430100",
        "RAILROAD": "TXPF",
        "RRDIV": "SOUTHERN",
        "RRSUBDIV": "ALPINE",
        "HIGHWAY": "us67",
        "STREET": "PRIVATE ROAD",
        "TTSTN": "697212",
        "MILEPOST": "0931.10",
        "TYPEXING": "Private",
        "POSXING": "At Grade",
        "PRVCAT": "14",
        "INIT": "1",
        "LATITUDE": 30.65801,
        "LONGITUD": -103.228584,
        "LLSOURCE": "1",
        "WHISTBAN": "0",
        "RRCONT": "3259428164",
        "POLCONT": "8007428905",
        "INV_LINK": "https://safetydata.fra.dot.gov/OfficeofSafety/PublicSite/Crossing/Crossing.aspx?phasetype=C&rpttype=I&txtcrossingnum=019010N",
        "ACC_LINK": "https://safetydata.fra.dot.gov/OfficeofSafety/PublicSite/Crossing/Crossing.aspx?phasetype=C&rpttype=A&txtcrossingnum=019010N",
        "TTSTNNAM": "TITLEY",
        "XPURPOSE": "1",
        "OPERATINGR": "TXPF",
        "OPERATIN_1": "Primary",
        "DAYTHRU": 1,
        "NGHTTHRU": 1,
        "MAINTRK": 1,
        "SIDINGTRK": 0,
        "YARDTRK": 0,
        "TRANSITTRK": 0,
        "INDUSTRYTR": 0,
        "OTHRTRK": 0,
        "WDCODE": "",
        "REVISIONDA": "2001/01/01 00:00:00",
        "LASTUPDATE": "1/9/2024",
        "AADT": "",
        "AADTYEAR": "1970",
        "STATENAME": "TEXAS",
        "STATEAB": "TX",
        "COUNTYNAME": "BREWSTER",
        "CITYNAME": "ALPINE",
        "LATDD": 30.65801,
        "LONGDD": -103.228584,
        "gridlyProductionCertified": true,
        "gridlyClassification": "PUBLIC_ROADWAY",
        "gridlyDisplayName": "PRIVATE ROAD",
        "gridlyId": "FRA-019010N"
      }
    },
    {
      "type": "Feature",
      "id": 203324,
      "geometry": {
        "type": "Point",
        "coordinates": [
          -102.513411999811,
          31.0669270003671
        ]
      },
      "properties": {
        "OBJECTID": 203324,
        "CROSSING": "018908A",
        "EFFDATE": 1704758400000,
        "REASON": "14",
        "StateCode": "48",
        "CountyCode": "48371",
        "STCYFIPS": "48371",
        "CITYCD": "484614210",
        "RAILROAD": "TXPF",
        "RRDIV": "SOUTHERN",
        "RRSUBDIV": "BIG LAKE",
        "HIGHWAY": "us67",
        "STREET": "PRIVATE ROAD",
        "TTSTN": "695124",
        "MILEPOST": "0856.87",
        "TYPEXING": "Private",
        "POSXING": "At Grade",
        "PRVCAT": "14",
        "INIT": "1",
        "LATITUDE": 31.066927,
        "LONGITUD": -102.513412,
        "LLSOURCE": "1",
        "WHISTBAN": "0",
        "RRCONT": "3259428164",
        "POLCONT": "8007428905",
        "INV_LINK": "https://safetydata.fra.dot.gov/OfficeofSafety/PublicSite/Crossing/Crossing.aspx?phasetype=C&rpttype=I&txtcrossingnum=018908A",
        "ACC_LINK": "https://safetydata.fra.dot.gov/OfficeofSafety/PublicSite/Crossing/Crossing.aspx?phasetype=C&rpttype=A&txtcrossingnum=018908A",
        "TTSTNNAM": "BALDRIDGE",
        "XPURPOSE": "1",
        "OPERATINGR": "TXPF",
        "OPERATIN_1": "Primary",
        "DAYTHRU": 1,
        "NGHTTHRU": 1,
        "MAINTRK": 1,
        "SIDINGTRK": 0,
        "YARDTRK": 0,
        "TRANSITTRK": 0,
        "INDUSTRYTR": 0,
        "OTHRTRK": 0,
        "WDCODE": "",
        "REVISIONDA": "2001/01/01 00:00:00",
        "LASTUPDATE": "1/9/2024",
        "AADT": "",
        "AADTYEAR": "1970",
        "STATENAME": "TEXAS",
        "STATEAB": "TX",
        "COUNTYNAME": "PECOS",
        "CITYNAME": "MCCAMEY",
        "LATDD": 31.066927,
        "LONGDD": -102.513412,
        "gridlyProductionCertified": true,
        "gridlyClassification": "PUBLIC_ROADWAY",
        "gridlyDisplayName": "PRIVATE ROAD",
        "gridlyId": "FRA-018908A"
      }
    },
    {
      "type": "Feature",
      "id": 203360,
      "geometry": {
        "type": "Point",
        "coordinates": [
          -103.114319000223,
          30.7269900002405
        ]
      },
      "properties": {
        "OBJECTID": 203360,
        "CROSSING": "019004K",
        "EFFDATE": 1704758400000,
        "REASON": "14",
        "StateCode": "48",
        "CountyCode": "48371",
        "STCYFIPS": "48371",
        "CITYCD": "480430100",
        "RAILROAD": "TXPF",
        "RRDIV": "SOUTHERN",
        "RRSUBDIV": "ALPINE",
        "HIGHWAY": "us67",
        "STREET": "PRIVATE ROAD",
        "TTSTN": "695167",
        "MILEPOST": "0915.23",
        "TYPEXING": "Private",
        "POSXING": "At Grade",
        "PRVCAT": "14",
        "INIT": "1",
        "LATITUDE": 30.72699,
        "LONGITUD": -103.114319,
        "LLSOURCE": "1",
        "WHISTBAN": "0",
        "RRCONT": "3259428164",
        "POLCONT": "8007428905",
        "INV_LINK": "https://safetydata.fra.dot.gov/OfficeofSafety/PublicSite/Crossing/Crossing.aspx?phasetype=C&rpttype=I&txtcrossingnum=019004K",
        "ACC_LINK": "https://safetydata.fra.dot.gov/OfficeofSafety/PublicSite/Crossing/Crossing.aspx?phasetype=C&rpttype=A&txtcrossingnum=019004K",
        "TTSTNNAM": "HOVEY",
        "XPURPOSE": "1",
        "OPERATINGR": "TXPF",
        "OPERATIN_1": "Primary",
        "DAYTHRU": 1,
        "NGHTTHRU": 1,
        "MAINTRK": 1,
        "SIDINGTRK": 0,
        "YARDTRK": 0,
        "TRANSITTRK": 0,
        "INDUSTRYTR": 0,
        "OTHRTRK": 0,
        "WDCODE": "",
        "REVISIONDA": "2001/01/01 00:00:00",
        "LASTUPDATE": "1/9/2024",
        "AADT": "",
        "AADTYEAR": "1970",
        "STATENAME": "TEXAS",
        "STATEAB": "TX",
        "COUNTYNAME": "PECOS",
        "CITYNAME": "ALPINE",
        "LATDD": 30.72699,
        "LONGDD": -103.114319,
        "gridlyProductionCertified": true,
        "gridlyClassification": "PUBLIC_ROADWAY",
        "gridlyDisplayName": "PRIVATE ROAD",
        "gridlyId": "FRA-019004K"
      }
    },
    {
      "type": "Feature",
      "id": 203412,
      "geometry": {
        "type": "Point",
        "coordinates": [
          -103.248076999778,
          30.6461999997909
        ]
      },
      "properties": {
        "OBJECTID": 203412,
        "CROSSING": "019011V",
        "EFFDATE": 1704758400000,
        "REASON": "14",
        "StateCode": "48",
        "CountyCode": "48043",
        "STCYFIPS": "48043",
        "CITYCD": "480430100",
        "RAILROAD": "TXPF",
        "RRDIV": "SOUTHERN",
        "RRSUBDIV": "ALPINE",
        "HIGHWAY": "us67",
        "STREET": "PRIVATE ROAD",
        "TTSTN": "697212",
        "MILEPOST": "0933.81",
        "TYPEXING": "Private",
        "POSXING": "At Grade",
        "PRVCAT": "14",
        "INIT": "1",
        "LATITUDE": 30.6462,
        "LONGITUD": -103.248077,
        "LLSOURCE": "1",
        "WHISTBAN": "0",
        "RRCONT": "3259428164",
        "POLCONT": "8007428905",
        "INV_LINK": "https://safetydata.fra.dot.gov/OfficeofSafety/PublicSite/Crossing/Crossing.aspx?phasetype=C&rpttype=I&txtcrossingnum=019011V",
        "ACC_LINK": "https://safetydata.fra.dot.gov/OfficeofSafety/PublicSite/Crossing/Crossing.aspx?phasetype=C&rpttype=A&txtcrossingnum=019011V",
        "TTSTNNAM": "ALPINE",
        "XPURPOSE": "1",
        "OPERATINGR": "TXPF",
        "OPERATIN_1": "Primary",
        "DAYTHRU": 0,
        "NGHTTHRU": 0,
        "MAINTRK": 1,
        "SIDINGTRK": 0,
        "YARDTRK": 0,
        "TRANSITTRK": 0,
        "INDUSTRYTR": 0,
        "OTHRTRK": 0,
        "WDCODE": "",
        "REVISIONDA": "2001/01/01 00:00:00",
        "LASTUPDATE": "1/9/2024",
        "AADT": "",
        "AADTYEAR": "1970",
        "STATENAME": "TEXAS",
        "STATEAB": "TX",
        "COUNTYNAME": "BREWSTER",
        "CITYNAME": "ALPINE",
        "LATDD": 30.6462,
        "LONGDD": -103.248077,
        "gridlyProductionCertified": true,
        "gridlyClassification": "PUBLIC_ROADWAY",
        "gridlyDisplayName": "PRIVATE ROAD",
        "gridlyId": "FRA-019011V"
      }
    },
    {
      "type": "Feature",
      "id": 207429,
      "geometry": {
        "type": "Point",
        "coordinates": [
          -102.50905039973,
          31.0688415998345
        ]
      },
      "properties": {
        "OBJECTID": 207429,
        "CROSSING": "018907T",
        "EFFDATE": 1758067200000,
        "REASON": "14",
        "StateCode": "48",
        "CountyCode": "48371",
        "STCYFIPS": "48371",
        "CITYCD": "484614210",
        "RAILROAD": "TXPF",
        "RRDIV": "SOUTHERN",
        "RRSUBDIV": "BIG LAKE",
        "HIGHWAY": "Cr0010",
        "STREET": "OWEGO RoaD",
        "TTSTN": "695124",
        "MILEPOST": "0856.53",
        "TYPEXING": "Public",
        "POSXING": "At Grade",
        "PRVCAT": "14",
        "INIT": "2",
        "LATITUDE": 31.0688416,
        "LONGITUD": -102.5090504,
        "LLSOURCE": "1",
        "WHISTBAN": "0",
        "RRCONT": "3259428164",
        "POLCONT": "8007428905",
        "INV_LINK": "https://safetydata.fra.dot.gov/OfficeofSafety/PublicSite/Crossing/Crossing.aspx?phasetype=C&rpttype=I&txtcrossingnum=018907T",
        "ACC_LINK": "https://safetydata.fra.dot.gov/OfficeofSafety/PublicSite/Crossing/Crossing.aspx?phasetype=C&rpttype=A&txtcrossingnum=018907T",
        "TTSTNNAM": "GIRVIN",
        "XPURPOSE": "1",
        "OPERATINGR": "TXPF",
        "OPERATIN_1": "Primary",
        "DAYTHRU": 1,
        "NGHTTHRU": 1,
        "MAINTRK": 1,
        "SIDINGTRK": 0,
        "YARDTRK": 0,
        "TRANSITTRK": 0,
        "INDUSTRYTR": 0,
        "OTHRTRK": 0,
        "WDCODE": "Crossbucks",
        "REVISIONDA": "2001/01/01 00:00:00",
        "LASTUPDATE": "9/17/2025",
        "AADT": "290",
        "AADTYEAR": "2024",
        "STATENAME": "TEXAS",
        "STATEAB": "TX",
        "COUNTYNAME": "PECOS",
        "CITYNAME": "MCCAMEY",
        "LATDD": 31.0688416,
        "LONGDD": -102.5090504,
        "gridlyProductionCertified": true,
        "gridlyClassification": "PUBLIC_ROADWAY",
        "gridlyDisplayName": "OWEGO RoaD",
        "gridlyId": "FRA-018907T"
      }
    },
    {
      "type": "Feature",
      "id": 207434,
      "geometry": {
        "type": "Point",
        "coordinates": [
          -102.701075599879,
          30.9982878999659
        ]
      },
      "properties": {
        "OBJECTID": 207434,
        "CROSSING": "018948X",
        "EFFDATE": 1758067200000,
        "REASON": "14",
        "StateCode": "48",
        "CountyCode": "48371",
        "STCYFIPS": "48371",
        "CITYCD": "483712440",
        "RAILROAD": "TXPF",
        "RRDIV": "SOUTHERN",
        "RRSUBDIV": "BIG LAKE",
        "HIGHWAY": "cr0000",
        "STREET": "texas gulf plant road",
        "TTSTN": "695102",
        "MILEPOST": "0868.92",
        "TYPEXING": "Public",
        "POSXING": "At Grade",
        "PRVCAT": "14",
        "INIT": "2",
        "LATITUDE": 30.9982879,
        "LONGITUD": -102.7010756,
        "LLSOURCE": "1",
        "WHISTBAN": "0",
        "RRCONT": "3259428164",
        "POLCONT": "8007428905",
        "INV_LINK": "https://safetydata.fra.dot.gov/OfficeofSafety/PublicSite/Crossing/Crossing.aspx?phasetype=C&rpttype=I&txtcrossingnum=018948X",
        "ACC_LINK": "https://safetydata.fra.dot.gov/OfficeofSafety/PublicSite/Crossing/Crossing.aspx?phasetype=C&rpttype=A&txtcrossingnum=018948X",
        "TTSTNNAM": "SULPHR SP JCT",
        "XPURPOSE": "1",
        "OPERATINGR": "TXPF",
        "OPERATIN_1": "Primary",
        "DAYTHRU": 1,
        "NGHTTHRU": 1,
        "MAINTRK": 1,
        "SIDINGTRK": 0,
        "YARDTRK": 0,
        "TRANSITTRK": 0,
        "INDUSTRYTR": 0,
        "OTHRTRK": 0,
        "WDCODE": "Crossbucks",
        "REVISIONDA": "2001/01/01 00:00:00",
        "LASTUPDATE": "9/17/2025",
        "AADT": "678",
        "AADTYEAR": "2022",
        "STATENAME": "TEXAS",
        "STATEAB": "TX",
        "COUNTYNAME": "PECOS",
        "CITYNAME": "FORT STOCKTON",
        "LATDD": 30.9982879,
        "LONGDD": -102.7010756,
        "gridlyProductionCertified": true,
        "gridlyClassification": "PUBLIC_ROADWAY",
        "gridlyDisplayName": "texas gulf plant road",
        "gridlyId": "FRA-018948X"
      }
    },
    {
      "type": "Feature",
      "id": 207465,
      "geometry": {
        "type": "Point",
        "coordinates": [
          -102.894472699943,
          30.8812563996375
        ]
      },
      "properties": {
        "OBJECTID": 207465,
        "CROSSING": "018985A",
        "EFFDATE": 1758153600000,
        "REASON": "14",
        "StateCode": "48",
        "CountyCode": "48371",
        "STCYFIPS": "48371",
        "CITYCD": "483712440",
        "RAILROAD": "TXPF",
        "RRDIV": "SOUTHERN",
        "RRSUBDIV": "BIG LAKE",
        "HIGHWAY": "ST0000",
        "STREET": "south RIO STreet",
        "TTSTN": "695150",
        "MILEPOST": "0883.07",
        "TYPEXING": "Public",
        "POSXING": "At Grade",
        "PRVCAT": "14",
        "INIT": "2",
        "LATITUDE": 30.8812564,
        "LONGITUD": -102.8944727,
        "LLSOURCE": "1",
        "WHISTBAN": "0",
        "RRCONT": "3259428164",
        "POLCONT": "8007428905",
        "INV_LINK": "https://safetydata.fra.dot.gov/OfficeofSafety/PublicSite/Crossing/Crossing.aspx?phasetype=C&rpttype=I&txtcrossingnum=018985A",
        "ACC_LINK": "https://safetydata.fra.dot.gov/OfficeofSafety/PublicSite/Crossing/Crossing.aspx?phasetype=C&rpttype=A&txtcrossingnum=018985A",
        "TTSTNNAM": "FT STOCKTON",
        "XPURPOSE": "1",
        "OPERATINGR": "TXPF",
        "OPERATIN_1": "Primary",
        "DAYTHRU": 1,
        "NGHTTHRU": 1,
        "MAINTRK": 1,
        "SIDINGTRK": 0,
        "YARDTRK": 0,
        "TRANSITTRK": 0,
        "INDUSTRYTR": 0,
        "OTHRTRK": 0,
        "WDCODE": "Crossbucks",
        "REVISIONDA": "2001/01/01 00:00:00",
        "LASTUPDATE": "9/18/2025",
        "AADT": "828",
        "AADTYEAR": "2022",
        "STATENAME": "TEXAS",
        "STATEAB": "TX",
        "COUNTYNAME": "PECOS",
        "CITYNAME": "FORT STOCKTON",
        "LATDD": 30.8812564,
        "LONGDD": -102.8944727,
        "gridlyProductionCertified": true,
        "gridlyClassification": "PUBLIC_ROADWAY",
        "gridlyDisplayName": "south RIO STreet",
        "gridlyId": "FRA-018985A"
      }
    },
    {
      "type": "Feature",
      "id": 207466,
      "geometry": {
        "type": "Point",
        "coordinates": [
          -102.891069599575,
          30.882711299619
        ]
      },
      "properties": {
        "OBJECTID": 207466,
        "CROSSING": "018984T",
        "EFFDATE": 1758153600000,
        "REASON": "14",
        "StateCode": "48",
        "CountyCode": "48371",
        "STCYFIPS": "48371",
        "CITYCD": "483712440",
        "RAILROAD": "TXPF",
        "RRDIV": "SOUTHERN",
        "RRSUBDIV": "BIG LAKE",
        "HIGHWAY": "US0385",
        "STREET": "US0385 / MISSOURI STREET",
        "TTSTN": "695150",
        "MILEPOST": "0882.84",
        "TYPEXING": "Public",
        "POSXING": "At Grade",
        "PRVCAT": "14",
        "INIT": "2",
        "LATITUDE": 30.8827113,
        "LONGITUD": -102.8910696,
        "LLSOURCE": "1",
        "WHISTBAN": "0",
        "RRCONT": "3259428164",
        "POLCONT": "8007428905",
        "INV_LINK": "https://safetydata.fra.dot.gov/OfficeofSafety/PublicSite/Crossing/Crossing.aspx?phasetype=C&rpttype=I&txtcrossingnum=018984T",
        "ACC_LINK": "https://safetydata.fra.dot.gov/OfficeofSafety/PublicSite/Crossing/Crossing.aspx?phasetype=C&rpttype=A&txtcrossingnum=018984T",
        "TTSTNNAM": "FT STOCKTON",
        "XPURPOSE": "1",
        "OPERATINGR": "TXPF",
        "OPERATIN_1": "Primary",
        "DAYTHRU": 1,
        "NGHTTHRU": 1,
        "MAINTRK": 1,
        "SIDINGTRK": 0,
        "YARDTRK": 0,
        "TRANSITTRK": 0,
        "INDUSTRYTR": 0,
        "OTHRTRK": 0,
        "WDCODE": "Crossbucks",
        "REVISIONDA": "2001/01/01 00:00:00",
        "LASTUPDATE": "9/18/2025",
        "AADT": "2560",
        "AADTYEAR": "2023",
        "STATENAME": "TEXAS",
        "STATEAB": "TX",
        "COUNTYNAME": "PECOS",
        "CITYNAME": "FORT STOCKTON",
        "LATDD": 30.8827113,
        "LONGDD": -102.8910696,
        "gridlyProductionCertified": true,
        "gridlyClassification": "PUBLIC_ROADWAY",
        "gridlyDisplayName": "US0385 / MISSOURI STREET",
        "gridlyId": "FRA-018984T"
      }
    },
    {
      "type": "Feature",
      "id": 207468,
      "geometry": {
        "type": "Point",
        "coordinates": [
          -102.880284899686,
          30.8920601996989
        ]
      },
      "properties": {
        "OBJECTID": 207468,
        "CROSSING": "018978P",
        "EFFDATE": 1758153600000,
        "REASON": "14",
        "StateCode": "48",
        "CountyCode": "48371",
        "STCYFIPS": "48371",
        "CITYCD": "483712440",
        "RAILROAD": "TXPF",
        "RRDIV": "SOUTHERN",
        "RRSUBDIV": "BIG LAKE",
        "HIGHWAY": "ls0000",
        "STREET": "n nelson street",
        "TTSTN": "695150",
        "MILEPOST": "0881.92",
        "TYPEXING": "Public",
        "POSXING": "At Grade",
        "PRVCAT": "14",
        "INIT": "2",
        "LATITUDE": 30.8920602,
        "LONGITUD": -102.8802849,
        "LLSOURCE": "1",
        "WHISTBAN": "0",
        "RRCONT": "3259428164",
        "POLCONT": "8007428905",
        "INV_LINK": "https://safetydata.fra.dot.gov/OfficeofSafety/PublicSite/Crossing/Crossing.aspx?phasetype=C&rpttype=I&txtcrossingnum=018978P",
        "ACC_LINK": "https://safetydata.fra.dot.gov/OfficeofSafety/PublicSite/Crossing/Crossing.aspx?phasetype=C&rpttype=A&txtcrossingnum=018978P",
        "TTSTNNAM": "FT STOCKTON",
        "XPURPOSE": "1",
        "OPERATINGR": "TXPF",
        "OPERATIN_1": "Primary",
        "DAYTHRU": 1,
        "NGHTTHRU": 1,
        "MAINTRK": 1,
        "SIDINGTRK": 0,
        "YARDTRK": 2,
        "TRANSITTRK": 0,
        "INDUSTRYTR": 0,
        "OTHRTRK": 2,
        "WDCODE": "Crossbucks",
        "REVISIONDA": "2001/01/01 00:00:00",
        "LASTUPDATE": "9/18/2025",
        "AADT": "2896",
        "AADTYEAR": "2022",
        "STATENAME": "TEXAS",
        "STATEAB": "TX",
        "COUNTYNAME": "PECOS",
        "CITYNAME": "FORT STOCKTON",
        "LATDD": 30.8920602,
        "LONGDD": -102.8802849,
        "gridlyProductionCertified": true,
        "gridlyClassification": "PUBLIC_ROADWAY",
        "gridlyDisplayName": "n nelson street",
        "gridlyId": "FRA-018978P"
      }
    },
    {
      "type": "Feature",
      "id": 207471,
      "geometry": {
        "type": "Point",
        "coordinates": [
          -102.88329980029,
          30.8890985996456
        ]
      },
      "properties": {
        "OBJECTID": 207471,
        "CROSSING": "018979W",
        "EFFDATE": 1758153600000,
        "REASON": "14",
        "StateCode": "48",
        "CountyCode": "48371",
        "STCYFIPS": "48371",
        "CITYCD": "483712440",
        "RAILROAD": "TXPF",
        "RRDIV": "SOUTHERN",
        "RRSUBDIV": "BIG LAKE",
        "HIGHWAY": "ls0000",
        "STREET": "west fifTH STREET",
        "TTSTN": "695150",
        "MILEPOST": "0882.20",
        "TYPEXING": "Public",
        "POSXING": "At Grade",
        "PRVCAT": "14",
        "INIT": "2",
        "LATITUDE": 30.8890986,
        "LONGITUD": -102.8832998,
        "LLSOURCE": "1",
        "WHISTBAN": "0",
        "RRCONT": "3259428164",
        "POLCONT": "8007428905",
        "INV_LINK": "https://safetydata.fra.dot.gov/OfficeofSafety/PublicSite/Crossing/Crossing.aspx?phasetype=C&rpttype=I&txtcrossingnum=018979W",
        "ACC_LINK": "https://safetydata.fra.dot.gov/OfficeofSafety/PublicSite/Crossing/Crossing.aspx?phasetype=C&rpttype=A&txtcrossingnum=018979W",
        "TTSTNNAM": "FT STOCKTON",
        "XPURPOSE": "1",
        "OPERATINGR": "TXPF",
        "OPERATIN_1": "Primary",
        "DAYTHRU": 1,
        "NGHTTHRU": 1,
        "MAINTRK": 1,
        "SIDINGTRK": 1,
        "YARDTRK": 0,
        "TRANSITTRK": 0,
        "INDUSTRYTR": 0,
        "OTHRTRK": 1,
        "WDCODE": "Crossbucks",
        "REVISIONDA": "2001/01/01 00:00:00",
        "LASTUPDATE": "9/18/2025",
        "AADT": "1985",
        "AADTYEAR": "2022",
        "STATENAME": "TEXAS",
        "STATEAB": "TX",
        "COUNTYNAME": "PECOS",
        "CITYNAME": "FORT STOCKTON",
        "LATDD": 30.8890986,
        "LONGDD": -102.8832998,
        "gridlyProductionCertified": true,
        "gridlyClassification": "PUBLIC_ROADWAY",
        "gridlyDisplayName": "west fifTH STREET",
        "gridlyId": "FRA-018979W"
      }
    },
    {
      "type": "Feature",
      "id": 207472,
      "geometry": {
        "type": "Point",
        "coordinates": [
          -102.88801439965,
          30.884473799914
        ]
      },
      "properties": {
        "OBJECTID": 207472,
        "CROSSING": "018983L",
        "EFFDATE": 1758153600000,
        "REASON": "14",
        "StateCode": "48",
        "CountyCode": "48371",
        "STCYFIPS": "48371",
        "CITYCD": "483712440",
        "RAILROAD": "TXPF",
        "RRDIV": "SOUTHERN",
        "RRSUBDIV": "BIG LAKE",
        "HIGHWAY": "lS0000",
        "STREET": "DIVISION STreet",
        "TTSTN": "695150",
        "MILEPOST": "0882.62",
        "TYPEXING": "Public",
        "POSXING": "At Grade",
        "PRVCAT": "14",
        "INIT": "2",
        "LATITUDE": 30.8844738,
        "LONGITUD": -102.8880144,
        "LLSOURCE": "1",
        "WHISTBAN": "0",
        "RRCONT": "3259428164",
        "POLCONT": "8007428905",
        "INV_LINK": "https://safetydata.fra.dot.gov/OfficeofSafety/PublicSite/Crossing/Crossing.aspx?phasetype=C&rpttype=I&txtcrossingnum=018983L",
        "ACC_LINK": "https://safetydata.fra.dot.gov/OfficeofSafety/PublicSite/Crossing/Crossing.aspx?phasetype=C&rpttype=A&txtcrossingnum=018983L",
        "TTSTNNAM": "FT STOCKTON",
        "XPURPOSE": "1",
        "OPERATINGR": "TXPF",
        "OPERATIN_1": "Primary",
        "DAYTHRU": 1,
        "NGHTTHRU": 1,
        "MAINTRK": 1,
        "SIDINGTRK": 0,
        "YARDTRK": 0,
        "TRANSITTRK": 0,
        "INDUSTRYTR": 0,
        "OTHRTRK": 0,
        "WDCODE": "Crossbucks",
        "REVISIONDA": "2001/01/01 00:00:00",
        "LASTUPDATE": "9/18/2025",
        "AADT": "1667",
        "AADTYEAR": "2022",
        "STATENAME": "TEXAS",
        "STATEAB": "TX",
        "COUNTYNAME": "PECOS",
        "CITYNAME": "FORT STOCKTON",
        "LATDD": 30.8844738,
        "LONGDD": -102.8880144,
        "gridlyProductionCertified": true,
        "gridlyClassification": "PUBLIC_ROADWAY",
        "gridlyDisplayName": "DIVISION STreet",
        "gridlyId": "FRA-018983L"
      }
    },
    {
      "type": "Feature",
      "id": 207473,
      "geometry": {
        "type": "Point",
        "coordinates": [
          -102.850079400397,
          30.9177872998316
        ]
      },
      "properties": {
        "OBJECTID": 207473,
        "CROSSING": "018928L",
        "EFFDATE": 1758153600000,
        "REASON": "14",
        "StateCode": "48",
        "CountyCode": "48371",
        "STCYFIPS": "48371",
        "CITYCD": "483712440",
        "RAILROAD": "TXPF",
        "RRDIV": "SOUTHERN",
        "RRSUBDIV": "BIG LAKE",
        "HIGHWAY": "Cr2004",
        "STREET": "STONE RoaD",
        "TTSTN": "695150",
        "MILEPOST": "0879.40",
        "TYPEXING": "Public",
        "POSXING": "At Grade",
        "PRVCAT": "14",
        "INIT": "2",
        "LATITUDE": 30.9177873,
        "LONGITUD": -102.8500794,
        "LLSOURCE": "1",
        "WHISTBAN": "0",
        "RRCONT": "3259428164",
        "POLCONT": "8007428905",
        "INV_LINK": "https://safetydata.fra.dot.gov/OfficeofSafety/PublicSite/Crossing/Crossing.aspx?phasetype=C&rpttype=I&txtcrossingnum=018928L",
        "ACC_LINK": "https://safetydata.fra.dot.gov/OfficeofSafety/PublicSite/Crossing/Crossing.aspx?phasetype=C&rpttype=A&txtcrossingnum=018928L",
        "TTSTNNAM": "FT STOCKTON",
        "XPURPOSE": "1",
        "OPERATINGR": "TXPF",
        "OPERATIN_1": "Primary",
        "DAYTHRU": 1,
        "NGHTTHRU": 1,
        "MAINTRK": 1,
        "SIDINGTRK": 0,
        "YARDTRK": 0,
        "TRANSITTRK": 0,
        "INDUSTRYTR": 0,
        "OTHRTRK": 0,
        "WDCODE": "Crossbucks",
        "REVISIONDA": "2001/01/01 00:00:00",
        "LASTUPDATE": "9/18/2025",
        "AADT": "000300",
        "AADTYEAR": "2012",
        "STATENAME": "TEXAS",
        "STATEAB": "TX",
        "COUNTYNAME": "PECOS",
        "CITYNAME": "FORT STOCKTON",
        "LATDD": 30.9177873,
        "LONGDD": -102.8500794,
        "gridlyProductionCertified": true,
        "gridlyClassification": "PUBLIC_ROADWAY",
        "gridlyDisplayName": "STONE RoaD",
        "gridlyId": "FRA-018928L"
      }
    },
    {
      "type": "Feature",
      "id": 207614,
      "geometry": {
        "type": "Point",
        "coordinates": [
          -102.908032000199,
          30.8753829996947
        ]
      },
      "properties": {
        "OBJECTID": 207614,
        "CROSSING": "018987N",
        "EFFDATE": 1758153600000,
        "REASON": "14",
        "StateCode": "48",
        "CountyCode": "48371",
        "STCYFIPS": "48371",
        "CITYCD": "483712440",
        "RAILROAD": "TXPF",
        "RRDIV": "SOUTHERN",
        "RRSUBDIV": "ALPINE",
        "HIGHWAY": "cr0000",
        "STREET": "west Gonzalez Loop",
        "TTSTN": "695150",
        "MILEPOST": "0883.940",
        "TYPEXING": "Public",
        "POSXING": "At Grade",
        "PRVCAT": "14",
        "INIT": "2",
        "LATITUDE": 30.875383,
        "LONGITUD": -102.908032,
        "LLSOURCE": "1",
        "WHISTBAN": "0",
        "RRCONT": "3259428164",
        "POLCONT": "8007428905",
        "INV_LINK": "https://safetydata.fra.dot.gov/OfficeofSafety/PublicSite/Crossing/Crossing.aspx?phasetype=C&rpttype=I&txtcrossingnum=018987N",
        "ACC_LINK": "https://safetydata.fra.dot.gov/OfficeofSafety/PublicSite/Crossing/Crossing.aspx?phasetype=C&rpttype=A&txtcrossingnum=018987N",
        "TTSTNNAM": "FT STOCKTON",
        "XPURPOSE": "1",
        "OPERATINGR": "TXPF",
        "OPERATIN_1": "Primary",
        "DAYTHRU": 1,
        "NGHTTHRU": 1,
        "MAINTRK": 1,
        "SIDINGTRK": 0,
        "YARDTRK": 0,
        "TRANSITTRK": 0,
        "INDUSTRYTR": 0,
        "OTHRTRK": 0,
        "WDCODE": "Crossbucks",
        "REVISIONDA": "2001/01/01 00:00:00",
        "LASTUPDATE": "9/18/2025",
        "AADT": "891",
        "AADTYEAR": "2022",
        "STATENAME": "TEXAS",
        "STATEAB": "TX",
        "COUNTYNAME": "PECOS",
        "CITYNAME": "FORT STOCKTON",
        "LATDD": 30.875383,
        "LONGDD": -102.908032,
        "gridlyProductionCertified": true,
        "gridlyClassification": "PUBLIC_ROADWAY",
        "gridlyDisplayName": "west Gonzalez Loop",
        "gridlyId": "FRA-018987N"
      }
    },
    {
      "type": "Feature",
      "id": 212435,
      "geometry": {
        "type": "Point",
        "coordinates": [
          -103.027529799777,
          30.7881307003038
        ]
      },
      "properties": {
        "OBJECTID": 212435,
        "CROSSING": "938802U",
        "EFFDATE": 1761091200000,
        "REASON": "14",
        "StateCode": "48",
        "CountyCode": "48371",
        "STCYFIPS": "48371",
        "CITYCD": "483712440",
        "RAILROAD": "TXPF",
        "RRDIV": "SOUTHERN",
        "RRSUBDIV": "ALPINE",
        "HIGHWAY": "ls0000",
        "STREET": "well field road",
        "TTSTN": "",
        "MILEPOST": "0893.28",
        "TYPEXING": "Public",
        "POSXING": "At Grade",
        "PRVCAT": "14",
        "INIT": "2",
        "LATITUDE": 30.7881307,
        "LONGITUD": -103.0275298,
        "LLSOURCE": "1",
        "WHISTBAN": "",
        "RRCONT": "3259428164",
        "POLCONT": "8007428905",
        "INV_LINK": "https://safetydata.fra.dot.gov/OfficeofSafety/PublicSite/Crossing/Crossing.aspx?phasetype=C&rpttype=I&txtcrossingnum=938802U",
        "ACC_LINK": "https://safetydata.fra.dot.gov/OfficeofSafety/PublicSite/Crossing/Crossing.aspx?phasetype=C&rpttype=A&txtcrossingnum=938802U",
        "TTSTNNAM": "BRLDING",
        "XPURPOSE": "1",
        "OPERATINGR": "TXPF",
        "OPERATIN_1": "Primary",
        "DAYTHRU": 1,
        "NGHTTHRU": 1,
        "MAINTRK": 1,
        "SIDINGTRK": 0,
        "YARDTRK": 0,
        "TRANSITTRK": 0,
        "INDUSTRYTR": 0,
        "OTHRTRK": 0,
        "WDCODE": "Crossbucks",
        "REVISIONDA": "2001/01/01 00:00:00",
        "LASTUPDATE": "10/22/2025",
        "AADT": "353",
        "AADTYEAR": "2024",
        "STATENAME": "TEXAS",
        "STATEAB": "TX",
        "COUNTYNAME": "PECOS",
        "CITYNAME": "FORT STOCKTON",
        "LATDD": 30.7881307,
        "LONGDD": -103.0275298,
        "gridlyProductionCertified": true,
        "gridlyClassification": "PUBLIC_ROADWAY",
        "gridlyDisplayName": "well field road",
        "gridlyId": "FRA-938802U"
      }
    },
    {
      "type": "Feature",
      "id": 212436,
      "geometry": {
        "type": "Point",
        "coordinates": [
          -102.868080999989,
          30.9038759002201
        ]
      },
      "properties": {
        "OBJECTID": 212436,
        "CROSSING": "018955H",
        "EFFDATE": 1764720000000,
        "REASON": "14",
        "StateCode": "48",
        "CountyCode": "48371",
        "STCYFIPS": "48371",
        "CITYCD": "483712440",
        "RAILROAD": "TXPF",
        "RRDIV": "SOUTHERN",
        "RRSUBDIV": "BIG LAKE",
        "HIGHWAY": "IH0010",
        "STREET": "IH0010",
        "TTSTN": "695150",
        "MILEPOST": "0880.84",
        "TYPEXING": "Public",
        "POSXING": "RR Under",
        "PRVCAT": "14",
        "INIT": "2",
        "LATITUDE": 30.9038759,
        "LONGITUD": -102.868081,
        "LLSOURCE": "1",
        "WHISTBAN": "0",
        "RRCONT": "3259428164",
        "POLCONT": "8007428905",
        "INV_LINK": "https://safetydata.fra.dot.gov/OfficeofSafety/PublicSite/Crossing/Crossing.aspx?phasetype=C&rpttype=I&txtcrossingnum=018955H",
        "ACC_LINK": "https://safetydata.fra.dot.gov/OfficeofSafety/PublicSite/Crossing/Crossing.aspx?phasetype=C&rpttype=A&txtcrossingnum=018955H",
        "TTSTNNAM": "FT STOCKTON",
        "XPURPOSE": "1",
        "OPERATINGR": "TXPF",
        "OPERATIN_1": "Primary",
        "DAYTHRU": 1,
        "NGHTTHRU": 1,
        "MAINTRK": 1,
        "SIDINGTRK": 0,
        "YARDTRK": 0,
        "TRANSITTRK": 0,
        "INDUSTRYTR": 1,
        "OTHRTRK": 0,
        "WDCODE": "",
        "REVISIONDA": "2001/01/01 00:00:00",
        "LASTUPDATE": "12/3/2025",
        "AADT": "7413",
        "AADTYEAR": "2024",
        "STATENAME": "TEXAS",
        "STATEAB": "TX",
        "COUNTYNAME": "PECOS",
        "CITYNAME": "FORT STOCKTON",
        "LATDD": 30.9038759,
        "LONGDD": -102.868081,
        "gridlyProductionCertified": true,
        "gridlyClassification": "PUBLIC_ROADWAY",
        "gridlyDisplayName": "IH0010",
        "gridlyId": "FRA-018955H"
      }
    },
    {
      "type": "Feature",
      "id": 213564,
      "geometry": {
        "type": "Point",
        "coordinates": [
          -102.625936399723,
          30.1569114998269
        ]
      },
      "properties": {
        "OBJECTID": 213564,
        "CROSSING": "763855F",
        "EFFDATE": 1758499200000,
        "REASON": "14",
        "StateCode": "48",
        "CountyCode": "48443",
        "STCYFIPS": "48443",
        "CITYCD": "484436120",
        "RAILROAD": "UP",
        "RRDIV": "SOUTH TEXAS",
        "RRSUBDIV": "SANDERSON SUB",
        "HIGHWAY": "CO 0000",
        "STREET": "LONGFELLOW ROAD",
        "TTSTN": "695783",
        "MILEPOST": "0531.370",
        "TYPEXING": "Private",
        "POSXING": "At Grade",
        "PRVCAT": "14",
        "INIT": "1",
        "LATITUDE": 30.1569115,
        "LONGITUD": -102.6259364,
        "LLSOURCE": "1",
        "WHISTBAN": "0",
        "RRCONT": "4025443721",
        "POLCONT": "8008488715",
        "INV_LINK": "https://safetydata.fra.dot.gov/OfficeofSafety/PublicSite/Crossing/Crossing.aspx?phasetype=C&rpttype=I&txtcrossingnum=763855F",
        "ACC_LINK": "https://safetydata.fra.dot.gov/OfficeofSafety/PublicSite/Crossing/Crossing.aspx?phasetype=C&rpttype=A&txtcrossingnum=763855F",
        "TTSTNNAM": "",
        "XPURPOSE": "1",
        "OPERATINGR": "UP",
        "OPERATIN_1": "Primary",
        "DAYTHRU": 5,
        "NGHTTHRU": 5,
        "MAINTRK": 1,
        "SIDINGTRK": 0,
        "YARDTRK": 0,
        "TRANSITTRK": 0,
        "INDUSTRYTR": 0,
        "OTHRTRK": 0,
        "WDCODE": "",
        "REVISIONDA": "1975/01/01 00:00:00",
        "LASTUPDATE": "9/22/2025",
        "AADT": "10",
        "AADTYEAR": "1992",
        "STATENAME": "TEXAS",
        "STATEAB": "TX",
        "COUNTYNAME": "TERRELL",
        "CITYNAME": "SANDERSON",
        "LATDD": 30.1569115,
        "LONGDD": -102.6259364,
        "gridlyProductionCertified": true,
        "gridlyClassification": "PUBLIC_ROADWAY",
        "gridlyDisplayName": "LONGFELLOW ROAD",
        "gridlyId": "FRA-763855F"
      }
    },
    {
      "type": "Feature",
      "id": 213565,
      "geometry": {
        "type": "Point",
        "coordinates": [
          -102.639532900113,
          30.1610927002432
        ]
      },
      "properties": {
        "OBJECTID": 213565,
        "CROSSING": "763856M",
        "EFFDATE": 1758499200000,
        "REASON": "14",
        "StateCode": "48",
        "CountyCode": "48443",
        "STCYFIPS": "48443",
        "CITYCD": "484436120",
        "RAILROAD": "UP",
        "RRDIV": "SOUTH TEXAS",
        "RRSUBDIV": "SANDERSON SUB",
        "HIGHWAY": "PRIVATE",
        "STREET": "Private",
        "TTSTN": "695783",
        "MILEPOST": "0532.250",
        "TYPEXING": "Private",
        "POSXING": "At Grade",
        "PRVCAT": "14",
        "INIT": "1",
        "LATITUDE": 30.1610927,
        "LONGITUD": -102.6395329,
        "LLSOURCE": "1",
        "WHISTBAN": "0",
        "RRCONT": "4025443721",
        "POLCONT": "8008488715",
        "INV_LINK": "https://safetydata.fra.dot.gov/OfficeofSafety/PublicSite/Crossing/Crossing.aspx?phasetype=C&rpttype=I&txtcrossingnum=763856M",
        "ACC_LINK": "https://safetydata.fra.dot.gov/OfficeofSafety/PublicSite/Crossing/Crossing.aspx?phasetype=C&rpttype=A&txtcrossingnum=763856M",
        "TTSTNNAM": "",
        "XPURPOSE": "1",
        "OPERATINGR": "UP",
        "OPERATIN_1": "Primary",
        "DAYTHRU": 5,
        "NGHTTHRU": 5,
        "MAINTRK": 1,
        "SIDINGTRK": 1,
        "YARDTRK": 0,
        "TRANSITTRK": 0,
        "INDUSTRYTR": 0,
        "OTHRTRK": 0,
        "WDCODE": "",
        "REVISIONDA": "1975/01/01 00:00:00",
        "LASTUPDATE": "9/22/2025",
        "AADT": "1",
        "AADTYEAR": "1970",
        "STATENAME": "TEXAS",
        "STATEAB": "TX",
        "COUNTYNAME": "TERRELL",
        "CITYNAME": "SANDERSON",
        "LATDD": 30.1610927,
        "LONGDD": -102.6395329,
        "gridlyProductionCertified": true,
        "gridlyClassification": "PUBLIC_ROADWAY",
        "gridlyDisplayName": "Private",
        "gridlyId": "FRA-763856M"
      }
    },
    {
      "type": "Feature",
      "id": 213968,
      "geometry": {
        "type": "Point",
        "coordinates": [
          -103.259760800079,
          30.6396338997417
        ]
      },
      "properties": {
        "OBJECTID": 213968,
        "CROSSING": "019002W",
        "EFFDATE": 1767830400000,
        "REASON": "14",
        "StateCode": "48",
        "CountyCode": "48371",
        "STCYFIPS": "48371",
        "CITYCD": "483712440",
        "RAILROAD": "TXPF",
        "RRDIV": "SOUTHERN",
        "RRSUBDIV": "ALPINE",
        "HIGHWAY": "US0067",
        "STREET": "US0067",
        "TTSTN": "695163",
        "MILEPOST": "0910.48",
        "TYPEXING": "Public",
        "POSXING": "At Grade",
        "PRVCAT": "14",
        "INIT": "2",
        "LATITUDE": 30.6396339,
        "LONGITUD": -103.2597608,
        "LLSOURCE": "1",
        "WHISTBAN": "0",
        "RRCONT": "3259428164",
        "POLCONT": "8007428905",
        "INV_LINK": "https://safetydata.fra.dot.gov/OfficeofSafety/PublicSite/Crossing/Crossing.aspx?phasetype=C&rpttype=I&txtcrossingnum=019002W",
        "ACC_LINK": "https://safetydata.fra.dot.gov/OfficeofSafety/PublicSite/Crossing/Crossing.aspx?phasetype=C&rpttype=A&txtcrossingnum=019002W",
        "TTSTNNAM": "BELDING",
        "XPURPOSE": "1",
        "OPERATINGR": "TXPF",
        "OPERATIN_1": "Primary",
        "DAYTHRU": 1,
        "NGHTTHRU": 1,
        "MAINTRK": 1,
        "SIDINGTRK": 0,
        "YARDTRK": 0,
        "TRANSITTRK": 0,
        "INDUSTRYTR": 0,
        "OTHRTRK": 0,
        "WDCODE": "Flashing lights",
        "REVISIONDA": "2001/01/01 00:00:00",
        "LASTUPDATE": "1/8/2026",
        "AADT": "1577",
        "AADTYEAR": "2023",
        "STATENAME": "TEXAS",
        "STATEAB": "TX",
        "COUNTYNAME": "PECOS",
        "CITYNAME": "FORT STOCKTON",
        "LATDD": 30.6396339,
        "LONGDD": -103.2597608,
        "gridlyProductionCertified": true,
        "gridlyClassification": "PUBLIC_ROADWAY",
        "gridlyDisplayName": "US0067",
        "gridlyId": "FRA-019002W"
      }
    },
    {
      "type": "Feature",
      "id": 213969,
      "geometry": {
        "type": "Point",
        "coordinates": [
          -102.868076099679,
          30.9032106000731
        ]
      },
      "properties": {
        "OBJECTID": 213969,
        "CROSSING": "018954B",
        "EFFDATE": 1767830400000,
        "REASON": "14",
        "StateCode": "48",
        "CountyCode": "48371",
        "STCYFIPS": "48371",
        "CITYCD": "483712440",
        "RAILROAD": "TXPF",
        "RRDIV": "SOUTHERN",
        "RRSUBDIV": "BIG LAKE",
        "HIGHWAY": "IH0010",
        "STREET": "IH0010 northbound frontage",
        "TTSTN": "695150",
        "MILEPOST": "0000.12",
        "TYPEXING": "Public",
        "POSXING": "At Grade",
        "PRVCAT": "14",
        "INIT": "2",
        "LATITUDE": 30.9032106,
        "LONGITUD": -102.8680761,
        "LLSOURCE": "1",
        "WHISTBAN": "0",
        "RRCONT": "3259428164",
        "POLCONT": "8007428905",
        "INV_LINK": "https://safetydata.fra.dot.gov/OfficeofSafety/PublicSite/Crossing/Crossing.aspx?phasetype=C&rpttype=I&txtcrossingnum=018954B",
        "ACC_LINK": "https://safetydata.fra.dot.gov/OfficeofSafety/PublicSite/Crossing/Crossing.aspx?phasetype=C&rpttype=A&txtcrossingnum=018954B",
        "TTSTNNAM": "FT STOCKTON",
        "XPURPOSE": "1",
        "OPERATINGR": "TXPF",
        "OPERATIN_1": "Primary",
        "DAYTHRU": 1,
        "NGHTTHRU": 1,
        "MAINTRK": 0,
        "SIDINGTRK": 0,
        "YARDTRK": 1,
        "TRANSITTRK": 0,
        "INDUSTRYTR": 0,
        "OTHRTRK": 1,
        "WDCODE": "All other Gates",
        "REVISIONDA": "2001/01/01 00:00:00",
        "LASTUPDATE": "1/8/2026",
        "AADT": "780",
        "AADTYEAR": "2017",
        "STATENAME": "TEXAS",
        "STATEAB": "TX",
        "COUNTYNAME": "PECOS",
        "CITYNAME": "FORT STOCKTON",
        "LATDD": 30.9032106,
        "LONGDD": -102.8680761,
        "gridlyProductionCertified": true,
        "gridlyClassification": "PUBLIC_ROADWAY",
        "gridlyDisplayName": "IH0010 northbound frontage",
        "gridlyId": "FRA-018954B"
      }
    },
    {
      "type": "Feature",
      "id": 213970,
      "geometry": {
        "type": "Point",
        "coordinates": [
          -102.868656800323,
          30.9035024003047
        ]
      },
      "properties": {
        "OBJECTID": 213970,
        "CROSSING": "018953U",
        "EFFDATE": 1767830400000,
        "REASON": "14",
        "StateCode": "48",
        "CountyCode": "48371",
        "STCYFIPS": "48371",
        "CITYCD": "483712440",
        "RAILROAD": "TXPF",
        "RRDIV": "SOUTHERN",
        "RRSUBDIV": "BIG LAKE",
        "HIGHWAY": "IH0010",
        "STREET": "IH0010 Southbound frontage",
        "TTSTN": "695150",
        "MILEPOST": "0880.88",
        "TYPEXING": "Public",
        "POSXING": "At Grade",
        "PRVCAT": "14",
        "INIT": "2",
        "LATITUDE": 30.9035024,
        "LONGITUD": -102.8686568,
        "LLSOURCE": "1",
        "WHISTBAN": "0",
        "RRCONT": "3259428164",
        "POLCONT": "8007428905",
        "INV_LINK": "https://safetydata.fra.dot.gov/OfficeofSafety/PublicSite/Crossing/Crossing.aspx?phasetype=C&rpttype=I&txtcrossingnum=018953U",
        "ACC_LINK": "https://safetydata.fra.dot.gov/OfficeofSafety/PublicSite/Crossing/Crossing.aspx?phasetype=C&rpttype=A&txtcrossingnum=018953U",
        "TTSTNNAM": "FT STOCKTON",
        "XPURPOSE": "1",
        "OPERATINGR": "TXPF",
        "OPERATIN_1": "Primary",
        "DAYTHRU": 1,
        "NGHTTHRU": 1,
        "MAINTRK": 1,
        "SIDINGTRK": 0,
        "YARDTRK": 0,
        "TRANSITTRK": 0,
        "INDUSTRYTR": 0,
        "OTHRTRK": 1,
        "WDCODE": "All other Gates",
        "REVISIONDA": "2001/01/01 00:00:00",
        "LASTUPDATE": "1/8/2026",
        "AADT": "396",
        "AADTYEAR": "2019",
        "STATENAME": "TEXAS",
        "STATEAB": "TX",
        "COUNTYNAME": "PECOS",
        "CITYNAME": "FORT STOCKTON",
        "LATDD": 30.9035024,
        "LONGDD": -102.8686568,
        "gridlyProductionCertified": true,
        "gridlyClassification": "PUBLIC_ROADWAY",
        "gridlyDisplayName": "IH0010 Southbound frontage",
        "gridlyId": "FRA-018953U"
      }
    },
    {
      "type": "Feature",
      "id": 213971,
      "geometry": {
        "type": "Point",
        "coordinates": [
          -102.879112500324,
          30.8932112998475
        ]
      },
      "properties": {
        "OBJECTID": 213971,
        "CROSSING": "018977H",
        "EFFDATE": 1767830400000,
        "REASON": "14",
        "StateCode": "48",
        "CountyCode": "48371",
        "STCYFIPS": "48371",
        "CITYCD": "483712440",
        "RAILROAD": "TXPF",
        "RRDIV": "SOUTHERN",
        "RRSUBDIV": "BIG LAKE",
        "HIGHWAY": "us0285",
        "STREET": "us0285 / MAIN STreet",
        "TTSTN": "695150",
        "MILEPOST": "0881.82",
        "TYPEXING": "Public",
        "POSXING": "At Grade",
        "PRVCAT": "14",
        "INIT": "2",
        "LATITUDE": 30.8932113,
        "LONGITUD": -102.8791125,
        "LLSOURCE": "1",
        "WHISTBAN": "0",
        "RRCONT": "3259428164",
        "POLCONT": "8007428905",
        "INV_LINK": "https://safetydata.fra.dot.gov/OfficeofSafety/PublicSite/Crossing/Crossing.aspx?phasetype=C&rpttype=I&txtcrossingnum=018977H",
        "ACC_LINK": "https://safetydata.fra.dot.gov/OfficeofSafety/PublicSite/Crossing/Crossing.aspx?phasetype=C&rpttype=A&txtcrossingnum=018977H",
        "TTSTNNAM": "FT STOCKTON",
        "XPURPOSE": "1",
        "OPERATINGR": "TXPF",
        "OPERATIN_1": "Primary",
        "DAYTHRU": 1,
        "NGHTTHRU": 1,
        "MAINTRK": 1,
        "SIDINGTRK": 0,
        "YARDTRK": 0,
        "TRANSITTRK": 0,
        "INDUSTRYTR": 0,
        "OTHRTRK": 0,
        "WDCODE": "Flashing lights",
        "REVISIONDA": "2001/01/01 00:00:00",
        "LASTUPDATE": "1/8/2026",
        "AADT": "9895",
        "AADTYEAR": "2023",
        "STATENAME": "TEXAS",
        "STATEAB": "TX",
        "COUNTYNAME": "PECOS",
        "CITYNAME": "FORT STOCKTON",
        "LATDD": 30.8932113,
        "LONGDD": -102.8791125,
        "gridlyProductionCertified": true,
        "gridlyClassification": "PUBLIC_ROADWAY",
        "gridlyDisplayName": "us0285 / MAIN STreet",
        "gridlyId": "FRA-018977H"
      }
    },
    {
      "type": "Feature",
      "id": 214086,
      "geometry": {
        "type": "Point",
        "coordinates": [
          -102.39393770016,
          31.078389199761
        ]
      },
      "properties": {
        "OBJECTID": 214086,
        "CROSSING": "018904X",
        "EFFDATE": 1767830400000,
        "REASON": "14",
        "StateCode": "48",
        "CountyCode": "48371",
        "STCYFIPS": "48371",
        "CITYCD": "484614210",
        "RAILROAD": "TXPF",
        "RRDIV": "SOUTHERN",
        "RRSUBDIV": "BIG LAKE",
        "HIGHWAY": "FM0011",
        "STREET": "FM0011",
        "TTSTN": "695122",
        "MILEPOST": "0849.57",
        "TYPEXING": "Public",
        "POSXING": "At Grade",
        "PRVCAT": "14",
        "INIT": "2",
        "LATITUDE": 31.0783892,
        "LONGITUD": -102.3939377,
        "LLSOURCE": "1",
        "WHISTBAN": "0",
        "RRCONT": "3259428164",
        "POLCONT": "8007428905",
        "INV_LINK": "https://safetydata.fra.dot.gov/OfficeofSafety/PublicSite/Crossing/Crossing.aspx?phasetype=C&rpttype=I&txtcrossingnum=018904X",
        "ACC_LINK": "https://safetydata.fra.dot.gov/OfficeofSafety/PublicSite/Crossing/Crossing.aspx?phasetype=C&rpttype=A&txtcrossingnum=018904X",
        "TTSTNNAM": "GIRVIN",
        "XPURPOSE": "1",
        "OPERATINGR": "TXPF",
        "OPERATIN_1": "Primary",
        "DAYTHRU": 1,
        "NGHTTHRU": 1,
        "MAINTRK": 1,
        "SIDINGTRK": 0,
        "YARDTRK": 0,
        "TRANSITTRK": 0,
        "INDUSTRYTR": 0,
        "OTHRTRK": 1,
        "WDCODE": "All other Gates",
        "REVISIONDA": "2001/01/01 00:00:00",
        "LASTUPDATE": "1/8/2026",
        "AADT": "296",
        "AADTYEAR": "2023",
        "STATENAME": "TEXAS",
        "STATEAB": "TX",
        "COUNTYNAME": "PECOS",
        "CITYNAME": "MCCAMEY",
        "LATDD": 31.0783892,
        "LONGDD": -102.3939377,
        "gridlyProductionCertified": true,
        "gridlyClassification": "PUBLIC_ROADWAY",
        "gridlyDisplayName": "FM0011",
        "gridlyId": "FRA-018904X"
      }
    }
  ]
}
