{
  "type": "FeatureCollection",
  "features": [
    {
      "type": "Feature",
      "id": 207839,
      "geometry": {
        "type": "Point",
        "coordinates": [
          -97.7681103995638,
          26.6409596001031
        ]
      },
      "properties": {
        "OBJECTID": 207839,
        "CROSSING": "412023V",
        "EFFDATE": 1756684800000,
        "REASON": "14",
        "StateCode": "48",
        "CountyCode": "48261",
        "STCYFIPS": "48261",
        "CITYCD": "484895670",
        "RAILROAD": "UP",
        "RRDIV": "GULF COAST",
        "RRSUBDIV": "BROWNSVILLE SUB",
        "HIGHWAY": "NA",
        "STREET": "PRIVATE",
        "TTSTN": "689550",
        "MILEPOST": "0057.500",
        "TYPEXING": "Private",
        "POSXING": "At Grade",
        "PRVCAT": "14",
        "INIT": "1",
        "LATITUDE": 26.6409596,
        "LONGITUD": -97.7681104,
        "LLSOURCE": "1",
        "WHISTBAN": "0",
        "RRCONT": "4025443721",
        "POLCONT": "8008488715",
        "INV_LINK": "https://safetydata.fra.dot.gov/OfficeofSafety/PublicSite/Crossing/Crossing.aspx?phasetype=C&rpttype=I&txtcrossingnum=412023V",
        "ACC_LINK": "https://safetydata.fra.dot.gov/OfficeofSafety/PublicSite/Crossing/Crossing.aspx?phasetype=C&rpttype=A&txtcrossingnum=412023V",
        "TTSTNNAM": "",
        "XPURPOSE": "1",
        "OPERATINGR": "UP",
        "OPERATIN_1": "Primary",
        "DAYTHRU": 3,
        "NGHTTHRU": 2,
        "MAINTRK": 1,
        "SIDINGTRK": 0,
        "YARDTRK": 0,
        "TRANSITTRK": 0,
        "INDUSTRYTR": 0,
        "OTHRTRK": 0,
        "WDCODE": "",
        "REVISIONDA": "1975/01/01 00:00:00",
        "LASTUPDATE": "9/1/2025",
        "AADT": "1",
        "AADTYEAR": "",
        "STATENAME": "TEXAS",
        "STATEAB": "TX",
        "COUNTYNAME": "KENEDY",
        "CITYNAME": "RAYMONDVILLE",
        "LATDD": 26.6409596,
        "LONGDD": -97.7681104,
        "gridlyProductionCertified": true,
        "gridlyClassification": "PUBLIC_ROADWAY",
        "gridlyDisplayName": "PRIVATE",
        "gridlyId": "FRA-412023V"
      }
    },
    {
      "type": "Feature",
      "id": 208353,
      "geometry": {
        "type": "Point",
        "coordinates": [
          -97.7677306996595,
          26.6221558001486
        ]
      },
      "properties": {
        "OBJECTID": 208353,
        "CROSSING": "176287P",
        "EFFDATE": 1756252800000,
        "REASON": "14",
        "StateCode": "48",
        "CountyCode": "48261",
        "STCYFIPS": "48261",
        "CITYCD": "484895670",
        "RAILROAD": "UP",
        "RRDIV": "GULF COAST",
        "RRSUBDIV": "BROWNSVILLE SUB",
        "HIGHWAY": "NA",
        "STREET": "PRIVATE",
        "TTSTN": "689740",
        "MILEPOST": "0056.180",
        "TYPEXING": "Private",
        "POSXING": "At Grade",
        "PRVCAT": "14",
        "INIT": "1",
        "LATITUDE": 26.6221558,
        "LONGITUD": -97.7677307,
        "LLSOURCE": "1",
        "WHISTBAN": "0",
        "RRCONT": "4025443721",
        "POLCONT": "8008488715",
        "INV_LINK": "https://safetydata.fra.dot.gov/OfficeofSafety/PublicSite/Crossing/Crossing.aspx?phasetype=C&rpttype=I&txtcrossingnum=176287P",
        "ACC_LINK": "https://safetydata.fra.dot.gov/OfficeofSafety/PublicSite/Crossing/Crossing.aspx?phasetype=C&rpttype=A&txtcrossingnum=176287P",
        "TTSTNNAM": "",
        "XPURPOSE": "1",
        "OPERATINGR": "UP",
        "OPERATIN_1": "Primary",
        "DAYTHRU": 3,
        "NGHTTHRU": 2,
        "MAINTRK": 1,
        "SIDINGTRK": 0,
        "YARDTRK": 0,
        "TRANSITTRK": 0,
        "INDUSTRYTR": 0,
        "OTHRTRK": 0,
        "WDCODE": "",
        "REVISIONDA": "1975/01/01 00:00:00",
        "LASTUPDATE": "8/27/2025",
        "AADT": "1",
        "AADTYEAR": "",
        "STATENAME": "TEXAS",
        "STATEAB": "TX",
        "COUNTYNAME": "KENEDY",
        "CITYNAME": "RAYMONDVILLE",
        "LATDD": 26.6221558,
        "LONGDD": -97.7677307,
        "gridlyProductionCertified": true,
        "gridlyClassification": "PUBLIC_ROADWAY",
        "gridlyDisplayName": "PRIVATE",
        "gridlyId": "FRA-176287P"
      }
    },
    {
      "type": "Feature",
      "id": 208360,
      "geometry": {
        "type": "Point",
        "coordinates": [
          -97.7679590999138,
          26.6341104999759
        ]
      },
      "properties": {
        "OBJECTID": 208360,
        "CROSSING": "412022N",
        "EFFDATE": 1756252800000,
        "REASON": "14",
        "StateCode": "48",
        "CountyCode": "48261",
        "STCYFIPS": "48261",
        "CITYCD": "482610265",
        "RAILROAD": "UP",
        "RRDIV": "GULF COAST",
        "RRSUBDIV": "Brownsville Sub",
        "HIGHWAY": "PRIVATE",
        "STREET": "PRIVATE GARCIA RANCH",
        "TTSTN": "689550",
        "MILEPOST": "0057.020",
        "TYPEXING": "Private",
        "POSXING": "At Grade",
        "PRVCAT": "14",
        "INIT": "1",
        "LATITUDE": 26.6341105,
        "LONGITUD": -97.7679591,
        "LLSOURCE": "1",
        "WHISTBAN": "0",
        "RRCONT": "4025443721",
        "POLCONT": "8008488715",
        "INV_LINK": "https://safetydata.fra.dot.gov/OfficeofSafety/PublicSite/Crossing/Crossing.aspx?phasetype=C&rpttype=I&txtcrossingnum=412022N",
        "ACC_LINK": "https://safetydata.fra.dot.gov/OfficeofSafety/PublicSite/Crossing/Crossing.aspx?phasetype=C&rpttype=A&txtcrossingnum=412022N",
        "TTSTNNAM": "",
        "XPURPOSE": "1",
        "OPERATINGR": "UP",
        "OPERATIN_1": "Primary",
        "DAYTHRU": 3,
        "NGHTTHRU": 2,
        "MAINTRK": 1,
        "SIDINGTRK": 0,
        "YARDTRK": 0,
        "TRANSITTRK": 0,
        "INDUSTRYTR": 0,
        "OTHRTRK": 0,
        "WDCODE": "",
        "REVISIONDA": "1975/01/01 00:00:00",
        "LASTUPDATE": "8/27/2025",
        "AADT": "1",
        "AADTYEAR": "",
        "STATENAME": "TEXAS",
        "STATEAB": "TX",
        "COUNTYNAME": "KENEDY",
        "CITYNAME": "ARMSTRONG",
        "LATDD": 26.6341105,
        "LONGDD": -97.7679591,
        "gridlyProductionCertified": true,
        "gridlyClassification": "PUBLIC_ROADWAY",
        "gridlyDisplayName": "PRIVATE GARCIA RANCH",
        "gridlyId": "FRA-412022N"
      }
    },
    {
      "type": "Feature",
      "id": 208445,
      "geometry": {
        "type": "Point",
        "coordinates": [
          -97.7943423000081,
          27.2081709999628
        ]
      },
      "properties": {
        "OBJECTID": 208445,
        "CROSSING": "427670A",
        "EFFDATE": 1756252800000,
        "REASON": "14",
        "StateCode": "48",
        "CountyCode": "48261",
        "STCYFIPS": "48261",
        "CITYCD": "482616223",
        "RAILROAD": "UP",
        "RRDIV": "GULF COAST",
        "RRSUBDIV": "BROWNSVILLE SUB",
        "HIGHWAY": "NA",
        "STREET": "PRIVATE SARITA PENS",
        "TTSTN": "689510",
        "MILEPOST": "0096.690",
        "TYPEXING": "Private",
        "POSXING": "At Grade",
        "PRVCAT": "14",
        "INIT": "1",
        "LATITUDE": 27.208171,
        "LONGITUD": -97.7943423,
        "LLSOURCE": "1",
        "WHISTBAN": "0",
        "RRCONT": "4025443721",
        "POLCONT": "8008488715",
        "INV_LINK": "https://safetydata.fra.dot.gov/OfficeofSafety/PublicSite/Crossing/Crossing.aspx?phasetype=C&rpttype=I&txtcrossingnum=427670A",
        "ACC_LINK": "https://safetydata.fra.dot.gov/OfficeofSafety/PublicSite/Crossing/Crossing.aspx?phasetype=C&rpttype=A&txtcrossingnum=427670A",
        "TTSTNNAM": "",
        "XPURPOSE": "1",
        "OPERATINGR": "UP",
        "OPERATIN_1": "Primary",
        "DAYTHRU": 3,
        "NGHTTHRU": 2,
        "MAINTRK": 1,
        "SIDINGTRK": 0,
        "YARDTRK": 0,
        "TRANSITTRK": 0,
        "INDUSTRYTR": 0,
        "OTHRTRK": 0,
        "WDCODE": "",
        "REVISIONDA": "1975/01/01 00:00:00",
        "LASTUPDATE": "8/27/2025",
        "AADT": "1",
        "AADTYEAR": "1990",
        "STATENAME": "TEXAS",
        "STATEAB": "TX",
        "COUNTYNAME": "KENEDY",
        "CITYNAME": "SARITA",
        "LATDD": 27.208171,
        "LONGDD": -97.7943423,
        "gridlyProductionCertified": true,
        "gridlyClassification": "PUBLIC_ROADWAY",
        "gridlyDisplayName": "PRIVATE SARITA PENS",
        "gridlyId": "FRA-427670A"
      }
    },
    {
      "type": "Feature",
      "id": 208446,
      "geometry": {
        "type": "Point",
        "coordinates": [
          -97.797185800259,
          27.1295267998414
        ]
      },
      "properties": {
        "OBJECTID": 208446,
        "CROSSING": "427671G",
        "EFFDATE": 1756252800000,
        "REASON": "14",
        "StateCode": "48",
        "CountyCode": "48261",
        "STCYFIPS": "48261",
        "CITYCD": "482616223",
        "RAILROAD": "UP",
        "RRDIV": "GULF COAST",
        "RRSUBDIV": "BROWNSVILLE SUB",
        "HIGHWAY": "NA",
        "STREET": "PRIVATE",
        "TTSTN": "689510",
        "MILEPOST": "0091.170",
        "TYPEXING": "Private",
        "POSXING": "At Grade",
        "PRVCAT": "14",
        "INIT": "1",
        "LATITUDE": 27.1295268,
        "LONGITUD": -97.7971858,
        "LLSOURCE": "1",
        "WHISTBAN": "0",
        "RRCONT": "4025443721",
        "POLCONT": "8008488715",
        "INV_LINK": "https://safetydata.fra.dot.gov/OfficeofSafety/PublicSite/Crossing/Crossing.aspx?phasetype=C&rpttype=I&txtcrossingnum=427671G",
        "ACC_LINK": "https://safetydata.fra.dot.gov/OfficeofSafety/PublicSite/Crossing/Crossing.aspx?phasetype=C&rpttype=A&txtcrossingnum=427671G",
        "TTSTNNAM": "",
        "XPURPOSE": "1",
        "OPERATINGR": "UP",
        "OPERATIN_1": "Primary",
        "DAYTHRU": 3,
        "NGHTTHRU": 2,
        "MAINTRK": 1,
        "SIDINGTRK": 0,
        "YARDTRK": 0,
        "TRANSITTRK": 0,
        "INDUSTRYTR": 0,
        "OTHRTRK": 0,
        "WDCODE": "",
        "REVISIONDA": "1975/01/01 00:00:00",
        "LASTUPDATE": "8/27/2025",
        "AADT": "1",
        "AADTYEAR": "1990",
        "STATENAME": "TEXAS",
        "STATEAB": "TX",
        "COUNTYNAME": "KENEDY",
        "CITYNAME": "SARITA",
        "LATDD": 27.1295268,
        "LONGDD": -97.7971858,
        "gridlyProductionCertified": true,
        "gridlyClassification": "PUBLIC_ROADWAY",
        "gridlyDisplayName": "PRIVATE",
        "gridlyId": "FRA-427671G"
      }
    },
    {
      "type": "Feature",
      "id": 208447,
      "geometry": {
        "type": "Point",
        "coordinates": [
          -97.7946683004214,
          27.1070092002636
        ]
      },
      "properties": {
        "OBJECTID": 208447,
        "CROSSING": "427672N",
        "EFFDATE": 1756252800000,
        "REASON": "14",
        "StateCode": "48",
        "CountyCode": "48261",
        "STCYFIPS": "48261",
        "CITYCD": "482616223",
        "RAILROAD": "UP",
        "RRDIV": "GULF COAST",
        "RRSUBDIV": "BROWNSVILLE SUB",
        "HIGHWAY": "NA",
        "STREET": "PRIVATE",
        "TTSTN": "689510",
        "MILEPOST": "0089.640",
        "TYPEXING": "Private",
        "POSXING": "At Grade",
        "PRVCAT": "14",
        "INIT": "1",
        "LATITUDE": 27.1070092,
        "LONGITUD": -97.7946683,
        "LLSOURCE": "1",
        "WHISTBAN": "0",
        "RRCONT": "4025443721",
        "POLCONT": "8008488715",
        "INV_LINK": "https://safetydata.fra.dot.gov/OfficeofSafety/PublicSite/Crossing/Crossing.aspx?phasetype=C&rpttype=I&txtcrossingnum=427672N",
        "ACC_LINK": "https://safetydata.fra.dot.gov/OfficeofSafety/PublicSite/Crossing/Crossing.aspx?phasetype=C&rpttype=A&txtcrossingnum=427672N",
        "TTSTNNAM": "",
        "XPURPOSE": "1",
        "OPERATINGR": "UP",
        "OPERATIN_1": "Primary",
        "DAYTHRU": 3,
        "NGHTTHRU": 2,
        "MAINTRK": 1,
        "SIDINGTRK": 0,
        "YARDTRK": 0,
        "TRANSITTRK": 0,
        "INDUSTRYTR": 0,
        "OTHRTRK": 0,
        "WDCODE": "",
        "REVISIONDA": "1975/01/01 00:00:00",
        "LASTUPDATE": "8/27/2025",
        "AADT": "1",
        "AADTYEAR": "1990",
        "STATENAME": "TEXAS",
        "STATEAB": "TX",
        "COUNTYNAME": "KENEDY",
        "CITYNAME": "SARITA",
        "LATDD": 27.1070092,
        "LONGDD": -97.7946683,
        "gridlyProductionCertified": true,
        "gridlyClassification": "PUBLIC_ROADWAY",
        "gridlyDisplayName": "PRIVATE",
        "gridlyId": "FRA-427672N"
      }
    },
    {
      "type": "Feature",
      "id": 208448,
      "geometry": {
        "type": "Point",
        "coordinates": [
          -97.7945908997799,
          26.9585990002617
        ]
      },
      "properties": {
        "OBJECTID": 208448,
        "CROSSING": "412027X",
        "EFFDATE": 1756252800000,
        "REASON": "14",
        "StateCode": "48",
        "CountyCode": "48261",
        "STCYFIPS": "48261",
        "CITYCD": "482610265",
        "RAILROAD": "UP",
        "RRDIV": "GULF COAST",
        "RRSUBDIV": "BROWNSVILLE SUB",
        "HIGHWAY": "NA",
        "STREET": "PRIVATE",
        "TTSTN": "689550",
        "MILEPOST": "0079.520",
        "TYPEXING": "Private",
        "POSXING": "At Grade",
        "PRVCAT": "14",
        "INIT": "1",
        "LATITUDE": 26.958599,
        "LONGITUD": -97.7945909,
        "LLSOURCE": "1",
        "WHISTBAN": "0",
        "RRCONT": "4025443721",
        "POLCONT": "8008488715",
        "INV_LINK": "https://safetydata.fra.dot.gov/OfficeofSafety/PublicSite/Crossing/Crossing.aspx?phasetype=C&rpttype=I&txtcrossingnum=412027X",
        "ACC_LINK": "https://safetydata.fra.dot.gov/OfficeofSafety/PublicSite/Crossing/Crossing.aspx?phasetype=C&rpttype=A&txtcrossingnum=412027X",
        "TTSTNNAM": "",
        "XPURPOSE": "1",
        "OPERATINGR": "UP",
        "OPERATIN_1": "Primary",
        "DAYTHRU": 3,
        "NGHTTHRU": 2,
        "MAINTRK": 1,
        "SIDINGTRK": 0,
        "YARDTRK": 0,
        "TRANSITTRK": 0,
        "INDUSTRYTR": 0,
        "OTHRTRK": 0,
        "WDCODE": "",
        "REVISIONDA": "1975/01/01 00:00:00",
        "LASTUPDATE": "8/27/2025",
        "AADT": "1",
        "AADTYEAR": "",
        "STATENAME": "TEXAS",
        "STATEAB": "TX",
        "COUNTYNAME": "KENEDY",
        "CITYNAME": "ARMSTRONG",
        "LATDD": 26.958599,
        "LONGDD": -97.7945909,
        "gridlyProductionCertified": true,
        "gridlyClassification": "PUBLIC_ROADWAY",
        "gridlyDisplayName": "PRIVATE",
        "gridlyId": "FRA-412027X"
      }
    },
    {
      "type": "Feature",
      "id": 208449,
      "geometry": {
        "type": "Point",
        "coordinates": [
          -97.7945294002172,
          27.0446255002823
        ]
      },
      "properties": {
        "OBJECTID": 208449,
        "CROSSING": "427674C",
        "EFFDATE": 1756252800000,
        "REASON": "14",
        "StateCode": "48",
        "CountyCode": "48261",
        "STCYFIPS": "48261",
        "CITYCD": "482610265",
        "RAILROAD": "UP",
        "RRDIV": "GULF COAST",
        "RRSUBDIV": "Brownsville Sub",
        "HIGHWAY": "PRIVATE",
        "STREET": "PRIVATE",
        "TTSTN": "689531",
        "MILEPOST": "0085.360",
        "TYPEXING": "Private",
        "POSXING": "At Grade",
        "PRVCAT": "14",
        "INIT": "1",
        "LATITUDE": 27.0446255,
        "LONGITUD": -97.7945294,
        "LLSOURCE": "1",
        "WHISTBAN": "0",
        "RRCONT": "4025443721",
        "POLCONT": "8008488715",
        "INV_LINK": "https://safetydata.fra.dot.gov/OfficeofSafety/PublicSite/Crossing/Crossing.aspx?phasetype=C&rpttype=I&txtcrossingnum=427674C",
        "ACC_LINK": "https://safetydata.fra.dot.gov/OfficeofSafety/PublicSite/Crossing/Crossing.aspx?phasetype=C&rpttype=A&txtcrossingnum=427674C",
        "TTSTNNAM": "",
        "XPURPOSE": "1",
        "OPERATINGR": "UP",
        "OPERATIN_1": "Primary",
        "DAYTHRU": 3,
        "NGHTTHRU": 2,
        "MAINTRK": 1,
        "SIDINGTRK": 0,
        "YARDTRK": 0,
        "TRANSITTRK": 0,
        "INDUSTRYTR": 0,
        "OTHRTRK": 0,
        "WDCODE": "",
        "REVISIONDA": "1975/01/01 00:00:00",
        "LASTUPDATE": "8/27/2025",
        "AADT": "1",
        "AADTYEAR": "1990",
        "STATENAME": "TEXAS",
        "STATEAB": "TX",
        "COUNTYNAME": "KENEDY",
        "CITYNAME": "ARMSTRONG",
        "LATDD": 27.0446255,
        "LONGDD": -97.7945294,
        "gridlyProductionCertified": true,
        "gridlyClassification": "PUBLIC_ROADWAY",
        "gridlyDisplayName": "PRIVATE",
        "gridlyId": "FRA-427674C"
      }
    },
    {
      "type": "Feature",
      "id": 208450,
      "geometry": {
        "type": "Point",
        "coordinates": [
          -97.795502800286,
          27.0042191001212
        ]
      },
      "properties": {
        "OBJECTID": 208450,
        "CROSSING": "427675J",
        "EFFDATE": 1756252800000,
        "REASON": "14",
        "StateCode": "48",
        "CountyCode": "48261",
        "STCYFIPS": "48261",
        "CITYCD": "482610265",
        "RAILROAD": "UP",
        "RRDIV": "GULF COAST",
        "RRSUBDIV": "Brownsville Sub",
        "HIGHWAY": "NA",
        "STREET": "PRIVATE",
        "TTSTN": "689550",
        "MILEPOST": "0082.550",
        "TYPEXING": "Private",
        "POSXING": "At Grade",
        "PRVCAT": "14",
        "INIT": "1",
        "LATITUDE": 27.0042191,
        "LONGITUD": -97.7955028,
        "LLSOURCE": "1",
        "WHISTBAN": "0",
        "RRCONT": "4025443721",
        "POLCONT": "8008488715",
        "INV_LINK": "https://safetydata.fra.dot.gov/OfficeofSafety/PublicSite/Crossing/Crossing.aspx?phasetype=C&rpttype=I&txtcrossingnum=427675J",
        "ACC_LINK": "https://safetydata.fra.dot.gov/OfficeofSafety/PublicSite/Crossing/Crossing.aspx?phasetype=C&rpttype=A&txtcrossingnum=427675J",
        "TTSTNNAM": "",
        "XPURPOSE": "1",
        "OPERATINGR": "UP",
        "OPERATIN_1": "Primary",
        "DAYTHRU": 3,
        "NGHTTHRU": 2,
        "MAINTRK": 1,
        "SIDINGTRK": 0,
        "YARDTRK": 0,
        "TRANSITTRK": 0,
        "INDUSTRYTR": 0,
        "OTHRTRK": 0,
        "WDCODE": "",
        "REVISIONDA": "1975/01/01 00:00:00",
        "LASTUPDATE": "8/27/2025",
        "AADT": "1",
        "AADTYEAR": "1990",
        "STATENAME": "TEXAS",
        "STATEAB": "TX",
        "COUNTYNAME": "KENEDY",
        "CITYNAME": "ARMSTRONG",
        "LATDD": 27.0042191,
        "LONGDD": -97.7955028,
        "gridlyProductionCertified": true,
        "gridlyClassification": "PUBLIC_ROADWAY",
        "gridlyDisplayName": "PRIVATE",
        "gridlyId": "FRA-427675J"
      }
    },
    {
      "type": "Feature",
      "id": 208452,
      "geometry": {
        "type": "Point",
        "coordinates": [
          -97.7956043000317,
          27.0005079997209
        ]
      },
      "properties": {
        "OBJECTID": 208452,
        "CROSSING": "427676R",
        "EFFDATE": 1756252800000,
        "REASON": "14",
        "StateCode": "48",
        "CountyCode": "48261",
        "STCYFIPS": "48261",
        "CITYCD": "482610265",
        "RAILROAD": "UP",
        "RRDIV": "GULF COAST",
        "RRSUBDIV": "BROWNSVILLE SUB",
        "HIGHWAY": "NA",
        "STREET": "TURCOTTE ROAD",
        "TTSTN": "689550",
        "MILEPOST": "0082.310",
        "TYPEXING": "Private",
        "POSXING": "At Grade",
        "PRVCAT": "14",
        "INIT": "1",
        "LATITUDE": 27.000508,
        "LONGITUD": -97.7956043,
        "LLSOURCE": "1",
        "WHISTBAN": "0",
        "RRCONT": "4025443721",
        "POLCONT": "8008488715",
        "INV_LINK": "https://safetydata.fra.dot.gov/OfficeofSafety/PublicSite/Crossing/Crossing.aspx?phasetype=C&rpttype=I&txtcrossingnum=427676R",
        "ACC_LINK": "https://safetydata.fra.dot.gov/OfficeofSafety/PublicSite/Crossing/Crossing.aspx?phasetype=C&rpttype=A&txtcrossingnum=427676R",
        "TTSTNNAM": "",
        "XPURPOSE": "1",
        "OPERATINGR": "UP",
        "OPERATIN_1": "Primary",
        "DAYTHRU": 3,
        "NGHTTHRU": 2,
        "MAINTRK": 1,
        "SIDINGTRK": 0,
        "YARDTRK": 0,
        "TRANSITTRK": 0,
        "INDUSTRYTR": 0,
        "OTHRTRK": 0,
        "WDCODE": "",
        "REVISIONDA": "1975/01/01 00:00:00",
        "LASTUPDATE": "8/27/2025",
        "AADT": "1",
        "AADTYEAR": "1990",
        "STATENAME": "TEXAS",
        "STATEAB": "TX",
        "COUNTYNAME": "KENEDY",
        "CITYNAME": "ARMSTRONG",
        "LATDD": 27.000508,
        "LONGDD": -97.7956043,
        "gridlyProductionCertified": true,
        "gridlyClassification": "PUBLIC_ROADWAY",
        "gridlyDisplayName": "TURCOTTE ROAD",
        "gridlyId": "FRA-427676R"
      }
    },
    {
      "type": "Feature",
      "id": 208453,
      "geometry": {
        "type": "Point",
        "coordinates": [
          -97.7923829001003,
          26.926264300086
        ]
      },
      "properties": {
        "OBJECTID": 208453,
        "CROSSING": "427678E",
        "EFFDATE": 1756252800000,
        "REASON": "14",
        "StateCode": "48",
        "CountyCode": "48261",
        "STCYFIPS": "48261",
        "CITYCD": "482610265",
        "RAILROAD": "UP",
        "RRDIV": "GULF COAST",
        "RRSUBDIV": "Brownsville Sub",
        "HIGHWAY": "NA",
        "STREET": "Private",
        "TTSTN": "689550",
        "MILEPOST": "0077.210",
        "TYPEXING": "Private",
        "POSXING": "At Grade",
        "PRVCAT": "14",
        "INIT": "1",
        "LATITUDE": 26.9262643,
        "LONGITUD": -97.7923829,
        "LLSOURCE": "1",
        "WHISTBAN": "0",
        "RRCONT": "4025443721",
        "POLCONT": "8008488715",
        "INV_LINK": "https://safetydata.fra.dot.gov/OfficeofSafety/PublicSite/Crossing/Crossing.aspx?phasetype=C&rpttype=I&txtcrossingnum=427678E",
        "ACC_LINK": "https://safetydata.fra.dot.gov/OfficeofSafety/PublicSite/Crossing/Crossing.aspx?phasetype=C&rpttype=A&txtcrossingnum=427678E",
        "TTSTNNAM": "",
        "XPURPOSE": "1",
        "OPERATINGR": "UP",
        "OPERATIN_1": "Primary",
        "DAYTHRU": 3,
        "NGHTTHRU": 2,
        "MAINTRK": 1,
        "SIDINGTRK": 1,
        "YARDTRK": 0,
        "TRANSITTRK": 0,
        "INDUSTRYTR": 0,
        "OTHRTRK": 0,
        "WDCODE": "",
        "REVISIONDA": "1975/01/01 00:00:00",
        "LASTUPDATE": "8/27/2025",
        "AADT": "1",
        "AADTYEAR": "1990",
        "STATENAME": "TEXAS",
        "STATEAB": "TX",
        "COUNTYNAME": "KENEDY",
        "CITYNAME": "ARMSTRONG",
        "LATDD": 26.9262643,
        "LONGDD": -97.7923829,
        "gridlyProductionCertified": true,
        "gridlyClassification": "PUBLIC_ROADWAY",
        "gridlyDisplayName": "Private",
        "gridlyId": "FRA-427678E"
      }
    },
    {
      "type": "Feature",
      "id": 208454,
      "geometry": {
        "type": "Point",
        "coordinates": [
          -97.7921737004369,
          26.9222586999468
        ]
      },
      "properties": {
        "OBJECTID": 208454,
        "CROSSING": "427679L",
        "EFFDATE": 1756252800000,
        "REASON": "14",
        "StateCode": "48",
        "CountyCode": "48261",
        "STCYFIPS": "48261",
        "CITYCD": "482610265",
        "RAILROAD": "UP",
        "RRDIV": "GULF COAST",
        "RRSUBDIV": "BROWNSVILLE SUB",
        "HIGHWAY": "NA",
        "STREET": "PRIVATE",
        "TTSTN": "689550",
        "MILEPOST": "0076.930",
        "TYPEXING": "Private",
        "POSXING": "At Grade",
        "PRVCAT": "14",
        "INIT": "1",
        "LATITUDE": 26.9222587,
        "LONGITUD": -97.7921737,
        "LLSOURCE": "1",
        "WHISTBAN": "0",
        "RRCONT": "4025443721",
        "POLCONT": "8008488715",
        "INV_LINK": "https://safetydata.fra.dot.gov/OfficeofSafety/PublicSite/Crossing/Crossing.aspx?phasetype=C&rpttype=I&txtcrossingnum=427679L",
        "ACC_LINK": "https://safetydata.fra.dot.gov/OfficeofSafety/PublicSite/Crossing/Crossing.aspx?phasetype=C&rpttype=A&txtcrossingnum=427679L",
        "TTSTNNAM": "",
        "XPURPOSE": "1",
        "OPERATINGR": "UP",
        "OPERATIN_1": "Primary",
        "DAYTHRU": 3,
        "NGHTTHRU": 2,
        "MAINTRK": 1,
        "SIDINGTRK": 0,
        "YARDTRK": 0,
        "TRANSITTRK": 0,
        "INDUSTRYTR": 0,
        "OTHRTRK": 0,
        "WDCODE": "",
        "REVISIONDA": "1975/01/01 00:00:00",
        "LASTUPDATE": "8/27/2025",
        "AADT": "1",
        "AADTYEAR": "1990",
        "STATENAME": "TEXAS",
        "STATEAB": "TX",
        "COUNTYNAME": "KENEDY",
        "CITYNAME": "ARMSTRONG",
        "LATDD": 26.9222587,
        "LONGDD": -97.7921737,
        "gridlyProductionCertified": true,
        "gridlyClassification": "PUBLIC_ROADWAY",
        "gridlyDisplayName": "PRIVATE",
        "gridlyId": "FRA-427679L"
      }
    },
    {
      "type": "Feature",
      "id": 208457,
      "geometry": {
        "type": "Point",
        "coordinates": [
          -97.7853019999418,
          26.8498124002412
        ]
      },
      "properties": {
        "OBJECTID": 208457,
        "CROSSING": "427680F",
        "EFFDATE": 1756252800000,
        "REASON": "14",
        "StateCode": "48",
        "CountyCode": "48261",
        "STCYFIPS": "48261",
        "CITYCD": "482610265",
        "RAILROAD": "UP",
        "RRDIV": "GULF COAST",
        "RRSUBDIV": "BROWNSVILLE SUB",
        "HIGHWAY": "NA",
        "STREET": "PRIVATE",
        "TTSTN": "689550",
        "MILEPOST": "0071.890",
        "TYPEXING": "Private",
        "POSXING": "At Grade",
        "PRVCAT": "14",
        "INIT": "1",
        "LATITUDE": 26.8498124,
        "LONGITUD": -97.785302,
        "LLSOURCE": "1",
        "WHISTBAN": "0",
        "RRCONT": "4025443721",
        "POLCONT": "8008488715",
        "INV_LINK": "https://safetydata.fra.dot.gov/OfficeofSafety/PublicSite/Crossing/Crossing.aspx?phasetype=C&rpttype=I&txtcrossingnum=427680F",
        "ACC_LINK": "https://safetydata.fra.dot.gov/OfficeofSafety/PublicSite/Crossing/Crossing.aspx?phasetype=C&rpttype=A&txtcrossingnum=427680F",
        "TTSTNNAM": "",
        "XPURPOSE": "1",
        "OPERATINGR": "UP",
        "OPERATIN_1": "Primary",
        "DAYTHRU": 3,
        "NGHTTHRU": 2,
        "MAINTRK": 1,
        "SIDINGTRK": 0,
        "YARDTRK": 0,
        "TRANSITTRK": 0,
        "INDUSTRYTR": 0,
        "OTHRTRK": 0,
        "WDCODE": "",
        "REVISIONDA": "1975/01/01 00:00:00",
        "LASTUPDATE": "8/27/2025",
        "AADT": "1",
        "AADTYEAR": "1977",
        "STATENAME": "TEXAS",
        "STATEAB": "TX",
        "COUNTYNAME": "KENEDY",
        "CITYNAME": "ARMSTRONG",
        "LATDD": 26.8498124,
        "LONGDD": -97.785302,
        "gridlyProductionCertified": true,
        "gridlyClassification": "PUBLIC_ROADWAY",
        "gridlyDisplayName": "PRIVATE",
        "gridlyId": "FRA-427680F"
      }
    },
    {
      "type": "Feature",
      "id": 208458,
      "geometry": {
        "type": "Point",
        "coordinates": [
          -97.783302599851,
          26.8367833001431
        ]
      },
      "properties": {
        "OBJECTID": 208458,
        "CROSSING": "427681M",
        "EFFDATE": 1756252800000,
        "REASON": "14",
        "StateCode": "48",
        "CountyCode": "48261",
        "STCYFIPS": "48261",
        "CITYCD": "482610265",
        "RAILROAD": "UP",
        "RRDIV": "GULF COAST",
        "RRSUBDIV": "BROWNSVILLE SUB",
        "HIGHWAY": "NA",
        "STREET": "PRIVATE",
        "TTSTN": "689550",
        "MILEPOST": "0070.940",
        "TYPEXING": "Private",
        "POSXING": "At Grade",
        "PRVCAT": "14",
        "INIT": "1",
        "LATITUDE": 26.8367833,
        "LONGITUD": -97.7833026,
        "LLSOURCE": "1",
        "WHISTBAN": "0",
        "RRCONT": "4025443721",
        "POLCONT": "8008488715",
        "INV_LINK": "https://safetydata.fra.dot.gov/OfficeofSafety/PublicSite/Crossing/Crossing.aspx?phasetype=C&rpttype=I&txtcrossingnum=427681M",
        "ACC_LINK": "https://safetydata.fra.dot.gov/OfficeofSafety/PublicSite/Crossing/Crossing.aspx?phasetype=C&rpttype=A&txtcrossingnum=427681M",
        "TTSTNNAM": "",
        "XPURPOSE": "1",
        "OPERATINGR": "UP",
        "OPERATIN_1": "Primary",
        "DAYTHRU": 3,
        "NGHTTHRU": 2,
        "MAINTRK": 1,
        "SIDINGTRK": 0,
        "YARDTRK": 0,
        "TRANSITTRK": 0,
        "INDUSTRYTR": 0,
        "OTHRTRK": 0,
        "WDCODE": "",
        "REVISIONDA": "1975/01/01 00:00:00",
        "LASTUPDATE": "8/27/2025",
        "AADT": "1",
        "AADTYEAR": "1990",
        "STATENAME": "TEXAS",
        "STATEAB": "TX",
        "COUNTYNAME": "KENEDY",
        "CITYNAME": "ARMSTRONG",
        "LATDD": 26.8367833,
        "LONGDD": -97.7833026,
        "gridlyProductionCertified": true,
        "gridlyClassification": "PUBLIC_ROADWAY",
        "gridlyDisplayName": "PRIVATE",
        "gridlyId": "FRA-427681M"
      }
    },
    {
      "type": "Feature",
      "id": 208460,
      "geometry": {
        "type": "Point",
        "coordinates": [
          -97.7755023000669,
          26.7859327000111
        ]
      },
      "properties": {
        "OBJECTID": 208460,
        "CROSSING": "427683B",
        "EFFDATE": 1756252800000,
        "REASON": "14",
        "StateCode": "48",
        "CountyCode": "48261",
        "STCYFIPS": "48261",
        "CITYCD": "482610265",
        "RAILROAD": "UP",
        "RRDIV": "GULF COAST",
        "RRSUBDIV": "BROWNSVILLE SUB",
        "HIGHWAY": "NA",
        "STREET": "PRIVATE",
        "TTSTN": "689740",
        "MILEPOST": "0067.500",
        "TYPEXING": "Private",
        "POSXING": "At Grade",
        "PRVCAT": "14",
        "INIT": "1",
        "LATITUDE": 26.7859327,
        "LONGITUD": -97.7755023,
        "LLSOURCE": "1",
        "WHISTBAN": "0",
        "RRCONT": "4025443721",
        "POLCONT": "8008488715",
        "INV_LINK": "https://safetydata.fra.dot.gov/OfficeofSafety/PublicSite/Crossing/Crossing.aspx?phasetype=C&rpttype=I&txtcrossingnum=427683B",
        "ACC_LINK": "https://safetydata.fra.dot.gov/OfficeofSafety/PublicSite/Crossing/Crossing.aspx?phasetype=C&rpttype=A&txtcrossingnum=427683B",
        "TTSTNNAM": "",
        "XPURPOSE": "1",
        "OPERATINGR": "UP",
        "OPERATIN_1": "Primary",
        "DAYTHRU": 3,
        "NGHTTHRU": 2,
        "MAINTRK": 1,
        "SIDINGTRK": 1,
        "YARDTRK": 0,
        "TRANSITTRK": 0,
        "INDUSTRYTR": 0,
        "OTHRTRK": 0,
        "WDCODE": "",
        "REVISIONDA": "1975/01/01 00:00:00",
        "LASTUPDATE": "8/27/2025",
        "AADT": "1",
        "AADTYEAR": "1990",
        "STATENAME": "TEXAS",
        "STATEAB": "TX",
        "COUNTYNAME": "KENEDY",
        "CITYNAME": "ARMSTRONG",
        "LATDD": 26.7859327,
        "LONGDD": -97.7755023,
        "gridlyProductionCertified": true,
        "gridlyClassification": "PUBLIC_ROADWAY",
        "gridlyDisplayName": "PRIVATE",
        "gridlyId": "FRA-427683B"
      }
    },
    {
      "type": "Feature",
      "id": 208548,
      "geometry": {
        "type": "Point",
        "coordinates": [
          -97.7684824000078,
          26.6594995003887
        ]
      },
      "properties": {
        "OBJECTID": 208548,
        "CROSSING": "412024C",
        "EFFDATE": 1756252800000,
        "REASON": "14",
        "StateCode": "48",
        "CountyCode": "48261",
        "STCYFIPS": "48261",
        "CITYCD": "484895670",
        "RAILROAD": "UP",
        "RRDIV": "GULF COAST",
        "RRSUBDIV": "BROWNSVILLE SUB",
        "HIGHWAY": "NA",
        "STREET": "PRIVATE",
        "TTSTN": "689550",
        "MILEPOST": "0058.710",
        "TYPEXING": "Private",
        "POSXING": "At Grade",
        "PRVCAT": "14",
        "INIT": "1",
        "LATITUDE": 26.6594995,
        "LONGITUD": -97.7684824,
        "LLSOURCE": "1",
        "WHISTBAN": "0",
        "RRCONT": "4025443721",
        "POLCONT": "8008488715",
        "INV_LINK": "https://safetydata.fra.dot.gov/OfficeofSafety/PublicSite/Crossing/Crossing.aspx?phasetype=C&rpttype=I&txtcrossingnum=412024C",
        "ACC_LINK": "https://safetydata.fra.dot.gov/OfficeofSafety/PublicSite/Crossing/Crossing.aspx?phasetype=C&rpttype=A&txtcrossingnum=412024C",
        "TTSTNNAM": "",
        "XPURPOSE": "1",
        "OPERATINGR": "UP",
        "OPERATIN_1": "Primary",
        "DAYTHRU": 3,
        "NGHTTHRU": 2,
        "MAINTRK": 1,
        "SIDINGTRK": 0,
        "YARDTRK": 0,
        "TRANSITTRK": 0,
        "INDUSTRYTR": 0,
        "OTHRTRK": 0,
        "WDCODE": "",
        "REVISIONDA": "1975/01/01 00:00:00",
        "LASTUPDATE": "8/27/2025",
        "AADT": "1",
        "AADTYEAR": "",
        "STATENAME": "TEXAS",
        "STATEAB": "TX",
        "COUNTYNAME": "KENEDY",
        "CITYNAME": "RAYMONDVILLE",
        "LATDD": 26.6594995,
        "LONGDD": -97.7684824,
        "gridlyProductionCertified": true,
        "gridlyClassification": "PUBLIC_ROADWAY",
        "gridlyDisplayName": "PRIVATE",
        "gridlyId": "FRA-412024C"
      }
    },
    {
      "type": "Feature",
      "id": 208549,
      "geometry": {
        "type": "Point",
        "coordinates": [
          -97.769361500328,
          26.7029191999455
        ]
      },
      "properties": {
        "OBJECTID": 208549,
        "CROSSING": "412025J",
        "EFFDATE": 1756252800000,
        "REASON": "14",
        "StateCode": "48",
        "CountyCode": "48261",
        "STCYFIPS": "48261",
        "CITYCD": "484895670",
        "RAILROAD": "UP",
        "RRDIV": "GULF COAST",
        "RRSUBDIV": "BROWNSVILLE SUB",
        "HIGHWAY": "NA",
        "STREET": "PRIVATE",
        "TTSTN": "689550",
        "MILEPOST": "0061.710",
        "TYPEXING": "Private",
        "POSXING": "At Grade",
        "PRVCAT": "14",
        "INIT": "1",
        "LATITUDE": 26.7029192,
        "LONGITUD": -97.7693615,
        "LLSOURCE": "1",
        "WHISTBAN": "0",
        "RRCONT": "4025443721",
        "POLCONT": "8008488715",
        "INV_LINK": "https://safetydata.fra.dot.gov/OfficeofSafety/PublicSite/Crossing/Crossing.aspx?phasetype=C&rpttype=I&txtcrossingnum=412025J",
        "ACC_LINK": "https://safetydata.fra.dot.gov/OfficeofSafety/PublicSite/Crossing/Crossing.aspx?phasetype=C&rpttype=A&txtcrossingnum=412025J",
        "TTSTNNAM": "",
        "XPURPOSE": "1",
        "OPERATINGR": "UP",
        "OPERATIN_1": "Primary",
        "DAYTHRU": 3,
        "NGHTTHRU": 2,
        "MAINTRK": 1,
        "SIDINGTRK": 0,
        "YARDTRK": 0,
        "TRANSITTRK": 0,
        "INDUSTRYTR": 0,
        "OTHRTRK": 0,
        "WDCODE": "",
        "REVISIONDA": "1975/01/01 00:00:00",
        "LASTUPDATE": "8/27/2025",
        "AADT": "1",
        "AADTYEAR": "",
        "STATENAME": "TEXAS",
        "STATEAB": "TX",
        "COUNTYNAME": "KENEDY",
        "CITYNAME": "RAYMONDVILLE",
        "LATDD": 26.7029192,
        "LONGDD": -97.7693615,
        "gridlyProductionCertified": true,
        "gridlyClassification": "PUBLIC_ROADWAY",
        "gridlyDisplayName": "PRIVATE",
        "gridlyId": "FRA-412025J"
      }
    },
    {
      "type": "Feature",
      "id": 208556,
      "geometry": {
        "type": "Point",
        "coordinates": [
          -97.7682382001844,
          26.6473361998561
        ]
      },
      "properties": {
        "OBJECTID": 208556,
        "CROSSING": "427684H",
        "EFFDATE": 1756252800000,
        "REASON": "14",
        "StateCode": "48",
        "CountyCode": "48261",
        "STCYFIPS": "48261",
        "CITYCD": "484895670",
        "RAILROAD": "UP",
        "RRDIV": "GULF COAST",
        "RRSUBDIV": "BROWNSVILLE SUB",
        "HIGHWAY": "NA",
        "STREET": "PRIVATE",
        "TTSTN": "689740",
        "MILEPOST": "0057.930",
        "TYPEXING": "Private",
        "POSXING": "At Grade",
        "PRVCAT": "14",
        "INIT": "1",
        "LATITUDE": 26.6473362,
        "LONGITUD": -97.7682382,
        "LLSOURCE": "1",
        "WHISTBAN": "0",
        "RRCONT": "4025443721",
        "POLCONT": "8008488715",
        "INV_LINK": "https://safetydata.fra.dot.gov/OfficeofSafety/PublicSite/Crossing/Crossing.aspx?phasetype=C&rpttype=I&txtcrossingnum=427684H",
        "ACC_LINK": "https://safetydata.fra.dot.gov/OfficeofSafety/PublicSite/Crossing/Crossing.aspx?phasetype=C&rpttype=A&txtcrossingnum=427684H",
        "TTSTNNAM": "",
        "XPURPOSE": "1",
        "OPERATINGR": "UP",
        "OPERATIN_1": "Primary",
        "DAYTHRU": 3,
        "NGHTTHRU": 2,
        "MAINTRK": 1,
        "SIDINGTRK": 0,
        "YARDTRK": 0,
        "TRANSITTRK": 0,
        "INDUSTRYTR": 0,
        "OTHRTRK": 0,
        "WDCODE": "",
        "REVISIONDA": "1975/01/01 00:00:00",
        "LASTUPDATE": "8/27/2025",
        "AADT": "1",
        "AADTYEAR": "1990",
        "STATENAME": "TEXAS",
        "STATEAB": "TX",
        "COUNTYNAME": "KENEDY",
        "CITYNAME": "RAYMONDVILLE",
        "LATDD": 26.6473362,
        "LONGDD": -97.7682382,
        "gridlyProductionCertified": true,
        "gridlyClassification": "PUBLIC_ROADWAY",
        "gridlyDisplayName": "PRIVATE",
        "gridlyId": "FRA-427684H"
      }
    },
    {
      "type": "Feature",
      "id": 208590,
      "geometry": {
        "type": "Point",
        "coordinates": [
          -97.7945932003653,
          27.1029233996083
        ]
      },
      "properties": {
        "OBJECTID": 208590,
        "CROSSING": "427673V",
        "EFFDATE": 1756252800000,
        "REASON": "14",
        "StateCode": "48",
        "CountyCode": "48261",
        "STCYFIPS": "48261",
        "CITYCD": "482616223",
        "RAILROAD": "UP",
        "RRDIV": "GULF COAST",
        "RRSUBDIV": "BROWNSVILLE SUB",
        "HIGHWAY": "NA",
        "STREET": "PRIVATE",
        "TTSTN": "689510",
        "MILEPOST": "0089.350",
        "TYPEXING": "Private",
        "POSXING": "At Grade",
        "PRVCAT": "14",
        "INIT": "1",
        "LATITUDE": 27.1029234,
        "LONGITUD": -97.7945932,
        "LLSOURCE": "1",
        "WHISTBAN": "0",
        "RRCONT": "4025443721",
        "POLCONT": "8008488715",
        "INV_LINK": "https://safetydata.fra.dot.gov/OfficeofSafety/PublicSite/Crossing/Crossing.aspx?phasetype=C&rpttype=I&txtcrossingnum=427673V",
        "ACC_LINK": "https://safetydata.fra.dot.gov/OfficeofSafety/PublicSite/Crossing/Crossing.aspx?phasetype=C&rpttype=A&txtcrossingnum=427673V",
        "TTSTNNAM": "",
        "XPURPOSE": "1",
        "OPERATINGR": "UP",
        "OPERATIN_1": "Primary",
        "DAYTHRU": 3,
        "NGHTTHRU": 2,
        "MAINTRK": 1,
        "SIDINGTRK": 0,
        "YARDTRK": 0,
        "TRANSITTRK": 0,
        "INDUSTRYTR": 0,
        "OTHRTRK": 0,
        "WDCODE": "",
        "REVISIONDA": "1975/01/01 00:00:00",
        "LASTUPDATE": "8/27/2025",
        "AADT": "1",
        "AADTYEAR": "1990",
        "STATENAME": "TEXAS",
        "STATEAB": "TX",
        "COUNTYNAME": "KENEDY",
        "CITYNAME": "SARITA",
        "LATDD": 27.1029234,
        "LONGDD": -97.7945932,
        "gridlyProductionCertified": true,
        "gridlyClassification": "PUBLIC_ROADWAY",
        "gridlyDisplayName": "PRIVATE",
        "gridlyId": "FRA-427673V"
      }
    },
    {
      "type": "Feature",
      "id": 208626,
      "geometry": {
        "type": "Point",
        "coordinates": [
          -97.7679581000889,
          26.6340402999137
        ]
      },
      "properties": {
        "OBJECTID": 208626,
        "CROSSING": "427685P",
        "EFFDATE": 1756252800000,
        "REASON": "14",
        "StateCode": "48",
        "CountyCode": "48261",
        "STCYFIPS": "48261",
        "CITYCD": "482610265",
        "RAILROAD": "UP",
        "RRDIV": "GULF COAST",
        "RRSUBDIV": "Brownsville Sub",
        "HIGHWAY": "NA",
        "STREET": "DEVISADERO ROAD",
        "TTSTN": "689740",
        "MILEPOST": "0057.030",
        "TYPEXING": "Private",
        "POSXING": "At Grade",
        "PRVCAT": "14",
        "INIT": "1",
        "LATITUDE": 26.6340403,
        "LONGITUD": -97.7679581,
        "LLSOURCE": "1",
        "WHISTBAN": "0",
        "RRCONT": "4025443721",
        "POLCONT": "8008488715",
        "INV_LINK": "https://safetydata.fra.dot.gov/OfficeofSafety/PublicSite/Crossing/Crossing.aspx?phasetype=C&rpttype=I&txtcrossingnum=427685P",
        "ACC_LINK": "https://safetydata.fra.dot.gov/OfficeofSafety/PublicSite/Crossing/Crossing.aspx?phasetype=C&rpttype=A&txtcrossingnum=427685P",
        "TTSTNNAM": "",
        "XPURPOSE": "1",
        "OPERATINGR": "UP",
        "OPERATIN_1": "Primary",
        "DAYTHRU": 3,
        "NGHTTHRU": 2,
        "MAINTRK": 1,
        "SIDINGTRK": 0,
        "YARDTRK": 0,
        "TRANSITTRK": 0,
        "INDUSTRYTR": 0,
        "OTHRTRK": 0,
        "WDCODE": "",
        "REVISIONDA": "1975/01/01 00:00:00",
        "LASTUPDATE": "8/27/2025",
        "AADT": "1",
        "AADTYEAR": "1990",
        "STATENAME": "TEXAS",
        "STATEAB": "TX",
        "COUNTYNAME": "KENEDY",
        "CITYNAME": "ARMSTRONG",
        "LATDD": 26.6340403,
        "LONGDD": -97.7679581,
        "gridlyProductionCertified": true,
        "gridlyClassification": "PUBLIC_ROADWAY",
        "gridlyDisplayName": "DEVISADERO ROAD",
        "gridlyId": "FRA-427685P"
      }
    },
    {
      "type": "Feature",
      "id": 214402,
      "geometry": {
        "type": "Point",
        "coordinates": [
          -97.7976262999384,
          27.2350884000517
        ]
      },
      "properties": {
        "OBJECTID": 214402,
        "CROSSING": "427668Y",
        "EFFDATE": 1768348800000,
        "REASON": "14",
        "StateCode": "48",
        "CountyCode": "48261",
        "STCYFIPS": "48261",
        "CITYCD": "482616223",
        "RAILROAD": "UP",
        "RRDIV": "GULF COAST",
        "RRSUBDIV": "BROWNSVILLE SUB",
        "HIGHWAY": "CR1014",
        "STREET": "ARMSTRONG AVENUE",
        "TTSTN": "689510",
        "MILEPOST": "0098.600",
        "TYPEXING": "Public",
        "POSXING": "At Grade",
        "PRVCAT": "14",
        "INIT": "2",
        "LATITUDE": 27.2350884,
        "LONGITUD": -97.7976263,
        "LLSOURCE": "1",
        "WHISTBAN": "0",
        "RRCONT": "4025443721",
        "POLCONT": "8008488715",
        "INV_LINK": "https://safetydata.fra.dot.gov/OfficeofSafety/PublicSite/Crossing/Crossing.aspx?phasetype=C&rpttype=I&txtcrossingnum=427668Y",
        "ACC_LINK": "https://safetydata.fra.dot.gov/OfficeofSafety/PublicSite/Crossing/Crossing.aspx?phasetype=C&rpttype=A&txtcrossingnum=427668Y",
        "TTSTNNAM": "",
        "XPURPOSE": "1",
        "OPERATINGR": "UP",
        "OPERATIN_1": "Primary",
        "DAYTHRU": 3,
        "NGHTTHRU": 2,
        "MAINTRK": 1,
        "SIDINGTRK": 0,
        "YARDTRK": 0,
        "TRANSITTRK": 0,
        "INDUSTRYTR": 0,
        "OTHRTRK": 0,
        "WDCODE": "Crossbucks",
        "REVISIONDA": "1975/01/01 00:00:00",
        "LASTUPDATE": "1/14/2026",
        "AADT": "28",
        "AADTYEAR": "2024",
        "STATENAME": "TEXAS",
        "STATEAB": "TX",
        "COUNTYNAME": "KENEDY",
        "CITYNAME": "SARITA",
        "LATDD": 27.2350884,
        "LONGDD": -97.7976263,
        "gridlyProductionCertified": true,
        "gridlyClassification": "PUBLIC_ROADWAY",
        "gridlyDisplayName": "ARMSTRONG AVENUE",
        "gridlyId": "FRA-427668Y"
      }
    },
    {
      "type": "Feature",
      "id": 214403,
      "geometry": {
        "type": "Point",
        "coordinates": [
          -97.7929925004454,
          27.2215969003335
        ]
      },
      "properties": {
        "OBJECTID": 214403,
        "CROSSING": "427669F",
        "EFFDATE": 1768348800000,
        "REASON": "14",
        "StateCode": "48",
        "CountyCode": "48261",
        "STCYFIPS": "48261",
        "CITYCD": "482616223",
        "RAILROAD": "UP",
        "RRDIV": "GULF COAST",
        "RRSUBDIV": "BROWNSVILLE SUB",
        "HIGHWAY": "CR1000",
        "STREET": "LA PARRA AVENUE",
        "TTSTN": "689510",
        "MILEPOST": "0097.610",
        "TYPEXING": "Public",
        "POSXING": "At Grade",
        "PRVCAT": "14",
        "INIT": "2",
        "LATITUDE": 27.2215969,
        "LONGITUD": -97.7929925,
        "LLSOURCE": "1",
        "WHISTBAN": "0",
        "RRCONT": "4025443721",
        "POLCONT": "8008488715",
        "INV_LINK": "https://safetydata.fra.dot.gov/OfficeofSafety/PublicSite/Crossing/Crossing.aspx?phasetype=C&rpttype=I&txtcrossingnum=427669F",
        "ACC_LINK": "https://safetydata.fra.dot.gov/OfficeofSafety/PublicSite/Crossing/Crossing.aspx?phasetype=C&rpttype=A&txtcrossingnum=427669F",
        "TTSTNNAM": "",
        "XPURPOSE": "1",
        "OPERATINGR": "UP",
        "OPERATIN_1": "Primary",
        "DAYTHRU": 3,
        "NGHTTHRU": 2,
        "MAINTRK": 1,
        "SIDINGTRK": 1,
        "YARDTRK": 0,
        "TRANSITTRK": 0,
        "INDUSTRYTR": 0,
        "OTHRTRK": 1,
        "WDCODE": "All other Gates",
        "REVISIONDA": "1975/01/01 00:00:00",
        "LASTUPDATE": "1/14/2026",
        "AADT": "556",
        "AADTYEAR": "2024",
        "STATENAME": "TEXAS",
        "STATEAB": "TX",
        "COUNTYNAME": "KENEDY",
        "CITYNAME": "SARITA",
        "LATDD": 27.2215969,
        "LONGDD": -97.7929925,
        "gridlyProductionCertified": true,
        "gridlyClassification": "PUBLIC_ROADWAY",
        "gridlyDisplayName": "LA PARRA AVENUE",
        "gridlyId": "FRA-427669F"
      }
    }
  ]
}
