{
  "type": "FeatureCollection",
  "features": [
    {
      "type": "Feature",
      "id": 201174,
      "geometry": {
        "type": "Point",
        "coordinates": [
          -102.227440999826,
          31.9161410001937
        ]
      },
      "properties": {
        "OBJECTID": 201174,
        "CROSSING": "796327W",
        "EFFDATE": 1567555200000,
        "REASON": "21",
        "StateCode": "48",
        "CountyCode": "48329",
        "STCYFIPS": "48329",
        "CITYCD": "483294560",
        "RAILROAD": "UNK",
        "RRDIV": "Texoma",
        "RRSUBDIV": "Toyah Sub",
        "HIGHWAY": "TBD",
        "STREET": "West County Road 125",
        "TTSTN": "694150",
        "MILEPOST": "0563.855",
        "TYPEXING": "Public",
        "POSXING": "At Grade",
        "PRVCAT": "21",
        "INIT": "1",
        "LATITUDE": 31.916141,
        "LONGITUD": -102.227441,
        "LLSOURCE": "1",
        "WHISTBAN": "0",
        "RRCONT": "4025443721",
        "POLCONT": "8008488715",
        "INV_LINK": "https://safetydata.fra.dot.gov/OfficeofSafety/PublicSite/Crossing/Crossing.aspx?phasetype=C&rpttype=I&txtcrossingnum=796327W",
        "ACC_LINK": "https://safetydata.fra.dot.gov/OfficeofSafety/PublicSite/Crossing/Crossing.aspx?phasetype=C&rpttype=A&txtcrossingnum=796327W",
        "TTSTNNAM": "MIDLAND",
        "XPURPOSE": "1",
        "OPERATINGR": "UNK",
        "OPERATIN_1": "Primary",
        "DAYTHRU": 0,
        "NGHTTHRU": 0,
        "MAINTRK": 1,
        "SIDINGTRK": 0,
        "YARDTRK": 0,
        "TRANSITTRK": 0,
        "INDUSTRYTR": 0,
        "OTHRTRK": 1,
        "WDCODE": "Crossbucks",
        "REVISIONDA": "2017/11/14 00:00:00",
        "LASTUPDATE": "9/4/2019",
        "AADT": "002470",
        "AADTYEAR": "2002",
        "STATENAME": "TEXAS",
        "STATEAB": "TX",
        "COUNTYNAME": "MIDLAND",
        "CITYNAME": "MIDLAND",
        "LATDD": 31.916141,
        "LONGDD": -102.227441,
        "gridlyProductionCertified": true,
        "gridlyClassification": "PUBLIC_ROADWAY",
        "gridlyDisplayName": "West County Road 125",
        "gridlyId": "FRA-796327W"
      }
    },
    {
      "type": "Feature",
      "id": 207070,
      "geometry": {
        "type": "Point",
        "coordinates": [
          -102.234082300417,
          31.9130489003618
        ]
      },
      "properties": {
        "OBJECTID": 207070,
        "CROSSING": "795389R",
        "EFFDATE": 1767830400000,
        "REASON": "14",
        "StateCode": "48",
        "CountyCode": "48135",
        "STCYFIPS": "48135",
        "CITYCD": "481355030",
        "RAILROAD": "UP",
        "RRDIV": "TEXOMA",
        "RRSUBDIV": "TOYAH SUB",
        "HIGHWAY": "Cr1290",
        "STREET": "COORS ROAD",
        "TTSTN": "694180",
        "MILEPOST": "0564.310",
        "TYPEXING": "Public",
        "POSXING": "At Grade",
        "PRVCAT": "14",
        "INIT": "2",
        "LATITUDE": 31.9130489,
        "LONGITUD": -102.2340823,
        "LLSOURCE": "1",
        "WHISTBAN": "0",
        "RRCONT": "4025443721",
        "POLCONT": "8008488715",
        "INV_LINK": "https://safetydata.fra.dot.gov/OfficeofSafety/PublicSite/Crossing/Crossing.aspx?phasetype=C&rpttype=I&txtcrossingnum=795389R",
        "ACC_LINK": "https://safetydata.fra.dot.gov/OfficeofSafety/PublicSite/Crossing/Crossing.aspx?phasetype=C&rpttype=A&txtcrossingnum=795389R",
        "TTSTNNAM": "",
        "XPURPOSE": "1",
        "OPERATINGR": "UP",
        "OPERATIN_1": "Primary",
        "DAYTHRU": 11,
        "NGHTTHRU": 10,
        "MAINTRK": 1,
        "SIDINGTRK": 0,
        "YARDTRK": 1,
        "TRANSITTRK": 0,
        "INDUSTRYTR": 0,
        "OTHRTRK": 2,
        "WDCODE": "All other Gates",
        "REVISIONDA": "1975/01/01 00:00:00",
        "LASTUPDATE": "1/8/2026",
        "AADT": "6777",
        "AADTYEAR": "2022",
        "STATENAME": "TEXAS",
        "STATEAB": "TX",
        "COUNTYNAME": "ECTOR",
        "CITYNAME": "ODESSA",
        "LATDD": 31.9130489,
        "LONGDD": -102.2340823,
        "gridlyProductionCertified": true,
        "gridlyClassification": "PUBLIC_ROADWAY",
        "gridlyDisplayName": "COORS ROAD",
        "gridlyId": "FRA-795389R"
      }
    },
    {
      "type": "Feature",
      "id": 211246,
      "geometry": {
        "type": "Point",
        "coordinates": [
          -102.262574900207,
          31.8983235998324
        ]
      },
      "properties": {
        "OBJECTID": 211246,
        "CROSSING": "796309Y",
        "EFFDATE": 1767830400000,
        "REASON": "14",
        "StateCode": "48",
        "CountyCode": "48329",
        "STCYFIPS": "48329",
        "CITYCD": "481355030",
        "RAILROAD": "UP",
        "RRDIV": "TEXOMA",
        "RRSUBDIV": "Toyah SUB",
        "HIGHWAY": "cr1310",
        "STREET": "County Road 1310",
        "TTSTN": "694180",
        "MILEPOST": "0566.273",
        "TYPEXING": "Public",
        "POSXING": "At Grade",
        "PRVCAT": "14",
        "INIT": "2",
        "LATITUDE": 31.8983236,
        "LONGITUD": -102.2625749,
        "LLSOURCE": "1",
        "WHISTBAN": "0",
        "RRCONT": "4025443721",
        "POLCONT": "8008488715",
        "INV_LINK": "https://safetydata.fra.dot.gov/OfficeofSafety/PublicSite/Crossing/Crossing.aspx?phasetype=C&rpttype=I&txtcrossingnum=796309Y",
        "ACC_LINK": "https://safetydata.fra.dot.gov/OfficeofSafety/PublicSite/Crossing/Crossing.aspx?phasetype=C&rpttype=A&txtcrossingnum=796309Y",
        "TTSTNNAM": "",
        "XPURPOSE": "1",
        "OPERATINGR": "UP",
        "OPERATIN_1": "Primary",
        "DAYTHRU": 11,
        "NGHTTHRU": 10,
        "MAINTRK": 1,
        "SIDINGTRK": 0,
        "YARDTRK": 1,
        "TRANSITTRK": 0,
        "INDUSTRYTR": 0,
        "OTHRTRK": 0,
        "WDCODE": "All other Gates",
        "REVISIONDA": "1975/01/01 00:00:00",
        "LASTUPDATE": "1/8/2026",
        "AADT": "3103",
        "AADTYEAR": "2022",
        "STATENAME": "TEXAS",
        "STATEAB": "TX",
        "COUNTYNAME": "MIDLAND",
        "CITYNAME": "ODESSA",
        "LATDD": 31.8983236,
        "LONGDD": -102.2625749,
        "gridlyProductionCertified": true,
        "gridlyClassification": "PUBLIC_ROADWAY",
        "gridlyDisplayName": "County Road 1310",
        "gridlyId": "FRA-796309Y"
      }
    },
    {
      "type": "Feature",
      "id": 212098,
      "geometry": {
        "type": "Point",
        "coordinates": [
          -102.108084199814,
          31.9778385997264
        ]
      },
      "properties": {
        "OBJECTID": 212098,
        "CROSSING": "796324B",
        "EFFDATE": 1760572800000,
        "REASON": "14",
        "StateCode": "48",
        "CountyCode": "48329",
        "STCYFIPS": "48329",
        "CITYCD": "483294560",
        "RAILROAD": "UP",
        "RRDIV": "TEXOMA",
        "RRSUBDIV": "TOYAH SUB",
        "HIGHWAY": "lS0000",
        "STREET": "INDUSTRIAL AVENUE",
        "TTSTN": "694150",
        "MILEPOST": "0555.647",
        "TYPEXING": "Public",
        "POSXING": "At Grade",
        "PRVCAT": "14",
        "INIT": "2",
        "LATITUDE": 31.9778386,
        "LONGITUD": -102.1080842,
        "LLSOURCE": "1",
        "WHISTBAN": "0",
        "RRCONT": "4025443721",
        "POLCONT": "8008488715",
        "INV_LINK": "https://safetydata.fra.dot.gov/OfficeofSafety/PublicSite/Crossing/Crossing.aspx?phasetype=C&rpttype=I&txtcrossingnum=796324B",
        "ACC_LINK": "https://safetydata.fra.dot.gov/OfficeofSafety/PublicSite/Crossing/Crossing.aspx?phasetype=C&rpttype=A&txtcrossingnum=796324B",
        "TTSTNNAM": "",
        "XPURPOSE": "1",
        "OPERATINGR": "UP",
        "OPERATIN_1": "Primary",
        "DAYTHRU": 0,
        "NGHTTHRU": 0,
        "MAINTRK": 0,
        "SIDINGTRK": 0,
        "YARDTRK": 0,
        "TRANSITTRK": 0,
        "INDUSTRYTR": 1,
        "OTHRTRK": 1,
        "WDCODE": "Crossbucks",
        "REVISIONDA": "1975/01/01 00:00:00",
        "LASTUPDATE": "10/16/2025",
        "AADT": "6023",
        "AADTYEAR": "2022",
        "STATENAME": "TEXAS",
        "STATEAB": "TX",
        "COUNTYNAME": "MIDLAND",
        "CITYNAME": "MIDLAND",
        "LATDD": 31.9778386,
        "LONGDD": -102.1080842,
        "gridlyProductionCertified": true,
        "gridlyClassification": "PUBLIC_ROADWAY",
        "gridlyDisplayName": "INDUSTRIAL AVENUE",
        "gridlyId": "FRA-796324B"
      }
    },
    {
      "type": "Feature",
      "id": 212099,
      "geometry": {
        "type": "Point",
        "coordinates": [
          -102.11703659973,
          31.9732471002016
        ]
      },
      "properties": {
        "OBJECTID": 212099,
        "CROSSING": "796325H",
        "EFFDATE": 1760572800000,
        "REASON": "14",
        "StateCode": "48",
        "CountyCode": "48329",
        "STCYFIPS": "48329",
        "CITYCD": "483294560",
        "RAILROAD": "UP",
        "RRDIV": "TEXOMA",
        "RRSUBDIV": "TOYAH SUB",
        "HIGHWAY": "cr0000",
        "STREET": "WEST INDUSTRIAL AVENUE",
        "TTSTN": "694150",
        "MILEPOST": "0556.267",
        "TYPEXING": "Public",
        "POSXING": "At Grade",
        "PRVCAT": "14",
        "INIT": "2",
        "LATITUDE": 31.9732471,
        "LONGITUD": -102.1170366,
        "LLSOURCE": "1",
        "WHISTBAN": "0",
        "RRCONT": "4025443721",
        "POLCONT": "8008488715",
        "INV_LINK": "https://safetydata.fra.dot.gov/OfficeofSafety/PublicSite/Crossing/Crossing.aspx?phasetype=C&rpttype=I&txtcrossingnum=796325H",
        "ACC_LINK": "https://safetydata.fra.dot.gov/OfficeofSafety/PublicSite/Crossing/Crossing.aspx?phasetype=C&rpttype=A&txtcrossingnum=796325H",
        "TTSTNNAM": "",
        "XPURPOSE": "1",
        "OPERATINGR": "UP",
        "OPERATIN_1": "Primary",
        "DAYTHRU": 0,
        "NGHTTHRU": 0,
        "MAINTRK": 0,
        "SIDINGTRK": 0,
        "YARDTRK": 0,
        "TRANSITTRK": 0,
        "INDUSTRYTR": 1,
        "OTHRTRK": 0,
        "WDCODE": "Crossbucks",
        "REVISIONDA": "1975/01/01 00:00:00",
        "LASTUPDATE": "10/16/2025",
        "AADT": "3092",
        "AADTYEAR": "2022",
        "STATENAME": "TEXAS",
        "STATEAB": "TX",
        "COUNTYNAME": "MIDLAND",
        "CITYNAME": "MIDLAND",
        "LATDD": 31.9732471,
        "LONGDD": -102.1170366,
        "gridlyProductionCertified": true,
        "gridlyClassification": "PUBLIC_ROADWAY",
        "gridlyDisplayName": "WEST INDUSTRIAL AVENUE",
        "gridlyId": "FRA-796325H"
      }
    },
    {
      "type": "Feature",
      "id": 212104,
      "geometry": {
        "type": "Point",
        "coordinates": [
          -102.122745800297,
          31.9702977000473
        ]
      },
      "properties": {
        "OBJECTID": 212104,
        "CROSSING": "796326P",
        "EFFDATE": 1760572800000,
        "REASON": "14",
        "StateCode": "48",
        "CountyCode": "48329",
        "STCYFIPS": "48329",
        "CITYCD": "483294560",
        "RAILROAD": "UP",
        "RRDIV": "TEXOMA",
        "RRSUBDIV": "TOYAH SUB",
        "HIGHWAY": "ls0000",
        "STREET": "WEST INDUSTRIAL AVENUE",
        "TTSTN": "694150",
        "MILEPOST": "0556.660",
        "TYPEXING": "Public",
        "POSXING": "At Grade",
        "PRVCAT": "14",
        "INIT": "2",
        "LATITUDE": 31.9702977,
        "LONGITUD": -102.1227458,
        "LLSOURCE": "1",
        "WHISTBAN": "0",
        "RRCONT": "4025443721",
        "POLCONT": "8008488715",
        "INV_LINK": "https://safetydata.fra.dot.gov/OfficeofSafety/PublicSite/Crossing/Crossing.aspx?phasetype=C&rpttype=I&txtcrossingnum=796326P",
        "ACC_LINK": "https://safetydata.fra.dot.gov/OfficeofSafety/PublicSite/Crossing/Crossing.aspx?phasetype=C&rpttype=A&txtcrossingnum=796326P",
        "TTSTNNAM": "",
        "XPURPOSE": "1",
        "OPERATINGR": "UP",
        "OPERATIN_1": "Primary",
        "DAYTHRU": 0,
        "NGHTTHRU": 0,
        "MAINTRK": 0,
        "SIDINGTRK": 0,
        "YARDTRK": 0,
        "TRANSITTRK": 0,
        "INDUSTRYTR": 1,
        "OTHRTRK": 1,
        "WDCODE": "Crossbucks",
        "REVISIONDA": "1975/01/01 00:00:00",
        "LASTUPDATE": "10/16/2025",
        "AADT": "2799",
        "AADTYEAR": "2022",
        "STATENAME": "TEXAS",
        "STATEAB": "TX",
        "COUNTYNAME": "MIDLAND",
        "CITYNAME": "MIDLAND",
        "LATDD": 31.9702977,
        "LONGDD": -102.1227458,
        "gridlyProductionCertified": true,
        "gridlyClassification": "PUBLIC_ROADWAY",
        "gridlyDisplayName": "WEST INDUSTRIAL AVENUE",
        "gridlyId": "FRA-796326P"
      }
    },
    {
      "type": "Feature",
      "id": 212108,
      "geometry": {
        "type": "Point",
        "coordinates": [
          -102.226420999651,
          31.9122309997312
        ]
      },
      "properties": {
        "OBJECTID": 212108,
        "CROSSING": "796300M",
        "EFFDATE": 1758499200000,
        "REASON": "14",
        "StateCode": "48",
        "CountyCode": "48135",
        "STCYFIPS": "48135",
        "CITYCD": "481355030",
        "RAILROAD": "UP",
        "RRDIV": "TEXOMA",
        "RRSUBDIV": "TOYAH",
        "HIGHWAY": "ST 0000",
        "STREET": "CR 127",
        "TTSTN": "694250",
        "MILEPOST": "0564.130",
        "TYPEXING": "Public",
        "POSXING": "At Grade",
        "PRVCAT": "14",
        "INIT": "1",
        "LATITUDE": 31.912231,
        "LONGITUD": -102.226421,
        "LLSOURCE": "1",
        "WHISTBAN": "0",
        "RRCONT": "4025443721",
        "POLCONT": "8008488715",
        "INV_LINK": "https://safetydata.fra.dot.gov/OfficeofSafety/PublicSite/Crossing/Crossing.aspx?phasetype=C&rpttype=I&txtcrossingnum=796300M",
        "ACC_LINK": "https://safetydata.fra.dot.gov/OfficeofSafety/PublicSite/Crossing/Crossing.aspx?phasetype=C&rpttype=A&txtcrossingnum=796300M",
        "TTSTNNAM": "ODESSA",
        "XPURPOSE": "1",
        "OPERATINGR": "UP",
        "OPERATIN_1": "Primary",
        "DAYTHRU": 1,
        "NGHTTHRU": 1,
        "MAINTRK": 0,
        "SIDINGTRK": 0,
        "YARDTRK": 0,
        "TRANSITTRK": 0,
        "INDUSTRYTR": 1,
        "OTHRTRK": 1,
        "WDCODE": "Crossbucks",
        "REVISIONDA": "1975/01/01 00:00:00",
        "LASTUPDATE": "9/22/2025",
        "AADT": "000015",
        "AADTYEAR": "1988",
        "STATENAME": "TEXAS",
        "STATEAB": "TX",
        "COUNTYNAME": "ECTOR",
        "CITYNAME": "ODESSA",
        "LATDD": 31.912231,
        "LONGDD": -102.226421,
        "gridlyProductionCertified": true,
        "gridlyClassification": "PUBLIC_ROADWAY",
        "gridlyDisplayName": "CR 127",
        "gridlyId": "FRA-796300M"
      }
    },
    {
      "type": "Feature",
      "id": 212127,
      "geometry": {
        "type": "Point",
        "coordinates": [
          -102.250578000199,
          31.9042080002815
        ]
      },
      "properties": {
        "OBJECTID": 212127,
        "CROSSING": "796302B",
        "EFFDATE": 1758499200000,
        "REASON": "14",
        "StateCode": "48",
        "CountyCode": "48135",
        "STCYFIPS": "48135",
        "CITYCD": "481355030",
        "RAILROAD": "UP",
        "RRDIV": "TEXOMA",
        "RRSUBDIV": "TOYAH",
        "HIGHWAY": "ST 0000",
        "STREET": "CR 125",
        "TTSTN": "694250",
        "MILEPOST": "0565.468",
        "TYPEXING": "Public",
        "POSXING": "At Grade",
        "PRVCAT": "14",
        "INIT": "1",
        "LATITUDE": 31.904208,
        "LONGITUD": -102.250578,
        "LLSOURCE": "1",
        "WHISTBAN": "0",
        "RRCONT": "4025443721",
        "POLCONT": "8008488715",
        "INV_LINK": "https://safetydata.fra.dot.gov/OfficeofSafety/PublicSite/Crossing/Crossing.aspx?phasetype=C&rpttype=I&txtcrossingnum=796302B",
        "ACC_LINK": "https://safetydata.fra.dot.gov/OfficeofSafety/PublicSite/Crossing/Crossing.aspx?phasetype=C&rpttype=A&txtcrossingnum=796302B",
        "TTSTNNAM": "ODESSA",
        "XPURPOSE": "1",
        "OPERATINGR": "UP",
        "OPERATIN_1": "Primary",
        "DAYTHRU": 1,
        "NGHTTHRU": 1,
        "MAINTRK": 0,
        "SIDINGTRK": 0,
        "YARDTRK": 0,
        "TRANSITTRK": 0,
        "INDUSTRYTR": 1,
        "OTHRTRK": 1,
        "WDCODE": "Crossbucks",
        "REVISIONDA": "1975/01/01 00:00:00",
        "LASTUPDATE": "9/22/2025",
        "AADT": "001490",
        "AADTYEAR": "1988",
        "STATENAME": "TEXAS",
        "STATEAB": "TX",
        "COUNTYNAME": "ECTOR",
        "CITYNAME": "ODESSA",
        "LATDD": 31.904208,
        "LONGDD": -102.250578,
        "gridlyProductionCertified": true,
        "gridlyClassification": "PUBLIC_ROADWAY",
        "gridlyDisplayName": "CR 125",
        "gridlyId": "FRA-796302B"
      }
    },
    {
      "type": "Feature",
      "id": 212253,
      "geometry": {
        "type": "Point",
        "coordinates": [
          -102.14689969986,
          31.9577045997441
        ]
      },
      "properties": {
        "OBJECTID": 212253,
        "CROSSING": "440763A",
        "EFFDATE": 1758844800000,
        "REASON": "14",
        "StateCode": "48",
        "CountyCode": "48329",
        "STCYFIPS": "48329",
        "CITYCD": "483294560",
        "RAILROAD": "UP",
        "RRDIV": "Texoma",
        "RRSUBDIV": "Toyah Sub",
        "HIGHWAY": "fm0662",
        "STREET": "fm0662 / West Industrial Avenue",
        "TTSTN": "",
        "MILEPOST": "0558.345",
        "TYPEXING": "Public",
        "POSXING": "At Grade",
        "PRVCAT": "14",
        "INIT": "2",
        "LATITUDE": 31.9577046,
        "LONGITUD": -102.1468997,
        "LLSOURCE": "1",
        "WHISTBAN": "0",
        "RRCONT": "4025443721",
        "POLCONT": "8008488715",
        "INV_LINK": "https://safetydata.fra.dot.gov/OfficeofSafety/PublicSite/Crossing/Crossing.aspx?phasetype=C&rpttype=I&txtcrossingnum=440763A",
        "ACC_LINK": "https://safetydata.fra.dot.gov/OfficeofSafety/PublicSite/Crossing/Crossing.aspx?phasetype=C&rpttype=A&txtcrossingnum=440763A",
        "TTSTNNAM": "",
        "XPURPOSE": "1",
        "OPERATINGR": "UP",
        "OPERATIN_1": "Primary",
        "DAYTHRU": 0,
        "NGHTTHRU": 0,
        "MAINTRK": 0,
        "SIDINGTRK": 0,
        "YARDTRK": 0,
        "TRANSITTRK": 0,
        "INDUSTRYTR": 1,
        "OTHRTRK": 1,
        "WDCODE": "Crossbucks",
        "REVISIONDA": "1975/01/01 00:00:00",
        "LASTUPDATE": "9/26/2025",
        "AADT": "2810",
        "AADTYEAR": "2023",
        "STATENAME": "TEXAS",
        "STATEAB": "TX",
        "COUNTYNAME": "MIDLAND",
        "CITYNAME": "MIDLAND",
        "LATDD": 31.9577046,
        "LONGDD": -102.1468997,
        "gridlyProductionCertified": true,
        "gridlyClassification": "PUBLIC_ROADWAY",
        "gridlyDisplayName": "fm0662 / West Industrial Avenue",
        "gridlyId": "FRA-440763A"
      }
    },
    {
      "type": "Feature",
      "id": 212957,
      "geometry": {
        "type": "Point",
        "coordinates": [
          -101.926991399655,
          32.0713408998242
        ]
      },
      "properties": {
        "OBJECTID": 212957,
        "CROSSING": "796350R",
        "EFFDATE": 1764806400000,
        "REASON": "14",
        "StateCode": "48",
        "CountyCode": "48329",
        "STCYFIPS": "48329",
        "CITYCD": "483294560",
        "RAILROAD": "UP",
        "RRDIV": "TEXOMA",
        "RRSUBDIV": "TOYAH SUB",
        "HIGHWAY": "FM1208",
        "STREET": "FM1208",
        "TTSTN": "694150",
        "MILEPOST": "0543.240",
        "TYPEXING": "Public",
        "POSXING": "RR Under",
        "PRVCAT": "14",
        "INIT": "2",
        "LATITUDE": 32.0713409,
        "LONGITUD": -101.9269914,
        "LLSOURCE": "1",
        "WHISTBAN": "0",
        "RRCONT": "4025443721",
        "POLCONT": "8008488715",
        "INV_LINK": "https://safetydata.fra.dot.gov/OfficeofSafety/PublicSite/Crossing/Crossing.aspx?phasetype=C&rpttype=I&txtcrossingnum=796350R",
        "ACC_LINK": "https://safetydata.fra.dot.gov/OfficeofSafety/PublicSite/Crossing/Crossing.aspx?phasetype=C&rpttype=A&txtcrossingnum=796350R",
        "TTSTNNAM": "",
        "XPURPOSE": "1",
        "OPERATINGR": "UP",
        "OPERATIN_1": "Primary",
        "DAYTHRU": 0,
        "NGHTTHRU": 0,
        "MAINTRK": 1,
        "SIDINGTRK": 0,
        "YARDTRK": 0,
        "TRANSITTRK": 0,
        "INDUSTRYTR": 0,
        "OTHRTRK": 0,
        "WDCODE": "",
        "REVISIONDA": "1975/01/01 00:00:00",
        "LASTUPDATE": "12/4/2025",
        "AADT": "2034",
        "AADTYEAR": "2024",
        "STATENAME": "TEXAS",
        "STATEAB": "TX",
        "COUNTYNAME": "MIDLAND",
        "CITYNAME": "MIDLAND",
        "LATDD": 32.0713409,
        "LONGDD": -101.9269914,
        "gridlyProductionCertified": true,
        "gridlyClassification": "PUBLIC_ROADWAY",
        "gridlyDisplayName": "FM1208",
        "gridlyId": "FRA-796350R"
      }
    },
    {
      "type": "Feature",
      "id": 212958,
      "geometry": {
        "type": "Point",
        "coordinates": [
          -102.141543500368,
          31.9608329000512
        ]
      },
      "properties": {
        "OBJECTID": 212958,
        "CROSSING": "796314V",
        "EFFDATE": 1764806400000,
        "REASON": "14",
        "StateCode": "48",
        "CountyCode": "48329",
        "STCYFIPS": "48329",
        "CITYCD": "483294560",
        "RAILROAD": "UP",
        "RRDIV": "TEXOMA",
        "RRSUBDIV": "TOYAH SUB",
        "HIGHWAY": "sh0158",
        "STREET": "sh0158 / hoilday hill road",
        "TTSTN": "694150",
        "MILEPOST": "0557.960",
        "TYPEXING": "Public",
        "POSXING": "RR Under",
        "PRVCAT": "14",
        "INIT": "2",
        "LATITUDE": 31.9608329,
        "LONGITUD": -102.1415435,
        "LLSOURCE": "1",
        "WHISTBAN": "0",
        "RRCONT": "4025443721",
        "POLCONT": "8008488715",
        "INV_LINK": "https://safetydata.fra.dot.gov/OfficeofSafety/PublicSite/Crossing/Crossing.aspx?phasetype=C&rpttype=I&txtcrossingnum=796314V",
        "ACC_LINK": "https://safetydata.fra.dot.gov/OfficeofSafety/PublicSite/Crossing/Crossing.aspx?phasetype=C&rpttype=A&txtcrossingnum=796314V",
        "TTSTNNAM": "",
        "XPURPOSE": "1",
        "OPERATINGR": "UP",
        "OPERATIN_1": "Primary",
        "DAYTHRU": 0,
        "NGHTTHRU": 0,
        "MAINTRK": 1,
        "SIDINGTRK": 0,
        "YARDTRK": 0,
        "TRANSITTRK": 0,
        "INDUSTRYTR": 0,
        "OTHRTRK": 0,
        "WDCODE": "",
        "REVISIONDA": "1975/01/01 00:00:00",
        "LASTUPDATE": "12/4/2025",
        "AADT": "23983",
        "AADTYEAR": "2024",
        "STATENAME": "TEXAS",
        "STATEAB": "TX",
        "COUNTYNAME": "MIDLAND",
        "CITYNAME": "MIDLAND",
        "LATDD": 31.9608329,
        "LONGDD": -102.1415435,
        "gridlyProductionCertified": true,
        "gridlyClassification": "PUBLIC_ROADWAY",
        "gridlyDisplayName": "sh0158 / hoilday hill road",
        "gridlyId": "FRA-796314V"
      }
    },
    {
      "type": "Feature",
      "id": 212975,
      "geometry": {
        "type": "Point",
        "coordinates": [
          -102.218534399616,
          31.9210846002459
        ]
      },
      "properties": {
        "OBJECTID": 212975,
        "CROSSING": "796310T",
        "EFFDATE": 1764806400000,
        "REASON": "14",
        "StateCode": "48",
        "CountyCode": "48329",
        "STCYFIPS": "48329",
        "CITYCD": "483294560",
        "RAILROAD": "UP",
        "RRDIV": "TEXOMA",
        "RRSUBDIV": "TOYAH SUB",
        "HIGHWAY": "SH0349",
        "STREET": "sh0349 / fm1788",
        "TTSTN": "694180",
        "MILEPOST": "0563.230",
        "TYPEXING": "Public",
        "POSXING": "RR Under",
        "PRVCAT": "14",
        "INIT": "2",
        "LATITUDE": 31.9210846,
        "LONGITUD": -102.2185344,
        "LLSOURCE": "1",
        "WHISTBAN": "0",
        "RRCONT": "4025443721",
        "POLCONT": "8008488715",
        "INV_LINK": "https://safetydata.fra.dot.gov/OfficeofSafety/PublicSite/Crossing/Crossing.aspx?phasetype=C&rpttype=I&txtcrossingnum=796310T",
        "ACC_LINK": "https://safetydata.fra.dot.gov/OfficeofSafety/PublicSite/Crossing/Crossing.aspx?phasetype=C&rpttype=A&txtcrossingnum=796310T",
        "TTSTNNAM": "",
        "XPURPOSE": "1",
        "OPERATINGR": "UP",
        "OPERATIN_1": "Primary",
        "DAYTHRU": 2,
        "NGHTTHRU": 2,
        "MAINTRK": 2,
        "SIDINGTRK": 0,
        "YARDTRK": 0,
        "TRANSITTRK": 0,
        "INDUSTRYTR": 0,
        "OTHRTRK": 1,
        "WDCODE": "",
        "REVISIONDA": "1975/01/01 00:00:00",
        "LASTUPDATE": "12/4/2025",
        "AADT": "14500",
        "AADTYEAR": "2024",
        "STATENAME": "TEXAS",
        "STATEAB": "TX",
        "COUNTYNAME": "MIDLAND",
        "CITYNAME": "MIDLAND",
        "LATDD": 31.9210846,
        "LONGDD": -102.2185344,
        "gridlyProductionCertified": true,
        "gridlyClassification": "PUBLIC_ROADWAY",
        "gridlyDisplayName": "sh0349 / fm1788",
        "gridlyId": "FRA-796310T"
      }
    },
    {
      "type": "Feature",
      "id": 212979,
      "geometry": {
        "type": "Point",
        "coordinates": [
          -102.077932700053,
          31.9936614003619
        ]
      },
      "properties": {
        "OBJECTID": 212979,
        "CROSSING": "796336V",
        "EFFDATE": 1764806400000,
        "REASON": "14",
        "StateCode": "48",
        "CountyCode": "48329",
        "STCYFIPS": "48329",
        "CITYCD": "483294560",
        "RAILROAD": "UP",
        "RRDIV": "TEXOMA",
        "RRSUBDIV": "TOYAH SUB",
        "HIGHWAY": "BS0349",
        "STREET": "bs0349 / Big Springs Street",
        "TTSTN": "694150",
        "MILEPOST": "0553.630",
        "TYPEXING": "Public",
        "POSXING": "RR Over",
        "PRVCAT": "14",
        "INIT": "2",
        "LATITUDE": 31.9936614,
        "LONGITUD": -102.0779327,
        "LLSOURCE": "1",
        "WHISTBAN": "0",
        "RRCONT": "4025443721",
        "POLCONT": "8008488715",
        "INV_LINK": "https://safetydata.fra.dot.gov/OfficeofSafety/PublicSite/Crossing/Crossing.aspx?phasetype=C&rpttype=I&txtcrossingnum=796336V",
        "ACC_LINK": "https://safetydata.fra.dot.gov/OfficeofSafety/PublicSite/Crossing/Crossing.aspx?phasetype=C&rpttype=A&txtcrossingnum=796336V",
        "TTSTNNAM": "",
        "XPURPOSE": "1",
        "OPERATINGR": "UP",
        "OPERATIN_1": "Primary",
        "DAYTHRU": 10,
        "NGHTTHRU": 10,
        "MAINTRK": 1,
        "SIDINGTRK": 0,
        "YARDTRK": 0,
        "TRANSITTRK": 0,
        "INDUSTRYTR": 0,
        "OTHRTRK": 0,
        "WDCODE": "",
        "REVISIONDA": "1975/01/01 00:00:00",
        "LASTUPDATE": "12/4/2025",
        "AADT": "23235",
        "AADTYEAR": "2024",
        "STATENAME": "TEXAS",
        "STATEAB": "TX",
        "COUNTYNAME": "MIDLAND",
        "CITYNAME": "MIDLAND",
        "LATDD": 31.9936614,
        "LONGDD": -102.0779327,
        "gridlyProductionCertified": true,
        "gridlyClassification": "PUBLIC_ROADWAY",
        "gridlyDisplayName": "bs0349 / Big Springs Street",
        "gridlyId": "FRA-796336V"
      }
    },
    {
      "type": "Feature",
      "id": 212980,
      "geometry": {
        "type": "Point",
        "coordinates": [
          -101.979984399874,
          32.0441148000161
        ]
      },
      "properties": {
        "OBJECTID": 212980,
        "CROSSING": "796349W",
        "EFFDATE": 1764806400000,
        "REASON": "14",
        "StateCode": "48",
        "CountyCode": "48329",
        "STCYFIPS": "48329",
        "CITYCD": "483294560",
        "RAILROAD": "UP",
        "RRDIV": "TEXOMA",
        "RRSUBDIV": "TOYAH SUB",
        "HIGHWAY": "IH0020",
        "STREET": "Ih0020",
        "TTSTN": "694150",
        "MILEPOST": "0546.890",
        "TYPEXING": "Public",
        "POSXING": "RR Under",
        "PRVCAT": "14",
        "INIT": "2",
        "LATITUDE": 32.0441148,
        "LONGITUD": -101.9799844,
        "LLSOURCE": "1",
        "WHISTBAN": "0",
        "RRCONT": "4025443721",
        "POLCONT": "8008488715",
        "INV_LINK": "https://safetydata.fra.dot.gov/OfficeofSafety/PublicSite/Crossing/Crossing.aspx?phasetype=C&rpttype=I&txtcrossingnum=796349W",
        "ACC_LINK": "https://safetydata.fra.dot.gov/OfficeofSafety/PublicSite/Crossing/Crossing.aspx?phasetype=C&rpttype=A&txtcrossingnum=796349W",
        "TTSTNNAM": "",
        "XPURPOSE": "1",
        "OPERATINGR": "UP",
        "OPERATIN_1": "Primary",
        "DAYTHRU": 0,
        "NGHTTHRU": 0,
        "MAINTRK": 1,
        "SIDINGTRK": 0,
        "YARDTRK": 0,
        "TRANSITTRK": 0,
        "INDUSTRYTR": 0,
        "OTHRTRK": 0,
        "WDCODE": "",
        "REVISIONDA": "1975/01/01 00:00:00",
        "LASTUPDATE": "12/4/2025",
        "AADT": "27233",
        "AADTYEAR": "2024",
        "STATENAME": "TEXAS",
        "STATEAB": "TX",
        "COUNTYNAME": "MIDLAND",
        "CITYNAME": "MIDLAND",
        "LATDD": 32.0441148,
        "LONGDD": -101.9799844,
        "gridlyProductionCertified": true,
        "gridlyClassification": "PUBLIC_ROADWAY",
        "gridlyDisplayName": "Ih0020",
        "gridlyId": "FRA-796349W"
      }
    },
    {
      "type": "Feature",
      "id": 213038,
      "geometry": {
        "type": "Point",
        "coordinates": [
          -101.992416300076,
          32.0377076997968
        ]
      },
      "properties": {
        "OBJECTID": 213038,
        "CROSSING": "924004F",
        "EFFDATE": 1764806400000,
        "REASON": "14",
        "StateCode": "48",
        "CountyCode": "48329",
        "STCYFIPS": "48329",
        "CITYCD": "483294560",
        "RAILROAD": "UP",
        "RRDIV": "TEXOMA",
        "RRSUBDIV": "TOYAH SUB",
        "HIGHWAY": "LP0250",
        "STREET": "LP0250",
        "TTSTN": "694150",
        "MILEPOST": "0547.758",
        "TYPEXING": "Public",
        "POSXING": "RR Under",
        "PRVCAT": "14",
        "INIT": "2",
        "LATITUDE": 32.0377077,
        "LONGITUD": -101.9924163,
        "LLSOURCE": "1",
        "WHISTBAN": "0",
        "RRCONT": "4025443721",
        "POLCONT": "8008488715",
        "INV_LINK": "https://safetydata.fra.dot.gov/OfficeofSafety/PublicSite/Crossing/Crossing.aspx?phasetype=C&rpttype=I&txtcrossingnum=924004F",
        "ACC_LINK": "https://safetydata.fra.dot.gov/OfficeofSafety/PublicSite/Crossing/Crossing.aspx?phasetype=C&rpttype=A&txtcrossingnum=924004F",
        "TTSTNNAM": "",
        "XPURPOSE": "1",
        "OPERATINGR": "UP",
        "OPERATIN_1": "Primary",
        "DAYTHRU": 0,
        "NGHTTHRU": 0,
        "MAINTRK": 1,
        "SIDINGTRK": 0,
        "YARDTRK": 0,
        "TRANSITTRK": 0,
        "INDUSTRYTR": 0,
        "OTHRTRK": 0,
        "WDCODE": "",
        "REVISIONDA": "1975/01/01 00:00:00",
        "LASTUPDATE": "12/4/2025",
        "AADT": "16822",
        "AADTYEAR": "2024",
        "STATENAME": "TEXAS",
        "STATEAB": "TX",
        "COUNTYNAME": "MIDLAND",
        "CITYNAME": "MIDLAND",
        "LATDD": 32.0377077,
        "LONGDD": -101.9924163,
        "gridlyProductionCertified": true,
        "gridlyClassification": "PUBLIC_ROADWAY",
        "gridlyDisplayName": "LP0250",
        "gridlyId": "FRA-924004F"
      }
    },
    {
      "type": "Feature",
      "id": 213937,
      "geometry": {
        "type": "Point",
        "coordinates": [
          -102.159970000394,
          31.950959999861
        ]
      },
      "properties": {
        "OBJECTID": 213937,
        "CROSSING": "440780R",
        "EFFDATE": 1767830400000,
        "REASON": "14",
        "StateCode": "48",
        "CountyCode": "48329",
        "STCYFIPS": "48329",
        "CITYCD": "483294560",
        "RAILROAD": "UP",
        "RRDIV": "TEXOMA",
        "RRSUBDIV": "TOYAH SUB",
        "HIGHWAY": "fm0662",
        "STREET": "fm0662 / WEST INDUSTRIAL AVENUE",
        "TTSTN": "",
        "MILEPOST": "0559.232",
        "TYPEXING": "Public",
        "POSXING": "At Grade",
        "PRVCAT": "14",
        "INIT": "2",
        "LATITUDE": 31.95096,
        "LONGITUD": -102.15997,
        "LLSOURCE": "1",
        "WHISTBAN": "",
        "RRCONT": "4025443721",
        "POLCONT": "8008488715",
        "INV_LINK": "https://safetydata.fra.dot.gov/OfficeofSafety/PublicSite/Crossing/Crossing.aspx?phasetype=C&rpttype=I&txtcrossingnum=440780R",
        "ACC_LINK": "https://safetydata.fra.dot.gov/OfficeofSafety/PublicSite/Crossing/Crossing.aspx?phasetype=C&rpttype=A&txtcrossingnum=440780R",
        "TTSTNNAM": "",
        "XPURPOSE": "1",
        "OPERATINGR": "UP",
        "OPERATIN_1": "Primary",
        "DAYTHRU": 0,
        "NGHTTHRU": 0,
        "MAINTRK": 0,
        "SIDINGTRK": 0,
        "YARDTRK": 0,
        "TRANSITTRK": 0,
        "INDUSTRYTR": 1,
        "OTHRTRK": 0,
        "WDCODE": "All other Gates",
        "REVISIONDA": "1975/01/01 00:00:00",
        "LASTUPDATE": "1/8/2026",
        "AADT": "4486",
        "AADTYEAR": "2024",
        "STATENAME": "TEXAS",
        "STATEAB": "TX",
        "COUNTYNAME": "MIDLAND",
        "CITYNAME": "MIDLAND",
        "LATDD": 31.95096,
        "LONGDD": -102.15997,
        "gridlyProductionCertified": true,
        "gridlyClassification": "PUBLIC_ROADWAY",
        "gridlyDisplayName": "fm0662 / WEST INDUSTRIAL AVENUE",
        "gridlyId": "FRA-440780R"
      }
    },
    {
      "type": "Feature",
      "id": 213938,
      "geometry": {
        "type": "Point",
        "coordinates": [
          -102.074327399696,
          31.9955219001098
        ]
      },
      "properties": {
        "OBJECTID": 213938,
        "CROSSING": "796337C",
        "EFFDATE": 1767830400000,
        "REASON": "14",
        "StateCode": "48",
        "CountyCode": "48329",
        "STCYFIPS": "48329",
        "CITYCD": "483294560",
        "RAILROAD": "UP",
        "RRDIV": "TEXOMA",
        "RRSUBDIV": "TOYAH SUB",
        "HIGHWAY": "lS0000",
        "STREET": "SOUTH MAIN STREET",
        "TTSTN": "694150",
        "MILEPOST": "0553.370",
        "TYPEXING": "Public",
        "POSXING": "At Grade",
        "PRVCAT": "14",
        "INIT": "2",
        "LATITUDE": 31.9955219,
        "LONGITUD": -102.0743274,
        "LLSOURCE": "1",
        "WHISTBAN": "1",
        "RRCONT": "4025443721",
        "POLCONT": "8008488715",
        "INV_LINK": "https://safetydata.fra.dot.gov/OfficeofSafety/PublicSite/Crossing/Crossing.aspx?phasetype=C&rpttype=I&txtcrossingnum=796337C",
        "ACC_LINK": "https://safetydata.fra.dot.gov/OfficeofSafety/PublicSite/Crossing/Crossing.aspx?phasetype=C&rpttype=A&txtcrossingnum=796337C",
        "TTSTNNAM": "",
        "XPURPOSE": "1",
        "OPERATINGR": "UP",
        "OPERATIN_1": "Primary",
        "DAYTHRU": 11,
        "NGHTTHRU": 10,
        "MAINTRK": 1,
        "SIDINGTRK": 0,
        "YARDTRK": 0,
        "TRANSITTRK": 0,
        "INDUSTRYTR": 0,
        "OTHRTRK": 1,
        "WDCODE": "All other Gates",
        "REVISIONDA": "1975/01/01 00:00:00",
        "LASTUPDATE": "1/8/2026",
        "AADT": "4114",
        "AADTYEAR": "2022",
        "STATENAME": "TEXAS",
        "STATEAB": "TX",
        "COUNTYNAME": "MIDLAND",
        "CITYNAME": "MIDLAND",
        "LATDD": 31.9955219,
        "LONGDD": -102.0743274,
        "gridlyProductionCertified": true,
        "gridlyClassification": "PUBLIC_ROADWAY",
        "gridlyDisplayName": "SOUTH MAIN STREET",
        "gridlyId": "FRA-796337C"
      }
    },
    {
      "type": "Feature",
      "id": 213939,
      "geometry": {
        "type": "Point",
        "coordinates": [
          -102.079119600021,
          31.9930468998173
        ]
      },
      "properties": {
        "OBJECTID": 213939,
        "CROSSING": "796335N",
        "EFFDATE": 1767830400000,
        "REASON": "14",
        "StateCode": "48",
        "CountyCode": "48329",
        "STCYFIPS": "48329",
        "CITYCD": "483294560",
        "RAILROAD": "UP",
        "RRDIV": "TEXOMA",
        "RRSUBDIV": "TOYAH SUB",
        "HIGHWAY": "lS0000",
        "STREET": "SOUTH MARIENFIELD STREET",
        "TTSTN": "694150",
        "MILEPOST": "0553.710",
        "TYPEXING": "Public",
        "POSXING": "At Grade",
        "PRVCAT": "14",
        "INIT": "2",
        "LATITUDE": 31.9930469,
        "LONGITUD": -102.0791196,
        "LLSOURCE": "1",
        "WHISTBAN": "1",
        "RRCONT": "4025443721",
        "POLCONT": "8008488715",
        "INV_LINK": "https://safetydata.fra.dot.gov/OfficeofSafety/PublicSite/Crossing/Crossing.aspx?phasetype=C&rpttype=I&txtcrossingnum=796335N",
        "ACC_LINK": "https://safetydata.fra.dot.gov/OfficeofSafety/PublicSite/Crossing/Crossing.aspx?phasetype=C&rpttype=A&txtcrossingnum=796335N",
        "TTSTNNAM": "",
        "XPURPOSE": "1",
        "OPERATINGR": "UP",
        "OPERATIN_1": "Primary",
        "DAYTHRU": 11,
        "NGHTTHRU": 10,
        "MAINTRK": 1,
        "SIDINGTRK": 0,
        "YARDTRK": 0,
        "TRANSITTRK": 0,
        "INDUSTRYTR": 0,
        "OTHRTRK": 1,
        "WDCODE": "All other Gates",
        "REVISIONDA": "1975/01/01 00:00:00",
        "LASTUPDATE": "1/8/2026",
        "AADT": "3073",
        "AADTYEAR": "2022",
        "STATENAME": "TEXAS",
        "STATEAB": "TX",
        "COUNTYNAME": "MIDLAND",
        "CITYNAME": "MIDLAND",
        "LATDD": 31.9930469,
        "LONGDD": -102.0791196,
        "gridlyProductionCertified": true,
        "gridlyClassification": "PUBLIC_ROADWAY",
        "gridlyDisplayName": "SOUTH MARIENFIELD STREET",
        "gridlyId": "FRA-796335N"
      }
    },
    {
      "type": "Feature",
      "id": 213940,
      "geometry": {
        "type": "Point",
        "coordinates": [
          -102.131919200146,
          31.965803999936
        ]
      },
      "properties": {
        "OBJECTID": 213940,
        "CROSSING": "796328D",
        "EFFDATE": 1767830400000,
        "REASON": "14",
        "StateCode": "48",
        "CountyCode": "48329",
        "STCYFIPS": "48329",
        "CITYCD": "483294560",
        "RAILROAD": "UP",
        "RRDIV": "TEXOMA",
        "RRSUBDIV": "TOYAH SUB",
        "HIGHWAY": "ls0000",
        "STREET": "EISENHOWER street",
        "TTSTN": "694150",
        "MILEPOST": "0557.290",
        "TYPEXING": "Public",
        "POSXING": "At Grade",
        "PRVCAT": "14",
        "INIT": "2",
        "LATITUDE": 31.965804,
        "LONGITUD": -102.1319192,
        "LLSOURCE": "1",
        "WHISTBAN": "1",
        "RRCONT": "4025443721",
        "POLCONT": "8008488715",
        "INV_LINK": "https://safetydata.fra.dot.gov/OfficeofSafety/PublicSite/Crossing/Crossing.aspx?phasetype=C&rpttype=I&txtcrossingnum=796328D",
        "ACC_LINK": "https://safetydata.fra.dot.gov/OfficeofSafety/PublicSite/Crossing/Crossing.aspx?phasetype=C&rpttype=A&txtcrossingnum=796328D",
        "TTSTNNAM": "",
        "XPURPOSE": "1",
        "OPERATINGR": "UP",
        "OPERATIN_1": "Primary",
        "DAYTHRU": 11,
        "NGHTTHRU": 10,
        "MAINTRK": 1,
        "SIDINGTRK": 0,
        "YARDTRK": 0,
        "TRANSITTRK": 0,
        "INDUSTRYTR": 0,
        "OTHRTRK": 0,
        "WDCODE": "All other Gates",
        "REVISIONDA": "1975/01/01 00:00:00",
        "LASTUPDATE": "1/8/2026",
        "AADT": "4242",
        "AADTYEAR": "2022",
        "STATENAME": "TEXAS",
        "STATEAB": "TX",
        "COUNTYNAME": "MIDLAND",
        "CITYNAME": "MIDLAND",
        "LATDD": 31.965804,
        "LONGDD": -102.1319192,
        "gridlyProductionCertified": true,
        "gridlyClassification": "PUBLIC_ROADWAY",
        "gridlyDisplayName": "EISENHOWER street",
        "gridlyId": "FRA-796328D"
      }
    },
    {
      "type": "Feature",
      "id": 213941,
      "geometry": {
        "type": "Point",
        "coordinates": [
          -101.976989999724,
          32.04535000015
        ]
      },
      "properties": {
        "OBJECTID": 213941,
        "CROSSING": "440844A",
        "EFFDATE": 1767830400000,
        "REASON": "14",
        "StateCode": "48",
        "CountyCode": "48329",
        "STCYFIPS": "48329",
        "CITYCD": "483294560",
        "RAILROAD": "UP",
        "RRDIV": "TEXOMA",
        "RRSUBDIV": "TOYAH SUB",
        "HIGHWAY": "ih0020",
        "STREET": "Ih0020 Frontage Road / old highway 80",
        "TTSTN": "",
        "MILEPOST": "0546.700",
        "TYPEXING": "Public",
        "POSXING": "At Grade",
        "PRVCAT": "14",
        "INIT": "2",
        "LATITUDE": 32.04535,
        "LONGITUD": -101.97699,
        "LLSOURCE": "1",
        "WHISTBAN": "",
        "RRCONT": "4025443721",
        "POLCONT": "8008488715",
        "INV_LINK": "https://safetydata.fra.dot.gov/OfficeofSafety/PublicSite/Crossing/Crossing.aspx?phasetype=C&rpttype=I&txtcrossingnum=440844A",
        "ACC_LINK": "https://safetydata.fra.dot.gov/OfficeofSafety/PublicSite/Crossing/Crossing.aspx?phasetype=C&rpttype=A&txtcrossingnum=440844A",
        "TTSTNNAM": "",
        "XPURPOSE": "1",
        "OPERATINGR": "UP",
        "OPERATIN_1": "Primary",
        "DAYTHRU": 0,
        "NGHTTHRU": 0,
        "MAINTRK": 0,
        "SIDINGTRK": 0,
        "YARDTRK": 0,
        "TRANSITTRK": 0,
        "INDUSTRYTR": 1,
        "OTHRTRK": 0,
        "WDCODE": "All other Gates",
        "REVISIONDA": "1975/01/01 00:00:00",
        "LASTUPDATE": "1/8/2026",
        "AADT": "1759",
        "AADTYEAR": "2019",
        "STATENAME": "TEXAS",
        "STATEAB": "TX",
        "COUNTYNAME": "MIDLAND",
        "CITYNAME": "MIDLAND",
        "LATDD": 32.04535,
        "LONGDD": -101.97699,
        "gridlyProductionCertified": true,
        "gridlyClassification": "PUBLIC_ROADWAY",
        "gridlyDisplayName": "Ih0020 Frontage Road / old highway 80",
        "gridlyId": "FRA-440844A"
      }
    },
    {
      "type": "Feature",
      "id": 213942,
      "geometry": {
        "type": "Point",
        "coordinates": [
          -102.004037099729,
          32.0317346999509
        ]
      },
      "properties": {
        "OBJECTID": 213942,
        "CROSSING": "796345U",
        "EFFDATE": 1767830400000,
        "REASON": "14",
        "StateCode": "48",
        "CountyCode": "48329",
        "STCYFIPS": "48329",
        "CITYCD": "483294560",
        "RAILROAD": "UP",
        "RRDIV": "TEXOMA",
        "RRSUBDIV": "Toyah SUB",
        "HIGHWAY": "Cr1140",
        "STREET": "County Road 1140",
        "TTSTN": "694150",
        "MILEPOST": "0548.550",
        "TYPEXING": "Public",
        "POSXING": "At Grade",
        "PRVCAT": "14",
        "INIT": "2",
        "LATITUDE": 32.0317347,
        "LONGITUD": -102.0040371,
        "LLSOURCE": "1",
        "WHISTBAN": "0",
        "RRCONT": "4025443721",
        "POLCONT": "8008488715",
        "INV_LINK": "https://safetydata.fra.dot.gov/OfficeofSafety/PublicSite/Crossing/Crossing.aspx?phasetype=C&rpttype=I&txtcrossingnum=796345U",
        "ACC_LINK": "https://safetydata.fra.dot.gov/OfficeofSafety/PublicSite/Crossing/Crossing.aspx?phasetype=C&rpttype=A&txtcrossingnum=796345U",
        "TTSTNNAM": "",
        "XPURPOSE": "1",
        "OPERATINGR": "UP",
        "OPERATIN_1": "Primary",
        "DAYTHRU": 11,
        "NGHTTHRU": 10,
        "MAINTRK": 1,
        "SIDINGTRK": 0,
        "YARDTRK": 0,
        "TRANSITTRK": 0,
        "INDUSTRYTR": 0,
        "OTHRTRK": 0,
        "WDCODE": "All other Gates",
        "REVISIONDA": "1975/01/01 00:00:00",
        "LASTUPDATE": "1/8/2026",
        "AADT": "769",
        "AADTYEAR": "2022",
        "STATENAME": "TEXAS",
        "STATEAB": "TX",
        "COUNTYNAME": "MIDLAND",
        "CITYNAME": "MIDLAND",
        "LATDD": 32.0317347,
        "LONGDD": -102.0040371,
        "gridlyProductionCertified": true,
        "gridlyClassification": "PUBLIC_ROADWAY",
        "gridlyDisplayName": "County Road 1140",
        "gridlyId": "FRA-796345U"
      }
    },
    {
      "type": "Feature",
      "id": 213943,
      "geometry": {
        "type": "Point",
        "coordinates": [
          -102.068316199903,
          31.9986284999716
        ]
      },
      "properties": {
        "OBJECTID": 213943,
        "CROSSING": "796338J",
        "EFFDATE": 1767830400000,
        "REASON": "14",
        "StateCode": "48",
        "CountyCode": "48329",
        "STCYFIPS": "48329",
        "CITYCD": "483294560",
        "RAILROAD": "UP",
        "RRDIV": "TEXOMA",
        "RRSUBDIV": "TOYAH SUB",
        "HIGHWAY": "ls0000",
        "STREET": "TERRELL STREET",
        "TTSTN": "694150",
        "MILEPOST": "0552.950",
        "TYPEXING": "Public",
        "POSXING": "At Grade",
        "PRVCAT": "14",
        "INIT": "2",
        "LATITUDE": 31.9986285,
        "LONGITUD": -102.0683162,
        "LLSOURCE": "1",
        "WHISTBAN": "1",
        "RRCONT": "4025443721",
        "POLCONT": "8008488715",
        "INV_LINK": "https://safetydata.fra.dot.gov/OfficeofSafety/PublicSite/Crossing/Crossing.aspx?phasetype=C&rpttype=I&txtcrossingnum=796338J",
        "ACC_LINK": "https://safetydata.fra.dot.gov/OfficeofSafety/PublicSite/Crossing/Crossing.aspx?phasetype=C&rpttype=A&txtcrossingnum=796338J",
        "TTSTNNAM": "",
        "XPURPOSE": "1",
        "OPERATINGR": "UP",
        "OPERATIN_1": "Primary",
        "DAYTHRU": 11,
        "NGHTTHRU": 10,
        "MAINTRK": 1,
        "SIDINGTRK": 0,
        "YARDTRK": 0,
        "TRANSITTRK": 0,
        "INDUSTRYTR": 0,
        "OTHRTRK": 1,
        "WDCODE": "All other Gates",
        "REVISIONDA": "1975/01/01 00:00:00",
        "LASTUPDATE": "1/8/2026",
        "AADT": "3975",
        "AADTYEAR": "2022",
        "STATENAME": "TEXAS",
        "STATEAB": "TX",
        "COUNTYNAME": "MIDLAND",
        "CITYNAME": "MIDLAND",
        "LATDD": 31.9986285,
        "LONGDD": -102.0683162,
        "gridlyProductionCertified": true,
        "gridlyClassification": "PUBLIC_ROADWAY",
        "gridlyDisplayName": "TERRELL STREET",
        "gridlyId": "FRA-796338J"
      }
    },
    {
      "type": "Feature",
      "id": 213944,
      "geometry": {
        "type": "Point",
        "coordinates": [
          -102.085666999715,
          31.9896733996691
        ]
      },
      "properties": {
        "OBJECTID": 213944,
        "CROSSING": "796334G",
        "EFFDATE": 1767830400000,
        "REASON": "14",
        "StateCode": "48",
        "CountyCode": "48329",
        "STCYFIPS": "48329",
        "CITYCD": "483294560",
        "RAILROAD": "UP",
        "RRDIV": "Texoma",
        "RRSUBDIV": "Toyah Sub",
        "HIGHWAY": "LS0000",
        "STREET": "South G Street",
        "TTSTN": "694150",
        "MILEPOST": "0554.150",
        "TYPEXING": "Public",
        "POSXING": "At Grade",
        "PRVCAT": "14",
        "INIT": "2",
        "LATITUDE": 31.9896734,
        "LONGITUD": -102.085667,
        "LLSOURCE": "1",
        "WHISTBAN": "1",
        "RRCONT": "4025443721",
        "POLCONT": "8008488715",
        "INV_LINK": "https://safetydata.fra.dot.gov/OfficeofSafety/PublicSite/Crossing/Crossing.aspx?phasetype=C&rpttype=I&txtcrossingnum=796334G",
        "ACC_LINK": "https://safetydata.fra.dot.gov/OfficeofSafety/PublicSite/Crossing/Crossing.aspx?phasetype=C&rpttype=A&txtcrossingnum=796334G",
        "TTSTNNAM": "",
        "XPURPOSE": "1",
        "OPERATINGR": "UP",
        "OPERATIN_1": "Primary",
        "DAYTHRU": 11,
        "NGHTTHRU": 10,
        "MAINTRK": 1,
        "SIDINGTRK": 0,
        "YARDTRK": 0,
        "TRANSITTRK": 0,
        "INDUSTRYTR": 0,
        "OTHRTRK": 0,
        "WDCODE": "All other Gates",
        "REVISIONDA": "1975/01/01 00:00:00",
        "LASTUPDATE": "1/8/2026",
        "AADT": "1516",
        "AADTYEAR": "2022",
        "STATENAME": "TEXAS",
        "STATEAB": "TX",
        "COUNTYNAME": "MIDLAND",
        "CITYNAME": "MIDLAND",
        "LATDD": 31.9896734,
        "LONGDD": -102.085667,
        "gridlyProductionCertified": true,
        "gridlyClassification": "PUBLIC_ROADWAY",
        "gridlyDisplayName": "South G Street",
        "gridlyId": "FRA-796334G"
      }
    },
    {
      "type": "Feature",
      "id": 213945,
      "geometry": {
        "type": "Point",
        "coordinates": [
          -102.171110000148,
          31.9452299999729
        ]
      },
      "properties": {
        "OBJECTID": 213945,
        "CROSSING": "440781X",
        "EFFDATE": 1767830400000,
        "REASON": "14",
        "StateCode": "48",
        "CountyCode": "48329",
        "STCYFIPS": "48329",
        "CITYCD": "483294560",
        "RAILROAD": "UP",
        "RRDIV": "TEXOMA",
        "RRSUBDIV": "TOYAH SUB",
        "HIGHWAY": "fm0662",
        "STREET": "fm0662 / WEST INDUSTRIAL AVENUE",
        "TTSTN": "",
        "MILEPOST": "0560.030",
        "TYPEXING": "Public",
        "POSXING": "At Grade",
        "PRVCAT": "14",
        "INIT": "2",
        "LATITUDE": 31.94523,
        "LONGITUD": -102.17111,
        "LLSOURCE": "1",
        "WHISTBAN": "",
        "RRCONT": "4025443721",
        "POLCONT": "8008488715",
        "INV_LINK": "https://safetydata.fra.dot.gov/OfficeofSafety/PublicSite/Crossing/Crossing.aspx?phasetype=C&rpttype=I&txtcrossingnum=440781X",
        "ACC_LINK": "https://safetydata.fra.dot.gov/OfficeofSafety/PublicSite/Crossing/Crossing.aspx?phasetype=C&rpttype=A&txtcrossingnum=440781X",
        "TTSTNNAM": "",
        "XPURPOSE": "1",
        "OPERATINGR": "UP",
        "OPERATIN_1": "Primary",
        "DAYTHRU": 0,
        "NGHTTHRU": 0,
        "MAINTRK": 0,
        "SIDINGTRK": 0,
        "YARDTRK": 0,
        "TRANSITTRK": 0,
        "INDUSTRYTR": 1,
        "OTHRTRK": 0,
        "WDCODE": "All other Gates",
        "REVISIONDA": "1975/01/01 00:00:00",
        "LASTUPDATE": "1/8/2026",
        "AADT": "2825",
        "AADTYEAR": "2023",
        "STATENAME": "TEXAS",
        "STATEAB": "TX",
        "COUNTYNAME": "MIDLAND",
        "CITYNAME": "MIDLAND",
        "LATDD": 31.94523,
        "LONGDD": -102.17111,
        "gridlyProductionCertified": true,
        "gridlyClassification": "PUBLIC_ROADWAY",
        "gridlyDisplayName": "fm0662 / WEST INDUSTRIAL AVENUE",
        "gridlyId": "FRA-440781X"
      }
    },
    {
      "type": "Feature",
      "id": 213946,
      "geometry": {
        "type": "Point",
        "coordinates": [
          -102.151071600007,
          31.9555696998464
        ]
      },
      "properties": {
        "OBJECTID": 213946,
        "CROSSING": "796313N",
        "EFFDATE": 1767830400000,
        "REASON": "14",
        "StateCode": "48",
        "CountyCode": "48329",
        "STCYFIPS": "48329",
        "CITYCD": "483294560",
        "RAILROAD": "UP",
        "RRDIV": "TEXOMA",
        "RRSUBDIV": "TOYAH SUB",
        "HIGHWAY": "FM0662",
        "STREET": "FM0662 / WEST INDUSTRIAL AVENUE",
        "TTSTN": "694150",
        "MILEPOST": "0558.620",
        "TYPEXING": "Public",
        "POSXING": "At Grade",
        "PRVCAT": "14",
        "INIT": "2",
        "LATITUDE": 31.9555697,
        "LONGITUD": -102.1510716,
        "LLSOURCE": "1",
        "WHISTBAN": "0",
        "RRCONT": "4025443721",
        "POLCONT": "8008488715",
        "INV_LINK": "https://safetydata.fra.dot.gov/OfficeofSafety/PublicSite/Crossing/Crossing.aspx?phasetype=C&rpttype=I&txtcrossingnum=796313N",
        "ACC_LINK": "https://safetydata.fra.dot.gov/OfficeofSafety/PublicSite/Crossing/Crossing.aspx?phasetype=C&rpttype=A&txtcrossingnum=796313N",
        "TTSTNNAM": "",
        "XPURPOSE": "1",
        "OPERATINGR": "UP",
        "OPERATIN_1": "Primary",
        "DAYTHRU": 0,
        "NGHTTHRU": 0,
        "MAINTRK": 0,
        "SIDINGTRK": 0,
        "YARDTRK": 0,
        "TRANSITTRK": 0,
        "INDUSTRYTR": 1,
        "OTHRTRK": 1,
        "WDCODE": "All other Gates",
        "REVISIONDA": "1975/01/01 00:00:00",
        "LASTUPDATE": "1/8/2026",
        "AADT": "4486",
        "AADTYEAR": "2024",
        "STATENAME": "TEXAS",
        "STATEAB": "TX",
        "COUNTYNAME": "MIDLAND",
        "CITYNAME": "MIDLAND",
        "LATDD": 31.9555697,
        "LONGDD": -102.1510716,
        "gridlyProductionCertified": true,
        "gridlyClassification": "PUBLIC_ROADWAY",
        "gridlyDisplayName": "FM0662 / WEST INDUSTRIAL AVENUE",
        "gridlyId": "FRA-796313N"
      }
    },
    {
      "type": "Feature",
      "id": 213947,
      "geometry": {
        "type": "Point",
        "coordinates": [
          -102.050032300241,
          32.0080610001819
        ]
      },
      "properties": {
        "OBJECTID": 213947,
        "CROSSING": "796341S",
        "EFFDATE": 1767830400000,
        "REASON": "14",
        "StateCode": "48",
        "CountyCode": "48329",
        "STCYFIPS": "48329",
        "CITYCD": "483294560",
        "RAILROAD": "UP",
        "RRDIV": "TEXOMA",
        "RRSUBDIV": "TOYAH SUB",
        "HIGHWAY": "ls0000",
        "STREET": "South Fairgrounds Road",
        "TTSTN": "694150",
        "MILEPOST": "0551.680",
        "TYPEXING": "Public",
        "POSXING": "At Grade",
        "PRVCAT": "14",
        "INIT": "2",
        "LATITUDE": 32.008061,
        "LONGITUD": -102.0500323,
        "LLSOURCE": "1",
        "WHISTBAN": "0",
        "RRCONT": "4025443721",
        "POLCONT": "8008488715",
        "INV_LINK": "https://safetydata.fra.dot.gov/OfficeofSafety/PublicSite/Crossing/Crossing.aspx?phasetype=C&rpttype=I&txtcrossingnum=796341S",
        "ACC_LINK": "https://safetydata.fra.dot.gov/OfficeofSafety/PublicSite/Crossing/Crossing.aspx?phasetype=C&rpttype=A&txtcrossingnum=796341S",
        "TTSTNNAM": "",
        "XPURPOSE": "1",
        "OPERATINGR": "UP",
        "OPERATIN_1": "Primary",
        "DAYTHRU": 11,
        "NGHTTHRU": 10,
        "MAINTRK": 1,
        "SIDINGTRK": 0,
        "YARDTRK": 0,
        "TRANSITTRK": 0,
        "INDUSTRYTR": 0,
        "OTHRTRK": 0,
        "WDCODE": "All other Gates",
        "REVISIONDA": "1975/01/01 00:00:00",
        "LASTUPDATE": "1/8/2026",
        "AADT": "13991",
        "AADTYEAR": "2024",
        "STATENAME": "TEXAS",
        "STATEAB": "TX",
        "COUNTYNAME": "MIDLAND",
        "CITYNAME": "MIDLAND",
        "LATDD": 32.008061,
        "LONGDD": -102.0500323,
        "gridlyProductionCertified": true,
        "gridlyClassification": "PUBLIC_ROADWAY",
        "gridlyDisplayName": "South Fairgrounds Road",
        "gridlyId": "FRA-796341S"
      }
    },
    {
      "type": "Feature",
      "id": 213948,
      "geometry": {
        "type": "Point",
        "coordinates": [
          -102.065079400152,
          32.0002888000599
        ]
      },
      "properties": {
        "OBJECTID": 213948,
        "CROSSING": "448430B",
        "EFFDATE": 1767830400000,
        "REASON": "14",
        "StateCode": "48",
        "CountyCode": "48329",
        "STCYFIPS": "48329",
        "CITYCD": "483294560",
        "RAILROAD": "UP",
        "RRDIV": "TEXOMA",
        "RRSUBDIV": "TOYAH SUB",
        "HIGHWAY": "lS0000",
        "STREET": "LAMESA ROAD",
        "TTSTN": "694150",
        "MILEPOST": "0552.730",
        "TYPEXING": "Public",
        "POSXING": "At Grade",
        "PRVCAT": "14",
        "INIT": "2",
        "LATITUDE": 32.0002888,
        "LONGITUD": -102.0650794,
        "LLSOURCE": "1",
        "WHISTBAN": "1",
        "RRCONT": "4025443721",
        "POLCONT": "8008488715",
        "INV_LINK": "https://safetydata.fra.dot.gov/OfficeofSafety/PublicSite/Crossing/Crossing.aspx?phasetype=C&rpttype=I&txtcrossingnum=448430B",
        "ACC_LINK": "https://safetydata.fra.dot.gov/OfficeofSafety/PublicSite/Crossing/Crossing.aspx?phasetype=C&rpttype=A&txtcrossingnum=448430B",
        "TTSTNNAM": "",
        "XPURPOSE": "1",
        "OPERATINGR": "UP",
        "OPERATIN_1": "Primary",
        "DAYTHRU": 11,
        "NGHTTHRU": 10,
        "MAINTRK": 1,
        "SIDINGTRK": 0,
        "YARDTRK": 0,
        "TRANSITTRK": 0,
        "INDUSTRYTR": 0,
        "OTHRTRK": 0,
        "WDCODE": "All other Gates",
        "REVISIONDA": "1975/01/01 00:00:00",
        "LASTUPDATE": "1/8/2026",
        "AADT": "13876",
        "AADTYEAR": "2022",
        "STATENAME": "TEXAS",
        "STATEAB": "TX",
        "COUNTYNAME": "MIDLAND",
        "CITYNAME": "MIDLAND",
        "LATDD": 32.0002888,
        "LONGDD": -102.0650794,
        "gridlyProductionCertified": true,
        "gridlyClassification": "PUBLIC_ROADWAY",
        "gridlyDisplayName": "LAMESA ROAD",
        "gridlyId": "FRA-448430B"
      }
    },
    {
      "type": "Feature",
      "id": 213949,
      "geometry": {
        "type": "Point",
        "coordinates": [
          -102.093570400043,
          31.9855870001187
        ]
      },
      "properties": {
        "OBJECTID": 213949,
        "CROSSING": "796331L",
        "EFFDATE": 1767830400000,
        "REASON": "14",
        "StateCode": "48",
        "CountyCode": "48329",
        "STCYFIPS": "48329",
        "CITYCD": "483294560",
        "RAILROAD": "UP",
        "RRDIV": "TEXOMA",
        "RRSUBDIV": "TOYAH SUB",
        "HIGHWAY": "SH0058",
        "STREET": "sh0058 / SOUTH GARFIELD STREET",
        "TTSTN": "694150",
        "MILEPOST": "0554.740",
        "TYPEXING": "Public",
        "POSXING": "At Grade",
        "PRVCAT": "14",
        "INIT": "2",
        "LATITUDE": 31.985587,
        "LONGITUD": -102.0935704,
        "LLSOURCE": "1",
        "WHISTBAN": "1",
        "RRCONT": "4025443721",
        "POLCONT": "8008488715",
        "INV_LINK": "https://safetydata.fra.dot.gov/OfficeofSafety/PublicSite/Crossing/Crossing.aspx?phasetype=C&rpttype=I&txtcrossingnum=796331L",
        "ACC_LINK": "https://safetydata.fra.dot.gov/OfficeofSafety/PublicSite/Crossing/Crossing.aspx?phasetype=C&rpttype=A&txtcrossingnum=796331L",
        "TTSTNNAM": "",
        "XPURPOSE": "1",
        "OPERATINGR": "UP",
        "OPERATIN_1": "Primary",
        "DAYTHRU": 11,
        "NGHTTHRU": 10,
        "MAINTRK": 1,
        "SIDINGTRK": 0,
        "YARDTRK": 0,
        "TRANSITTRK": 0,
        "INDUSTRYTR": 0,
        "OTHRTRK": 0,
        "WDCODE": "All other Gates",
        "REVISIONDA": "1975/01/01 00:00:00",
        "LASTUPDATE": "1/8/2026",
        "AADT": "18212",
        "AADTYEAR": "2022",
        "STATENAME": "TEXAS",
        "STATEAB": "TX",
        "COUNTYNAME": "MIDLAND",
        "CITYNAME": "MIDLAND",
        "LATDD": 31.985587,
        "LONGDD": -102.0935704,
        "gridlyProductionCertified": true,
        "gridlyClassification": "PUBLIC_ROADWAY",
        "gridlyDisplayName": "sh0058 / SOUTH GARFIELD STREET",
        "gridlyId": "FRA-796331L"
      }
    },
    {
      "type": "Feature",
      "id": 213950,
      "geometry": {
        "type": "Point",
        "coordinates": [
          -102.089413499965,
          31.987742300236
        ]
      },
      "properties": {
        "OBJECTID": 213950,
        "CROSSING": "796332T",
        "EFFDATE": 1767830400000,
        "REASON": "14",
        "StateCode": "48",
        "CountyCode": "48329",
        "STCYFIPS": "48329",
        "CITYCD": "483294560",
        "RAILROAD": "UP",
        "RRDIV": "TEXOMA",
        "RRSUBDIV": "TOYAH SUB",
        "HIGHWAY": "LS0000",
        "STREET": "SOUTH K STREET",
        "TTSTN": "694150",
        "MILEPOST": "0554.400",
        "TYPEXING": "Public",
        "POSXING": "At Grade",
        "PRVCAT": "14",
        "INIT": "2",
        "LATITUDE": 31.9877423,
        "LONGITUD": -102.0894135,
        "LLSOURCE": "1",
        "WHISTBAN": "1",
        "RRCONT": "4025443721",
        "POLCONT": "8008488715",
        "INV_LINK": "https://safetydata.fra.dot.gov/OfficeofSafety/PublicSite/Crossing/Crossing.aspx?phasetype=C&rpttype=I&txtcrossingnum=796332T",
        "ACC_LINK": "https://safetydata.fra.dot.gov/OfficeofSafety/PublicSite/Crossing/Crossing.aspx?phasetype=C&rpttype=A&txtcrossingnum=796332T",
        "TTSTNNAM": "",
        "XPURPOSE": "1",
        "OPERATINGR": "UP",
        "OPERATIN_1": "Primary",
        "DAYTHRU": 11,
        "NGHTTHRU": 10,
        "MAINTRK": 1,
        "SIDINGTRK": 0,
        "YARDTRK": 0,
        "TRANSITTRK": 0,
        "INDUSTRYTR": 0,
        "OTHRTRK": 0,
        "WDCODE": "All other Gates",
        "REVISIONDA": "1975/01/01 00:00:00",
        "LASTUPDATE": "1/8/2026",
        "AADT": "1129",
        "AADTYEAR": "2022",
        "STATENAME": "TEXAS",
        "STATEAB": "TX",
        "COUNTYNAME": "MIDLAND",
        "CITYNAME": "MIDLAND",
        "LATDD": 31.9877423,
        "LONGDD": -102.0894135,
        "gridlyProductionCertified": true,
        "gridlyClassification": "PUBLIC_ROADWAY",
        "gridlyDisplayName": "SOUTH K STREET",
        "gridlyId": "FRA-796332T"
      }
    },
    {
      "type": "Feature",
      "id": 213951,
      "geometry": {
        "type": "Point",
        "coordinates": [
          -102.034543900252,
          32.0160213996943
        ]
      },
      "properties": {
        "OBJECTID": 213951,
        "CROSSING": "796342Y",
        "EFFDATE": 1767830400000,
        "REASON": "14",
        "StateCode": "48",
        "CountyCode": "48329",
        "STCYFIPS": "48329",
        "CITYCD": "483294560",
        "RAILROAD": "UP",
        "RRDIV": "TEXOMA",
        "RRSUBDIV": "TOYAH SUB",
        "HIGHWAY": "Cr1160",
        "STREET": "marie drive",
        "TTSTN": "694150",
        "MILEPOST": "0550.590",
        "TYPEXING": "Public",
        "POSXING": "At Grade",
        "PRVCAT": "14",
        "INIT": "2",
        "LATITUDE": 32.0160214,
        "LONGITUD": -102.0345439,
        "LLSOURCE": "1",
        "WHISTBAN": "0",
        "RRCONT": "4025443721",
        "POLCONT": "8008488715",
        "INV_LINK": "https://safetydata.fra.dot.gov/OfficeofSafety/PublicSite/Crossing/Crossing.aspx?phasetype=C&rpttype=I&txtcrossingnum=796342Y",
        "ACC_LINK": "https://safetydata.fra.dot.gov/OfficeofSafety/PublicSite/Crossing/Crossing.aspx?phasetype=C&rpttype=A&txtcrossingnum=796342Y",
        "TTSTNNAM": "",
        "XPURPOSE": "1",
        "OPERATINGR": "UP",
        "OPERATIN_1": "Primary",
        "DAYTHRU": 11,
        "NGHTTHRU": 10,
        "MAINTRK": 1,
        "SIDINGTRK": 0,
        "YARDTRK": 0,
        "TRANSITTRK": 0,
        "INDUSTRYTR": 0,
        "OTHRTRK": 0,
        "WDCODE": "All other Gates",
        "REVISIONDA": "1975/01/01 00:00:00",
        "LASTUPDATE": "1/8/2026",
        "AADT": "1826",
        "AADTYEAR": "2022",
        "STATENAME": "TEXAS",
        "STATEAB": "TX",
        "COUNTYNAME": "MIDLAND",
        "CITYNAME": "MIDLAND",
        "LATDD": 32.0160214,
        "LONGDD": -102.0345439,
        "gridlyProductionCertified": true,
        "gridlyClassification": "PUBLIC_ROADWAY",
        "gridlyDisplayName": "marie drive",
        "gridlyId": "FRA-796342Y"
      }
    },
    {
      "type": "Feature",
      "id": 213952,
      "geometry": {
        "type": "Point",
        "coordinates": [
          -102.111071399968,
          31.9765797998289
        ]
      },
      "properties": {
        "OBJECTID": 213952,
        "CROSSING": "796330E",
        "EFFDATE": 1767830400000,
        "REASON": "14",
        "StateCode": "48",
        "CountyCode": "48329",
        "STCYFIPS": "48329",
        "CITYCD": "483294560",
        "RAILROAD": "UP",
        "RRDIV": "TEXOMA",
        "RRSUBDIV": "TOYAH SUB",
        "HIGHWAY": "lS0000",
        "STREET": "MIDKIFF ROAD",
        "TTSTN": "694150",
        "MILEPOST": "0555.840",
        "TYPEXING": "Public",
        "POSXING": "At Grade",
        "PRVCAT": "14",
        "INIT": "2",
        "LATITUDE": 31.9765798,
        "LONGITUD": -102.1110714,
        "LLSOURCE": "1",
        "WHISTBAN": "1",
        "RRCONT": "4025443721",
        "POLCONT": "8008488715",
        "INV_LINK": "https://safetydata.fra.dot.gov/OfficeofSafety/PublicSite/Crossing/Crossing.aspx?phasetype=C&rpttype=I&txtcrossingnum=796330E",
        "ACC_LINK": "https://safetydata.fra.dot.gov/OfficeofSafety/PublicSite/Crossing/Crossing.aspx?phasetype=C&rpttype=A&txtcrossingnum=796330E",
        "TTSTNNAM": "",
        "XPURPOSE": "1",
        "OPERATINGR": "UP",
        "OPERATIN_1": "Primary",
        "DAYTHRU": 11,
        "NGHTTHRU": 10,
        "MAINTRK": 1,
        "SIDINGTRK": 0,
        "YARDTRK": 0,
        "TRANSITTRK": 0,
        "INDUSTRYTR": 0,
        "OTHRTRK": 0,
        "WDCODE": "All other Gates",
        "REVISIONDA": "1975/01/01 00:00:00",
        "LASTUPDATE": "1/8/2026",
        "AADT": "14380",
        "AADTYEAR": "2022",
        "STATENAME": "TEXAS",
        "STATEAB": "TX",
        "COUNTYNAME": "MIDLAND",
        "CITYNAME": "MIDLAND",
        "LATDD": 31.9765798,
        "LONGDD": -102.1110714,
        "gridlyProductionCertified": true,
        "gridlyClassification": "PUBLIC_ROADWAY",
        "gridlyDisplayName": "MIDKIFF ROAD",
        "gridlyId": "FRA-796330E"
      }
    },
    {
      "type": "Feature",
      "id": 213953,
      "geometry": {
        "type": "Point",
        "coordinates": [
          -102.06079049983,
          32.002491800302
        ]
      },
      "properties": {
        "OBJECTID": 213953,
        "CROSSING": "796340K",
        "EFFDATE": 1767830400000,
        "REASON": "14",
        "StateCode": "48",
        "CountyCode": "48329",
        "STCYFIPS": "48329",
        "CITYCD": "483294560",
        "RAILROAD": "UP",
        "RRDIV": "TEXOMA",
        "RRSUBDIV": "TOYAH SUB",
        "HIGHWAY": "lS0000",
        "STREET": "NORTH CARVER STREET",
        "TTSTN": "694150",
        "MILEPOST": "0552.440",
        "TYPEXING": "Public",
        "POSXING": "At Grade",
        "PRVCAT": "14",
        "INIT": "2",
        "LATITUDE": 32.0024918,
        "LONGITUD": -102.0607905,
        "LLSOURCE": "1",
        "WHISTBAN": "1",
        "RRCONT": "4025443721",
        "POLCONT": "8008488715",
        "INV_LINK": "https://safetydata.fra.dot.gov/OfficeofSafety/PublicSite/Crossing/Crossing.aspx?phasetype=C&rpttype=I&txtcrossingnum=796340K",
        "ACC_LINK": "https://safetydata.fra.dot.gov/OfficeofSafety/PublicSite/Crossing/Crossing.aspx?phasetype=C&rpttype=A&txtcrossingnum=796340K",
        "TTSTNNAM": "",
        "XPURPOSE": "1",
        "OPERATINGR": "UP",
        "OPERATIN_1": "Primary",
        "DAYTHRU": 11,
        "NGHTTHRU": 10,
        "MAINTRK": 1,
        "SIDINGTRK": 0,
        "YARDTRK": 0,
        "TRANSITTRK": 0,
        "INDUSTRYTR": 0,
        "OTHRTRK": 0,
        "WDCODE": "All other Gates",
        "REVISIONDA": "1975/01/01 00:00:00",
        "LASTUPDATE": "1/8/2026",
        "AADT": "2153",
        "AADTYEAR": "2022",
        "STATENAME": "TEXAS",
        "STATEAB": "TX",
        "COUNTYNAME": "MIDLAND",
        "CITYNAME": "MIDLAND",
        "LATDD": 32.0024918,
        "LONGDD": -102.0607905,
        "gridlyProductionCertified": true,
        "gridlyClassification": "PUBLIC_ROADWAY",
        "gridlyDisplayName": "NORTH CARVER STREET",
        "gridlyId": "FRA-796340K"
      }
    },
    {
      "type": "Feature",
      "id": 213954,
      "geometry": {
        "type": "Point",
        "coordinates": [
          -102.172925100078,
          31.9446193996794
        ]
      },
      "properties": {
        "OBJECTID": 213954,
        "CROSSING": "796312G",
        "EFFDATE": 1767830400000,
        "REASON": "14",
        "StateCode": "48",
        "CountyCode": "48329",
        "STCYFIPS": "48329",
        "CITYCD": "483294560",
        "RAILROAD": "UP",
        "RRDIV": "Texoma",
        "RRSUBDIV": "Toyah Sub",
        "HIGHWAY": "Cr1250",
        "STREET": "County Road 1250",
        "TTSTN": "694150",
        "MILEPOST": "0560.140",
        "TYPEXING": "Public",
        "POSXING": "At Grade",
        "PRVCAT": "14",
        "INIT": "2",
        "LATITUDE": 31.9446194,
        "LONGITUD": -102.1729251,
        "LLSOURCE": "1",
        "WHISTBAN": "0",
        "RRCONT": "4025443721",
        "POLCONT": "8008488715",
        "INV_LINK": "https://safetydata.fra.dot.gov/OfficeofSafety/PublicSite/Crossing/Crossing.aspx?phasetype=C&rpttype=I&txtcrossingnum=796312G",
        "ACC_LINK": "https://safetydata.fra.dot.gov/OfficeofSafety/PublicSite/Crossing/Crossing.aspx?phasetype=C&rpttype=A&txtcrossingnum=796312G",
        "TTSTNNAM": "",
        "XPURPOSE": "1",
        "OPERATINGR": "UP",
        "OPERATIN_1": "Primary",
        "DAYTHRU": 11,
        "NGHTTHRU": 10,
        "MAINTRK": 1,
        "SIDINGTRK": 0,
        "YARDTRK": 1,
        "TRANSITTRK": 0,
        "INDUSTRYTR": 0,
        "OTHRTRK": 0,
        "WDCODE": "All other Gates",
        "REVISIONDA": "1975/01/01 00:00:00",
        "LASTUPDATE": "1/8/2026",
        "AADT": "5416",
        "AADTYEAR": "2022",
        "STATENAME": "TEXAS",
        "STATEAB": "TX",
        "COUNTYNAME": "MIDLAND",
        "CITYNAME": "MIDLAND",
        "LATDD": 31.9446194,
        "LONGDD": -102.1729251,
        "gridlyProductionCertified": true,
        "gridlyClassification": "PUBLIC_ROADWAY",
        "gridlyDisplayName": "County Road 1250",
        "gridlyId": "FRA-796312G"
      }
    },
    {
      "type": "Feature",
      "id": 213955,
      "geometry": {
        "type": "Point",
        "coordinates": [
          -102.118816800111,
          31.9725694001234
        ]
      },
      "properties": {
        "OBJECTID": 213955,
        "CROSSING": "796329K",
        "EFFDATE": 1767830400000,
        "REASON": "14",
        "StateCode": "48",
        "CountyCode": "48329",
        "STCYFIPS": "48329",
        "CITYCD": "483294560",
        "RAILROAD": "UP",
        "RRDIV": "TEXOMA",
        "RRSUBDIV": "TOYAH SUB",
        "HIGHWAY": "lS0000",
        "STREET": "WAREHOUSE STREET",
        "TTSTN": "694150",
        "MILEPOST": "0556.380",
        "TYPEXING": "Public",
        "POSXING": "At Grade",
        "PRVCAT": "14",
        "INIT": "2",
        "LATITUDE": 31.9725694,
        "LONGITUD": -102.1188168,
        "LLSOURCE": "1",
        "WHISTBAN": "1",
        "RRCONT": "4025443721",
        "POLCONT": "8008488715",
        "INV_LINK": "https://safetydata.fra.dot.gov/OfficeofSafety/PublicSite/Crossing/Crossing.aspx?phasetype=C&rpttype=I&txtcrossingnum=796329K",
        "ACC_LINK": "https://safetydata.fra.dot.gov/OfficeofSafety/PublicSite/Crossing/Crossing.aspx?phasetype=C&rpttype=A&txtcrossingnum=796329K",
        "TTSTNNAM": "",
        "XPURPOSE": "1",
        "OPERATINGR": "UP",
        "OPERATIN_1": "Primary",
        "DAYTHRU": 11,
        "NGHTTHRU": 10,
        "MAINTRK": 1,
        "SIDINGTRK": 0,
        "YARDTRK": 0,
        "TRANSITTRK": 0,
        "INDUSTRYTR": 0,
        "OTHRTRK": 0,
        "WDCODE": "All other Gates",
        "REVISIONDA": "1975/01/01 00:00:00",
        "LASTUPDATE": "1/8/2026",
        "AADT": "2086",
        "AADTYEAR": "2022",
        "STATENAME": "TEXAS",
        "STATEAB": "TX",
        "COUNTYNAME": "MIDLAND",
        "CITYNAME": "MIDLAND",
        "LATDD": 31.9725694,
        "LONGDD": -102.1188168,
        "gridlyProductionCertified": true,
        "gridlyClassification": "PUBLIC_ROADWAY",
        "gridlyDisplayName": "WAREHOUSE STREET",
        "gridlyId": "FRA-796329K"
      }
    },
    {
      "type": "Feature",
      "id": 216263,
      "geometry": {
        "type": "Point",
        "coordinates": [
          -101.984989899774,
          32.0415274003112
        ]
      },
      "properties": {
        "OBJECTID": 216263,
        "CROSSING": "796348P",
        "EFFDATE": 1775001600000,
        "REASON": "14",
        "StateCode": "48",
        "CountyCode": "48329",
        "STCYFIPS": "48329",
        "CITYCD": "483294560",
        "RAILROAD": "UP",
        "RRDIV": "Texoma",
        "RRSUBDIV": "Toyah Sub",
        "HIGHWAY": "us0080",
        "STREET": "US0080 crossover",
        "TTSTN": "694150",
        "MILEPOST": "0547.240",
        "TYPEXING": "Public",
        "POSXING": "At Grade",
        "PRVCAT": "14",
        "INIT": "1",
        "LATITUDE": 32.0415274,
        "LONGITUD": -101.9849899,
        "LLSOURCE": "1",
        "WHISTBAN": "0",
        "RRCONT": "4025443721",
        "POLCONT": "8008488715",
        "INV_LINK": "https://safetydata.fra.dot.gov/OfficeofSafety/PublicSite/Crossing/Crossing.aspx?phasetype=C&rpttype=I&txtcrossingnum=796348P",
        "ACC_LINK": "https://safetydata.fra.dot.gov/OfficeofSafety/PublicSite/Crossing/Crossing.aspx?phasetype=C&rpttype=A&txtcrossingnum=796348P",
        "TTSTNNAM": "",
        "XPURPOSE": "1",
        "OPERATINGR": "UP",
        "OPERATIN_1": "Primary",
        "DAYTHRU": 11,
        "NGHTTHRU": 10,
        "MAINTRK": 1,
        "SIDINGTRK": 1,
        "YARDTRK": 0,
        "TRANSITTRK": 0,
        "INDUSTRYTR": 0,
        "OTHRTRK": 0,
        "WDCODE": "All other Gates",
        "REVISIONDA": "1975/01/01 00:00:00",
        "LASTUPDATE": "4/1/2026",
        "AADT": "9983",
        "AADTYEAR": "2023",
        "STATENAME": "TEXAS",
        "STATEAB": "TX",
        "COUNTYNAME": "MIDLAND",
        "CITYNAME": "MIDLAND",
        "LATDD": 32.0415274,
        "LONGDD": -101.9849899,
        "gridlyProductionCertified": true,
        "gridlyClassification": "PUBLIC_ROADWAY",
        "gridlyDisplayName": "US0080 crossover",
        "gridlyId": "FRA-796348P"
      }
    }
  ]
}
