{
  "type": "FeatureCollection",
  "features": [
    {
      "type": "Feature",
      "id": 203011,
      "geometry": {
        "type": "Point",
        "coordinates": [
          -101.839744999849,
          34.6910097001348
        ]
      },
      "properties": {
        "OBJECTID": 203011,
        "CROSSING": "017383F",
        "EFFDATE": 1772150400000,
        "REASON": "14",
        "StateCode": "48",
        "CountyCode": "48437",
        "STCYFIPS": "48437",
        "CITYCD": "484373020",
        "RAILROAD": "BNSF",
        "RRDIV": "RED RIVER",
        "RRSUBDIV": "PLAINVIEW",
        "HIGHWAY": "CR000E",
        "STREET": "COUNTY ROAD E",
        "TTSTN": "674423",
        "MILEPOST": "0592.143",
        "TYPEXING": "Public",
        "POSXING": "At Grade",
        "PRVCAT": "14",
        "INIT": "2",
        "LATITUDE": 34.6910097,
        "LONGITUD": -101.839745,
        "LLSOURCE": "1",
        "WHISTBAN": "0",
        "RRCONT": "8173521549",
        "POLCONT": "8008325452",
        "INV_LINK": "https://safetydata.fra.dot.gov/OfficeofSafety/PublicSite/Crossing/Crossing.aspx?phasetype=C&rpttype=I&txtcrossingnum=017383F",
        "ACC_LINK": "https://safetydata.fra.dot.gov/OfficeofSafety/PublicSite/Crossing/Crossing.aspx?phasetype=C&rpttype=A&txtcrossingnum=017383F",
        "TTSTNNAM": "HAPPY",
        "XPURPOSE": "1",
        "OPERATINGR": "BNSF",
        "OPERATIN_1": "Primary",
        "DAYTHRU": 3,
        "NGHTTHRU": 2,
        "MAINTRK": 1,
        "SIDINGTRK": 0,
        "YARDTRK": 0,
        "TRANSITTRK": 0,
        "INDUSTRYTR": 0,
        "OTHRTRK": 0,
        "WDCODE": "All other Gates",
        "REVISIONDA": "1996/01/01 00:00:00",
        "LASTUPDATE": "2/27/2026",
        "AADT": "24",
        "AADTYEAR": "2022",
        "STATENAME": "TEXAS",
        "STATEAB": "TX",
        "COUNTYNAME": "SWISHER",
        "CITYNAME": "HAPPY",
        "LATDD": 34.6910097,
        "LONGDD": -101.839745,
        "gridlyProductionCertified": true,
        "gridlyClassification": "PUBLIC_ROADWAY",
        "gridlyDisplayName": "COUNTY ROAD E",
        "gridlyId": "FRA-017383F"
      }
    },
    {
      "type": "Feature",
      "id": 203012,
      "geometry": {
        "type": "Point",
        "coordinates": [
          -101.85440079991,
          34.743633000004
        ]
      },
      "properties": {
        "OBJECTID": 203012,
        "CROSSING": "017202Y",
        "EFFDATE": 1772150400000,
        "REASON": "14",
        "StateCode": "48",
        "CountyCode": "48437",
        "STCYFIPS": "48437",
        "CITYCD": "484373020",
        "RAILROAD": "BNSF",
        "RRDIV": "RED RIVER",
        "RRSUBDIV": "PLAINVIEW",
        "HIGHWAY": "fm1075",
        "STREET": "fm1075 / MAIN STreet",
        "TTSTN": "674423",
        "MILEPOST": "0588.425",
        "TYPEXING": "Public",
        "POSXING": "At Grade",
        "PRVCAT": "14",
        "INIT": "2",
        "LATITUDE": 34.743633,
        "LONGITUD": -101.8544008,
        "LLSOURCE": "1",
        "WHISTBAN": "0",
        "RRCONT": "8173521549",
        "POLCONT": "8008325452",
        "INV_LINK": "https://safetydata.fra.dot.gov/OfficeofSafety/PublicSite/Crossing/Crossing.aspx?phasetype=C&rpttype=I&txtcrossingnum=017202Y",
        "ACC_LINK": "https://safetydata.fra.dot.gov/OfficeofSafety/PublicSite/Crossing/Crossing.aspx?phasetype=C&rpttype=A&txtcrossingnum=017202Y",
        "TTSTNNAM": "HAPPY",
        "XPURPOSE": "1",
        "OPERATINGR": "BNSF",
        "OPERATIN_1": "Primary",
        "DAYTHRU": 3,
        "NGHTTHRU": 2,
        "MAINTRK": 1,
        "SIDINGTRK": 0,
        "YARDTRK": 0,
        "TRANSITTRK": 0,
        "INDUSTRYTR": 1,
        "OTHRTRK": 1,
        "WDCODE": "All other Gates",
        "REVISIONDA": "1996/01/01 00:00:00",
        "LASTUPDATE": "2/27/2026",
        "AADT": "656",
        "AADTYEAR": "2023",
        "STATENAME": "TEXAS",
        "STATEAB": "TX",
        "COUNTYNAME": "SWISHER",
        "CITYNAME": "HAPPY",
        "LATDD": 34.743633,
        "LONGDD": -101.8544008,
        "gridlyProductionCertified": true,
        "gridlyClassification": "PUBLIC_ROADWAY",
        "gridlyDisplayName": "fm1075 / MAIN STreet",
        "gridlyId": "FRA-017202Y"
      }
    },
    {
      "type": "Feature",
      "id": 203247,
      "geometry": {
        "type": "Point",
        "coordinates": [
          -101.974089999933,
          34.315189999779
        ]
      },
      "properties": {
        "OBJECTID": 203247,
        "CROSSING": "275946P",
        "EFFDATE": 1712534400000,
        "REASON": "20",
        "StateCode": "48",
        "CountyCode": "48437",
        "STCYFIPS": "48437",
        "CITYCD": "480693035",
        "RAILROAD": "LBWR",
        "RRDIV": "PLAINS",
        "RRSUBDIV": "DIMMITT",
        "HIGHWAY": "CO 0000",
        "STREET": "PRIVATE",
        "TTSTN": "674733",
        "MILEPOST": "0342.09",
        "TYPEXING": "Private",
        "POSXING": "At Grade",
        "PRVCAT": "20",
        "INIT": "1",
        "LATITUDE": 34.31519,
        "LONGITUD": -101.97409,
        "LLSOURCE": "2",
        "WHISTBAN": "0",
        "RRCONT": "8068550079",
        "POLCONT": "8663869321",
        "INV_LINK": "https://safetydata.fra.dot.gov/OfficeofSafety/PublicSite/Crossing/Crossing.aspx?phasetype=C&rpttype=I&txtcrossingnum=275946P",
        "ACC_LINK": "https://safetydata.fra.dot.gov/OfficeofSafety/PublicSite/Crossing/Crossing.aspx?phasetype=C&rpttype=A&txtcrossingnum=275946P",
        "TTSTNNAM": "EDMONSON",
        "XPURPOSE": "1",
        "OPERATINGR": "LBWR",
        "OPERATIN_1": "Primary",
        "DAYTHRU": 1,
        "NGHTTHRU": 0,
        "MAINTRK": 1,
        "SIDINGTRK": 0,
        "YARDTRK": 0,
        "TRANSITTRK": 0,
        "INDUSTRYTR": 0,
        "OTHRTRK": 0,
        "WDCODE": "",
        "REVISIONDA": "2015/06/18 00:00:00",
        "LASTUPDATE": "4/8/2024",
        "AADT": "000010",
        "AADTYEAR": "1992",
        "STATENAME": "TEXAS",
        "STATEAB": "TX",
        "COUNTYNAME": "SWISHER",
        "CITYNAME": "HART",
        "LATDD": 34.31519,
        "LONGDD": -101.97409,
        "gridlyProductionCertified": true,
        "gridlyClassification": "PUBLIC_ROADWAY",
        "gridlyDisplayName": "PRIVATE",
        "gridlyId": "FRA-275946P"
      }
    },
    {
      "type": "Feature",
      "id": 203402,
      "geometry": {
        "type": "Point",
        "coordinates": [
          -101.98598999957,
          34.3203799997559
        ]
      },
      "properties": {
        "OBJECTID": 203402,
        "CROSSING": "275944B",
        "EFFDATE": 1712534400000,
        "REASON": "20",
        "StateCode": "48",
        "CountyCode": "48437",
        "STCYFIPS": "48437",
        "CITYCD": "480693035",
        "RAILROAD": "LBWR",
        "RRDIV": "PLAINS",
        "RRSUBDIV": "DIMMITT",
        "HIGHWAY": "ST 0000",
        "STREET": "PRIVATE",
        "TTSTN": "674733",
        "MILEPOST": "0342.85",
        "TYPEXING": "Private",
        "POSXING": "At Grade",
        "PRVCAT": "20",
        "INIT": "1",
        "LATITUDE": 34.32038,
        "LONGITUD": -101.98599,
        "LLSOURCE": "2",
        "WHISTBAN": "0",
        "RRCONT": "8068550079",
        "POLCONT": "8663869321",
        "INV_LINK": "https://safetydata.fra.dot.gov/OfficeofSafety/PublicSite/Crossing/Crossing.aspx?phasetype=C&rpttype=I&txtcrossingnum=275944B",
        "ACC_LINK": "https://safetydata.fra.dot.gov/OfficeofSafety/PublicSite/Crossing/Crossing.aspx?phasetype=C&rpttype=A&txtcrossingnum=275944B",
        "TTSTNNAM": "EDMONSON",
        "XPURPOSE": "1",
        "OPERATINGR": "LBWR",
        "OPERATIN_1": "Primary",
        "DAYTHRU": 1,
        "NGHTTHRU": 0,
        "MAINTRK": 1,
        "SIDINGTRK": 0,
        "YARDTRK": 0,
        "TRANSITTRK": 0,
        "INDUSTRYTR": 0,
        "OTHRTRK": 0,
        "WDCODE": "",
        "REVISIONDA": "2015/06/18 00:00:00",
        "LASTUPDATE": "4/8/2024",
        "AADT": "",
        "AADTYEAR": "1970",
        "STATENAME": "TEXAS",
        "STATEAB": "TX",
        "COUNTYNAME": "SWISHER",
        "CITYNAME": "HART",
        "LATDD": 34.32038,
        "LONGDD": -101.98599,
        "gridlyProductionCertified": true,
        "gridlyClassification": "PUBLIC_ROADWAY",
        "gridlyDisplayName": "PRIVATE",
        "gridlyId": "FRA-275944B"
      }
    },
    {
      "type": "Feature",
      "id": 203409,
      "geometry": {
        "type": "Point",
        "coordinates": [
          -101.991517399988,
          34.3226978999874
        ]
      },
      "properties": {
        "OBJECTID": 203409,
        "CROSSING": "275943U",
        "EFFDATE": 1712534400000,
        "REASON": "20",
        "StateCode": "48",
        "CountyCode": "48437",
        "STCYFIPS": "48437",
        "CITYCD": "480693035",
        "RAILROAD": "LBWR",
        "RRDIV": "PLAINS",
        "RRSUBDIV": "DIMMITT",
        "HIGHWAY": "CO 0001",
        "STREET": "CR 1",
        "TTSTN": "674733",
        "MILEPOST": "0343.20",
        "TYPEXING": "Public",
        "POSXING": "At Grade",
        "PRVCAT": "20",
        "INIT": "1",
        "LATITUDE": 34.3226979,
        "LONGITUD": -101.9915174,
        "LLSOURCE": "2",
        "WHISTBAN": "0",
        "RRCONT": "8068550079",
        "POLCONT": "8663869321",
        "INV_LINK": "https://safetydata.fra.dot.gov/OfficeofSafety/PublicSite/Crossing/Crossing.aspx?phasetype=C&rpttype=I&txtcrossingnum=275943U",
        "ACC_LINK": "https://safetydata.fra.dot.gov/OfficeofSafety/PublicSite/Crossing/Crossing.aspx?phasetype=C&rpttype=A&txtcrossingnum=275943U",
        "TTSTNNAM": "EDMONSON",
        "XPURPOSE": "1",
        "OPERATINGR": "LBWR",
        "OPERATIN_1": "Primary",
        "DAYTHRU": 1,
        "NGHTTHRU": 0,
        "MAINTRK": 1,
        "SIDINGTRK": 0,
        "YARDTRK": 0,
        "TRANSITTRK": 0,
        "INDUSTRYTR": 0,
        "OTHRTRK": 0,
        "WDCODE": "Crossbucks",
        "REVISIONDA": "2015/06/18 00:00:00",
        "LASTUPDATE": "4/8/2024",
        "AADT": "000030",
        "AADTYEAR": "2013",
        "STATENAME": "TEXAS",
        "STATEAB": "TX",
        "COUNTYNAME": "SWISHER",
        "CITYNAME": "HART",
        "LATDD": 34.3226979,
        "LONGDD": -101.9915174,
        "gridlyProductionCertified": true,
        "gridlyClassification": "PUBLIC_ROADWAY",
        "gridlyDisplayName": "CR 1",
        "gridlyId": "FRA-275943U"
      }
    },
    {
      "type": "Feature",
      "id": 203501,
      "geometry": {
        "type": "Point",
        "coordinates": [
          -101.848121499717,
          34.721087799866
        ]
      },
      "properties": {
        "OBJECTID": 203501,
        "CROSSING": "017379R",
        "EFFDATE": 1772150400000,
        "REASON": "14",
        "StateCode": "48",
        "CountyCode": "48437",
        "STCYFIPS": "48437",
        "CITYCD": "484373020",
        "RAILROAD": "BNSF",
        "RRDIV": "RED RIVER",
        "RRSUBDIV": "PLAINVIEW",
        "HIGHWAY": "CR0000",
        "STREET": "ACCESS ROAD",
        "TTSTN": "674423",
        "MILEPOST": "0590.012",
        "TYPEXING": "Public",
        "POSXING": "At Grade",
        "PRVCAT": "14",
        "INIT": "2",
        "LATITUDE": 34.7210878,
        "LONGITUD": -101.8481215,
        "LLSOURCE": "1",
        "WHISTBAN": "0",
        "RRCONT": "8173521549",
        "POLCONT": "8008325452",
        "INV_LINK": "https://safetydata.fra.dot.gov/OfficeofSafety/PublicSite/Crossing/Crossing.aspx?phasetype=C&rpttype=I&txtcrossingnum=017379R",
        "ACC_LINK": "https://safetydata.fra.dot.gov/OfficeofSafety/PublicSite/Crossing/Crossing.aspx?phasetype=C&rpttype=A&txtcrossingnum=017379R",
        "TTSTNNAM": "HAPPY",
        "XPURPOSE": "1",
        "OPERATINGR": "BNSF",
        "OPERATIN_1": "Primary",
        "DAYTHRU": 3,
        "NGHTTHRU": 2,
        "MAINTRK": 1,
        "SIDINGTRK": 0,
        "YARDTRK": 0,
        "TRANSITTRK": 0,
        "INDUSTRYTR": 0,
        "OTHRTRK": 0,
        "WDCODE": "All other Gates",
        "REVISIONDA": "1996/01/01 00:00:00",
        "LASTUPDATE": "2/27/2026",
        "AADT": "88",
        "AADTYEAR": "2024",
        "STATENAME": "TEXAS",
        "STATEAB": "TX",
        "COUNTYNAME": "SWISHER",
        "CITYNAME": "HAPPY",
        "LATDD": 34.7210878,
        "LONGDD": -101.8481215,
        "gridlyProductionCertified": true,
        "gridlyClassification": "PUBLIC_ROADWAY",
        "gridlyDisplayName": "ACCESS ROAD",
        "gridlyId": "FRA-017379R"
      }
    },
    {
      "type": "Feature",
      "id": 203502,
      "geometry": {
        "type": "Point",
        "coordinates": [
          -101.843661299653,
          34.7051011002251
        ]
      },
      "properties": {
        "OBJECTID": 203502,
        "CROSSING": "017206B",
        "EFFDATE": 1772150400000,
        "REASON": "14",
        "StateCode": "48",
        "CountyCode": "48437",
        "STCYFIPS": "48437",
        "CITYCD": "484373020",
        "RAILROAD": "BNSF",
        "RRDIV": "RED RIVER",
        "RRSUBDIV": "PLAINVIEW",
        "HIGHWAY": "CR000D",
        "STREET": "COUNTY ROAD D",
        "TTSTN": "674423",
        "MILEPOST": "0591.150",
        "TYPEXING": "Public",
        "POSXING": "At Grade",
        "PRVCAT": "14",
        "INIT": "2",
        "LATITUDE": 34.7051011,
        "LONGITUD": -101.8436613,
        "LLSOURCE": "1",
        "WHISTBAN": "0",
        "RRCONT": "8173521549",
        "POLCONT": "8008325452",
        "INV_LINK": "https://safetydata.fra.dot.gov/OfficeofSafety/PublicSite/Crossing/Crossing.aspx?phasetype=C&rpttype=I&txtcrossingnum=017206B",
        "ACC_LINK": "https://safetydata.fra.dot.gov/OfficeofSafety/PublicSite/Crossing/Crossing.aspx?phasetype=C&rpttype=A&txtcrossingnum=017206B",
        "TTSTNNAM": "HAPPY",
        "XPURPOSE": "1",
        "OPERATINGR": "BNSF",
        "OPERATIN_1": "Primary",
        "DAYTHRU": 3,
        "NGHTTHRU": 2,
        "MAINTRK": 1,
        "SIDINGTRK": 0,
        "YARDTRK": 0,
        "TRANSITTRK": 0,
        "INDUSTRYTR": 0,
        "OTHRTRK": 0,
        "WDCODE": "Crossbucks",
        "REVISIONDA": "1996/01/01 00:00:00",
        "LASTUPDATE": "2/27/2026",
        "AADT": "3",
        "AADTYEAR": "2022",
        "STATENAME": "TEXAS",
        "STATEAB": "TX",
        "COUNTYNAME": "SWISHER",
        "CITYNAME": "HAPPY",
        "LATDD": 34.7051011,
        "LONGDD": -101.8436613,
        "gridlyProductionCertified": true,
        "gridlyClassification": "PUBLIC_ROADWAY",
        "gridlyDisplayName": "COUNTY ROAD D",
        "gridlyId": "FRA-017206B"
      }
    },
    {
      "type": "Feature",
      "id": 203503,
      "geometry": {
        "type": "Point",
        "coordinates": [
          -101.854978299857,
          34.7462031998742
        ]
      },
      "properties": {
        "OBJECTID": 203503,
        "CROSSING": "017201S",
        "EFFDATE": 1772150400000,
        "REASON": "14",
        "StateCode": "48",
        "CountyCode": "48437",
        "STCYFIPS": "48437",
        "CITYCD": "484373020",
        "RAILROAD": "BNSF",
        "RRDIV": "RED RIVER",
        "RRSUBDIV": "PLAINVIEW",
        "HIGHWAY": "LS0000",
        "STREET": "NORTHEAST THIRD STREET",
        "TTSTN": "674423",
        "MILEPOST": "0588.244",
        "TYPEXING": "Public",
        "POSXING": "At Grade",
        "PRVCAT": "14",
        "INIT": "2",
        "LATITUDE": 34.7462032,
        "LONGITUD": -101.8549783,
        "LLSOURCE": "1",
        "WHISTBAN": "0",
        "RRCONT": "8173521549",
        "POLCONT": "8008325452",
        "INV_LINK": "https://safetydata.fra.dot.gov/OfficeofSafety/PublicSite/Crossing/Crossing.aspx?phasetype=C&rpttype=I&txtcrossingnum=017201S",
        "ACC_LINK": "https://safetydata.fra.dot.gov/OfficeofSafety/PublicSite/Crossing/Crossing.aspx?phasetype=C&rpttype=A&txtcrossingnum=017201S",
        "TTSTNNAM": "HAPPY",
        "XPURPOSE": "1",
        "OPERATINGR": "BNSF",
        "OPERATIN_1": "Primary",
        "DAYTHRU": 3,
        "NGHTTHRU": 2,
        "MAINTRK": 1,
        "SIDINGTRK": 0,
        "YARDTRK": 0,
        "TRANSITTRK": 0,
        "INDUSTRYTR": 1,
        "OTHRTRK": 1,
        "WDCODE": "Crossbucks",
        "REVISIONDA": "1996/01/01 00:00:00",
        "LASTUPDATE": "2/27/2026",
        "AADT": "24",
        "AADTYEAR": "2022",
        "STATENAME": "TEXAS",
        "STATEAB": "TX",
        "COUNTYNAME": "SWISHER",
        "CITYNAME": "HAPPY",
        "LATDD": 34.7462032,
        "LONGDD": -101.8549783,
        "gridlyProductionCertified": true,
        "gridlyClassification": "PUBLIC_ROADWAY",
        "gridlyDisplayName": "NORTHEAST THIRD STREET",
        "gridlyId": "FRA-017201S"
      }
    },
    {
      "type": "Feature",
      "id": 203636,
      "geometry": {
        "type": "Point",
        "coordinates": [
          -101.851225000259,
          34.7322170998459
        ]
      },
      "properties": {
        "OBJECTID": 203636,
        "CROSSING": "017204M",
        "EFFDATE": 1734393600000,
        "REASON": "14",
        "StateCode": "48",
        "CountyCode": "48437",
        "STCYFIPS": "48437",
        "CITYCD": "484373020",
        "RAILROAD": "BNSF",
        "RRDIV": "RED RIVER",
        "RRSUBDIV": "PLAINVIEW",
        "HIGHWAY": "Not Yet Reported by State",
        "STREET": "PRIVATE",
        "TTSTN": "674423",
        "MILEPOST": "0589.230",
        "TYPEXING": "Private",
        "POSXING": "At Grade",
        "PRVCAT": "14",
        "INIT": "1",
        "LATITUDE": 34.7322171,
        "LONGITUD": -101.851225,
        "LLSOURCE": "1",
        "WHISTBAN": "0",
        "RRCONT": "8173521549",
        "POLCONT": "8008325452",
        "INV_LINK": "https://safetydata.fra.dot.gov/OfficeofSafety/PublicSite/Crossing/Crossing.aspx?phasetype=C&rpttype=I&txtcrossingnum=017204M",
        "ACC_LINK": "https://safetydata.fra.dot.gov/OfficeofSafety/PublicSite/Crossing/Crossing.aspx?phasetype=C&rpttype=A&txtcrossingnum=017204M",
        "TTSTNNAM": "HAPPY",
        "XPURPOSE": "1",
        "OPERATINGR": "BNSF",
        "OPERATIN_1": "Primary",
        "DAYTHRU": 3,
        "NGHTTHRU": 2,
        "MAINTRK": 1,
        "SIDINGTRK": 0,
        "YARDTRK": 0,
        "TRANSITTRK": 0,
        "INDUSTRYTR": 0,
        "OTHRTRK": 0,
        "WDCODE": "",
        "REVISIONDA": "1996/01/01 00:00:00",
        "LASTUPDATE": "12/17/2024",
        "AADT": "",
        "AADTYEAR": "1970",
        "STATENAME": "TEXAS",
        "STATEAB": "TX",
        "COUNTYNAME": "SWISHER",
        "CITYNAME": "HAPPY",
        "LATDD": 34.7322171,
        "LONGDD": -101.851225,
        "gridlyProductionCertified": true,
        "gridlyClassification": "PUBLIC_ROADWAY",
        "gridlyDisplayName": "PRIVATE",
        "gridlyId": "FRA-017204M"
      }
    },
    {
      "type": "Feature",
      "id": 203644,
      "geometry": {
        "type": "Point",
        "coordinates": [
          -101.803233000279,
          34.5946959003348
        ]
      },
      "properties": {
        "OBJECTID": 203644,
        "CROSSING": "017214T",
        "EFFDATE": 1734393600000,
        "REASON": "14",
        "StateCode": "48",
        "CountyCode": "48437",
        "STCYFIPS": "48437",
        "CITYCD": "484377040",
        "RAILROAD": "BNSF",
        "RRDIV": "RED RIVER",
        "RRSUBDIV": "PLAINVIEW",
        "HIGHWAY": "Not Yet Reported by State",
        "STREET": "PRIVATE",
        "TTSTN": "674427",
        "MILEPOST": "0599.120",
        "TYPEXING": "Private",
        "POSXING": "At Grade",
        "PRVCAT": "14",
        "INIT": "1",
        "LATITUDE": 34.5946959,
        "LONGITUD": -101.803233,
        "LLSOURCE": "1",
        "WHISTBAN": "0",
        "RRCONT": "8173521549",
        "POLCONT": "8008325452",
        "INV_LINK": "https://safetydata.fra.dot.gov/OfficeofSafety/PublicSite/Crossing/Crossing.aspx?phasetype=C&rpttype=I&txtcrossingnum=017214T",
        "ACC_LINK": "https://safetydata.fra.dot.gov/OfficeofSafety/PublicSite/Crossing/Crossing.aspx?phasetype=C&rpttype=A&txtcrossingnum=017214T",
        "TTSTNNAM": "KAFFIR",
        "XPURPOSE": "1",
        "OPERATINGR": "BNSF",
        "OPERATIN_1": "Primary",
        "DAYTHRU": 3,
        "NGHTTHRU": 2,
        "MAINTRK": 1,
        "SIDINGTRK": 0,
        "YARDTRK": 0,
        "TRANSITTRK": 0,
        "INDUSTRYTR": 0,
        "OTHRTRK": 0,
        "WDCODE": "",
        "REVISIONDA": "1996/01/01 00:00:00",
        "LASTUPDATE": "12/17/2024",
        "AADT": "",
        "AADTYEAR": "1970",
        "STATENAME": "TEXAS",
        "STATEAB": "TX",
        "COUNTYNAME": "SWISHER",
        "CITYNAME": "TULIA",
        "LATDD": 34.5946959,
        "LONGDD": -101.803233,
        "gridlyProductionCertified": true,
        "gridlyClassification": "PUBLIC_ROADWAY",
        "gridlyDisplayName": "PRIVATE",
        "gridlyId": "FRA-017214T"
      }
    },
    {
      "type": "Feature",
      "id": 203646,
      "geometry": {
        "type": "Point",
        "coordinates": [
          -101.776603999563,
          34.5076045999404
        ]
      },
      "properties": {
        "OBJECTID": 203646,
        "CROSSING": "017228B",
        "EFFDATE": 1734393600000,
        "REASON": "14",
        "StateCode": "48",
        "CountyCode": "48437",
        "STCYFIPS": "48437",
        "CITYCD": "484377040",
        "RAILROAD": "BNSF",
        "RRDIV": "RED RIVER",
        "RRSUBDIV": "PLAINVIEW",
        "HIGHWAY": "Not Yet Reported by State",
        "STREET": "PRIVATE",
        "TTSTN": "674450",
        "MILEPOST": "0605.390",
        "TYPEXING": "Private",
        "POSXING": "At Grade",
        "PRVCAT": "14",
        "INIT": "1",
        "LATITUDE": 34.5076046,
        "LONGITUD": -101.776604,
        "LLSOURCE": "1",
        "WHISTBAN": "0",
        "RRCONT": "8173521549",
        "POLCONT": "8008325452",
        "INV_LINK": "https://safetydata.fra.dot.gov/OfficeofSafety/PublicSite/Crossing/Crossing.aspx?phasetype=C&rpttype=I&txtcrossingnum=017228B",
        "ACC_LINK": "https://safetydata.fra.dot.gov/OfficeofSafety/PublicSite/Crossing/Crossing.aspx?phasetype=C&rpttype=A&txtcrossingnum=017228B",
        "TTSTNNAM": "TULIA",
        "XPURPOSE": "1",
        "OPERATINGR": "BNSF",
        "OPERATIN_1": "Primary",
        "DAYTHRU": 3,
        "NGHTTHRU": 2,
        "MAINTRK": 1,
        "SIDINGTRK": 0,
        "YARDTRK": 0,
        "TRANSITTRK": 0,
        "INDUSTRYTR": 0,
        "OTHRTRK": 0,
        "WDCODE": "",
        "REVISIONDA": "1996/01/01 00:00:00",
        "LASTUPDATE": "12/17/2024",
        "AADT": "",
        "AADTYEAR": "1970",
        "STATENAME": "TEXAS",
        "STATEAB": "TX",
        "COUNTYNAME": "SWISHER",
        "CITYNAME": "TULIA",
        "LATDD": 34.5076046,
        "LONGDD": -101.776604,
        "gridlyProductionCertified": true,
        "gridlyClassification": "PUBLIC_ROADWAY",
        "gridlyDisplayName": "PRIVATE",
        "gridlyId": "FRA-017228B"
      }
    },
    {
      "type": "Feature",
      "id": 203650,
      "geometry": {
        "type": "Point",
        "coordinates": [
          -101.744314999906,
          34.3471172998226
        ]
      },
      "properties": {
        "OBJECTID": 203650,
        "CROSSING": "017245S",
        "EFFDATE": 1734393600000,
        "REASON": "14",
        "StateCode": "48",
        "CountyCode": "48437",
        "STCYFIPS": "48437",
        "CITYCD": "484373754",
        "RAILROAD": "BNSF",
        "RRDIV": "RED RIVER",
        "RRSUBDIV": "PLAINVIEW",
        "HIGHWAY": "Not Yet Reported by State",
        "STREET": "PRIVATE",
        "TTSTN": "674487",
        "MILEPOST": "0616.610",
        "TYPEXING": "Private",
        "POSXING": "At Grade",
        "PRVCAT": "14",
        "INIT": "1",
        "LATITUDE": 34.3471173,
        "LONGITUD": -101.744315,
        "LLSOURCE": "1",
        "WHISTBAN": "0",
        "RRCONT": "8173521549",
        "POLCONT": "8008325452",
        "INV_LINK": "https://safetydata.fra.dot.gov/OfficeofSafety/PublicSite/Crossing/Crossing.aspx?phasetype=C&rpttype=I&txtcrossingnum=017245S",
        "ACC_LINK": "https://safetydata.fra.dot.gov/OfficeofSafety/PublicSite/Crossing/Crossing.aspx?phasetype=C&rpttype=A&txtcrossingnum=017245S",
        "TTSTNNAM": "KRESS",
        "XPURPOSE": "1",
        "OPERATINGR": "BNSF",
        "OPERATIN_1": "Primary",
        "DAYTHRU": 3,
        "NGHTTHRU": 2,
        "MAINTRK": 1,
        "SIDINGTRK": 0,
        "YARDTRK": 0,
        "TRANSITTRK": 0,
        "INDUSTRYTR": 0,
        "OTHRTRK": 0,
        "WDCODE": "",
        "REVISIONDA": "1996/01/01 00:00:00",
        "LASTUPDATE": "12/17/2024",
        "AADT": "",
        "AADTYEAR": "1970",
        "STATENAME": "TEXAS",
        "STATEAB": "TX",
        "COUNTYNAME": "SWISHER",
        "CITYNAME": "KRESS",
        "LATDD": 34.3471173,
        "LONGDD": -101.744315,
        "gridlyProductionCertified": true,
        "gridlyClassification": "PUBLIC_ROADWAY",
        "gridlyDisplayName": "PRIVATE",
        "gridlyId": "FRA-017245S"
      }
    },
    {
      "type": "Feature",
      "id": 203752,
      "geometry": {
        "type": "Point",
        "coordinates": [
          -101.737922999773,
          34.3284489002126
        ]
      },
      "properties": {
        "OBJECTID": 203752,
        "CROSSING": "017248M",
        "EFFDATE": 1734393600000,
        "REASON": "14",
        "StateCode": "48",
        "CountyCode": "48437",
        "STCYFIPS": "48437",
        "CITYCD": "484373754",
        "RAILROAD": "BNSF",
        "RRDIV": "RED RIVER",
        "RRSUBDIV": "PLAINVIEW",
        "HIGHWAY": "Not Yet Reported by State",
        "STREET": "PRIVATE",
        "TTSTN": "674487",
        "MILEPOST": "0617.940",
        "TYPEXING": "Private",
        "POSXING": "At Grade",
        "PRVCAT": "14",
        "INIT": "1",
        "LATITUDE": 34.3284489,
        "LONGITUD": -101.737923,
        "LLSOURCE": "1",
        "WHISTBAN": "0",
        "RRCONT": "8173521549",
        "POLCONT": "8008325452",
        "INV_LINK": "https://safetydata.fra.dot.gov/OfficeofSafety/PublicSite/Crossing/Crossing.aspx?phasetype=C&rpttype=I&txtcrossingnum=017248M",
        "ACC_LINK": "https://safetydata.fra.dot.gov/OfficeofSafety/PublicSite/Crossing/Crossing.aspx?phasetype=C&rpttype=A&txtcrossingnum=017248M",
        "TTSTNNAM": "KRESS",
        "XPURPOSE": "1",
        "OPERATINGR": "BNSF",
        "OPERATIN_1": "Primary",
        "DAYTHRU": 3,
        "NGHTTHRU": 2,
        "MAINTRK": 1,
        "SIDINGTRK": 0,
        "YARDTRK": 0,
        "TRANSITTRK": 0,
        "INDUSTRYTR": 0,
        "OTHRTRK": 0,
        "WDCODE": "",
        "REVISIONDA": "1996/01/01 00:00:00",
        "LASTUPDATE": "12/17/2024",
        "AADT": "",
        "AADTYEAR": "1970",
        "STATENAME": "TEXAS",
        "STATEAB": "TX",
        "COUNTYNAME": "SWISHER",
        "CITYNAME": "KRESS",
        "LATDD": 34.3284489,
        "LONGDD": -101.737923,
        "gridlyProductionCertified": true,
        "gridlyClassification": "PUBLIC_ROADWAY",
        "gridlyDisplayName": "PRIVATE",
        "gridlyId": "FRA-017248M"
      }
    },
    {
      "type": "Feature",
      "id": 203769,
      "geometry": {
        "type": "Point",
        "coordinates": [
          -101.745745999984,
          34.3545150003247
        ]
      },
      "properties": {
        "OBJECTID": 203769,
        "CROSSING": "017434N",
        "EFFDATE": 1734393600000,
        "REASON": "14",
        "StateCode": "48",
        "CountyCode": "48189",
        "STCYFIPS": "48189",
        "CITYCD": "481895380",
        "RAILROAD": "BNSF",
        "RRDIV": "RED RIVER",
        "RRSUBDIV": "PLAINVIEW",
        "HIGHWAY": "Not Yet Reported by State",
        "STREET": "CO RD BB",
        "TTSTN": "674720",
        "MILEPOST": "0616.092",
        "TYPEXING": "Private",
        "POSXING": "At Grade",
        "PRVCAT": "14",
        "INIT": "1",
        "LATITUDE": 34.354515,
        "LONGITUD": -101.745746,
        "LLSOURCE": "1",
        "WHISTBAN": "0",
        "RRCONT": "8173521549",
        "POLCONT": "8008325452",
        "INV_LINK": "https://safetydata.fra.dot.gov/OfficeofSafety/PublicSite/Crossing/Crossing.aspx?phasetype=C&rpttype=I&txtcrossingnum=017434N",
        "ACC_LINK": "https://safetydata.fra.dot.gov/OfficeofSafety/PublicSite/Crossing/Crossing.aspx?phasetype=C&rpttype=A&txtcrossingnum=017434N",
        "TTSTNNAM": "PLAINVIEW",
        "XPURPOSE": "1",
        "OPERATINGR": "BNSF",
        "OPERATIN_1": "Primary",
        "DAYTHRU": 3,
        "NGHTTHRU": 2,
        "MAINTRK": 1,
        "SIDINGTRK": 0,
        "YARDTRK": 0,
        "TRANSITTRK": 0,
        "INDUSTRYTR": 1,
        "OTHRTRK": 1,
        "WDCODE": "",
        "REVISIONDA": "1996/01/01 00:00:00",
        "LASTUPDATE": "12/17/2024",
        "AADT": "000200",
        "AADTYEAR": "1993",
        "STATENAME": "TEXAS",
        "STATEAB": "TX",
        "COUNTYNAME": "HALE",
        "CITYNAME": "PLAINVIEW",
        "LATDD": 34.354515,
        "LONGDD": -101.745746,
        "gridlyProductionCertified": true,
        "gridlyClassification": "PUBLIC_ROADWAY",
        "gridlyDisplayName": "CO RD BB",
        "gridlyId": "FRA-017434N"
      }
    },
    {
      "type": "Feature",
      "id": 204991,
      "geometry": {
        "type": "Point",
        "coordinates": [
          -101.778315500385,
          34.5305002001129
        ]
      },
      "properties": {
        "OBJECTID": 204991,
        "CROSSING": "017376V",
        "EFFDATE": 1770336000000,
        "REASON": "14",
        "StateCode": "48",
        "CountyCode": "48437",
        "STCYFIPS": "48437",
        "CITYCD": "484377040",
        "RAILROAD": "BNSF",
        "RRDIV": "RED RIVER",
        "RRSUBDIV": "PLAINVIEW",
        "HIGHWAY": "US0087",
        "STREET": "US0087 MAIN LANES",
        "TTSTN": "674450",
        "MILEPOST": "0603.780",
        "TYPEXING": "Public",
        "POSXING": "RR Over",
        "PRVCAT": "14",
        "INIT": "2",
        "LATITUDE": 34.5305002,
        "LONGITUD": -101.7783155,
        "LLSOURCE": "1",
        "WHISTBAN": "0",
        "RRCONT": "8173521549",
        "POLCONT": "8008325452",
        "INV_LINK": "https://safetydata.fra.dot.gov/OfficeofSafety/PublicSite/Crossing/Crossing.aspx?phasetype=C&rpttype=I&txtcrossingnum=017376V",
        "ACC_LINK": "https://safetydata.fra.dot.gov/OfficeofSafety/PublicSite/Crossing/Crossing.aspx?phasetype=C&rpttype=A&txtcrossingnum=017376V",
        "TTSTNNAM": "TULIA",
        "XPURPOSE": "1",
        "OPERATINGR": "BNSF",
        "OPERATIN_1": "Primary",
        "DAYTHRU": 0,
        "NGHTTHRU": 0,
        "MAINTRK": 0,
        "SIDINGTRK": 0,
        "YARDTRK": 0,
        "TRANSITTRK": 0,
        "INDUSTRYTR": 0,
        "OTHRTRK": 0,
        "WDCODE": "",
        "REVISIONDA": "1996/01/01 00:00:00",
        "LASTUPDATE": "2/6/2026",
        "AADT": "2938",
        "AADTYEAR": "2024",
        "STATENAME": "TEXAS",
        "STATEAB": "TX",
        "COUNTYNAME": "SWISHER",
        "CITYNAME": "TULIA",
        "LATDD": 34.5305002,
        "LONGDD": -101.7783155,
        "gridlyProductionCertified": true,
        "gridlyClassification": "PUBLIC_ROADWAY",
        "gridlyDisplayName": "US0087 MAIN LANES",
        "gridlyId": "FRA-017376V"
      }
    },
    {
      "type": "Feature",
      "id": 206338,
      "geometry": {
        "type": "Point",
        "coordinates": [
          -101.742806900123,
          34.3400088002128
        ]
      },
      "properties": {
        "OBJECTID": 206338,
        "CROSSING": "017246Y",
        "EFFDATE": 1776297600000,
        "REASON": "14",
        "StateCode": "48",
        "CountyCode": "48437",
        "STCYFIPS": "48437",
        "CITYCD": "484373754",
        "RAILROAD": "BNSF",
        "RRDIV": "RED RIVER",
        "RRSUBDIV": "PLAINVIEW",
        "HIGHWAY": "CR0000",
        "STREET": "COUNTY ROAD CC",
        "TTSTN": "674487",
        "MILEPOST": "0617.096",
        "TYPEXING": "Public",
        "POSXING": "At Grade",
        "PRVCAT": "14",
        "INIT": "2",
        "LATITUDE": 34.3400088,
        "LONGITUD": -101.7428069,
        "LLSOURCE": "1",
        "WHISTBAN": "0",
        "RRCONT": "8173521549",
        "POLCONT": "8008325452",
        "INV_LINK": "https://safetydata.fra.dot.gov/OfficeofSafety/PublicSite/Crossing/Crossing.aspx?phasetype=C&rpttype=I&txtcrossingnum=017246Y",
        "ACC_LINK": "https://safetydata.fra.dot.gov/OfficeofSafety/PublicSite/Crossing/Crossing.aspx?phasetype=C&rpttype=A&txtcrossingnum=017246Y",
        "TTSTNNAM": "KRESS",
        "XPURPOSE": "1",
        "OPERATINGR": "BNSF",
        "OPERATIN_1": "Primary",
        "DAYTHRU": 3,
        "NGHTTHRU": 2,
        "MAINTRK": 1,
        "SIDINGTRK": 0,
        "YARDTRK": 0,
        "TRANSITTRK": 0,
        "INDUSTRYTR": 0,
        "OTHRTRK": 0,
        "WDCODE": "Crossbucks",
        "REVISIONDA": "1996/01/01 00:00:00",
        "LASTUPDATE": "4/16/2026",
        "AADT": "000030",
        "AADTYEAR": "2022",
        "STATENAME": "TEXAS",
        "STATEAB": "TX",
        "COUNTYNAME": "SWISHER",
        "CITYNAME": "KRESS",
        "LATDD": 34.3400088,
        "LONGDD": -101.7428069,
        "gridlyProductionCertified": true,
        "gridlyClassification": "PUBLIC_ROADWAY",
        "gridlyDisplayName": "COUNTY ROAD CC",
        "gridlyId": "FRA-017246Y"
      }
    },
    {
      "type": "Feature",
      "id": 206389,
      "geometry": {
        "type": "Point",
        "coordinates": [
          -101.736704199731,
          34.3255600997755
        ]
      },
      "properties": {
        "OBJECTID": 206389,
        "CROSSING": "017249U",
        "EFFDATE": 1776297600000,
        "REASON": "14",
        "StateCode": "48",
        "CountyCode": "48437",
        "STCYFIPS": "48437",
        "CITYCD": "484373754",
        "RAILROAD": "BNSF",
        "RRDIV": "RED RIVER",
        "RRSUBDIV": "PLAINVIEW",
        "HIGHWAY": "CR0277",
        "STREET": "COUNTY ROAD DD",
        "TTSTN": "674487",
        "MILEPOST": "0618.160",
        "TYPEXING": "Public",
        "POSXING": "At Grade",
        "PRVCAT": "14",
        "INIT": "2",
        "LATITUDE": 34.3255601,
        "LONGITUD": -101.7367042,
        "LLSOURCE": "1",
        "WHISTBAN": "0",
        "RRCONT": "8173521549",
        "POLCONT": "8008325452",
        "INV_LINK": "https://safetydata.fra.dot.gov/OfficeofSafety/PublicSite/Crossing/Crossing.aspx?phasetype=C&rpttype=I&txtcrossingnum=017249U",
        "ACC_LINK": "https://safetydata.fra.dot.gov/OfficeofSafety/PublicSite/Crossing/Crossing.aspx?phasetype=C&rpttype=A&txtcrossingnum=017249U",
        "TTSTNNAM": "KRESS",
        "XPURPOSE": "1",
        "OPERATINGR": "BNSF",
        "OPERATIN_1": "Primary",
        "DAYTHRU": 3,
        "NGHTTHRU": 2,
        "MAINTRK": 1,
        "SIDINGTRK": 0,
        "YARDTRK": 0,
        "TRANSITTRK": 0,
        "INDUSTRYTR": 0,
        "OTHRTRK": 0,
        "WDCODE": "Crossbucks",
        "REVISIONDA": "1996/01/01 00:00:00",
        "LASTUPDATE": "4/16/2026",
        "AADT": "30",
        "AADTYEAR": "2022",
        "STATENAME": "TEXAS",
        "STATEAB": "TX",
        "COUNTYNAME": "SWISHER",
        "CITYNAME": "KRESS",
        "LATDD": 34.3255601,
        "LONGDD": -101.7367042,
        "gridlyProductionCertified": true,
        "gridlyClassification": "PUBLIC_ROADWAY",
        "gridlyDisplayName": "COUNTY ROAD DD",
        "gridlyId": "FRA-017249U"
      }
    },
    {
      "type": "Feature",
      "id": 206588,
      "geometry": {
        "type": "Point",
        "coordinates": [
          -101.835689100053,
          34.6765496997781
        ]
      },
      "properties": {
        "OBJECTID": 206588,
        "CROSSING": "017208P",
        "EFFDATE": 1776038400000,
        "REASON": "14",
        "StateCode": "48",
        "CountyCode": "48437",
        "STCYFIPS": "48437",
        "CITYCD": "484373020",
        "RAILROAD": "BNSF",
        "RRDIV": "RED RIVER",
        "RRSUBDIV": "PLAINVIEW",
        "HIGHWAY": "CR0149",
        "STREET": "COUNTRY ROAD 149",
        "TTSTN": "674427",
        "MILEPOST": "0593.170",
        "TYPEXING": "Public",
        "POSXING": "At Grade",
        "PRVCAT": "14",
        "INIT": "2",
        "LATITUDE": 34.6765497,
        "LONGITUD": -101.8356891,
        "LLSOURCE": "1",
        "WHISTBAN": "0",
        "RRCONT": "8173521549",
        "POLCONT": "8008325452",
        "INV_LINK": "https://safetydata.fra.dot.gov/OfficeofSafety/PublicSite/Crossing/Crossing.aspx?phasetype=C&rpttype=I&txtcrossingnum=017208P",
        "ACC_LINK": "https://safetydata.fra.dot.gov/OfficeofSafety/PublicSite/Crossing/Crossing.aspx?phasetype=C&rpttype=A&txtcrossingnum=017208P",
        "TTSTNNAM": "KAFFIR",
        "XPURPOSE": "1",
        "OPERATINGR": "BNSF",
        "OPERATIN_1": "Primary",
        "DAYTHRU": 3,
        "NGHTTHRU": 2,
        "MAINTRK": 1,
        "SIDINGTRK": 0,
        "YARDTRK": 0,
        "TRANSITTRK": 0,
        "INDUSTRYTR": 0,
        "OTHRTRK": 0,
        "WDCODE": "Crossbucks",
        "REVISIONDA": "1996/01/01 00:00:00",
        "LASTUPDATE": "4/13/2026",
        "AADT": "2",
        "AADTYEAR": "2022",
        "STATENAME": "TEXAS",
        "STATEAB": "TX",
        "COUNTYNAME": "SWISHER",
        "CITYNAME": "HAPPY",
        "LATDD": 34.6765497,
        "LONGDD": -101.8356891,
        "gridlyProductionCertified": true,
        "gridlyClassification": "PUBLIC_ROADWAY",
        "gridlyDisplayName": "COUNTRY ROAD 149",
        "gridlyId": "FRA-017208P"
      }
    },
    {
      "type": "Feature",
      "id": 206589,
      "geometry": {
        "type": "Point",
        "coordinates": [
          -101.831418200172,
          34.6612137001183
        ]
      },
      "properties": {
        "OBJECTID": 206589,
        "CROSSING": "017209W",
        "EFFDATE": 1776038400000,
        "REASON": "14",
        "StateCode": "48",
        "CountyCode": "48437",
        "STCYFIPS": "48437",
        "CITYCD": "484373020",
        "RAILROAD": "BNSF",
        "RRDIV": "RED RIVER",
        "RRSUBDIV": "PLAINVIEW",
        "HIGHWAY": "Cr0150",
        "STREET": "county ROAD 150",
        "TTSTN": "674427",
        "MILEPOST": "0594.250",
        "TYPEXING": "Public",
        "POSXING": "At Grade",
        "PRVCAT": "14",
        "INIT": "2",
        "LATITUDE": 34.6612137,
        "LONGITUD": -101.8314182,
        "LLSOURCE": "1",
        "WHISTBAN": "0",
        "RRCONT": "8173521549",
        "POLCONT": "8008325452",
        "INV_LINK": "https://safetydata.fra.dot.gov/OfficeofSafety/PublicSite/Crossing/Crossing.aspx?phasetype=C&rpttype=I&txtcrossingnum=017209W",
        "ACC_LINK": "https://safetydata.fra.dot.gov/OfficeofSafety/PublicSite/Crossing/Crossing.aspx?phasetype=C&rpttype=A&txtcrossingnum=017209W",
        "TTSTNNAM": "KAFFIR",
        "XPURPOSE": "1",
        "OPERATINGR": "BNSF",
        "OPERATIN_1": "Primary",
        "DAYTHRU": 3,
        "NGHTTHRU": 2,
        "MAINTRK": 1,
        "SIDINGTRK": 0,
        "YARDTRK": 0,
        "TRANSITTRK": 0,
        "INDUSTRYTR": 0,
        "OTHRTRK": 0,
        "WDCODE": "Crossbucks",
        "REVISIONDA": "1996/01/01 00:00:00",
        "LASTUPDATE": "4/13/2026",
        "AADT": "1",
        "AADTYEAR": "2022",
        "STATENAME": "TEXAS",
        "STATEAB": "TX",
        "COUNTYNAME": "SWISHER",
        "CITYNAME": "HAPPY",
        "LATDD": 34.6612137,
        "LONGDD": -101.8314182,
        "gridlyProductionCertified": true,
        "gridlyClassification": "PUBLIC_ROADWAY",
        "gridlyDisplayName": "county ROAD 150",
        "gridlyId": "FRA-017209W"
      }
    },
    {
      "type": "Feature",
      "id": 206612,
      "geometry": {
        "type": "Point",
        "coordinates": [
          -101.765618400444,
          34.4562628998965
        ]
      },
      "properties": {
        "OBJECTID": 206612,
        "CROSSING": "017233X",
        "EFFDATE": 1776038400000,
        "REASON": "14",
        "StateCode": "48",
        "CountyCode": "48437",
        "STCYFIPS": "48437",
        "CITYCD": "484373754",
        "RAILROAD": "BNSF",
        "RRDIV": "RED RIVER",
        "RRSUBDIV": "PLAINVIEW",
        "HIGHWAY": "CR0210",
        "STREET": "COUNTY ROAD U",
        "TTSTN": "674450",
        "MILEPOST": "0608.980",
        "TYPEXING": "Public",
        "POSXING": "At Grade",
        "PRVCAT": "14",
        "INIT": "2",
        "LATITUDE": 34.4562629,
        "LONGITUD": -101.7656184,
        "LLSOURCE": "1",
        "WHISTBAN": "0",
        "RRCONT": "8173521549",
        "POLCONT": "8008325452",
        "INV_LINK": "https://safetydata.fra.dot.gov/OfficeofSafety/PublicSite/Crossing/Crossing.aspx?phasetype=C&rpttype=I&txtcrossingnum=017233X",
        "ACC_LINK": "https://safetydata.fra.dot.gov/OfficeofSafety/PublicSite/Crossing/Crossing.aspx?phasetype=C&rpttype=A&txtcrossingnum=017233X",
        "TTSTNNAM": "TULIA",
        "XPURPOSE": "1",
        "OPERATINGR": "BNSF",
        "OPERATIN_1": "Primary",
        "DAYTHRU": 3,
        "NGHTTHRU": 2,
        "MAINTRK": 1,
        "SIDINGTRK": 0,
        "YARDTRK": 0,
        "TRANSITTRK": 0,
        "INDUSTRYTR": 0,
        "OTHRTRK": 0,
        "WDCODE": "Crossbucks",
        "REVISIONDA": "1996/01/01 00:00:00",
        "LASTUPDATE": "4/13/2026",
        "AADT": "12",
        "AADTYEAR": "2022",
        "STATENAME": "TEXAS",
        "STATEAB": "TX",
        "COUNTYNAME": "SWISHER",
        "CITYNAME": "KRESS",
        "LATDD": 34.4562629,
        "LONGDD": -101.7656184,
        "gridlyProductionCertified": true,
        "gridlyClassification": "PUBLIC_ROADWAY",
        "gridlyDisplayName": "COUNTY ROAD U",
        "gridlyId": "FRA-017233X"
      }
    },
    {
      "type": "Feature",
      "id": 206629,
      "geometry": {
        "type": "Point",
        "coordinates": [
          -101.800176399879,
          34.5880084003052
        ]
      },
      "properties": {
        "OBJECTID": 206629,
        "CROSSING": "017215A",
        "EFFDATE": 1776038400000,
        "REASON": "14",
        "StateCode": "48",
        "CountyCode": "48437",
        "STCYFIPS": "48437",
        "CITYCD": "484377040",
        "RAILROAD": "BNSF",
        "RRDIV": "RED RIVER",
        "RRSUBDIV": "PLAINVIEW",
        "HIGHWAY": "CR0153",
        "STREET": "COUNTY ROAD L",
        "TTSTN": "674427",
        "MILEPOST": "0599.600",
        "TYPEXING": "Public",
        "POSXING": "At Grade",
        "PRVCAT": "14",
        "INIT": "2",
        "LATITUDE": 34.5880084,
        "LONGITUD": -101.8001764,
        "LLSOURCE": "1",
        "WHISTBAN": "0",
        "RRCONT": "8173521549",
        "POLCONT": "8008325452",
        "INV_LINK": "https://safetydata.fra.dot.gov/OfficeofSafety/PublicSite/Crossing/Crossing.aspx?phasetype=C&rpttype=I&txtcrossingnum=017215A",
        "ACC_LINK": "https://safetydata.fra.dot.gov/OfficeofSafety/PublicSite/Crossing/Crossing.aspx?phasetype=C&rpttype=A&txtcrossingnum=017215A",
        "TTSTNNAM": "KAFFIR",
        "XPURPOSE": "1",
        "OPERATINGR": "BNSF",
        "OPERATIN_1": "Primary",
        "DAYTHRU": 3,
        "NGHTTHRU": 2,
        "MAINTRK": 1,
        "SIDINGTRK": 0,
        "YARDTRK": 0,
        "TRANSITTRK": 0,
        "INDUSTRYTR": 0,
        "OTHRTRK": 0,
        "WDCODE": "Crossbucks",
        "REVISIONDA": "1996/01/01 00:00:00",
        "LASTUPDATE": "4/13/2026",
        "AADT": "9",
        "AADTYEAR": "2022",
        "STATENAME": "TEXAS",
        "STATEAB": "TX",
        "COUNTYNAME": "SWISHER",
        "CITYNAME": "TULIA",
        "LATDD": 34.5880084,
        "LONGDD": -101.8001764,
        "gridlyProductionCertified": true,
        "gridlyClassification": "PUBLIC_ROADWAY",
        "gridlyDisplayName": "COUNTY ROAD L",
        "gridlyId": "FRA-017215A"
      }
    },
    {
      "type": "Feature",
      "id": 213855,
      "geometry": {
        "type": "Point",
        "coordinates": [
          -101.778270899929,
          34.5308913999802
        ]
      },
      "properties": {
        "OBJECTID": 213855,
        "CROSSING": "017225F",
        "EFFDATE": 1770336000000,
        "REASON": "14",
        "StateCode": "48",
        "CountyCode": "48437",
        "STCYFIPS": "48437",
        "CITYCD": "484377040",
        "RAILROAD": "BNSF",
        "RRDIV": "RED RIVER",
        "RRSUBDIV": "PLAINVIEW",
        "HIGHWAY": "us0087",
        "STREET": "us0087 westbound FRONTAGE / hilcrest road",
        "TTSTN": "674450",
        "MILEPOST": "0603.770",
        "TYPEXING": "Public",
        "POSXING": "RR Over",
        "PRVCAT": "14",
        "INIT": "2",
        "LATITUDE": 34.5308914,
        "LONGITUD": -101.7782709,
        "LLSOURCE": "1",
        "WHISTBAN": "0",
        "RRCONT": "8173521549",
        "POLCONT": "8008325452",
        "INV_LINK": "https://safetydata.fra.dot.gov/OfficeofSafety/PublicSite/Crossing/Crossing.aspx?phasetype=C&rpttype=I&txtcrossingnum=017225F",
        "ACC_LINK": "https://safetydata.fra.dot.gov/OfficeofSafety/PublicSite/Crossing/Crossing.aspx?phasetype=C&rpttype=A&txtcrossingnum=017225F",
        "TTSTNNAM": "TULIA",
        "XPURPOSE": "1",
        "OPERATINGR": "BNSF",
        "OPERATIN_1": "Primary",
        "DAYTHRU": 3,
        "NGHTTHRU": 2,
        "MAINTRK": 1,
        "SIDINGTRK": 0,
        "YARDTRK": 0,
        "TRANSITTRK": 0,
        "INDUSTRYTR": 0,
        "OTHRTRK": 0,
        "WDCODE": "",
        "REVISIONDA": "1996/01/01 00:00:00",
        "LASTUPDATE": "2/6/2026",
        "AADT": "1315",
        "AADTYEAR": "2024",
        "STATENAME": "TEXAS",
        "STATEAB": "TX",
        "COUNTYNAME": "SWISHER",
        "CITYNAME": "TULIA",
        "LATDD": 34.5308914,
        "LONGDD": -101.7782709,
        "gridlyProductionCertified": true,
        "gridlyClassification": "PUBLIC_ROADWAY",
        "gridlyDisplayName": "us0087 westbound FRONTAGE / hilcrest road",
        "gridlyId": "FRA-017225F"
      }
    },
    {
      "type": "Feature",
      "id": 215610,
      "geometry": {
        "type": "Point",
        "coordinates": [
          -101.826790599952,
          34.6465921998819
        ]
      },
      "properties": {
        "OBJECTID": 215610,
        "CROSSING": "017210R",
        "EFFDATE": 1769731200000,
        "REASON": "14",
        "StateCode": "48",
        "CountyCode": "48437",
        "STCYFIPS": "48437",
        "CITYCD": "484373020",
        "RAILROAD": "BNSF",
        "RRDIV": "RED RIVER",
        "RRSUBDIV": "PLAINVIEW",
        "HIGHWAY": "fm2698",
        "STREET": "fm2698",
        "TTSTN": "674427",
        "MILEPOST": "0595.280",
        "TYPEXING": "Public",
        "POSXING": "RR Under",
        "PRVCAT": "14",
        "INIT": "2",
        "LATITUDE": 34.6465922,
        "LONGITUD": -101.8267906,
        "LLSOURCE": "1",
        "WHISTBAN": "0",
        "RRCONT": "8173521549",
        "POLCONT": "8008325452",
        "INV_LINK": "https://safetydata.fra.dot.gov/OfficeofSafety/PublicSite/Crossing/Crossing.aspx?phasetype=C&rpttype=I&txtcrossingnum=017210R",
        "ACC_LINK": "https://safetydata.fra.dot.gov/OfficeofSafety/PublicSite/Crossing/Crossing.aspx?phasetype=C&rpttype=A&txtcrossingnum=017210R",
        "TTSTNNAM": "KAFFIR",
        "XPURPOSE": "1",
        "OPERATINGR": "BNSF",
        "OPERATIN_1": "Primary",
        "DAYTHRU": 3,
        "NGHTTHRU": 2,
        "MAINTRK": 1,
        "SIDINGTRK": 0,
        "YARDTRK": 0,
        "TRANSITTRK": 0,
        "INDUSTRYTR": 0,
        "OTHRTRK": 0,
        "WDCODE": "",
        "REVISIONDA": "1996/01/01 00:00:00",
        "LASTUPDATE": "1/30/2026",
        "AADT": "377",
        "AADTYEAR": "2024",
        "STATENAME": "TEXAS",
        "STATEAB": "TX",
        "COUNTYNAME": "SWISHER",
        "CITYNAME": "HAPPY",
        "LATDD": 34.6465922,
        "LONGDD": -101.8267906,
        "gridlyProductionCertified": true,
        "gridlyClassification": "PUBLIC_ROADWAY",
        "gridlyDisplayName": "fm2698",
        "gridlyId": "FRA-017210R"
      }
    },
    {
      "type": "Feature",
      "id": 215611,
      "geometry": {
        "type": "Point",
        "coordinates": [
          -101.847748399736,
          34.7197376999386
        ]
      },
      "properties": {
        "OBJECTID": 215611,
        "CROSSING": "017205U",
        "EFFDATE": 1769731200000,
        "REASON": "14",
        "StateCode": "48",
        "CountyCode": "48437",
        "STCYFIPS": "48437",
        "CITYCD": "484373020",
        "RAILROAD": "BNSF",
        "RRDIV": "RED RIVER",
        "RRSUBDIV": "PLAINVIEW",
        "HIGHWAY": "FM1881",
        "STREET": "FM1881",
        "TTSTN": "674423",
        "MILEPOST": "0590.110",
        "TYPEXING": "Public",
        "POSXING": "RR Under",
        "PRVCAT": "14",
        "INIT": "2",
        "LATITUDE": 34.7197377,
        "LONGITUD": -101.8477484,
        "LLSOURCE": "1",
        "WHISTBAN": "0",
        "RRCONT": "8173521549",
        "POLCONT": "8008325452",
        "INV_LINK": "https://safetydata.fra.dot.gov/OfficeofSafety/PublicSite/Crossing/Crossing.aspx?phasetype=C&rpttype=I&txtcrossingnum=017205U",
        "ACC_LINK": "https://safetydata.fra.dot.gov/OfficeofSafety/PublicSite/Crossing/Crossing.aspx?phasetype=C&rpttype=A&txtcrossingnum=017205U",
        "TTSTNNAM": "HAPPY",
        "XPURPOSE": "1",
        "OPERATINGR": "BNSF",
        "OPERATIN_1": "Primary",
        "DAYTHRU": 3,
        "NGHTTHRU": 2,
        "MAINTRK": 1,
        "SIDINGTRK": 0,
        "YARDTRK": 0,
        "TRANSITTRK": 0,
        "INDUSTRYTR": 0,
        "OTHRTRK": 0,
        "WDCODE": "",
        "REVISIONDA": "1996/01/01 00:00:00",
        "LASTUPDATE": "1/30/2026",
        "AADT": "88",
        "AADTYEAR": "2024",
        "STATENAME": "TEXAS",
        "STATEAB": "TX",
        "COUNTYNAME": "SWISHER",
        "CITYNAME": "HAPPY",
        "LATDD": 34.7197377,
        "LONGDD": -101.8477484,
        "gridlyProductionCertified": true,
        "gridlyClassification": "PUBLIC_ROADWAY",
        "gridlyDisplayName": "FM1881",
        "gridlyId": "FRA-017205U"
      }
    },
    {
      "type": "Feature",
      "id": 215612,
      "geometry": {
        "type": "Point",
        "coordinates": [
          -101.839586999665,
          34.6904785001618
        ]
      },
      "properties": {
        "OBJECTID": 215612,
        "CROSSING": "017207H",
        "EFFDATE": 1769731200000,
        "REASON": "14",
        "StateCode": "48",
        "CountyCode": "48437",
        "STCYFIPS": "48437",
        "CITYCD": "484373020",
        "RAILROAD": "BNSF",
        "RRDIV": "RED RIVER",
        "RRSUBDIV": "PLAINVIEW",
        "HIGHWAY": "CR0113",
        "STREET": "COUNTY ROAD E",
        "TTSTN": "674423",
        "MILEPOST": "0592.180",
        "TYPEXING": "Public",
        "POSXING": "RR Under",
        "PRVCAT": "14",
        "INIT": "2",
        "LATITUDE": 34.6904785,
        "LONGITUD": -101.839587,
        "LLSOURCE": "1",
        "WHISTBAN": "0",
        "RRCONT": "8173521549",
        "POLCONT": "8008325452",
        "INV_LINK": "https://safetydata.fra.dot.gov/OfficeofSafety/PublicSite/Crossing/Crossing.aspx?phasetype=C&rpttype=I&txtcrossingnum=017207H",
        "ACC_LINK": "https://safetydata.fra.dot.gov/OfficeofSafety/PublicSite/Crossing/Crossing.aspx?phasetype=C&rpttype=A&txtcrossingnum=017207H",
        "TTSTNNAM": "HAPPY",
        "XPURPOSE": "1",
        "OPERATINGR": "BNSF",
        "OPERATIN_1": "Primary",
        "DAYTHRU": 3,
        "NGHTTHRU": 2,
        "MAINTRK": 1,
        "SIDINGTRK": 0,
        "YARDTRK": 0,
        "TRANSITTRK": 0,
        "INDUSTRYTR": 0,
        "OTHRTRK": 0,
        "WDCODE": "",
        "REVISIONDA": "1996/01/01 00:00:00",
        "LASTUPDATE": "1/30/2026",
        "AADT": "253",
        "AADTYEAR": "2024",
        "STATENAME": "TEXAS",
        "STATEAB": "TX",
        "COUNTYNAME": "SWISHER",
        "CITYNAME": "HAPPY",
        "LATDD": 34.6904785,
        "LONGDD": -101.839587,
        "gridlyProductionCertified": true,
        "gridlyClassification": "PUBLIC_ROADWAY",
        "gridlyDisplayName": "COUNTY ROAD E",
        "gridlyId": "FRA-017207H"
      }
    },
    {
      "type": "Feature",
      "id": 215613,
      "geometry": {
        "type": "Point",
        "coordinates": [
          -101.820079599977,
          34.6317467002069
        ]
      },
      "properties": {
        "OBJECTID": 215613,
        "CROSSING": "017211X",
        "EFFDATE": 1769731200000,
        "REASON": "14",
        "StateCode": "48",
        "CountyCode": "48437",
        "STCYFIPS": "48437",
        "CITYCD": "484377040",
        "RAILROAD": "BNSF",
        "RRDIV": "RED RIVER",
        "RRSUBDIV": "PLAINVIEW",
        "HIGHWAY": "fm0214",
        "STREET": "fm0214",
        "TTSTN": "674427",
        "MILEPOST": "0596.383",
        "TYPEXING": "Public",
        "POSXING": "RR Under",
        "PRVCAT": "14",
        "INIT": "2",
        "LATITUDE": 34.6317467,
        "LONGITUD": -101.8200796,
        "LLSOURCE": "1",
        "WHISTBAN": "0",
        "RRCONT": "8173521549",
        "POLCONT": "8008325452",
        "INV_LINK": "https://safetydata.fra.dot.gov/OfficeofSafety/PublicSite/Crossing/Crossing.aspx?phasetype=C&rpttype=I&txtcrossingnum=017211X",
        "ACC_LINK": "https://safetydata.fra.dot.gov/OfficeofSafety/PublicSite/Crossing/Crossing.aspx?phasetype=C&rpttype=A&txtcrossingnum=017211X",
        "TTSTNNAM": "KAFFIR",
        "XPURPOSE": "1",
        "OPERATINGR": "BNSF",
        "OPERATIN_1": "Primary",
        "DAYTHRU": 3,
        "NGHTTHRU": 2,
        "MAINTRK": 1,
        "SIDINGTRK": 0,
        "YARDTRK": 0,
        "TRANSITTRK": 0,
        "INDUSTRYTR": 0,
        "OTHRTRK": 0,
        "WDCODE": "",
        "REVISIONDA": "1996/01/01 00:00:00",
        "LASTUPDATE": "1/30/2026",
        "AADT": "368",
        "AADTYEAR": "2024",
        "STATENAME": "TEXAS",
        "STATEAB": "TX",
        "COUNTYNAME": "SWISHER",
        "CITYNAME": "TULIA",
        "LATDD": 34.6317467,
        "LONGDD": -101.8200796,
        "gridlyProductionCertified": true,
        "gridlyClassification": "PUBLIC_ROADWAY",
        "gridlyDisplayName": "fm0214",
        "gridlyId": "FRA-017211X"
      }
    },
    {
      "type": "Feature",
      "id": 215614,
      "geometry": {
        "type": "Point",
        "coordinates": [
          -101.793995200207,
          34.5743243999705
        ]
      },
      "properties": {
        "OBJECTID": 215614,
        "CROSSING": "017216G",
        "EFFDATE": 1769731200000,
        "REASON": "14",
        "StateCode": "48",
        "CountyCode": "48437",
        "STCYFIPS": "48437",
        "CITYCD": "484377040",
        "RAILROAD": "BNSF",
        "RRDIV": "RED RIVER",
        "RRSUBDIV": "PLAINVIEW",
        "HIGHWAY": "ih0027",
        "STREET": "ih0027",
        "TTSTN": "674450",
        "MILEPOST": "0600.600",
        "TYPEXING": "Public",
        "POSXING": "RR Under",
        "PRVCAT": "14",
        "INIT": "2",
        "LATITUDE": 34.5743244,
        "LONGITUD": -101.7939952,
        "LLSOURCE": "1",
        "WHISTBAN": "0",
        "RRCONT": "8173521549",
        "POLCONT": "8008325452",
        "INV_LINK": "https://safetydata.fra.dot.gov/OfficeofSafety/PublicSite/Crossing/Crossing.aspx?phasetype=C&rpttype=I&txtcrossingnum=017216G",
        "ACC_LINK": "https://safetydata.fra.dot.gov/OfficeofSafety/PublicSite/Crossing/Crossing.aspx?phasetype=C&rpttype=A&txtcrossingnum=017216G",
        "TTSTNNAM": "TULIA",
        "XPURPOSE": "1",
        "OPERATINGR": "BNSF",
        "OPERATIN_1": "Primary",
        "DAYTHRU": 3,
        "NGHTTHRU": 2,
        "MAINTRK": 1,
        "SIDINGTRK": 0,
        "YARDTRK": 0,
        "TRANSITTRK": 0,
        "INDUSTRYTR": 0,
        "OTHRTRK": 0,
        "WDCODE": "",
        "REVISIONDA": "1996/01/01 00:00:00",
        "LASTUPDATE": "1/30/2026",
        "AADT": "9902",
        "AADTYEAR": "2024",
        "STATENAME": "TEXAS",
        "STATEAB": "TX",
        "COUNTYNAME": "SWISHER",
        "CITYNAME": "TULIA",
        "LATDD": 34.5743244,
        "LONGDD": -101.7939952,
        "gridlyProductionCertified": true,
        "gridlyClassification": "PUBLIC_ROADWAY",
        "gridlyDisplayName": "ih0027",
        "gridlyId": "FRA-017216G"
      }
    },
    {
      "type": "Feature",
      "id": 216353,
      "geometry": {
        "type": "Point",
        "coordinates": [
          -101.751310400213,
          34.3835501003106
        ]
      },
      "properties": {
        "OBJECTID": 216353,
        "CROSSING": "017238G",
        "EFFDATE": 1776211200000,
        "REASON": "14",
        "StateCode": "48",
        "CountyCode": "48437",
        "STCYFIPS": "48437",
        "CITYCD": "484373754",
        "RAILROAD": "BNSF",
        "RRDIV": "RED RIVER",
        "RRSUBDIV": "PLAINVIEW",
        "HIGHWAY": "CR0231",
        "STREET": "COUNTY ROAD Z",
        "TTSTN": "674487",
        "MILEPOST": "0614.060",
        "TYPEXING": "Public",
        "POSXING": "At Grade",
        "PRVCAT": "14",
        "INIT": "2",
        "LATITUDE": 34.3835501,
        "LONGITUD": -101.7513104,
        "LLSOURCE": "1",
        "WHISTBAN": "0",
        "RRCONT": "8173521549",
        "POLCONT": "8008325452",
        "INV_LINK": "https://safetydata.fra.dot.gov/OfficeofSafety/PublicSite/Crossing/Crossing.aspx?phasetype=C&rpttype=I&txtcrossingnum=017238G",
        "ACC_LINK": "https://safetydata.fra.dot.gov/OfficeofSafety/PublicSite/Crossing/Crossing.aspx?phasetype=C&rpttype=A&txtcrossingnum=017238G",
        "TTSTNNAM": "KRESS",
        "XPURPOSE": "1",
        "OPERATINGR": "BNSF",
        "OPERATIN_1": "Primary",
        "DAYTHRU": 3,
        "NGHTTHRU": 2,
        "MAINTRK": 1,
        "SIDINGTRK": 0,
        "YARDTRK": 0,
        "TRANSITTRK": 0,
        "INDUSTRYTR": 0,
        "OTHRTRK": 0,
        "WDCODE": "Crossbucks",
        "REVISIONDA": "1996/01/01 00:00:00",
        "LASTUPDATE": "4/15/2026",
        "AADT": "79",
        "AADTYEAR": "2019",
        "STATENAME": "TEXAS",
        "STATEAB": "TX",
        "COUNTYNAME": "SWISHER",
        "CITYNAME": "KRESS",
        "LATDD": 34.3835501,
        "LONGDD": -101.7513104,
        "gridlyProductionCertified": true,
        "gridlyClassification": "PUBLIC_ROADWAY",
        "gridlyDisplayName": "COUNTY ROAD Z",
        "gridlyId": "FRA-017238G"
      }
    },
    {
      "type": "Feature",
      "id": 216424,
      "geometry": {
        "type": "Point",
        "coordinates": [
          -101.768746900202,
          34.4709671001955
        ]
      },
      "properties": {
        "OBJECTID": 216424,
        "CROSSING": "017231J",
        "EFFDATE": 1776038400000,
        "REASON": "14",
        "StateCode": "48",
        "CountyCode": "48437",
        "STCYFIPS": "48437",
        "CITYCD": "484377040",
        "RAILROAD": "BNSF",
        "RRDIV": "RED RIVER",
        "RRSUBDIV": "PLAINVIEW",
        "HIGHWAY": "CR0197",
        "STREET": "COUNTY ROAD T",
        "TTSTN": "674450",
        "MILEPOST": "0607.960",
        "TYPEXING": "Public",
        "POSXING": "At Grade",
        "PRVCAT": "14",
        "INIT": "2",
        "LATITUDE": 34.4709671,
        "LONGITUD": -101.7687469,
        "LLSOURCE": "1",
        "WHISTBAN": "0",
        "RRCONT": "8173521549",
        "POLCONT": "8008325452",
        "INV_LINK": "https://safetydata.fra.dot.gov/OfficeofSafety/PublicSite/Crossing/Crossing.aspx?phasetype=C&rpttype=I&txtcrossingnum=017231J",
        "ACC_LINK": "https://safetydata.fra.dot.gov/OfficeofSafety/PublicSite/Crossing/Crossing.aspx?phasetype=C&rpttype=A&txtcrossingnum=017231J",
        "TTSTNNAM": "TULIA",
        "XPURPOSE": "1",
        "OPERATINGR": "BNSF",
        "OPERATIN_1": "Primary",
        "DAYTHRU": 3,
        "NGHTTHRU": 2,
        "MAINTRK": 1,
        "SIDINGTRK": 0,
        "YARDTRK": 0,
        "TRANSITTRK": 0,
        "INDUSTRYTR": 0,
        "OTHRTRK": 0,
        "WDCODE": "Crossbucks",
        "REVISIONDA": "1996/01/01 00:00:00",
        "LASTUPDATE": "4/13/2026",
        "AADT": "38",
        "AADTYEAR": "2022",
        "STATENAME": "TEXAS",
        "STATEAB": "TX",
        "COUNTYNAME": "SWISHER",
        "CITYNAME": "TULIA",
        "LATDD": 34.4709671,
        "LONGDD": -101.7687469,
        "gridlyProductionCertified": true,
        "gridlyClassification": "PUBLIC_ROADWAY",
        "gridlyDisplayName": "COUNTY ROAD T",
        "gridlyId": "FRA-017231J"
      }
    },
    {
      "type": "Feature",
      "id": 216425,
      "geometry": {
        "type": "Point",
        "coordinates": [
          -101.777932700395,
          34.5360403996766
        ]
      },
      "properties": {
        "OBJECTID": 216425,
        "CROSSING": "017224Y",
        "EFFDATE": 1776038400000,
        "REASON": "14",
        "StateCode": "48",
        "CountyCode": "48437",
        "STCYFIPS": "48437",
        "CITYCD": "484377040",
        "RAILROAD": "BNSF",
        "RRDIV": "RED RIVER",
        "RRSUBDIV": "PLAINVIEW",
        "HIGHWAY": "LS0000",
        "STREET": "SOUTHWEST SECOND STREET",
        "TTSTN": "674450",
        "MILEPOST": "0603.412",
        "TYPEXING": "Public",
        "POSXING": "At Grade",
        "PRVCAT": "14",
        "INIT": "2",
        "LATITUDE": 34.5360404,
        "LONGITUD": -101.7779327,
        "LLSOURCE": "1",
        "WHISTBAN": "0",
        "RRCONT": "8173521549",
        "POLCONT": "8008325452",
        "INV_LINK": "https://safetydata.fra.dot.gov/OfficeofSafety/PublicSite/Crossing/Crossing.aspx?phasetype=C&rpttype=I&txtcrossingnum=017224Y",
        "ACC_LINK": "https://safetydata.fra.dot.gov/OfficeofSafety/PublicSite/Crossing/Crossing.aspx?phasetype=C&rpttype=A&txtcrossingnum=017224Y",
        "TTSTNNAM": "TULIA",
        "XPURPOSE": "1",
        "OPERATINGR": "BNSF",
        "OPERATIN_1": "Primary",
        "DAYTHRU": 3,
        "NGHTTHRU": 2,
        "MAINTRK": 1,
        "SIDINGTRK": 0,
        "YARDTRK": 0,
        "TRANSITTRK": 0,
        "INDUSTRYTR": 2,
        "OTHRTRK": 2,
        "WDCODE": "All other Gates",
        "REVISIONDA": "1996/01/01 00:00:00",
        "LASTUPDATE": "4/13/2026",
        "AADT": "138",
        "AADTYEAR": "2022",
        "STATENAME": "TEXAS",
        "STATEAB": "TX",
        "COUNTYNAME": "SWISHER",
        "CITYNAME": "TULIA",
        "LATDD": 34.5360404,
        "LONGDD": -101.7779327,
        "gridlyProductionCertified": true,
        "gridlyClassification": "PUBLIC_ROADWAY",
        "gridlyDisplayName": "SOUTHWEST SECOND STREET",
        "gridlyId": "FRA-017224Y"
      }
    },
    {
      "type": "Feature",
      "id": 216426,
      "geometry": {
        "type": "Point",
        "coordinates": [
          -101.827031500264,
          34.6471422003414
        ]
      },
      "properties": {
        "OBJECTID": 216426,
        "CROSSING": "017384M",
        "EFFDATE": 1776038400000,
        "REASON": "14",
        "StateCode": "48",
        "CountyCode": "48437",
        "STCYFIPS": "48437",
        "CITYCD": "484377040",
        "RAILROAD": "BNSF",
        "RRDIV": "RED RIVER",
        "RRSUBDIV": "PLAINVIEW",
        "HIGHWAY": "ih0027",
        "STREET": "ih0027 connrector to fm2698",
        "TTSTN": "674427",
        "MILEPOST": "0595.255",
        "TYPEXING": "Public",
        "POSXING": "At Grade",
        "PRVCAT": "14",
        "INIT": "2",
        "LATITUDE": 34.6471422,
        "LONGITUD": -101.8270315,
        "LLSOURCE": "1",
        "WHISTBAN": "0",
        "RRCONT": "8173521549",
        "POLCONT": "8008325452",
        "INV_LINK": "https://safetydata.fra.dot.gov/OfficeofSafety/PublicSite/Crossing/Crossing.aspx?phasetype=C&rpttype=I&txtcrossingnum=017384M",
        "ACC_LINK": "https://safetydata.fra.dot.gov/OfficeofSafety/PublicSite/Crossing/Crossing.aspx?phasetype=C&rpttype=A&txtcrossingnum=017384M",
        "TTSTNNAM": "KAFFIR",
        "XPURPOSE": "1",
        "OPERATINGR": "BNSF",
        "OPERATIN_1": "Primary",
        "DAYTHRU": 3,
        "NGHTTHRU": 2,
        "MAINTRK": 1,
        "SIDINGTRK": 0,
        "YARDTRK": 0,
        "TRANSITTRK": 0,
        "INDUSTRYTR": 0,
        "OTHRTRK": 0,
        "WDCODE": "All other Gates",
        "REVISIONDA": "1996/01/01 00:00:00",
        "LASTUPDATE": "4/13/2026",
        "AADT": "377",
        "AADTYEAR": "2024",
        "STATENAME": "TEXAS",
        "STATEAB": "TX",
        "COUNTYNAME": "SWISHER",
        "CITYNAME": "TULIA",
        "LATDD": 34.6471422,
        "LONGDD": -101.8270315,
        "gridlyProductionCertified": true,
        "gridlyClassification": "PUBLIC_ROADWAY",
        "gridlyDisplayName": "ih0027 connrector to fm2698",
        "gridlyId": "FRA-017384M"
      }
    },
    {
      "type": "Feature",
      "id": 216427,
      "geometry": {
        "type": "Point",
        "coordinates": [
          -101.780302599845,
          34.5440211998937
        ]
      },
      "properties": {
        "OBJECTID": 216427,
        "CROSSING": "017220W",
        "EFFDATE": 1776038400000,
        "REASON": "14",
        "StateCode": "48",
        "CountyCode": "48437",
        "STCYFIPS": "48437",
        "CITYCD": "484377040",
        "RAILROAD": "BNSF",
        "RRDIV": "RED RIVER",
        "RRSUBDIV": "PLAINVIEW",
        "HIGHWAY": "LS0000",
        "STREET": "NORTHWEST SIXTH STREET",
        "TTSTN": "674450",
        "MILEPOST": "0602.841",
        "TYPEXING": "Public",
        "POSXING": "At Grade",
        "PRVCAT": "14",
        "INIT": "2",
        "LATITUDE": 34.5440212,
        "LONGITUD": -101.7803026,
        "LLSOURCE": "1",
        "WHISTBAN": "0",
        "RRCONT": "8173521549",
        "POLCONT": "8008325452",
        "INV_LINK": "https://safetydata.fra.dot.gov/OfficeofSafety/PublicSite/Crossing/Crossing.aspx?phasetype=C&rpttype=I&txtcrossingnum=017220W",
        "ACC_LINK": "https://safetydata.fra.dot.gov/OfficeofSafety/PublicSite/Crossing/Crossing.aspx?phasetype=C&rpttype=A&txtcrossingnum=017220W",
        "TTSTNNAM": "TULIA",
        "XPURPOSE": "1",
        "OPERATINGR": "BNSF",
        "OPERATIN_1": "Primary",
        "DAYTHRU": 3,
        "NGHTTHRU": 2,
        "MAINTRK": 1,
        "SIDINGTRK": 0,
        "YARDTRK": 1,
        "TRANSITTRK": 0,
        "INDUSTRYTR": 1,
        "OTHRTRK": 2,
        "WDCODE": "All other Gates",
        "REVISIONDA": "1996/01/01 00:00:00",
        "LASTUPDATE": "4/13/2026",
        "AADT": "305",
        "AADTYEAR": "2022",
        "STATENAME": "TEXAS",
        "STATEAB": "TX",
        "COUNTYNAME": "SWISHER",
        "CITYNAME": "TULIA",
        "LATDD": 34.5440212,
        "LONGDD": -101.7803026,
        "gridlyProductionCertified": true,
        "gridlyClassification": "PUBLIC_ROADWAY",
        "gridlyDisplayName": "NORTHWEST SIXTH STREET",
        "gridlyId": "FRA-017220W"
      }
    },
    {
      "type": "Feature",
      "id": 216428,
      "geometry": {
        "type": "Point",
        "coordinates": [
          -101.820284900054,
          34.6322662996455
        ]
      },
      "properties": {
        "OBJECTID": 216428,
        "CROSSING": "017385U",
        "EFFDATE": 1776038400000,
        "REASON": "14",
        "StateCode": "48",
        "CountyCode": "48437",
        "STCYFIPS": "48437",
        "CITYCD": "484377040",
        "RAILROAD": "BNSF",
        "RRDIV": "RED RIVER",
        "RRSUBDIV": "PLAINVIEW",
        "HIGHWAY": "IH0027",
        "STREET": "IH0027 CONNECTOR TO FM0214",
        "TTSTN": "674427",
        "MILEPOST": "0596.347",
        "TYPEXING": "Public",
        "POSXING": "At Grade",
        "PRVCAT": "14",
        "INIT": "2",
        "LATITUDE": 34.6322663,
        "LONGITUD": -101.8202849,
        "LLSOURCE": "1",
        "WHISTBAN": "0",
        "RRCONT": "8173521549",
        "POLCONT": "8008325452",
        "INV_LINK": "https://safetydata.fra.dot.gov/OfficeofSafety/PublicSite/Crossing/Crossing.aspx?phasetype=C&rpttype=I&txtcrossingnum=017385U",
        "ACC_LINK": "https://safetydata.fra.dot.gov/OfficeofSafety/PublicSite/Crossing/Crossing.aspx?phasetype=C&rpttype=A&txtcrossingnum=017385U",
        "TTSTNNAM": "KAFFIR",
        "XPURPOSE": "1",
        "OPERATINGR": "BNSF",
        "OPERATIN_1": "Primary",
        "DAYTHRU": 3,
        "NGHTTHRU": 2,
        "MAINTRK": 1,
        "SIDINGTRK": 1,
        "YARDTRK": 0,
        "TRANSITTRK": 0,
        "INDUSTRYTR": 0,
        "OTHRTRK": 2,
        "WDCODE": "All other Gates",
        "REVISIONDA": "1996/01/01 00:00:00",
        "LASTUPDATE": "4/13/2026",
        "AADT": "368",
        "AADTYEAR": "2024",
        "STATENAME": "TEXAS",
        "STATEAB": "TX",
        "COUNTYNAME": "SWISHER",
        "CITYNAME": "TULIA",
        "LATDD": 34.6322663,
        "LONGDD": -101.8202849,
        "gridlyProductionCertified": true,
        "gridlyClassification": "PUBLIC_ROADWAY",
        "gridlyDisplayName": "IH0027 CONNECTOR TO FM0214",
        "gridlyId": "FRA-017385U"
      }
    },
    {
      "type": "Feature",
      "id": 216429,
      "geometry": {
        "type": "Point",
        "coordinates": [
          -101.786914900123,
          34.5586601997829
        ]
      },
      "properties": {
        "OBJECTID": 216429,
        "CROSSING": "017219C",
        "EFFDATE": 1776038400000,
        "REASON": "14",
        "StateCode": "48",
        "CountyCode": "48437",
        "STCYFIPS": "48437",
        "CITYCD": "484377040",
        "RAILROAD": "BNSF",
        "RRDIV": "RED RIVER",
        "RRSUBDIV": "PLAINVIEW",
        "HIGHWAY": "CR0163",
        "STREET": "COUNTY ROAD N",
        "TTSTN": "674450",
        "MILEPOST": "0601.770",
        "TYPEXING": "Public",
        "POSXING": "At Grade",
        "PRVCAT": "14",
        "INIT": "2",
        "LATITUDE": 34.5586602,
        "LONGITUD": -101.7869149,
        "LLSOURCE": "1",
        "WHISTBAN": "0",
        "RRCONT": "8173521549",
        "POLCONT": "8008325452",
        "INV_LINK": "https://safetydata.fra.dot.gov/OfficeofSafety/PublicSite/Crossing/Crossing.aspx?phasetype=C&rpttype=I&txtcrossingnum=017219C",
        "ACC_LINK": "https://safetydata.fra.dot.gov/OfficeofSafety/PublicSite/Crossing/Crossing.aspx?phasetype=C&rpttype=A&txtcrossingnum=017219C",
        "TTSTNNAM": "TULIA",
        "XPURPOSE": "1",
        "OPERATINGR": "BNSF",
        "OPERATIN_1": "Primary",
        "DAYTHRU": 3,
        "NGHTTHRU": 2,
        "MAINTRK": 1,
        "SIDINGTRK": 0,
        "YARDTRK": 0,
        "TRANSITTRK": 0,
        "INDUSTRYTR": 0,
        "OTHRTRK": 0,
        "WDCODE": "Highway signals, bells",
        "REVISIONDA": "1996/01/01 00:00:00",
        "LASTUPDATE": "4/13/2026",
        "AADT": "16",
        "AADTYEAR": "2022",
        "STATENAME": "TEXAS",
        "STATEAB": "TX",
        "COUNTYNAME": "SWISHER",
        "CITYNAME": "TULIA",
        "LATDD": 34.5586602,
        "LONGDD": -101.7869149,
        "gridlyProductionCertified": true,
        "gridlyClassification": "PUBLIC_ROADWAY",
        "gridlyDisplayName": "COUNTY ROAD N",
        "gridlyId": "FRA-017219C"
      }
    },
    {
      "type": "Feature",
      "id": 216430,
      "geometry": {
        "type": "Point",
        "coordinates": [
          -101.77813949976,
          34.5146921001046
        ]
      },
      "properties": {
        "OBJECTID": 216430,
        "CROSSING": "017227U",
        "EFFDATE": 1776038400000,
        "REASON": "14",
        "StateCode": "48",
        "CountyCode": "48437",
        "STCYFIPS": "48437",
        "CITYCD": "484377040",
        "RAILROAD": "BNSF",
        "RRDIV": "RED RIVER",
        "RRSUBDIV": "PLAINVIEW",
        "HIGHWAY": "CR0537",
        "STREET": "COUNTY ROAD Q",
        "TTSTN": "674450",
        "MILEPOST": "0604.900",
        "TYPEXING": "Public",
        "POSXING": "At Grade",
        "PRVCAT": "14",
        "INIT": "2",
        "LATITUDE": 34.5146921,
        "LONGITUD": -101.7781395,
        "LLSOURCE": "1",
        "WHISTBAN": "0",
        "RRCONT": "8173521549",
        "POLCONT": "8008325452",
        "INV_LINK": "https://safetydata.fra.dot.gov/OfficeofSafety/PublicSite/Crossing/Crossing.aspx?phasetype=C&rpttype=I&txtcrossingnum=017227U",
        "ACC_LINK": "https://safetydata.fra.dot.gov/OfficeofSafety/PublicSite/Crossing/Crossing.aspx?phasetype=C&rpttype=A&txtcrossingnum=017227U",
        "TTSTNNAM": "TULIA",
        "XPURPOSE": "1",
        "OPERATINGR": "BNSF",
        "OPERATIN_1": "Primary",
        "DAYTHRU": 3,
        "NGHTTHRU": 2,
        "MAINTRK": 1,
        "SIDINGTRK": 0,
        "YARDTRK": 0,
        "TRANSITTRK": 0,
        "INDUSTRYTR": 0,
        "OTHRTRK": 0,
        "WDCODE": "Crossbucks",
        "REVISIONDA": "1996/01/01 00:00:00",
        "LASTUPDATE": "4/13/2026",
        "AADT": "13",
        "AADTYEAR": "2022",
        "STATENAME": "TEXAS",
        "STATEAB": "TX",
        "COUNTYNAME": "SWISHER",
        "CITYNAME": "TULIA",
        "LATDD": 34.5146921,
        "LONGDD": -101.7781395,
        "gridlyProductionCertified": true,
        "gridlyClassification": "PUBLIC_ROADWAY",
        "gridlyDisplayName": "COUNTY ROAD Q",
        "gridlyId": "FRA-017227U"
      }
    },
    {
      "type": "Feature",
      "id": 216431,
      "geometry": {
        "type": "Point",
        "coordinates": [
          -101.79301740019,
          34.572144399642
        ]
      },
      "properties": {
        "OBJECTID": 216431,
        "CROSSING": "017382Y",
        "EFFDATE": 1776038400000,
        "REASON": "14",
        "StateCode": "48",
        "CountyCode": "48437",
        "STCYFIPS": "48437",
        "CITYCD": "484377040",
        "RAILROAD": "BNSF",
        "RRDIV": "RED RIVER",
        "RRSUBDIV": "PLAINVIEW",
        "HIGHWAY": "IH0027",
        "STREET": "IH0027 SOUTHBOUND FRONTAGE",
        "TTSTN": "674450",
        "MILEPOST": "0600.775",
        "TYPEXING": "Public",
        "POSXING": "At Grade",
        "PRVCAT": "14",
        "INIT": "2",
        "LATITUDE": 34.5721444,
        "LONGITUD": -101.7930174,
        "LLSOURCE": "1",
        "WHISTBAN": "0",
        "RRCONT": "8173521549",
        "POLCONT": "8008325452",
        "INV_LINK": "https://safetydata.fra.dot.gov/OfficeofSafety/PublicSite/Crossing/Crossing.aspx?phasetype=C&rpttype=I&txtcrossingnum=017382Y",
        "ACC_LINK": "https://safetydata.fra.dot.gov/OfficeofSafety/PublicSite/Crossing/Crossing.aspx?phasetype=C&rpttype=A&txtcrossingnum=017382Y",
        "TTSTNNAM": "TULIA",
        "XPURPOSE": "1",
        "OPERATINGR": "BNSF",
        "OPERATIN_1": "Primary",
        "DAYTHRU": 3,
        "NGHTTHRU": 2,
        "MAINTRK": 1,
        "SIDINGTRK": 0,
        "YARDTRK": 0,
        "TRANSITTRK": 0,
        "INDUSTRYTR": 0,
        "OTHRTRK": 0,
        "WDCODE": "All other Gates",
        "REVISIONDA": "1996/01/01 00:00:00",
        "LASTUPDATE": "4/13/2026",
        "AADT": "76",
        "AADTYEAR": "2022",
        "STATENAME": "TEXAS",
        "STATEAB": "TX",
        "COUNTYNAME": "SWISHER",
        "CITYNAME": "TULIA",
        "LATDD": 34.5721444,
        "LONGDD": -101.7930174,
        "gridlyProductionCertified": true,
        "gridlyClassification": "PUBLIC_ROADWAY",
        "gridlyDisplayName": "IH0027 SOUTHBOUND FRONTAGE",
        "gridlyId": "FRA-017382Y"
      }
    },
    {
      "type": "Feature",
      "id": 216432,
      "geometry": {
        "type": "Point",
        "coordinates": [
          -101.813317800272,
          34.617318100148
        ]
      },
      "properties": {
        "OBJECTID": 216432,
        "CROSSING": "017212E",
        "EFFDATE": 1776038400000,
        "REASON": "14",
        "StateCode": "48",
        "CountyCode": "48437",
        "STCYFIPS": "48437",
        "CITYCD": "484377040",
        "RAILROAD": "BNSF",
        "RRDIV": "RED RIVER",
        "RRSUBDIV": "PLAINVIEW",
        "HIGHWAY": "CR0011",
        "STREET": "COUNTY ROAD 11",
        "TTSTN": "674427",
        "MILEPOST": "0597.450",
        "TYPEXING": "Public",
        "POSXING": "At Grade",
        "PRVCAT": "14",
        "INIT": "2",
        "LATITUDE": 34.6173181,
        "LONGITUD": -101.8133178,
        "LLSOURCE": "1",
        "WHISTBAN": "0",
        "RRCONT": "8173521549",
        "POLCONT": "8008325452",
        "INV_LINK": "https://safetydata.fra.dot.gov/OfficeofSafety/PublicSite/Crossing/Crossing.aspx?phasetype=C&rpttype=I&txtcrossingnum=017212E",
        "ACC_LINK": "https://safetydata.fra.dot.gov/OfficeofSafety/PublicSite/Crossing/Crossing.aspx?phasetype=C&rpttype=A&txtcrossingnum=017212E",
        "TTSTNNAM": "KAFFIR",
        "XPURPOSE": "1",
        "OPERATINGR": "BNSF",
        "OPERATIN_1": "Primary",
        "DAYTHRU": 3,
        "NGHTTHRU": 2,
        "MAINTRK": 1,
        "SIDINGTRK": 0,
        "YARDTRK": 0,
        "TRANSITTRK": 0,
        "INDUSTRYTR": 0,
        "OTHRTRK": 0,
        "WDCODE": "Crossbucks",
        "REVISIONDA": "1996/01/01 00:00:00",
        "LASTUPDATE": "4/13/2026",
        "AADT": "13",
        "AADTYEAR": "2022",
        "STATENAME": "TEXAS",
        "STATEAB": "TX",
        "COUNTYNAME": "SWISHER",
        "CITYNAME": "TULIA",
        "LATDD": 34.6173181,
        "LONGDD": -101.8133178,
        "gridlyProductionCertified": true,
        "gridlyClassification": "PUBLIC_ROADWAY",
        "gridlyDisplayName": "COUNTY ROAD 11",
        "gridlyId": "FRA-017212E"
      }
    },
    {
      "type": "Feature",
      "id": 216433,
      "geometry": {
        "type": "Point",
        "coordinates": [
          -101.778434200173,
          34.5293212003335
        ]
      },
      "properties": {
        "OBJECTID": 216433,
        "CROSSING": "017226M",
        "EFFDATE": 1776038400000,
        "REASON": "14",
        "StateCode": "48",
        "CountyCode": "48437",
        "STCYFIPS": "48437",
        "CITYCD": "484377040",
        "RAILROAD": "BNSF",
        "RRDIV": "RED RIVER",
        "RRSUBDIV": "PLAINVIEW",
        "HIGHWAY": "LS0000",
        "STREET": "SOUTHWEST SEVENTH STREET",
        "TTSTN": "674450",
        "MILEPOST": "0603.883",
        "TYPEXING": "Public",
        "POSXING": "At Grade",
        "PRVCAT": "14",
        "INIT": "2",
        "LATITUDE": 34.5293212,
        "LONGITUD": -101.7784342,
        "LLSOURCE": "1",
        "WHISTBAN": "0",
        "RRCONT": "8173521549",
        "POLCONT": "8008325452",
        "INV_LINK": "https://safetydata.fra.dot.gov/OfficeofSafety/PublicSite/Crossing/Crossing.aspx?phasetype=C&rpttype=I&txtcrossingnum=017226M",
        "ACC_LINK": "https://safetydata.fra.dot.gov/OfficeofSafety/PublicSite/Crossing/Crossing.aspx?phasetype=C&rpttype=A&txtcrossingnum=017226M",
        "TTSTNNAM": "TULIA",
        "XPURPOSE": "1",
        "OPERATINGR": "BNSF",
        "OPERATIN_1": "Primary",
        "DAYTHRU": 3,
        "NGHTTHRU": 2,
        "MAINTRK": 1,
        "SIDINGTRK": 0,
        "YARDTRK": 0,
        "TRANSITTRK": 0,
        "INDUSTRYTR": 0,
        "OTHRTRK": 0,
        "WDCODE": "All other Gates",
        "REVISIONDA": "1996/01/01 00:00:00",
        "LASTUPDATE": "4/13/2026",
        "AADT": "163",
        "AADTYEAR": "2022",
        "STATENAME": "TEXAS",
        "STATEAB": "TX",
        "COUNTYNAME": "SWISHER",
        "CITYNAME": "TULIA",
        "LATDD": 34.5293212,
        "LONGDD": -101.7784342,
        "gridlyProductionCertified": true,
        "gridlyClassification": "PUBLIC_ROADWAY",
        "gridlyDisplayName": "SOUTHWEST SEVENTH STREET",
        "gridlyId": "FRA-017226M"
      }
    },
    {
      "type": "Feature",
      "id": 216434,
      "geometry": {
        "type": "Point",
        "coordinates": [
          -101.806852099658,
          34.6026242001799
        ]
      },
      "properties": {
        "OBJECTID": 216434,
        "CROSSING": "017213L",
        "EFFDATE": 1776038400000,
        "REASON": "14",
        "StateCode": "48",
        "CountyCode": "48437",
        "STCYFIPS": "48437",
        "CITYCD": "484377040",
        "RAILROAD": "BNSF",
        "RRDIV": "RED RIVER",
        "RRSUBDIV": "PLAINVIEW",
        "HIGHWAY": "Cr0143",
        "STREET": "COUNTY ROAD K",
        "TTSTN": "674427",
        "MILEPOST": "0598.510",
        "TYPEXING": "Public",
        "POSXING": "At Grade",
        "PRVCAT": "14",
        "INIT": "2",
        "LATITUDE": 34.6026242,
        "LONGITUD": -101.8068521,
        "LLSOURCE": "1",
        "WHISTBAN": "0",
        "RRCONT": "8173521549",
        "POLCONT": "8008325452",
        "INV_LINK": "https://safetydata.fra.dot.gov/OfficeofSafety/PublicSite/Crossing/Crossing.aspx?phasetype=C&rpttype=I&txtcrossingnum=017213L",
        "ACC_LINK": "https://safetydata.fra.dot.gov/OfficeofSafety/PublicSite/Crossing/Crossing.aspx?phasetype=C&rpttype=A&txtcrossingnum=017213L",
        "TTSTNNAM": "KAFFIR",
        "XPURPOSE": "1",
        "OPERATINGR": "BNSF",
        "OPERATIN_1": "Primary",
        "DAYTHRU": 3,
        "NGHTTHRU": 2,
        "MAINTRK": 1,
        "SIDINGTRK": 0,
        "YARDTRK": 0,
        "TRANSITTRK": 0,
        "INDUSTRYTR": 0,
        "OTHRTRK": 0,
        "WDCODE": "Crossbucks",
        "REVISIONDA": "1996/01/01 00:00:00",
        "LASTUPDATE": "4/13/2026",
        "AADT": "13",
        "AADTYEAR": "2022",
        "STATENAME": "TEXAS",
        "STATEAB": "TX",
        "COUNTYNAME": "SWISHER",
        "CITYNAME": "TULIA",
        "LATDD": 34.6026242,
        "LONGDD": -101.8068521,
        "gridlyProductionCertified": true,
        "gridlyClassification": "PUBLIC_ROADWAY",
        "gridlyDisplayName": "COUNTY ROAD K",
        "gridlyId": "FRA-017213L"
      }
    },
    {
      "type": "Feature",
      "id": 216435,
      "geometry": {
        "type": "Point",
        "coordinates": [
          -101.771859799816,
          34.4855152002245
        ]
      },
      "properties": {
        "OBJECTID": 216435,
        "CROSSING": "017230C",
        "EFFDATE": 1776038400000,
        "REASON": "14",
        "StateCode": "48",
        "CountyCode": "48437",
        "STCYFIPS": "48437",
        "CITYCD": "484377040",
        "RAILROAD": "BNSF",
        "RRDIV": "RED RIVER",
        "RRSUBDIV": "PLAINVIEW",
        "HIGHWAY": "CR0538",
        "STREET": "COUNTY ROAD S",
        "TTSTN": "674450",
        "MILEPOST": "0606.940",
        "TYPEXING": "Public",
        "POSXING": "At Grade",
        "PRVCAT": "14",
        "INIT": "2",
        "LATITUDE": 34.4855152,
        "LONGITUD": -101.7718598,
        "LLSOURCE": "1",
        "WHISTBAN": "0",
        "RRCONT": "8173521549",
        "POLCONT": "8008325452",
        "INV_LINK": "https://safetydata.fra.dot.gov/OfficeofSafety/PublicSite/Crossing/Crossing.aspx?phasetype=C&rpttype=I&txtcrossingnum=017230C",
        "ACC_LINK": "https://safetydata.fra.dot.gov/OfficeofSafety/PublicSite/Crossing/Crossing.aspx?phasetype=C&rpttype=A&txtcrossingnum=017230C",
        "TTSTNNAM": "TULIA",
        "XPURPOSE": "1",
        "OPERATINGR": "BNSF",
        "OPERATIN_1": "Primary",
        "DAYTHRU": 3,
        "NGHTTHRU": 2,
        "MAINTRK": 1,
        "SIDINGTRK": 0,
        "YARDTRK": 0,
        "TRANSITTRK": 0,
        "INDUSTRYTR": 0,
        "OTHRTRK": 0,
        "WDCODE": "Crossbucks",
        "REVISIONDA": "1996/01/01 00:00:00",
        "LASTUPDATE": "4/13/2026",
        "AADT": "33",
        "AADTYEAR": "2022",
        "STATENAME": "TEXAS",
        "STATEAB": "TX",
        "COUNTYNAME": "SWISHER",
        "CITYNAME": "TULIA",
        "LATDD": 34.4855152,
        "LONGDD": -101.7718598,
        "gridlyProductionCertified": true,
        "gridlyClassification": "PUBLIC_ROADWAY",
        "gridlyDisplayName": "COUNTY ROAD S",
        "gridlyId": "FRA-017230C"
      }
    },
    {
      "type": "Feature",
      "id": 216460,
      "geometry": {
        "type": "Point",
        "coordinates": [
          -101.747506999775,
          34.3637991999578
        ]
      },
      "properties": {
        "OBJECTID": 216460,
        "CROSSING": "017242W",
        "EFFDATE": 1776211200000,
        "REASON": "14",
        "StateCode": "48",
        "CountyCode": "48437",
        "STCYFIPS": "48437",
        "CITYCD": "484373754",
        "RAILROAD": "BNSF",
        "RRDIV": "RED RIVER",
        "RRSUBDIV": "PLAINVIEW",
        "HIGHWAY": "SL0292",
        "STREET": "SL0292 / EAST FIFTH STREET",
        "TTSTN": "674487",
        "MILEPOST": "0615.440",
        "TYPEXING": "Public",
        "POSXING": "At Grade",
        "PRVCAT": "14",
        "INIT": "2",
        "LATITUDE": 34.3637992,
        "LONGITUD": -101.747507,
        "LLSOURCE": "1",
        "WHISTBAN": "0",
        "RRCONT": "8173521549",
        "POLCONT": "8008325452",
        "INV_LINK": "https://safetydata.fra.dot.gov/OfficeofSafety/PublicSite/Crossing/Crossing.aspx?phasetype=C&rpttype=I&txtcrossingnum=017242W",
        "ACC_LINK": "https://safetydata.fra.dot.gov/OfficeofSafety/PublicSite/Crossing/Crossing.aspx?phasetype=C&rpttype=A&txtcrossingnum=017242W",
        "TTSTNNAM": "KRESS",
        "XPURPOSE": "1",
        "OPERATINGR": "BNSF",
        "OPERATIN_1": "Primary",
        "DAYTHRU": 3,
        "NGHTTHRU": 2,
        "MAINTRK": 1,
        "SIDINGTRK": 0,
        "YARDTRK": 0,
        "TRANSITTRK": 0,
        "INDUSTRYTR": 0,
        "OTHRTRK": 0,
        "WDCODE": "All other Gates",
        "REVISIONDA": "1996/01/01 00:00:00",
        "LASTUPDATE": "4/15/2026",
        "AADT": "351",
        "AADTYEAR": "2023",
        "STATENAME": "TEXAS",
        "STATEAB": "TX",
        "COUNTYNAME": "SWISHER",
        "CITYNAME": "KRESS",
        "LATDD": 34.3637992,
        "LONGDD": -101.747507,
        "gridlyProductionCertified": true,
        "gridlyClassification": "PUBLIC_ROADWAY",
        "gridlyDisplayName": "SL0292 / EAST FIFTH STREET",
        "gridlyId": "FRA-017242W"
      }
    },
    {
      "type": "Feature",
      "id": 216461,
      "geometry": {
        "type": "Point",
        "coordinates": [
          -101.748481399669,
          34.369137799728
        ]
      },
      "properties": {
        "OBJECTID": 216461,
        "CROSSING": "017239N",
        "EFFDATE": 1776211200000,
        "REASON": "14",
        "StateCode": "48",
        "CountyCode": "48437",
        "STCYFIPS": "48437",
        "CITYCD": "484373754",
        "RAILROAD": "BNSF",
        "RRDIV": "RED RIVER",
        "RRSUBDIV": "PLAINVIEW",
        "HIGHWAY": "FM0145",
        "STREET": "FM0145",
        "TTSTN": "674487",
        "MILEPOST": "0615.095",
        "TYPEXING": "Public",
        "POSXING": "At Grade",
        "PRVCAT": "14",
        "INIT": "2",
        "LATITUDE": 34.3691378,
        "LONGITUD": -101.7484814,
        "LLSOURCE": "1",
        "WHISTBAN": "0",
        "RRCONT": "8173521549",
        "POLCONT": "8008325452",
        "INV_LINK": "https://safetydata.fra.dot.gov/OfficeofSafety/PublicSite/Crossing/Crossing.aspx?phasetype=C&rpttype=I&txtcrossingnum=017239N",
        "ACC_LINK": "https://safetydata.fra.dot.gov/OfficeofSafety/PublicSite/Crossing/Crossing.aspx?phasetype=C&rpttype=A&txtcrossingnum=017239N",
        "TTSTNNAM": "KRESS",
        "XPURPOSE": "1",
        "OPERATINGR": "BNSF",
        "OPERATIN_1": "Primary",
        "DAYTHRU": 3,
        "NGHTTHRU": 2,
        "MAINTRK": 1,
        "SIDINGTRK": 0,
        "YARDTRK": 0,
        "TRANSITTRK": 0,
        "INDUSTRYTR": 2,
        "OTHRTRK": 2,
        "WDCODE": "All other Gates",
        "REVISIONDA": "1996/01/01 00:00:00",
        "LASTUPDATE": "4/15/2026",
        "AADT": "752",
        "AADTYEAR": "2024",
        "STATENAME": "TEXAS",
        "STATEAB": "TX",
        "COUNTYNAME": "SWISHER",
        "CITYNAME": "KRESS",
        "LATDD": 34.3691378,
        "LONGDD": -101.7484814,
        "gridlyProductionCertified": true,
        "gridlyClassification": "PUBLIC_ROADWAY",
        "gridlyDisplayName": "FM0145",
        "gridlyId": "FRA-017239N"
      }
    },
    {
      "type": "Feature",
      "id": 216462,
      "geometry": {
        "type": "Point",
        "coordinates": [
          -101.762489100287,
          34.4417739998501
        ]
      },
      "properties": {
        "OBJECTID": 216462,
        "CROSSING": "017234E",
        "EFFDATE": 1776211200000,
        "REASON": "14",
        "StateCode": "48",
        "CountyCode": "48437",
        "STCYFIPS": "48437",
        "CITYCD": "484373754",
        "RAILROAD": "BNSF",
        "RRDIV": "RED RIVER",
        "RRSUBDIV": "PLAINVIEW",
        "HIGHWAY": "FM0928",
        "STREET": "FM0928",
        "TTSTN": "674450",
        "MILEPOST": "0609.990",
        "TYPEXING": "Public",
        "POSXING": "At Grade",
        "PRVCAT": "14",
        "INIT": "2",
        "LATITUDE": 34.441774,
        "LONGITUD": -101.7624891,
        "LLSOURCE": "1",
        "WHISTBAN": "0",
        "RRCONT": "8173521549",
        "POLCONT": "8008325452",
        "INV_LINK": "https://safetydata.fra.dot.gov/OfficeofSafety/PublicSite/Crossing/Crossing.aspx?phasetype=C&rpttype=I&txtcrossingnum=017234E",
        "ACC_LINK": "https://safetydata.fra.dot.gov/OfficeofSafety/PublicSite/Crossing/Crossing.aspx?phasetype=C&rpttype=A&txtcrossingnum=017234E",
        "TTSTNNAM": "TULIA",
        "XPURPOSE": "1",
        "OPERATINGR": "BNSF",
        "OPERATIN_1": "Primary",
        "DAYTHRU": 3,
        "NGHTTHRU": 2,
        "MAINTRK": 1,
        "SIDINGTRK": 0,
        "YARDTRK": 0,
        "TRANSITTRK": 0,
        "INDUSTRYTR": 1,
        "OTHRTRK": 1,
        "WDCODE": "All other Gates",
        "REVISIONDA": "1996/01/01 00:00:00",
        "LASTUPDATE": "4/15/2026",
        "AADT": "241",
        "AADTYEAR": "2023",
        "STATENAME": "TEXAS",
        "STATEAB": "TX",
        "COUNTYNAME": "SWISHER",
        "CITYNAME": "KRESS",
        "LATDD": 34.441774,
        "LONGDD": -101.7624891,
        "gridlyProductionCertified": true,
        "gridlyClassification": "PUBLIC_ROADWAY",
        "gridlyDisplayName": "FM0928",
        "gridlyId": "FRA-017234E"
      }
    },
    {
      "type": "Feature",
      "id": 216463,
      "geometry": {
        "type": "Point",
        "coordinates": [
          -101.745734199715,
          34.3545107998187
        ]
      },
      "properties": {
        "OBJECTID": 216463,
        "CROSSING": "017244K",
        "EFFDATE": 1776211200000,
        "REASON": "14",
        "StateCode": "48",
        "CountyCode": "48437",
        "STCYFIPS": "48437",
        "CITYCD": "484373754",
        "RAILROAD": "BNSF",
        "RRDIV": "RED RIVER",
        "RRSUBDIV": "PLAINVIEW",
        "HIGHWAY": "Cr0533",
        "STREET": "COUNTY ROAD BB",
        "TTSTN": "674487",
        "MILEPOST": "0616.090",
        "TYPEXING": "Public",
        "POSXING": "At Grade",
        "PRVCAT": "14",
        "INIT": "2",
        "LATITUDE": 34.3545108,
        "LONGITUD": -101.7457342,
        "LLSOURCE": "1",
        "WHISTBAN": "0",
        "RRCONT": "8173521549",
        "POLCONT": "8008325452",
        "INV_LINK": "https://safetydata.fra.dot.gov/OfficeofSafety/PublicSite/Crossing/Crossing.aspx?phasetype=C&rpttype=I&txtcrossingnum=017244K",
        "ACC_LINK": "https://safetydata.fra.dot.gov/OfficeofSafety/PublicSite/Crossing/Crossing.aspx?phasetype=C&rpttype=A&txtcrossingnum=017244K",
        "TTSTNNAM": "KRESS",
        "XPURPOSE": "1",
        "OPERATINGR": "BNSF",
        "OPERATIN_1": "Primary",
        "DAYTHRU": 3,
        "NGHTTHRU": 2,
        "MAINTRK": 1,
        "SIDINGTRK": 0,
        "YARDTRK": 0,
        "TRANSITTRK": 0,
        "INDUSTRYTR": 1,
        "OTHRTRK": 1,
        "WDCODE": "Crossbucks",
        "REVISIONDA": "1996/01/01 00:00:00",
        "LASTUPDATE": "4/15/2026",
        "AADT": "10",
        "AADTYEAR": "2022",
        "STATENAME": "TEXAS",
        "STATEAB": "TX",
        "COUNTYNAME": "SWISHER",
        "CITYNAME": "KRESS",
        "LATDD": 34.3545108,
        "LONGDD": -101.7457342,
        "gridlyProductionCertified": true,
        "gridlyClassification": "PUBLIC_ROADWAY",
        "gridlyDisplayName": "COUNTY ROAD BB",
        "gridlyId": "FRA-017244K"
      }
    },
    {
      "type": "Feature",
      "id": 216464,
      "geometry": {
        "type": "Point",
        "coordinates": [
          -101.759695600265,
          34.4272833002454
        ]
      },
      "properties": {
        "OBJECTID": 216464,
        "CROSSING": "017235L",
        "EFFDATE": 1776211200000,
        "REASON": "14",
        "StateCode": "48",
        "CountyCode": "48437",
        "STCYFIPS": "48437",
        "CITYCD": "484373754",
        "RAILROAD": "BNSF",
        "RRDIV": "RED RIVER",
        "RRSUBDIV": "PLAINVIEW",
        "HIGHWAY": "CR0202",
        "STREET": "COUNTY ROAD 14A",
        "TTSTN": "674487",
        "MILEPOST": "0611.010",
        "TYPEXING": "Public",
        "POSXING": "At Grade",
        "PRVCAT": "14",
        "INIT": "2",
        "LATITUDE": 34.4272833,
        "LONGITUD": -101.7596956,
        "LLSOURCE": "1",
        "WHISTBAN": "0",
        "RRCONT": "8173521549",
        "POLCONT": "8008325452",
        "INV_LINK": "https://safetydata.fra.dot.gov/OfficeofSafety/PublicSite/Crossing/Crossing.aspx?phasetype=C&rpttype=I&txtcrossingnum=017235L",
        "ACC_LINK": "https://safetydata.fra.dot.gov/OfficeofSafety/PublicSite/Crossing/Crossing.aspx?phasetype=C&rpttype=A&txtcrossingnum=017235L",
        "TTSTNNAM": "KRESS",
        "XPURPOSE": "1",
        "OPERATINGR": "BNSF",
        "OPERATIN_1": "Primary",
        "DAYTHRU": 3,
        "NGHTTHRU": 2,
        "MAINTRK": 1,
        "SIDINGTRK": 0,
        "YARDTRK": 0,
        "TRANSITTRK": 0,
        "INDUSTRYTR": 0,
        "OTHRTRK": 0,
        "WDCODE": "Crossbucks",
        "REVISIONDA": "1996/01/01 00:00:00",
        "LASTUPDATE": "4/15/2026",
        "AADT": "183",
        "AADTYEAR": "2024",
        "STATENAME": "TEXAS",
        "STATEAB": "TX",
        "COUNTYNAME": "SWISHER",
        "CITYNAME": "KRESS",
        "LATDD": 34.4272833,
        "LONGDD": -101.7596956,
        "gridlyProductionCertified": true,
        "gridlyClassification": "PUBLIC_ROADWAY",
        "gridlyDisplayName": "COUNTY ROAD 14A",
        "gridlyId": "FRA-017235L"
      }
    }
  ]
}
