{
  "type": "FeatureCollection",
  "features": [
    {
      "type": "Feature",
      "id": 202153,
      "geometry": {
        "type": "Point",
        "coordinates": [
          -98.3000329998025,
          30.4317069997348
        ]
      },
      "properties": {
        "OBJECTID": 202153,
        "CROSSING": "930581S",
        "EFFDATE": 1690243200000,
        "REASON": "24",
        "StateCode": "48",
        "CountyCode": "48299",
        "STCYFIPS": "48299",
        "CITYCD": "482994030",
        "RAILROAD": "CMTY",
        "RRDIV": "cmta",
        "RRSUBDIV": "west",
        "HIGHWAY": "PRIVATE",
        "STREET": "granite water road",
        "TTSTN": "",
        "MILEPOST": "0140.29",
        "TYPEXING": "Private",
        "POSXING": "At Grade",
        "PRVCAT": "24",
        "INIT": "1",
        "LATITUDE": 30.431707,
        "LONGITUD": -98.300033,
        "LLSOURCE": "2",
        "WHISTBAN": "",
        "RRCONT": "5123444000",
        "POLCONT": "8445928046",
        "INV_LINK": "https://safetydata.fra.dot.gov/OfficeofSafety/PublicSite/Crossing/Crossing.aspx?phasetype=C&rpttype=I&txtcrossingnum=930581S",
        "ACC_LINK": "https://safetydata.fra.dot.gov/OfficeofSafety/PublicSite/Crossing/Crossing.aspx?phasetype=C&rpttype=A&txtcrossingnum=930581S",
        "TTSTNNAM": "Stolz",
        "XPURPOSE": "1",
        "OPERATINGR": "CMTY",
        "OPERATIN_1": "Primary",
        "DAYTHRU": 0,
        "NGHTTHRU": 0,
        "MAINTRK": 1,
        "SIDINGTRK": 0,
        "YARDTRK": 0,
        "TRANSITTRK": 0,
        "INDUSTRYTR": 0,
        "OTHRTRK": 0,
        "WDCODE": "",
        "REVISIONDA": "2007/01/01 00:00:00",
        "LASTUPDATE": "7/25/2023",
        "AADT": "",
        "AADTYEAR": "",
        "STATENAME": "TEXAS",
        "STATEAB": "TX",
        "COUNTYNAME": "LLANO",
        "CITYNAME": "LLANO",
        "LATDD": 30.431707,
        "LONGDD": -98.300033,
        "gridlyProductionCertified": true,
        "gridlyClassification": "PUBLIC_ROADWAY",
        "gridlyDisplayName": "granite water road",
        "gridlyId": "FRA-930581S"
      }
    },
    {
      "type": "Feature",
      "id": 202221,
      "geometry": {
        "type": "Point",
        "coordinates": [
          -98.300012899998,
          30.4316739997055
        ]
      },
      "properties": {
        "OBJECTID": 202221,
        "CROSSING": "976455C",
        "EFFDATE": 1688947200000,
        "REASON": "14",
        "StateCode": "48",
        "CountyCode": "48299",
        "STCYFIPS": "48299",
        "CITYCD": "482994030",
        "RAILROAD": "AWRR",
        "RRDIV": "CMTA",
        "RRSUBDIV": "West llano Branch",
        "HIGHWAY": "private",
        "STREET": "Preston",
        "TTSTN": "",
        "MILEPOST": "0140.290",
        "TYPEXING": "Private",
        "POSXING": "At Grade",
        "PRVCAT": "14",
        "INIT": "1",
        "LATITUDE": 30.431674,
        "LONGITUD": -98.3000129,
        "LLSOURCE": "2",
        "WHISTBAN": "",
        "RRCONT": "8663869321",
        "POLCONT": "8663869321",
        "INV_LINK": "https://safetydata.fra.dot.gov/OfficeofSafety/PublicSite/Crossing/Crossing.aspx?phasetype=C&rpttype=I&txtcrossingnum=976455C",
        "ACC_LINK": "https://safetydata.fra.dot.gov/OfficeofSafety/PublicSite/Crossing/Crossing.aspx?phasetype=C&rpttype=A&txtcrossingnum=976455C",
        "TTSTNNAM": "sudduth",
        "XPURPOSE": "2",
        "OPERATINGR": "AWRR",
        "OPERATIN_1": "Primary",
        "DAYTHRU": 0,
        "NGHTTHRU": 0,
        "MAINTRK": 0,
        "SIDINGTRK": 0,
        "YARDTRK": 0,
        "TRANSITTRK": 0,
        "INDUSTRYTR": 1,
        "OTHRTRK": 0,
        "WDCODE": "",
        "REVISIONDA": "2007/01/01 00:00:00",
        "LASTUPDATE": "7/10/2023",
        "AADT": "",
        "AADTYEAR": "",
        "STATENAME": "TEXAS",
        "STATEAB": "TX",
        "COUNTYNAME": "LLANO",
        "CITYNAME": "LLANO",
        "LATDD": 30.431674,
        "LONGDD": -98.3000129,
        "gridlyProductionCertified": true,
        "gridlyClassification": "PUBLIC_ROADWAY",
        "gridlyDisplayName": "Preston",
        "gridlyId": "FRA-976455C"
      }
    },
    {
      "type": "Feature",
      "id": 205447,
      "geometry": {
        "type": "Point",
        "coordinates": [
          -98.1503309998989,
          30.4047059999859
        ]
      },
      "properties": {
        "OBJECTID": 205447,
        "CROSSING": "976532A",
        "EFFDATE": 1774224000000,
        "REASON": "14",
        "StateCode": "48",
        "CountyCode": "48053",
        "STCYFIPS": "48053",
        "CITYCD": "480531040",
        "RAILROAD": "CMTY",
        "RRDIV": "CMTA",
        "RRSUBDIV": "CENTRAL",
        "HIGHWAY": "na",
        "STREET": "honey creek quarry entrance road",
        "TTSTN": "",
        "MILEPOST": "0120.61",
        "TYPEXING": "Private",
        "POSXING": "At Grade",
        "PRVCAT": "14",
        "INIT": "2",
        "LATITUDE": 30.404706,
        "LONGITUD": -98.150331,
        "LLSOURCE": "2",
        "WHISTBAN": "",
        "RRCONT": "5123344000",
        "POLCONT": "8445928046",
        "INV_LINK": "https://safetydata.fra.dot.gov/OfficeofSafety/PublicSite/Crossing/Crossing.aspx?phasetype=C&rpttype=I&txtcrossingnum=976532A",
        "ACC_LINK": "https://safetydata.fra.dot.gov/OfficeofSafety/PublicSite/Crossing/Crossing.aspx?phasetype=C&rpttype=A&txtcrossingnum=976532A",
        "TTSTNNAM": "SUDDUTH",
        "XPURPOSE": "1",
        "OPERATINGR": "CMTY",
        "OPERATIN_1": "Primary",
        "DAYTHRU": 1,
        "NGHTTHRU": 1,
        "MAINTRK": 1,
        "SIDINGTRK": 0,
        "YARDTRK": 0,
        "TRANSITTRK": 0,
        "INDUSTRYTR": 0,
        "OTHRTRK": 0,
        "WDCODE": "",
        "REVISIONDA": "2007/01/01 00:00:00",
        "LASTUPDATE": "3/23/2026",
        "AADT": "",
        "AADTYEAR": "",
        "STATENAME": "TEXAS",
        "STATEAB": "TX",
        "COUNTYNAME": "BURNET",
        "CITYNAME": "BURNET",
        "LATDD": 30.404706,
        "LONGDD": -98.150331,
        "gridlyProductionCertified": true,
        "gridlyClassification": "PUBLIC_ROADWAY",
        "gridlyDisplayName": "honey creek quarry entrance road",
        "gridlyId": "FRA-976532A"
      }
    },
    {
      "type": "Feature",
      "id": 205448,
      "geometry": {
        "type": "Point",
        "coordinates": [
          -98.1411860002879,
          30.4247259998147
        ]
      },
      "properties": {
        "OBJECTID": 205448,
        "CROSSING": "745251D",
        "EFFDATE": 1774224000000,
        "REASON": "14",
        "StateCode": "48",
        "CountyCode": "48053",
        "STCYFIPS": "48053",
        "CITYCD": "480531040",
        "RAILROAD": "AWRR",
        "RRDIV": "CMTA",
        "RRSUBDIV": "west",
        "HIGHWAY": "PRIVATE",
        "STREET": "PRIVATE ROAD",
        "TTSTN": "683651",
        "MILEPOST": "0117.90",
        "TYPEXING": "Private",
        "POSXING": "At Grade",
        "PRVCAT": "14",
        "INIT": "2",
        "LATITUDE": 30.424726,
        "LONGITUD": -98.141186,
        "LLSOURCE": "2",
        "WHISTBAN": "0",
        "RRCONT": "5123344000",
        "POLCONT": "8445928046",
        "INV_LINK": "https://safetydata.fra.dot.gov/OfficeofSafety/PublicSite/Crossing/Crossing.aspx?phasetype=C&rpttype=I&txtcrossingnum=745251D",
        "ACC_LINK": "https://safetydata.fra.dot.gov/OfficeofSafety/PublicSite/Crossing/Crossing.aspx?phasetype=C&rpttype=A&txtcrossingnum=745251D",
        "TTSTNNAM": "GANDY",
        "XPURPOSE": "1",
        "OPERATINGR": "AWRR",
        "OPERATIN_1": "Primary",
        "DAYTHRU": 3,
        "NGHTTHRU": 4,
        "MAINTRK": 1,
        "SIDINGTRK": 0,
        "YARDTRK": 2,
        "TRANSITTRK": 0,
        "INDUSTRYTR": 0,
        "OTHRTRK": 0,
        "WDCODE": "",
        "REVISIONDA": "2007/01/01 00:00:00",
        "LASTUPDATE": "3/23/2026",
        "AADT": "",
        "AADTYEAR": "1970",
        "STATENAME": "TEXAS",
        "STATEAB": "TX",
        "COUNTYNAME": "BURNET",
        "CITYNAME": "BURNET",
        "LATDD": 30.424726,
        "LONGDD": -98.141186,
        "gridlyProductionCertified": true,
        "gridlyClassification": "PUBLIC_ROADWAY",
        "gridlyDisplayName": "PRIVATE ROAD",
        "gridlyId": "FRA-745251D"
      }
    },
    {
      "type": "Feature",
      "id": 206782,
      "geometry": {
        "type": "Point",
        "coordinates": [
          -98.172834999712,
          30.3728680002133
        ]
      },
      "properties": {
        "OBJECTID": 206782,
        "CROSSING": "930577C",
        "EFFDATE": 1774224000000,
        "REASON": "14",
        "StateCode": "48",
        "CountyCode": "48053",
        "STCYFIPS": "48053",
        "CITYCD": "480534310",
        "RAILROAD": "AWRR",
        "RRDIV": "cmta",
        "RRSUBDIV": "west",
        "HIGHWAY": "private",
        "STREET": "Private",
        "TTSTN": "",
        "MILEPOST": "0001.91",
        "TYPEXING": "Private",
        "POSXING": "At Grade",
        "PRVCAT": "14",
        "INIT": "2",
        "LATITUDE": 30.372868,
        "LONGITUD": -98.172835,
        "LLSOURCE": "2",
        "WHISTBAN": "",
        "RRCONT": "8663869321",
        "POLCONT": "8663869321",
        "INV_LINK": "https://safetydata.fra.dot.gov/OfficeofSafety/PublicSite/Crossing/Crossing.aspx?phasetype=C&rpttype=I&txtcrossingnum=930577C",
        "ACC_LINK": "https://safetydata.fra.dot.gov/OfficeofSafety/PublicSite/Crossing/Crossing.aspx?phasetype=C&rpttype=A&txtcrossingnum=930577C",
        "TTSTNNAM": "FAIRLAND",
        "XPURPOSE": "1",
        "OPERATINGR": "AWRR",
        "OPERATIN_1": "Primary",
        "DAYTHRU": 2,
        "NGHTTHRU": 0,
        "MAINTRK": 1,
        "SIDINGTRK": 0,
        "YARDTRK": 0,
        "TRANSITTRK": 0,
        "INDUSTRYTR": 0,
        "OTHRTRK": 0,
        "WDCODE": "",
        "REVISIONDA": "2007/01/01 00:00:00",
        "LASTUPDATE": "3/23/2026",
        "AADT": "",
        "AADTYEAR": "",
        "STATENAME": "TEXAS",
        "STATEAB": "TX",
        "COUNTYNAME": "BURNET",
        "CITYNAME": "MARBLE FALLS",
        "LATDD": 30.372868,
        "LONGDD": -98.172835,
        "gridlyProductionCertified": true,
        "gridlyClassification": "PUBLIC_ROADWAY",
        "gridlyDisplayName": "Private",
        "gridlyId": "FRA-930577C"
      }
    },
    {
      "type": "Feature",
      "id": 206783,
      "geometry": {
        "type": "Point",
        "coordinates": [
          -98.171515999787,
          30.3755399997759
        ]
      },
      "properties": {
        "OBJECTID": 206783,
        "CROSSING": "930576V",
        "EFFDATE": 1774224000000,
        "REASON": "14",
        "StateCode": "48",
        "CountyCode": "48053",
        "STCYFIPS": "48053",
        "CITYCD": "480534310",
        "RAILROAD": "AWRR",
        "RRDIV": "cmta",
        "RRSUBDIV": "west",
        "HIGHWAY": "private",
        "STREET": "Private",
        "TTSTN": "",
        "MILEPOST": "0001.30",
        "TYPEXING": "Private",
        "POSXING": "At Grade",
        "PRVCAT": "14",
        "INIT": "2",
        "LATITUDE": 30.37554,
        "LONGITUD": -98.171516,
        "LLSOURCE": "2",
        "WHISTBAN": "",
        "RRCONT": "8663869321",
        "POLCONT": "8663869321",
        "INV_LINK": "https://safetydata.fra.dot.gov/OfficeofSafety/PublicSite/Crossing/Crossing.aspx?phasetype=C&rpttype=I&txtcrossingnum=930576V",
        "ACC_LINK": "https://safetydata.fra.dot.gov/OfficeofSafety/PublicSite/Crossing/Crossing.aspx?phasetype=C&rpttype=A&txtcrossingnum=930576V",
        "TTSTNNAM": "FAIRLAND",
        "XPURPOSE": "1",
        "OPERATINGR": "AWRR",
        "OPERATIN_1": "Primary",
        "DAYTHRU": 2,
        "NGHTTHRU": 0,
        "MAINTRK": 1,
        "SIDINGTRK": 0,
        "YARDTRK": 0,
        "TRANSITTRK": 0,
        "INDUSTRYTR": 0,
        "OTHRTRK": 0,
        "WDCODE": "",
        "REVISIONDA": "2007/01/01 00:00:00",
        "LASTUPDATE": "3/23/2026",
        "AADT": "",
        "AADTYEAR": "",
        "STATENAME": "TEXAS",
        "STATEAB": "TX",
        "COUNTYNAME": "BURNET",
        "CITYNAME": "MARBLE FALLS",
        "LATDD": 30.37554,
        "LONGDD": -98.171516,
        "gridlyProductionCertified": true,
        "gridlyClassification": "PUBLIC_ROADWAY",
        "gridlyDisplayName": "Private",
        "gridlyId": "FRA-930576V"
      }
    },
    {
      "type": "Feature",
      "id": 207234,
      "geometry": {
        "type": "Point",
        "coordinates": [
          -98.1723900003714,
          30.3814860000034
        ]
      },
      "properties": {
        "OBJECTID": 207234,
        "CROSSING": "930575N",
        "EFFDATE": 1774224000000,
        "REASON": "14",
        "StateCode": "48",
        "CountyCode": "48053",
        "STCYFIPS": "48053",
        "CITYCD": "480534310",
        "RAILROAD": "AWRR",
        "RRDIV": "cmta",
        "RRSUBDIV": "west",
        "HIGHWAY": "private",
        "STREET": "Private",
        "TTSTN": "",
        "MILEPOST": "0000.90",
        "TYPEXING": "Private",
        "POSXING": "At Grade",
        "PRVCAT": "14",
        "INIT": "2",
        "LATITUDE": 30.381486,
        "LONGITUD": -98.17239,
        "LLSOURCE": "2",
        "WHISTBAN": "",
        "RRCONT": "8663869321",
        "POLCONT": "8663869321",
        "INV_LINK": "https://safetydata.fra.dot.gov/OfficeofSafety/PublicSite/Crossing/Crossing.aspx?phasetype=C&rpttype=I&txtcrossingnum=930575N",
        "ACC_LINK": "https://safetydata.fra.dot.gov/OfficeofSafety/PublicSite/Crossing/Crossing.aspx?phasetype=C&rpttype=A&txtcrossingnum=930575N",
        "TTSTNNAM": "FAIRLAND",
        "XPURPOSE": "1",
        "OPERATINGR": "AWRR",
        "OPERATIN_1": "Primary",
        "DAYTHRU": 2,
        "NGHTTHRU": 0,
        "MAINTRK": 1,
        "SIDINGTRK": 0,
        "YARDTRK": 0,
        "TRANSITTRK": 0,
        "INDUSTRYTR": 0,
        "OTHRTRK": 0,
        "WDCODE": "",
        "REVISIONDA": "2007/01/01 00:00:00",
        "LASTUPDATE": "3/23/2026",
        "AADT": "",
        "AADTYEAR": "",
        "STATENAME": "TEXAS",
        "STATEAB": "TX",
        "COUNTYNAME": "BURNET",
        "CITYNAME": "MARBLE FALLS",
        "LATDD": 30.381486,
        "LONGDD": -98.17239,
        "gridlyProductionCertified": true,
        "gridlyClassification": "PUBLIC_ROADWAY",
        "gridlyDisplayName": "Private",
        "gridlyId": "FRA-930575N"
      }
    }
  ]
}
