{
  "type": "FeatureCollection",
  "features": [
    {
      "type": "Feature",
      "id": 203254,
      "geometry": {
        "type": "Point",
        "coordinates": [
          -101.280212000226,
          31.139937999831
        ]
      },
      "properties": {
        "OBJECTID": 203254,
        "CROSSING": "018839U",
        "EFFDATE": 1704758400000,
        "REASON": "14",
        "StateCode": "48",
        "CountyCode": "48383",
        "STCYFIPS": "48383",
        "CITYCD": "483830620",
        "RAILROAD": "TXPF",
        "RRDIV": "SOUTHERN",
        "RRSUBDIV": "BIG LAKE",
        "HIGHWAY": "us67",
        "STREET": "PRIVATE ROAD",
        "TTSTN": "693394",
        "MILEPOST": "0778.60",
        "TYPEXING": "Private",
        "POSXING": "At Grade",
        "PRVCAT": "14",
        "INIT": "1",
        "LATITUDE": 31.139938,
        "LONGITUD": -101.280212,
        "LLSOURCE": "2",
        "WHISTBAN": "0",
        "RRCONT": "3259428164",
        "POLCONT": "8007428905",
        "INV_LINK": "https://safetydata.fra.dot.gov/OfficeofSafety/PublicSite/Crossing/Crossing.aspx?phasetype=C&rpttype=I&txtcrossingnum=018839U",
        "ACC_LINK": "https://safetydata.fra.dot.gov/OfficeofSafety/PublicSite/Crossing/Crossing.aspx?phasetype=C&rpttype=A&txtcrossingnum=018839U",
        "TTSTNNAM": "BARNHART",
        "XPURPOSE": "1",
        "OPERATINGR": "TXPF",
        "OPERATIN_1": "Primary",
        "DAYTHRU": 1,
        "NGHTTHRU": 1,
        "MAINTRK": 1,
        "SIDINGTRK": 0,
        "YARDTRK": 0,
        "TRANSITTRK": 0,
        "INDUSTRYTR": 0,
        "OTHRTRK": 0,
        "WDCODE": "",
        "REVISIONDA": "2001/01/01 00:00:00",
        "LASTUPDATE": "1/9/2024",
        "AADT": "",
        "AADTYEAR": "1970",
        "STATENAME": "TEXAS",
        "STATEAB": "TX",
        "COUNTYNAME": "REAGAN",
        "CITYNAME": "BIG LAKE",
        "LATDD": 31.139938,
        "LONGDD": -101.280212,
        "gridlyProductionCertified": true,
        "gridlyClassification": "PUBLIC_ROADWAY",
        "gridlyDisplayName": "PRIVATE ROAD",
        "gridlyId": "FRA-018839U"
      }
    },
    {
      "type": "Feature",
      "id": 203255,
      "geometry": {
        "type": "Point",
        "coordinates": [
          -101.31558999982,
          31.152751999919
        ]
      },
      "properties": {
        "OBJECTID": 203255,
        "CROSSING": "018840N",
        "EFFDATE": 1704758400000,
        "REASON": "14",
        "StateCode": "48",
        "CountyCode": "48383",
        "STCYFIPS": "48383",
        "CITYCD": "483830620",
        "RAILROAD": "TXPF",
        "RRDIV": "SOUTHERN",
        "RRSUBDIV": "BIG LAKE",
        "HIGHWAY": "us67",
        "STREET": "PRIVATE ROAD",
        "TTSTN": "693394",
        "MILEPOST": "0781.06",
        "TYPEXING": "Private",
        "POSXING": "At Grade",
        "PRVCAT": "14",
        "INIT": "1",
        "LATITUDE": 31.152752,
        "LONGITUD": -101.31559,
        "LLSOURCE": "2",
        "WHISTBAN": "0",
        "RRCONT": "3259428164",
        "POLCONT": "8007428905",
        "INV_LINK": "https://safetydata.fra.dot.gov/OfficeofSafety/PublicSite/Crossing/Crossing.aspx?phasetype=C&rpttype=I&txtcrossingnum=018840N",
        "ACC_LINK": "https://safetydata.fra.dot.gov/OfficeofSafety/PublicSite/Crossing/Crossing.aspx?phasetype=C&rpttype=A&txtcrossingnum=018840N",
        "TTSTNNAM": "BARNHART",
        "XPURPOSE": "1",
        "OPERATINGR": "TXPF",
        "OPERATIN_1": "Primary",
        "DAYTHRU": 1,
        "NGHTTHRU": 1,
        "MAINTRK": 1,
        "SIDINGTRK": 0,
        "YARDTRK": 0,
        "TRANSITTRK": 0,
        "INDUSTRYTR": 0,
        "OTHRTRK": 0,
        "WDCODE": "",
        "REVISIONDA": "2001/01/01 00:00:00",
        "LASTUPDATE": "1/9/2024",
        "AADT": "",
        "AADTYEAR": "1970",
        "STATENAME": "TEXAS",
        "STATEAB": "TX",
        "COUNTYNAME": "REAGAN",
        "CITYNAME": "BIG LAKE",
        "LATDD": 31.152752,
        "LONGDD": -101.31559,
        "gridlyProductionCertified": true,
        "gridlyClassification": "PUBLIC_ROADWAY",
        "gridlyDisplayName": "PRIVATE ROAD",
        "gridlyId": "FRA-018840N"
      }
    },
    {
      "type": "Feature",
      "id": 203271,
      "geometry": {
        "type": "Point",
        "coordinates": [
          -101.349213000368,
          31.1566589997951
        ]
      },
      "properties": {
        "OBJECTID": 203271,
        "CROSSING": "978117L",
        "EFFDATE": 1704758400000,
        "REASON": "14",
        "StateCode": "48",
        "CountyCode": "48383",
        "STCYFIPS": "48383",
        "CITYCD": "483830620",
        "RAILROAD": "TXPF",
        "RRDIV": "SOUTHERN",
        "RRSUBDIV": "BIG LAKE",
        "HIGHWAY": "us67",
        "STREET": "PRIVATE ROAD",
        "TTSTN": "",
        "MILEPOST": "0783.230",
        "TYPEXING": "Private",
        "POSXING": "At Grade",
        "PRVCAT": "14",
        "INIT": "1",
        "LATITUDE": 31.156659,
        "LONGITUD": -101.349213,
        "LLSOURCE": "2",
        "WHISTBAN": "",
        "RRCONT": "3259428164",
        "POLCONT": "8007428905",
        "INV_LINK": "https://safetydata.fra.dot.gov/OfficeofSafety/PublicSite/Crossing/Crossing.aspx?phasetype=C&rpttype=I&txtcrossingnum=978117L",
        "ACC_LINK": "https://safetydata.fra.dot.gov/OfficeofSafety/PublicSite/Crossing/Crossing.aspx?phasetype=C&rpttype=A&txtcrossingnum=978117L",
        "TTSTNNAM": "BIG LAKE",
        "XPURPOSE": "1",
        "OPERATINGR": "TXPF",
        "OPERATIN_1": "Primary",
        "DAYTHRU": 1,
        "NGHTTHRU": 1,
        "MAINTRK": 1,
        "SIDINGTRK": 0,
        "YARDTRK": 0,
        "TRANSITTRK": 0,
        "INDUSTRYTR": 0,
        "OTHRTRK": 0,
        "WDCODE": "",
        "REVISIONDA": "2001/01/01 00:00:00",
        "LASTUPDATE": "1/9/2024",
        "AADT": "",
        "AADTYEAR": "",
        "STATENAME": "TEXAS",
        "STATEAB": "TX",
        "COUNTYNAME": "REAGAN",
        "CITYNAME": "BIG LAKE",
        "LATDD": 31.156659,
        "LONGDD": -101.349213,
        "gridlyProductionCertified": true,
        "gridlyClassification": "PUBLIC_ROADWAY",
        "gridlyDisplayName": "PRIVATE ROAD",
        "gridlyId": "FRA-978117L"
      }
    },
    {
      "type": "Feature",
      "id": 203272,
      "geometry": {
        "type": "Point",
        "coordinates": [
          -101.358208000191,
          31.1575259999562
        ]
      },
      "properties": {
        "OBJECTID": 203272,
        "CROSSING": "018842C",
        "EFFDATE": 1704758400000,
        "REASON": "14",
        "StateCode": "48",
        "CountyCode": "48383",
        "STCYFIPS": "48383",
        "CITYCD": "483830620",
        "RAILROAD": "TXPF",
        "RRDIV": "SOUTHERN",
        "RRSUBDIV": "BIG LAKE",
        "HIGHWAY": "us67",
        "STREET": "PRIVATE ROAD",
        "TTSTN": "693480",
        "MILEPOST": "0783.79",
        "TYPEXING": "Private",
        "POSXING": "At Grade",
        "PRVCAT": "14",
        "INIT": "1",
        "LATITUDE": 31.157526,
        "LONGITUD": -101.358208,
        "LLSOURCE": "2",
        "WHISTBAN": "0",
        "RRCONT": "3259428164",
        "POLCONT": "8007428905",
        "INV_LINK": "https://safetydata.fra.dot.gov/OfficeofSafety/PublicSite/Crossing/Crossing.aspx?phasetype=C&rpttype=I&txtcrossingnum=018842C",
        "ACC_LINK": "https://safetydata.fra.dot.gov/OfficeofSafety/PublicSite/Crossing/Crossing.aspx?phasetype=C&rpttype=A&txtcrossingnum=018842C",
        "TTSTNNAM": "BIG LAKE",
        "XPURPOSE": "1",
        "OPERATINGR": "TXPF",
        "OPERATIN_1": "Primary",
        "DAYTHRU": 1,
        "NGHTTHRU": 1,
        "MAINTRK": 1,
        "SIDINGTRK": 0,
        "YARDTRK": 0,
        "TRANSITTRK": 0,
        "INDUSTRYTR": 0,
        "OTHRTRK": 0,
        "WDCODE": "",
        "REVISIONDA": "2001/01/01 00:00:00",
        "LASTUPDATE": "1/9/2024",
        "AADT": "",
        "AADTYEAR": "1970",
        "STATENAME": "TEXAS",
        "STATEAB": "TX",
        "COUNTYNAME": "REAGAN",
        "CITYNAME": "BIG LAKE",
        "LATDD": 31.157526,
        "LONGDD": -101.358208,
        "gridlyProductionCertified": true,
        "gridlyClassification": "PUBLIC_ROADWAY",
        "gridlyDisplayName": "PRIVATE ROAD",
        "gridlyId": "FRA-018842C"
      }
    },
    {
      "type": "Feature",
      "id": 203273,
      "geometry": {
        "type": "Point",
        "coordinates": [
          -101.384955999834,
          31.1600340003336
        ]
      },
      "properties": {
        "OBJECTID": 203273,
        "CROSSING": "018843J",
        "EFFDATE": 1704758400000,
        "REASON": "14",
        "StateCode": "48",
        "CountyCode": "48383",
        "STCYFIPS": "48383",
        "CITYCD": "483830620",
        "RAILROAD": "TXPF",
        "RRDIV": "SOUTHERN",
        "RRSUBDIV": "BIG LAKE",
        "HIGHWAY": "us57",
        "STREET": "PRIVATE ROAD",
        "TTSTN": "693480",
        "MILEPOST": "0785.50",
        "TYPEXING": "Private",
        "POSXING": "At Grade",
        "PRVCAT": "14",
        "INIT": "1",
        "LATITUDE": 31.160034,
        "LONGITUD": -101.384956,
        "LLSOURCE": "2",
        "WHISTBAN": "0",
        "RRCONT": "3259428164",
        "POLCONT": "8007428905",
        "INV_LINK": "https://safetydata.fra.dot.gov/OfficeofSafety/PublicSite/Crossing/Crossing.aspx?phasetype=C&rpttype=I&txtcrossingnum=018843J",
        "ACC_LINK": "https://safetydata.fra.dot.gov/OfficeofSafety/PublicSite/Crossing/Crossing.aspx?phasetype=C&rpttype=A&txtcrossingnum=018843J",
        "TTSTNNAM": "BIG LAKE",
        "XPURPOSE": "1",
        "OPERATINGR": "TXPF",
        "OPERATIN_1": "Primary",
        "DAYTHRU": 1,
        "NGHTTHRU": 1,
        "MAINTRK": 1,
        "SIDINGTRK": 0,
        "YARDTRK": 0,
        "TRANSITTRK": 0,
        "INDUSTRYTR": 0,
        "OTHRTRK": 0,
        "WDCODE": "",
        "REVISIONDA": "2001/01/01 00:00:00",
        "LASTUPDATE": "1/9/2024",
        "AADT": "",
        "AADTYEAR": "1970",
        "STATENAME": "TEXAS",
        "STATEAB": "TX",
        "COUNTYNAME": "REAGAN",
        "CITYNAME": "BIG LAKE",
        "LATDD": 31.160034,
        "LONGDD": -101.384956,
        "gridlyProductionCertified": true,
        "gridlyClassification": "PUBLIC_ROADWAY",
        "gridlyDisplayName": "PRIVATE ROAD",
        "gridlyId": "FRA-018843J"
      }
    },
    {
      "type": "Feature",
      "id": 203274,
      "geometry": {
        "type": "Point",
        "coordinates": [
          -101.409408999759,
          31.1679569998713
        ]
      },
      "properties": {
        "OBJECTID": 203274,
        "CROSSING": "018844R",
        "EFFDATE": 1704758400000,
        "REASON": "14",
        "StateCode": "48",
        "CountyCode": "48383",
        "STCYFIPS": "48383",
        "CITYCD": "483830620",
        "RAILROAD": "TXPF",
        "RRDIV": "SOUTHERN",
        "RRSUBDIV": "BIG LAKE",
        "HIGHWAY": "US67",
        "STREET": "PRIVATE ROAD",
        "TTSTN": "693480",
        "MILEPOST": "0786.98",
        "TYPEXING": "Private",
        "POSXING": "At Grade",
        "PRVCAT": "14",
        "INIT": "1",
        "LATITUDE": 31.167957,
        "LONGITUD": -101.409409,
        "LLSOURCE": "2",
        "WHISTBAN": "0",
        "RRCONT": "3259428164",
        "POLCONT": "8007428905",
        "INV_LINK": "https://safetydata.fra.dot.gov/OfficeofSafety/PublicSite/Crossing/Crossing.aspx?phasetype=C&rpttype=I&txtcrossingnum=018844R",
        "ACC_LINK": "https://safetydata.fra.dot.gov/OfficeofSafety/PublicSite/Crossing/Crossing.aspx?phasetype=C&rpttype=A&txtcrossingnum=018844R",
        "TTSTNNAM": "BIG LAKE",
        "XPURPOSE": "1",
        "OPERATINGR": "TXPF",
        "OPERATIN_1": "Primary",
        "DAYTHRU": 1,
        "NGHTTHRU": 1,
        "MAINTRK": 1,
        "SIDINGTRK": 0,
        "YARDTRK": 0,
        "TRANSITTRK": 0,
        "INDUSTRYTR": 0,
        "OTHRTRK": 0,
        "WDCODE": "",
        "REVISIONDA": "2001/01/01 00:00:00",
        "LASTUPDATE": "1/9/2024",
        "AADT": "",
        "AADTYEAR": "1970",
        "STATENAME": "TEXAS",
        "STATEAB": "TX",
        "COUNTYNAME": "REAGAN",
        "CITYNAME": "BIG LAKE",
        "LATDD": 31.167957,
        "LONGDD": -101.409409,
        "gridlyProductionCertified": true,
        "gridlyClassification": "PUBLIC_ROADWAY",
        "gridlyDisplayName": "PRIVATE ROAD",
        "gridlyId": "FRA-018844R"
      }
    },
    {
      "type": "Feature",
      "id": 203275,
      "geometry": {
        "type": "Point",
        "coordinates": [
          -101.548186999819,
          31.1946740000354
        ]
      },
      "properties": {
        "OBJECTID": 203275,
        "CROSSING": "018850U",
        "EFFDATE": 1704758400000,
        "REASON": "14",
        "StateCode": "48",
        "CountyCode": "48383",
        "STCYFIPS": "48383",
        "CITYCD": "483830620",
        "RAILROAD": "TXPF",
        "RRDIV": "SOUTHERN",
        "RRSUBDIV": "BIG LAKE",
        "HIGHWAY": "US67",
        "STREET": "PRIVATE ROAD",
        "TTSTN": "693480",
        "MILEPOST": "0795.83",
        "TYPEXING": "Private",
        "POSXING": "At Grade",
        "PRVCAT": "14",
        "INIT": "1",
        "LATITUDE": 31.194674,
        "LONGITUD": -101.548187,
        "LLSOURCE": "2",
        "WHISTBAN": "0",
        "RRCONT": "3259428164",
        "POLCONT": "8007428905",
        "INV_LINK": "https://safetydata.fra.dot.gov/OfficeofSafety/PublicSite/Crossing/Crossing.aspx?phasetype=C&rpttype=I&txtcrossingnum=018850U",
        "ACC_LINK": "https://safetydata.fra.dot.gov/OfficeofSafety/PublicSite/Crossing/Crossing.aspx?phasetype=C&rpttype=A&txtcrossingnum=018850U",
        "TTSTNNAM": "BIG LAKE",
        "XPURPOSE": "1",
        "OPERATINGR": "TXPF",
        "OPERATIN_1": "Primary",
        "DAYTHRU": 1,
        "NGHTTHRU": 1,
        "MAINTRK": 1,
        "SIDINGTRK": 0,
        "YARDTRK": 0,
        "TRANSITTRK": 0,
        "INDUSTRYTR": 0,
        "OTHRTRK": 0,
        "WDCODE": "",
        "REVISIONDA": "2001/01/01 00:00:00",
        "LASTUPDATE": "1/9/2024",
        "AADT": "",
        "AADTYEAR": "1970",
        "STATENAME": "TEXAS",
        "STATEAB": "TX",
        "COUNTYNAME": "REAGAN",
        "CITYNAME": "BIG LAKE",
        "LATDD": 31.194674,
        "LONGDD": -101.548187,
        "gridlyProductionCertified": true,
        "gridlyClassification": "PUBLIC_ROADWAY",
        "gridlyDisplayName": "PRIVATE ROAD",
        "gridlyId": "FRA-018850U"
      }
    },
    {
      "type": "Feature",
      "id": 203276,
      "geometry": {
        "type": "Point",
        "coordinates": [
          -101.655089999601,
          31.2233279998186
        ]
      },
      "properties": {
        "OBJECTID": 203276,
        "CROSSING": "018853P",
        "EFFDATE": 1704758400000,
        "REASON": "14",
        "StateCode": "48",
        "CountyCode": "48383",
        "STCYFIPS": "48383",
        "CITYCD": "483830620",
        "RAILROAD": "TXPF",
        "RRDIV": "SOUTHERN",
        "RRSUBDIV": "BIG LAKE",
        "HIGHWAY": "PV 0000",
        "STREET": "SANTA RITA",
        "TTSTN": "693497",
        "MILEPOST": "0802.76",
        "TYPEXING": "Private",
        "POSXING": "At Grade",
        "PRVCAT": "14",
        "INIT": "1",
        "LATITUDE": 31.223328,
        "LONGITUD": -101.65509,
        "LLSOURCE": "1",
        "WHISTBAN": "0",
        "RRCONT": "3259428164",
        "POLCONT": "8007428905",
        "INV_LINK": "https://safetydata.fra.dot.gov/OfficeofSafety/PublicSite/Crossing/Crossing.aspx?phasetype=C&rpttype=I&txtcrossingnum=018853P",
        "ACC_LINK": "https://safetydata.fra.dot.gov/OfficeofSafety/PublicSite/Crossing/Crossing.aspx?phasetype=C&rpttype=A&txtcrossingnum=018853P",
        "TTSTNNAM": "BIG LAKE",
        "XPURPOSE": "1",
        "OPERATINGR": "TXPF",
        "OPERATIN_1": "Primary",
        "DAYTHRU": 1,
        "NGHTTHRU": 1,
        "MAINTRK": 1,
        "SIDINGTRK": 0,
        "YARDTRK": 0,
        "TRANSITTRK": 0,
        "INDUSTRYTR": 0,
        "OTHRTRK": 0,
        "WDCODE": "",
        "REVISIONDA": "2001/01/01 00:00:00",
        "LASTUPDATE": "1/9/2024",
        "AADT": "000012",
        "AADTYEAR": "1994",
        "STATENAME": "TEXAS",
        "STATEAB": "TX",
        "COUNTYNAME": "REAGAN",
        "CITYNAME": "BIG LAKE",
        "LATDD": 31.223328,
        "LONGDD": -101.65509,
        "gridlyProductionCertified": true,
        "gridlyClassification": "PUBLIC_ROADWAY",
        "gridlyDisplayName": "SANTA RITA",
        "gridlyId": "FRA-018853P"
      }
    },
    {
      "type": "Feature",
      "id": 203284,
      "geometry": {
        "type": "Point",
        "coordinates": [
          -101.732093999879,
          31.2256149998572
        ]
      },
      "properties": {
        "OBJECTID": 203284,
        "CROSSING": "018859F",
        "EFFDATE": 1704758400000,
        "REASON": "14",
        "StateCode": "48",
        "CountyCode": "48383",
        "STCYFIPS": "48383",
        "CITYCD": "481455679",
        "RAILROAD": "TXPF",
        "RRDIV": "SOUTHERN",
        "RRSUBDIV": "BIG LAKE",
        "HIGHWAY": "US67",
        "STREET": "PRIVATE ROAD",
        "TTSTN": "693497",
        "MILEPOST": "0807.71",
        "TYPEXING": "Private",
        "POSXING": "At Grade",
        "PRVCAT": "14",
        "INIT": "1",
        "LATITUDE": 31.225615,
        "LONGITUD": -101.732094,
        "LLSOURCE": "2",
        "WHISTBAN": "0",
        "RRCONT": "3259428164",
        "POLCONT": "8007428905",
        "INV_LINK": "https://safetydata.fra.dot.gov/OfficeofSafety/PublicSite/Crossing/Crossing.aspx?phasetype=C&rpttype=I&txtcrossingnum=018859F",
        "ACC_LINK": "https://safetydata.fra.dot.gov/OfficeofSafety/PublicSite/Crossing/Crossing.aspx?phasetype=C&rpttype=A&txtcrossingnum=018859F",
        "TTSTNNAM": "BIG LAKE",
        "XPURPOSE": "1",
        "OPERATINGR": "TXPF",
        "OPERATIN_1": "Primary",
        "DAYTHRU": 1,
        "NGHTTHRU": 1,
        "MAINTRK": 1,
        "SIDINGTRK": 0,
        "YARDTRK": 0,
        "TRANSITTRK": 0,
        "INDUSTRYTR": 0,
        "OTHRTRK": 0,
        "WDCODE": "",
        "REVISIONDA": "2001/01/01 00:00:00",
        "LASTUPDATE": "1/9/2024",
        "AADT": "",
        "AADTYEAR": "1970",
        "STATENAME": "TEXAS",
        "STATEAB": "TX",
        "COUNTYNAME": "REAGAN",
        "CITYNAME": "REAGAN",
        "LATDD": 31.225615,
        "LONGDD": -101.732094,
        "gridlyProductionCertified": true,
        "gridlyClassification": "PUBLIC_ROADWAY",
        "gridlyDisplayName": "PRIVATE ROAD",
        "gridlyId": "FRA-018859F"
      }
    },
    {
      "type": "Feature",
      "id": 203285,
      "geometry": {
        "type": "Point",
        "coordinates": [
          -101.770949999571,
          31.2267400000399
        ]
      },
      "properties": {
        "OBJECTID": 203285,
        "CROSSING": "018868E",
        "EFFDATE": 1704758400000,
        "REASON": "14",
        "StateCode": "48",
        "CountyCode": "48461",
        "STCYFIPS": "48461",
        "CITYCD": "484615650",
        "RAILROAD": "TXPF",
        "RRDIV": "SOUTHERN",
        "RRSUBDIV": "BIG LAKE",
        "HIGHWAY": "US67",
        "STREET": "PRIVATE ROAD",
        "TTSTN": "694670",
        "MILEPOST": "0810.15",
        "TYPEXING": "Private",
        "POSXING": "At Grade",
        "PRVCAT": "14",
        "INIT": "1",
        "LATITUDE": 31.22674,
        "LONGITUD": -101.77095,
        "LLSOURCE": "2",
        "WHISTBAN": "0",
        "RRCONT": "3259428164",
        "POLCONT": "8007428905",
        "INV_LINK": "https://safetydata.fra.dot.gov/OfficeofSafety/PublicSite/Crossing/Crossing.aspx?phasetype=C&rpttype=I&txtcrossingnum=018868E",
        "ACC_LINK": "https://safetydata.fra.dot.gov/OfficeofSafety/PublicSite/Crossing/Crossing.aspx?phasetype=C&rpttype=A&txtcrossingnum=018868E",
        "TTSTNNAM": "RANKIN",
        "XPURPOSE": "1",
        "OPERATINGR": "TXPF",
        "OPERATIN_1": "Primary",
        "DAYTHRU": 1,
        "NGHTTHRU": 1,
        "MAINTRK": 1,
        "SIDINGTRK": 0,
        "YARDTRK": 0,
        "TRANSITTRK": 0,
        "INDUSTRYTR": 0,
        "OTHRTRK": 0,
        "WDCODE": "",
        "REVISIONDA": "2001/01/01 00:00:00",
        "LASTUPDATE": "1/9/2024",
        "AADT": "",
        "AADTYEAR": "1970",
        "STATENAME": "TEXAS",
        "STATEAB": "TX",
        "COUNTYNAME": "UPTON",
        "CITYNAME": "RANKIN",
        "LATDD": 31.22674,
        "LONGDD": -101.77095,
        "gridlyProductionCertified": true,
        "gridlyClassification": "PUBLIC_ROADWAY",
        "gridlyDisplayName": "PRIVATE ROAD",
        "gridlyId": "FRA-018868E"
      }
    },
    {
      "type": "Feature",
      "id": 203400,
      "geometry": {
        "type": "Point",
        "coordinates": [
          -101.66561799961,
          31.2238055999057
        ]
      },
      "properties": {
        "OBJECTID": 203400,
        "CROSSING": "018854W",
        "EFFDATE": 1704758400000,
        "REASON": "14",
        "StateCode": "48",
        "CountyCode": "48383",
        "STCYFIPS": "48383",
        "CITYCD": "483830620",
        "RAILROAD": "TXPF",
        "RRDIV": "SOUTHERN",
        "RRSUBDIV": "BIG LAKE",
        "HIGHWAY": "PV 0000",
        "STREET": "PRIVATE",
        "TTSTN": "693497",
        "MILEPOST": "0803.25",
        "TYPEXING": "Private",
        "POSXING": "At Grade",
        "PRVCAT": "14",
        "INIT": "1",
        "LATITUDE": 31.2238056,
        "LONGITUD": -101.665618,
        "LLSOURCE": "1",
        "WHISTBAN": "0",
        "RRCONT": "3259428164",
        "POLCONT": "8007428905",
        "INV_LINK": "https://safetydata.fra.dot.gov/OfficeofSafety/PublicSite/Crossing/Crossing.aspx?phasetype=C&rpttype=I&txtcrossingnum=018854W",
        "ACC_LINK": "https://safetydata.fra.dot.gov/OfficeofSafety/PublicSite/Crossing/Crossing.aspx?phasetype=C&rpttype=A&txtcrossingnum=018854W",
        "TTSTNNAM": "BIG LAKE",
        "XPURPOSE": "1",
        "OPERATINGR": "TXPF",
        "OPERATIN_1": "Primary",
        "DAYTHRU": 1,
        "NGHTTHRU": 1,
        "MAINTRK": 1,
        "SIDINGTRK": 0,
        "YARDTRK": 0,
        "TRANSITTRK": 0,
        "INDUSTRYTR": 0,
        "OTHRTRK": 0,
        "WDCODE": "",
        "REVISIONDA": "2001/01/01 00:00:00",
        "LASTUPDATE": "1/9/2024",
        "AADT": "000040",
        "AADTYEAR": "1993",
        "STATENAME": "TEXAS",
        "STATEAB": "TX",
        "COUNTYNAME": "REAGAN",
        "CITYNAME": "BIG LAKE",
        "LATDD": 31.2238056,
        "LONGDD": -101.665618,
        "gridlyProductionCertified": true,
        "gridlyClassification": "PUBLIC_ROADWAY",
        "gridlyDisplayName": "PRIVATE",
        "gridlyId": "FRA-018854W"
      }
    },
    {
      "type": "Feature",
      "id": 203401,
      "geometry": {
        "type": "Point",
        "coordinates": [
          -101.676041999861,
          31.2241110000659
        ]
      },
      "properties": {
        "OBJECTID": 203401,
        "CROSSING": "018855D",
        "EFFDATE": 1704758400000,
        "REASON": "14",
        "StateCode": "48",
        "CountyCode": "48383",
        "STCYFIPS": "48383",
        "CITYCD": "483830620",
        "RAILROAD": "TXPF",
        "RRDIV": "SOUTHERN",
        "RRSUBDIV": "BIG LAKE",
        "HIGHWAY": "PV 0000",
        "STREET": "PRIVATE",
        "TTSTN": "693497",
        "MILEPOST": "0803.87",
        "TYPEXING": "Private",
        "POSXING": "At Grade",
        "PRVCAT": "14",
        "INIT": "1",
        "LATITUDE": 31.224111,
        "LONGITUD": -101.676042,
        "LLSOURCE": "1",
        "WHISTBAN": "0",
        "RRCONT": "3259428164",
        "POLCONT": "8007428905",
        "INV_LINK": "https://safetydata.fra.dot.gov/OfficeofSafety/PublicSite/Crossing/Crossing.aspx?phasetype=C&rpttype=I&txtcrossingnum=018855D",
        "ACC_LINK": "https://safetydata.fra.dot.gov/OfficeofSafety/PublicSite/Crossing/Crossing.aspx?phasetype=C&rpttype=A&txtcrossingnum=018855D",
        "TTSTNNAM": "BIG LAKE",
        "XPURPOSE": "1",
        "OPERATINGR": "TXPF",
        "OPERATIN_1": "Primary",
        "DAYTHRU": 1,
        "NGHTTHRU": 1,
        "MAINTRK": 1,
        "SIDINGTRK": 0,
        "YARDTRK": 0,
        "TRANSITTRK": 0,
        "INDUSTRYTR": 0,
        "OTHRTRK": 0,
        "WDCODE": "",
        "REVISIONDA": "2001/01/01 00:00:00",
        "LASTUPDATE": "1/9/2024",
        "AADT": "000010",
        "AADTYEAR": "1993",
        "STATENAME": "TEXAS",
        "STATEAB": "TX",
        "COUNTYNAME": "REAGAN",
        "CITYNAME": "BIG LAKE",
        "LATDD": 31.224111,
        "LONGDD": -101.676042,
        "gridlyProductionCertified": true,
        "gridlyClassification": "PUBLIC_ROADWAY",
        "gridlyDisplayName": "PRIVATE",
        "gridlyId": "FRA-018855D"
      }
    },
    {
      "type": "Feature",
      "id": 207467,
      "geometry": {
        "type": "Point",
        "coordinates": [
          -101.534411399616,
          31.1936775999854
        ]
      },
      "properties": {
        "OBJECTID": 207467,
        "CROSSING": "018849A",
        "EFFDATE": 1758153600000,
        "REASON": "14",
        "StateCode": "48",
        "CountyCode": "48383",
        "STCYFIPS": "48383",
        "CITYCD": "483830620",
        "RAILROAD": "TXPF",
        "RRDIV": "SOUTHERN",
        "RRSUBDIV": "BIG LAKE",
        "HIGHWAY": "fM1676",
        "STREET": "FM1676",
        "TTSTN": "693480",
        "MILEPOST": "0794.99",
        "TYPEXING": "Public",
        "POSXING": "At Grade",
        "PRVCAT": "14",
        "INIT": "2",
        "LATITUDE": 31.1936776,
        "LONGITUD": -101.5344114,
        "LLSOURCE": "1",
        "WHISTBAN": "0",
        "RRCONT": "3259428164",
        "POLCONT": "8007428905",
        "INV_LINK": "https://safetydata.fra.dot.gov/OfficeofSafety/PublicSite/Crossing/Crossing.aspx?phasetype=C&rpttype=I&txtcrossingnum=018849A",
        "ACC_LINK": "https://safetydata.fra.dot.gov/OfficeofSafety/PublicSite/Crossing/Crossing.aspx?phasetype=C&rpttype=A&txtcrossingnum=018849A",
        "TTSTNNAM": "BIG LAKE",
        "XPURPOSE": "1",
        "OPERATINGR": "TXPF",
        "OPERATIN_1": "Primary",
        "DAYTHRU": 1,
        "NGHTTHRU": 1,
        "MAINTRK": 1,
        "SIDINGTRK": 0,
        "YARDTRK": 0,
        "TRANSITTRK": 0,
        "INDUSTRYTR": 0,
        "OTHRTRK": 0,
        "WDCODE": "Crossbucks",
        "REVISIONDA": "2001/01/01 00:00:00",
        "LASTUPDATE": "9/18/2025",
        "AADT": "284",
        "AADTYEAR": "2023",
        "STATENAME": "TEXAS",
        "STATEAB": "TX",
        "COUNTYNAME": "REAGAN",
        "CITYNAME": "BIG LAKE",
        "LATDD": 31.1936776,
        "LONGDD": -101.5344114,
        "gridlyProductionCertified": true,
        "gridlyClassification": "PUBLIC_ROADWAY",
        "gridlyDisplayName": "FM1676",
        "gridlyId": "FRA-018849A"
      }
    },
    {
      "type": "Feature",
      "id": 207478,
      "geometry": {
        "type": "Point",
        "coordinates": [
          -101.460831699946,
          31.189528899833
        ]
      },
      "properties": {
        "OBJECTID": 207478,
        "CROSSING": "018845X",
        "EFFDATE": 1758153600000,
        "REASON": "14",
        "StateCode": "48",
        "CountyCode": "48383",
        "STCYFIPS": "48383",
        "CITYCD": "483830620",
        "RAILROAD": "TXPF",
        "RRDIV": "SOUTHERN",
        "RRSUBDIV": "BIG LAKE",
        "HIGHWAY": "ls0000",
        "STREET": "PLAZA avenue",
        "TTSTN": "693480",
        "MILEPOST": "0790.61",
        "TYPEXING": "Public",
        "POSXING": "At Grade",
        "PRVCAT": "14",
        "INIT": "2",
        "LATITUDE": 31.1895289,
        "LONGITUD": -101.4608317,
        "LLSOURCE": "1",
        "WHISTBAN": "0",
        "RRCONT": "3259428164",
        "POLCONT": "8007428905",
        "INV_LINK": "https://safetydata.fra.dot.gov/OfficeofSafety/PublicSite/Crossing/Crossing.aspx?phasetype=C&rpttype=I&txtcrossingnum=018845X",
        "ACC_LINK": "https://safetydata.fra.dot.gov/OfficeofSafety/PublicSite/Crossing/Crossing.aspx?phasetype=C&rpttype=A&txtcrossingnum=018845X",
        "TTSTNNAM": "BIG LAKE",
        "XPURPOSE": "1",
        "OPERATINGR": "TXPF",
        "OPERATIN_1": "Primary",
        "DAYTHRU": 1,
        "NGHTTHRU": 1,
        "MAINTRK": 1,
        "SIDINGTRK": 0,
        "YARDTRK": 2,
        "TRANSITTRK": 0,
        "INDUSTRYTR": 0,
        "OTHRTRK": 2,
        "WDCODE": "Crossbucks",
        "REVISIONDA": "2001/01/01 00:00:00",
        "LASTUPDATE": "9/18/2025",
        "AADT": "513",
        "AADTYEAR": "2012",
        "STATENAME": "TEXAS",
        "STATEAB": "TX",
        "COUNTYNAME": "REAGAN",
        "CITYNAME": "BIG LAKE",
        "LATDD": 31.1895289,
        "LONGDD": -101.4608317,
        "gridlyProductionCertified": true,
        "gridlyClassification": "PUBLIC_ROADWAY",
        "gridlyDisplayName": "PLAZA avenue",
        "gridlyId": "FRA-018845X"
      }
    },
    {
      "type": "Feature",
      "id": 207482,
      "geometry": {
        "type": "Point",
        "coordinates": [
          -101.349009900266,
          31.1566375996481
        ]
      },
      "properties": {
        "OBJECTID": 207482,
        "CROSSING": "018841V",
        "EFFDATE": 1758153600000,
        "REASON": "14",
        "StateCode": "48",
        "CountyCode": "48383",
        "STCYFIPS": "48383",
        "CITYCD": "483830620",
        "RAILROAD": "TXPF",
        "RRDIV": "SOUTHERN",
        "RRSUBDIV": "BIG LAKE",
        "HIGHWAY": "cr0147",
        "STREET": "FERGUSON LaNe",
        "TTSTN": "693480",
        "MILEPOST": "0783.22",
        "TYPEXING": "Public",
        "POSXING": "At Grade",
        "PRVCAT": "14",
        "INIT": "2",
        "LATITUDE": 31.1566376,
        "LONGITUD": -101.3490099,
        "LLSOURCE": "1",
        "WHISTBAN": "0",
        "RRCONT": "3259428164",
        "POLCONT": "8007428905",
        "INV_LINK": "https://safetydata.fra.dot.gov/OfficeofSafety/PublicSite/Crossing/Crossing.aspx?phasetype=C&rpttype=I&txtcrossingnum=018841V",
        "ACC_LINK": "https://safetydata.fra.dot.gov/OfficeofSafety/PublicSite/Crossing/Crossing.aspx?phasetype=C&rpttype=A&txtcrossingnum=018841V",
        "TTSTNNAM": "BIG LAKE",
        "XPURPOSE": "1",
        "OPERATINGR": "TXPF",
        "OPERATIN_1": "Primary",
        "DAYTHRU": 1,
        "NGHTTHRU": 1,
        "MAINTRK": 1,
        "SIDINGTRK": 0,
        "YARDTRK": 0,
        "TRANSITTRK": 0,
        "INDUSTRYTR": 0,
        "OTHRTRK": 0,
        "WDCODE": "Crossbucks",
        "REVISIONDA": "2001/01/01 00:00:00",
        "LASTUPDATE": "9/18/2025",
        "AADT": "199",
        "AADTYEAR": "2023",
        "STATENAME": "TEXAS",
        "STATEAB": "TX",
        "COUNTYNAME": "REAGAN",
        "CITYNAME": "BIG LAKE",
        "LATDD": 31.1566376,
        "LONGDD": -101.3490099,
        "gridlyProductionCertified": true,
        "gridlyClassification": "PUBLIC_ROADWAY",
        "gridlyDisplayName": "FERGUSON LaNe",
        "gridlyId": "FRA-018841V"
      }
    },
    {
      "type": "Feature",
      "id": 207483,
      "geometry": {
        "type": "Point",
        "coordinates": [
          -101.462035100168,
          31.1896335003172
        ]
      },
      "properties": {
        "OBJECTID": 207483,
        "CROSSING": "018846E",
        "EFFDATE": 1758153600000,
        "REASON": "14",
        "StateCode": "48",
        "CountyCode": "48383",
        "STCYFIPS": "48383",
        "CITYCD": "483830620",
        "RAILROAD": "TXPF",
        "RRDIV": "SOUTHERN",
        "RRSUBDIV": "BIG LAKE",
        "HIGHWAY": "lS0000",
        "STREET": "south MAIN STreet",
        "TTSTN": "693480",
        "MILEPOST": "0790.69",
        "TYPEXING": "Public",
        "POSXING": "At Grade",
        "PRVCAT": "14",
        "INIT": "2",
        "LATITUDE": 31.1896335,
        "LONGITUD": -101.4620351,
        "LLSOURCE": "1",
        "WHISTBAN": "0",
        "RRCONT": "3259428164",
        "POLCONT": "8007428905",
        "INV_LINK": "https://safetydata.fra.dot.gov/OfficeofSafety/PublicSite/Crossing/Crossing.aspx?phasetype=C&rpttype=I&txtcrossingnum=018846E",
        "ACC_LINK": "https://safetydata.fra.dot.gov/OfficeofSafety/PublicSite/Crossing/Crossing.aspx?phasetype=C&rpttype=A&txtcrossingnum=018846E",
        "TTSTNNAM": "BIG LAKE",
        "XPURPOSE": "1",
        "OPERATINGR": "TXPF",
        "OPERATIN_1": "Primary",
        "DAYTHRU": 1,
        "NGHTTHRU": 1,
        "MAINTRK": 1,
        "SIDINGTRK": 0,
        "YARDTRK": 2,
        "TRANSITTRK": 0,
        "INDUSTRYTR": 0,
        "OTHRTRK": 2,
        "WDCODE": "Crossbucks",
        "REVISIONDA": "2001/01/01 00:00:00",
        "LASTUPDATE": "9/18/2025",
        "AADT": "1144",
        "AADTYEAR": "2023",
        "STATENAME": "TEXAS",
        "STATEAB": "TX",
        "COUNTYNAME": "REAGAN",
        "CITYNAME": "BIG LAKE",
        "LATDD": 31.1896335,
        "LONGDD": -101.4620351,
        "gridlyProductionCertified": true,
        "gridlyClassification": "PUBLIC_ROADWAY",
        "gridlyDisplayName": "south MAIN STreet",
        "gridlyId": "FRA-018846E"
      }
    },
    {
      "type": "Feature",
      "id": 207484,
      "geometry": {
        "type": "Point",
        "coordinates": [
          -101.615356000025,
          31.2219415003808
        ]
      },
      "properties": {
        "OBJECTID": 207484,
        "CROSSING": "018851B",
        "EFFDATE": 1758153600000,
        "REASON": "14",
        "StateCode": "48",
        "CountyCode": "48383",
        "STCYFIPS": "48383",
        "CITYCD": "483830620",
        "RAILROAD": "TXPF",
        "RRDIV": "SOUTHERN",
        "RRSUBDIV": "BIG LAKE",
        "HIGHWAY": "cr0024",
        "STREET": "best lane",
        "TTSTN": "693497",
        "MILEPOST": "0800.27",
        "TYPEXING": "Public",
        "POSXING": "At Grade",
        "PRVCAT": "14",
        "INIT": "2",
        "LATITUDE": 31.2219415,
        "LONGITUD": -101.615356,
        "LLSOURCE": "1",
        "WHISTBAN": "0",
        "RRCONT": "3259428164",
        "POLCONT": "8007428905",
        "INV_LINK": "https://safetydata.fra.dot.gov/OfficeofSafety/PublicSite/Crossing/Crossing.aspx?phasetype=C&rpttype=I&txtcrossingnum=018851B",
        "ACC_LINK": "https://safetydata.fra.dot.gov/OfficeofSafety/PublicSite/Crossing/Crossing.aspx?phasetype=C&rpttype=A&txtcrossingnum=018851B",
        "TTSTNNAM": "BIG LAKE",
        "XPURPOSE": "1",
        "OPERATINGR": "TXPF",
        "OPERATIN_1": "Primary",
        "DAYTHRU": 1,
        "NGHTTHRU": 1,
        "MAINTRK": 1,
        "SIDINGTRK": 0,
        "YARDTRK": 0,
        "TRANSITTRK": 0,
        "INDUSTRYTR": 0,
        "OTHRTRK": 0,
        "WDCODE": "Crossbucks",
        "REVISIONDA": "2001/01/01 00:00:00",
        "LASTUPDATE": "9/18/2025",
        "AADT": "141",
        "AADTYEAR": "2023",
        "STATENAME": "TEXAS",
        "STATEAB": "TX",
        "COUNTYNAME": "REAGAN",
        "CITYNAME": "BIG LAKE",
        "LATDD": 31.2219415,
        "LONGDD": -101.615356,
        "gridlyProductionCertified": true,
        "gridlyClassification": "PUBLIC_ROADWAY",
        "gridlyDisplayName": "best lane",
        "gridlyId": "FRA-018851B"
      }
    },
    {
      "type": "Feature",
      "id": 207487,
      "geometry": {
        "type": "Point",
        "coordinates": [
          -101.621317699951,
          31.2225059998293
        ]
      },
      "properties": {
        "OBJECTID": 207487,
        "CROSSING": "018852H",
        "EFFDATE": 1758153600000,
        "REASON": "14",
        "StateCode": "48",
        "CountyCode": "48383",
        "STCYFIPS": "48383",
        "CITYCD": "483830620",
        "RAILROAD": "TXPF",
        "RRDIV": "SOUTHERN",
        "RRSUBDIV": "BIG LAKE",
        "HIGHWAY": "cr0113",
        "STREET": "best lane south",
        "TTSTN": "693497",
        "MILEPOST": "0800.62",
        "TYPEXING": "Public",
        "POSXING": "At Grade",
        "PRVCAT": "14",
        "INIT": "2",
        "LATITUDE": 31.222506,
        "LONGITUD": -101.6213177,
        "LLSOURCE": "1",
        "WHISTBAN": "0",
        "RRCONT": "3259428164",
        "POLCONT": "8007428905",
        "INV_LINK": "https://safetydata.fra.dot.gov/OfficeofSafety/PublicSite/Crossing/Crossing.aspx?phasetype=C&rpttype=I&txtcrossingnum=018852H",
        "ACC_LINK": "https://safetydata.fra.dot.gov/OfficeofSafety/PublicSite/Crossing/Crossing.aspx?phasetype=C&rpttype=A&txtcrossingnum=018852H",
        "TTSTNNAM": "BIG LAKE",
        "XPURPOSE": "1",
        "OPERATINGR": "TXPF",
        "OPERATIN_1": "Primary",
        "DAYTHRU": 1,
        "NGHTTHRU": 1,
        "MAINTRK": 1,
        "SIDINGTRK": 0,
        "YARDTRK": 0,
        "TRANSITTRK": 0,
        "INDUSTRYTR": 0,
        "OTHRTRK": 0,
        "WDCODE": "Crossbucks",
        "REVISIONDA": "2001/01/01 00:00:00",
        "LASTUPDATE": "9/18/2025",
        "AADT": "32",
        "AADTYEAR": "2023",
        "STATENAME": "TEXAS",
        "STATEAB": "TX",
        "COUNTYNAME": "REAGAN",
        "CITYNAME": "BIG LAKE",
        "LATDD": 31.222506,
        "LONGDD": -101.6213177,
        "gridlyProductionCertified": true,
        "gridlyClassification": "PUBLIC_ROADWAY",
        "gridlyDisplayName": "best lane south",
        "gridlyId": "FRA-018852H"
      }
    },
    {
      "type": "Feature",
      "id": 207488,
      "geometry": {
        "type": "Point",
        "coordinates": [
          -101.684590500157,
          31.2243614998704
        ]
      },
      "properties": {
        "OBJECTID": 207488,
        "CROSSING": "018856K",
        "EFFDATE": 1758153600000,
        "REASON": "14",
        "StateCode": "48",
        "CountyCode": "48383",
        "STCYFIPS": "48383",
        "CITYCD": "483830620",
        "RAILROAD": "TXPF",
        "RRDIV": "SOUTHERN",
        "RRSUBDIV": "BIG LAKE",
        "HIGHWAY": "cr0000",
        "STREET": "GOLF COURSE RoaD",
        "TTSTN": "693497",
        "MILEPOST": "0804.37",
        "TYPEXING": "Public",
        "POSXING": "At Grade",
        "PRVCAT": "14",
        "INIT": "2",
        "LATITUDE": 31.2243615,
        "LONGITUD": -101.6845905,
        "LLSOURCE": "1",
        "WHISTBAN": "0",
        "RRCONT": "3259428164",
        "POLCONT": "8007428905",
        "INV_LINK": "https://safetydata.fra.dot.gov/OfficeofSafety/PublicSite/Crossing/Crossing.aspx?phasetype=C&rpttype=I&txtcrossingnum=018856K",
        "ACC_LINK": "https://safetydata.fra.dot.gov/OfficeofSafety/PublicSite/Crossing/Crossing.aspx?phasetype=C&rpttype=A&txtcrossingnum=018856K",
        "TTSTNNAM": "BIG LAKE",
        "XPURPOSE": "1",
        "OPERATINGR": "TXPF",
        "OPERATIN_1": "Primary",
        "DAYTHRU": 1,
        "NGHTTHRU": 1,
        "MAINTRK": 1,
        "SIDINGTRK": 0,
        "YARDTRK": 0,
        "TRANSITTRK": 0,
        "INDUSTRYTR": 0,
        "OTHRTRK": 0,
        "WDCODE": "Crossbucks",
        "REVISIONDA": "2001/01/01 00:00:00",
        "LASTUPDATE": "9/18/2025",
        "AADT": "9",
        "AADTYEAR": "2024",
        "STATENAME": "TEXAS",
        "STATEAB": "TX",
        "COUNTYNAME": "REAGAN",
        "CITYNAME": "BIG LAKE",
        "LATDD": 31.2243615,
        "LONGDD": -101.6845905,
        "gridlyProductionCertified": true,
        "gridlyClassification": "PUBLIC_ROADWAY",
        "gridlyDisplayName": "GOLF COURSE RoaD",
        "gridlyId": "FRA-018856K"
      }
    },
    {
      "type": "Feature",
      "id": 207496,
      "geometry": {
        "type": "Point",
        "coordinates": [
          -101.698102600233,
          31.2247685000461
        ]
      },
      "properties": {
        "OBJECTID": 207496,
        "CROSSING": "018858Y",
        "EFFDATE": 1758153600000,
        "REASON": "14",
        "StateCode": "48",
        "CountyCode": "48383",
        "STCYFIPS": "48383",
        "CITYCD": "484615650",
        "RAILROAD": "TXPF",
        "RRDIV": "SOUTHERN",
        "RRSUBDIV": "BIG LAKE",
        "HIGHWAY": "cr0030",
        "STREET": "eaves road",
        "TTSTN": "693497",
        "MILEPOST": "0805.17",
        "TYPEXING": "Public",
        "POSXING": "At Grade",
        "PRVCAT": "14",
        "INIT": "2",
        "LATITUDE": 31.2247685,
        "LONGITUD": -101.6981026,
        "LLSOURCE": "1",
        "WHISTBAN": "0",
        "RRCONT": "3259428164",
        "POLCONT": "8007428905",
        "INV_LINK": "https://safetydata.fra.dot.gov/OfficeofSafety/PublicSite/Crossing/Crossing.aspx?phasetype=C&rpttype=I&txtcrossingnum=018858Y",
        "ACC_LINK": "https://safetydata.fra.dot.gov/OfficeofSafety/PublicSite/Crossing/Crossing.aspx?phasetype=C&rpttype=A&txtcrossingnum=018858Y",
        "TTSTNNAM": "BIG LAKE",
        "XPURPOSE": "1",
        "OPERATINGR": "TXPF",
        "OPERATIN_1": "Primary",
        "DAYTHRU": 1,
        "NGHTTHRU": 1,
        "MAINTRK": 1,
        "SIDINGTRK": 0,
        "YARDTRK": 0,
        "TRANSITTRK": 0,
        "INDUSTRYTR": 0,
        "OTHRTRK": 0,
        "WDCODE": "Crossbucks",
        "REVISIONDA": "2001/01/01 00:00:00",
        "LASTUPDATE": "9/18/2025",
        "AADT": "21",
        "AADTYEAR": "2023",
        "STATENAME": "TEXAS",
        "STATEAB": "TX",
        "COUNTYNAME": "REAGAN",
        "CITYNAME": "RANKIN",
        "LATDD": 31.2247685,
        "LONGDD": -101.6981026,
        "gridlyProductionCertified": true,
        "gridlyClassification": "PUBLIC_ROADWAY",
        "gridlyDisplayName": "eaves road",
        "gridlyId": "FRA-018858Y"
      }
    },
    {
      "type": "Feature",
      "id": 207594,
      "geometry": {
        "type": "Point",
        "coordinates": [
          -101.689668999851,
          31.224512799922
        ]
      },
      "properties": {
        "OBJECTID": 207594,
        "CROSSING": "018857S",
        "EFFDATE": 1758153600000,
        "REASON": "14",
        "StateCode": "48",
        "CountyCode": "48383",
        "STCYFIPS": "48383",
        "CITYCD": "483830620",
        "RAILROAD": "TXPF",
        "RRDIV": "SOUTHERN",
        "RRSUBDIV": "BIG LAKE",
        "HIGHWAY": "Cr0031",
        "STREET": "County Road 31",
        "TTSTN": "693497",
        "MILEPOST": "0804.64",
        "TYPEXING": "Public",
        "POSXING": "At Grade",
        "PRVCAT": "14",
        "INIT": "2",
        "LATITUDE": 31.2245128,
        "LONGITUD": -101.689669,
        "LLSOURCE": "1",
        "WHISTBAN": "0",
        "RRCONT": "3259428164",
        "POLCONT": "8007428905",
        "INV_LINK": "https://safetydata.fra.dot.gov/OfficeofSafety/PublicSite/Crossing/Crossing.aspx?phasetype=C&rpttype=I&txtcrossingnum=018857S",
        "ACC_LINK": "https://safetydata.fra.dot.gov/OfficeofSafety/PublicSite/Crossing/Crossing.aspx?phasetype=C&rpttype=A&txtcrossingnum=018857S",
        "TTSTNNAM": "BIG LAKE",
        "XPURPOSE": "1",
        "OPERATINGR": "TXPF",
        "OPERATIN_1": "Primary",
        "DAYTHRU": 1,
        "NGHTTHRU": 1,
        "MAINTRK": 1,
        "SIDINGTRK": 0,
        "YARDTRK": 0,
        "TRANSITTRK": 0,
        "INDUSTRYTR": 0,
        "OTHRTRK": 0,
        "WDCODE": "Crossbucks",
        "REVISIONDA": "2001/01/01 00:00:00",
        "LASTUPDATE": "9/18/2025",
        "AADT": "2",
        "AADTYEAR": "2023",
        "STATENAME": "TEXAS",
        "STATEAB": "TX",
        "COUNTYNAME": "REAGAN",
        "CITYNAME": "BIG LAKE",
        "LATDD": 31.2245128,
        "LONGDD": -101.689669,
        "gridlyProductionCertified": true,
        "gridlyClassification": "PUBLIC_ROADWAY",
        "gridlyDisplayName": "County Road 31",
        "gridlyId": "FRA-018857S"
      }
    },
    {
      "type": "Feature",
      "id": 214021,
      "geometry": {
        "type": "Point",
        "coordinates": [
          -101.467399099732,
          31.1900314998182
        ]
      },
      "properties": {
        "OBJECTID": 214021,
        "CROSSING": "018848T",
        "EFFDATE": 1767830400000,
        "REASON": "14",
        "StateCode": "48",
        "CountyCode": "48383",
        "STCYFIPS": "48383",
        "CITYCD": "483830620",
        "RAILROAD": "TXPF",
        "RRDIV": "SOUTHERN",
        "RRSUBDIV": "BIG LAKE",
        "HIGHWAY": "SH0137",
        "STREET": "SH0137",
        "TTSTN": "693480",
        "MILEPOST": "0791.00",
        "TYPEXING": "Public",
        "POSXING": "At Grade",
        "PRVCAT": "14",
        "INIT": "2",
        "LATITUDE": 31.1900315,
        "LONGITUD": -101.4673991,
        "LLSOURCE": "1",
        "WHISTBAN": "0",
        "RRCONT": "3259428164",
        "POLCONT": "8007428905",
        "INV_LINK": "https://safetydata.fra.dot.gov/OfficeofSafety/PublicSite/Crossing/Crossing.aspx?phasetype=C&rpttype=I&txtcrossingnum=018848T",
        "ACC_LINK": "https://safetydata.fra.dot.gov/OfficeofSafety/PublicSite/Crossing/Crossing.aspx?phasetype=C&rpttype=A&txtcrossingnum=018848T",
        "TTSTNNAM": "BIG LAKE",
        "XPURPOSE": "1",
        "OPERATINGR": "TXPF",
        "OPERATIN_1": "Primary",
        "DAYTHRU": 1,
        "NGHTTHRU": 1,
        "MAINTRK": 1,
        "SIDINGTRK": 1,
        "YARDTRK": 0,
        "TRANSITTRK": 0,
        "INDUSTRYTR": 0,
        "OTHRTRK": 1,
        "WDCODE": "All other Gates",
        "REVISIONDA": "2001/01/01 00:00:00",
        "LASTUPDATE": "1/8/2026",
        "AADT": "2847",
        "AADTYEAR": "2023",
        "STATENAME": "TEXAS",
        "STATEAB": "TX",
        "COUNTYNAME": "REAGAN",
        "CITYNAME": "BIG LAKE",
        "LATDD": 31.1900315,
        "LONGDD": -101.4673991,
        "gridlyProductionCertified": true,
        "gridlyClassification": "PUBLIC_ROADWAY",
        "gridlyDisplayName": "SH0137",
        "gridlyId": "FRA-018848T"
      }
    }
  ]
}
