{
  "type": "FeatureCollection",
  "features": [
    {
      "type": "Feature",
      "id": 206764,
      "geometry": {
        "type": "Point",
        "coordinates": [
          -97.6023708002491,
          32.6959573997025
        ]
      },
      "properties": {
        "OBJECTID": 206764,
        "CROSSING": "839214N",
        "EFFDATE": 1770681600000,
        "REASON": "14",
        "StateCode": "48",
        "CountyCode": "48367",
        "STCYFIPS": "48367",
        "CITYCD": "483670085",
        "RAILROAD": "UP",
        "RRDIV": "TEXOMA",
        "RRSUBDIV": "BAIRD SUB",
        "HIGHWAY": "fm1187",
        "STREET": "FM 1187 NORTHBOUND",
        "TTSTN": "668353",
        "MILEPOST": "0263.936",
        "TYPEXING": "Public",
        "POSXING": "At Grade",
        "PRVCAT": "14",
        "INIT": "1",
        "LATITUDE": 32.6959574,
        "LONGITUD": -97.6023708,
        "LLSOURCE": "1",
        "WHISTBAN": "1",
        "RRCONT": "4025443721",
        "POLCONT": "8008488715",
        "INV_LINK": "https://safetydata.fra.dot.gov/OfficeofSafety/PublicSite/Crossing/Crossing.aspx?phasetype=C&rpttype=I&txtcrossingnum=839214N",
        "ACC_LINK": "https://safetydata.fra.dot.gov/OfficeofSafety/PublicSite/Crossing/Crossing.aspx?phasetype=C&rpttype=A&txtcrossingnum=839214N",
        "TTSTNNAM": "",
        "XPURPOSE": "1",
        "OPERATINGR": "UP",
        "OPERATIN_1": "Primary",
        "DAYTHRU": 7,
        "NGHTTHRU": 7,
        "MAINTRK": 1,
        "SIDINGTRK": 0,
        "YARDTRK": 0,
        "TRANSITTRK": 0,
        "INDUSTRYTR": 1,
        "OTHRTRK": 1,
        "WDCODE": "All other Gates",
        "REVISIONDA": "1975/01/01 00:00:00",
        "LASTUPDATE": "2/10/2026",
        "AADT": "11081",
        "AADTYEAR": "2024",
        "STATENAME": "TEXAS",
        "STATEAB": "TX",
        "COUNTYNAME": "PARKER",
        "CITYNAME": "ALEDO",
        "LATDD": 32.6959574,
        "LONGDD": -97.6023708,
        "gridlyProductionCertified": true,
        "gridlyClassification": "PUBLIC_ROADWAY",
        "gridlyDisplayName": "FM 1187 NORTHBOUND",
        "gridlyId": "FRA-839214N"
      }
    },
    {
      "type": "Feature",
      "id": 211565,
      "geometry": {
        "type": "Point",
        "coordinates": [
          -97.6037897000201,
          32.6969311998883
        ]
      },
      "properties": {
        "OBJECTID": 211565,
        "CROSSING": "440627A",
        "EFFDATE": 1770681600000,
        "REASON": "14",
        "StateCode": "48",
        "CountyCode": "48367",
        "STCYFIPS": "48367",
        "CITYCD": "483670085",
        "RAILROAD": "UP",
        "RRDIV": "Texoma",
        "RRSUBDIV": "Baird Sub",
        "HIGHWAY": "fm1187",
        "STREET": "FM 1187 Southbound",
        "TTSTN": "",
        "MILEPOST": "0264.050",
        "TYPEXING": "Public",
        "POSXING": "At Grade",
        "PRVCAT": "14",
        "INIT": "1",
        "LATITUDE": 32.6969312,
        "LONGITUD": -97.6037897,
        "LLSOURCE": "1",
        "WHISTBAN": "1",
        "RRCONT": "4025443721",
        "POLCONT": "8008488715",
        "INV_LINK": "https://safetydata.fra.dot.gov/OfficeofSafety/PublicSite/Crossing/Crossing.aspx?phasetype=C&rpttype=I&txtcrossingnum=440627A",
        "ACC_LINK": "https://safetydata.fra.dot.gov/OfficeofSafety/PublicSite/Crossing/Crossing.aspx?phasetype=C&rpttype=A&txtcrossingnum=440627A",
        "TTSTNNAM": "",
        "XPURPOSE": "1",
        "OPERATINGR": "UP",
        "OPERATIN_1": "Primary",
        "DAYTHRU": 7,
        "NGHTTHRU": 7,
        "MAINTRK": 1,
        "SIDINGTRK": 0,
        "YARDTRK": 0,
        "TRANSITTRK": 0,
        "INDUSTRYTR": 1,
        "OTHRTRK": 0,
        "WDCODE": "All other Gates",
        "REVISIONDA": "1975/01/01 00:00:00",
        "LASTUPDATE": "2/10/2026",
        "AADT": "10329",
        "AADTYEAR": "2024",
        "STATENAME": "TEXAS",
        "STATEAB": "TX",
        "COUNTYNAME": "PARKER",
        "CITYNAME": "ALEDO",
        "LATDD": 32.6969312,
        "LONGDD": -97.6037897,
        "gridlyProductionCertified": true,
        "gridlyClassification": "PUBLIC_ROADWAY",
        "gridlyDisplayName": "FM 1187 Southbound",
        "gridlyId": "FRA-440627A"
      }
    },
    {
      "type": "Feature",
      "id": 211800,
      "geometry": {
        "type": "Point",
        "coordinates": [
          -97.800393400271,
          32.7648249999399
        ]
      },
      "properties": {
        "OBJECTID": 211800,
        "CROSSING": "839241K",
        "EFFDATE": 1760918400000,
        "REASON": "14",
        "StateCode": "48",
        "CountyCode": "48367",
        "STCYFIPS": "48367",
        "CITYCD": "483677280",
        "RAILROAD": "UP",
        "RRDIV": "TEXOMA",
        "RRSUBDIV": "BAIRD SUB",
        "HIGHWAY": "LS0000",
        "STREET": "NORTH ALAMO STREET",
        "TTSTN": "668380",
        "MILEPOST": "0276.840",
        "TYPEXING": "Public",
        "POSXING": "At Grade",
        "PRVCAT": "14",
        "INIT": "2",
        "LATITUDE": 32.764825,
        "LONGITUD": -97.8003934,
        "LLSOURCE": "1",
        "WHISTBAN": "0",
        "RRCONT": "4025443721",
        "POLCONT": "8008488715",
        "INV_LINK": "https://safetydata.fra.dot.gov/OfficeofSafety/PublicSite/Crossing/Crossing.aspx?phasetype=C&rpttype=I&txtcrossingnum=839241K",
        "ACC_LINK": "https://safetydata.fra.dot.gov/OfficeofSafety/PublicSite/Crossing/Crossing.aspx?phasetype=C&rpttype=A&txtcrossingnum=839241K",
        "TTSTNNAM": "",
        "XPURPOSE": "1",
        "OPERATINGR": "UP",
        "OPERATIN_1": "Primary",
        "DAYTHRU": 7,
        "NGHTTHRU": 7,
        "MAINTRK": 1,
        "SIDINGTRK": 1,
        "YARDTRK": 0,
        "TRANSITTRK": 0,
        "INDUSTRYTR": 0,
        "OTHRTRK": 2,
        "WDCODE": "Crossbucks",
        "REVISIONDA": "1975/01/01 00:00:00",
        "LASTUPDATE": "10/20/2025",
        "AADT": "130",
        "AADTYEAR": "2024",
        "STATENAME": "TEXAS",
        "STATEAB": "TX",
        "COUNTYNAME": "PARKER",
        "CITYNAME": "WEATHERFORD",
        "LATDD": 32.764825,
        "LONGDD": -97.8003934,
        "gridlyProductionCertified": true,
        "gridlyClassification": "PUBLIC_ROADWAY",
        "gridlyDisplayName": "NORTH ALAMO STREET",
        "gridlyId": "FRA-839241K"
      }
    },
    {
      "type": "Feature",
      "id": 212163,
      "geometry": {
        "type": "Point",
        "coordinates": [
          -97.7729610002641,
          32.7482180002341
        ]
      },
      "properties": {
        "OBJECTID": 212163,
        "CROSSING": "795421G",
        "EFFDATE": 1759104000000,
        "REASON": "14",
        "StateCode": "48",
        "CountyCode": "48367",
        "STCYFIPS": "48367",
        "CITYCD": "483677280",
        "RAILROAD": "UP",
        "RRDIV": "TEXOMA",
        "RRSUBDIV": "BAIRD SUB",
        "HIGHWAY": "NA",
        "STREET": "Private City of Weatherford",
        "TTSTN": "668380",
        "MILEPOST": "0274.890",
        "TYPEXING": "Private",
        "POSXING": "At Grade",
        "PRVCAT": "14",
        "INIT": "1",
        "LATITUDE": 32.748218,
        "LONGITUD": -97.772961,
        "LLSOURCE": "1",
        "WHISTBAN": "0",
        "RRCONT": "4025443721",
        "POLCONT": "8008488715",
        "INV_LINK": "https://safetydata.fra.dot.gov/OfficeofSafety/PublicSite/Crossing/Crossing.aspx?phasetype=C&rpttype=I&txtcrossingnum=795421G",
        "ACC_LINK": "https://safetydata.fra.dot.gov/OfficeofSafety/PublicSite/Crossing/Crossing.aspx?phasetype=C&rpttype=A&txtcrossingnum=795421G",
        "TTSTNNAM": "",
        "XPURPOSE": "1",
        "OPERATINGR": "UP",
        "OPERATIN_1": "Primary",
        "DAYTHRU": 7,
        "NGHTTHRU": 7,
        "MAINTRK": 1,
        "SIDINGTRK": 0,
        "YARDTRK": 0,
        "TRANSITTRK": 0,
        "INDUSTRYTR": 0,
        "OTHRTRK": 0,
        "WDCODE": "",
        "REVISIONDA": "1975/01/01 00:00:00",
        "LASTUPDATE": "9/29/2025",
        "AADT": "1",
        "AADTYEAR": "1992",
        "STATENAME": "TEXAS",
        "STATEAB": "TX",
        "COUNTYNAME": "PARKER",
        "CITYNAME": "WEATHERFORD",
        "LATDD": 32.748218,
        "LONGDD": -97.772961,
        "gridlyProductionCertified": true,
        "gridlyClassification": "PUBLIC_ROADWAY",
        "gridlyDisplayName": "Private City of Weatherford",
        "gridlyId": "FRA-795421G"
      }
    },
    {
      "type": "Feature",
      "id": 212238,
      "geometry": {
        "type": "Point",
        "coordinates": [
          -98.0575299995855,
          32.7107690002308
        ]
      },
      "properties": {
        "OBJECTID": 212238,
        "CROSSING": "839363P",
        "EFFDATE": 1759104000000,
        "REASON": "14",
        "StateCode": "48",
        "CountyCode": "48367",
        "STCYFIPS": "48367",
        "CITYCD": "483674602",
        "RAILROAD": "UP",
        "RRDIV": "TEXOMA",
        "RRSUBDIV": "BAIRD SUB",
        "HIGHWAY": "NA",
        "STREET": "PRIVATE",
        "TTSTN": "668473",
        "MILEPOST": "0294.730",
        "TYPEXING": "Private",
        "POSXING": "At Grade",
        "PRVCAT": "14",
        "INIT": "1",
        "LATITUDE": 32.710769,
        "LONGITUD": -98.05753,
        "LLSOURCE": "1",
        "WHISTBAN": "0",
        "RRCONT": "4025443721",
        "POLCONT": "8008488715",
        "INV_LINK": "https://safetydata.fra.dot.gov/OfficeofSafety/PublicSite/Crossing/Crossing.aspx?phasetype=C&rpttype=I&txtcrossingnum=839363P",
        "ACC_LINK": "https://safetydata.fra.dot.gov/OfficeofSafety/PublicSite/Crossing/Crossing.aspx?phasetype=C&rpttype=A&txtcrossingnum=839363P",
        "TTSTNNAM": "",
        "XPURPOSE": "1",
        "OPERATINGR": "UP",
        "OPERATIN_1": "Primary",
        "DAYTHRU": 7,
        "NGHTTHRU": 7,
        "MAINTRK": 1,
        "SIDINGTRK": 0,
        "YARDTRK": 0,
        "TRANSITTRK": 0,
        "INDUSTRYTR": 0,
        "OTHRTRK": 0,
        "WDCODE": "",
        "REVISIONDA": "1975/01/01 00:00:00",
        "LASTUPDATE": "9/29/2025",
        "AADT": "1",
        "AADTYEAR": "1970",
        "STATENAME": "TEXAS",
        "STATEAB": "TX",
        "COUNTYNAME": "PARKER",
        "CITYNAME": "MILLSAP",
        "LATDD": 32.710769,
        "LONGDD": -98.05753,
        "gridlyProductionCertified": true,
        "gridlyClassification": "PUBLIC_ROADWAY",
        "gridlyDisplayName": "PRIVATE",
        "gridlyId": "FRA-839363P"
      }
    },
    {
      "type": "Feature",
      "id": 212351,
      "geometry": {
        "type": "Point",
        "coordinates": [
          -97.6204530002812,
          32.7014979998265
        ]
      },
      "properties": {
        "OBJECTID": 212351,
        "CROSSING": "839215V",
        "EFFDATE": 1758585600000,
        "REASON": "14",
        "StateCode": "48",
        "CountyCode": "48367",
        "STCYFIPS": "48367",
        "CITYCD": "483670085",
        "RAILROAD": "UP",
        "RRDIV": "TEXOMA",
        "RRSUBDIV": "BAIRD SUB",
        "HIGHWAY": "CO 0000",
        "STREET": "PRIVATE",
        "TTSTN": "668353",
        "MILEPOST": "0265.100",
        "TYPEXING": "Private",
        "POSXING": "At Grade",
        "PRVCAT": "14",
        "INIT": "1",
        "LATITUDE": 32.701498,
        "LONGITUD": -97.620453,
        "LLSOURCE": "1",
        "WHISTBAN": "0",
        "RRCONT": "4025443721",
        "POLCONT": "8008488715",
        "INV_LINK": "https://safetydata.fra.dot.gov/OfficeofSafety/PublicSite/Crossing/Crossing.aspx?phasetype=C&rpttype=I&txtcrossingnum=839215V",
        "ACC_LINK": "https://safetydata.fra.dot.gov/OfficeofSafety/PublicSite/Crossing/Crossing.aspx?phasetype=C&rpttype=A&txtcrossingnum=839215V",
        "TTSTNNAM": "",
        "XPURPOSE": "1",
        "OPERATINGR": "UP",
        "OPERATIN_1": "Primary",
        "DAYTHRU": 7,
        "NGHTTHRU": 7,
        "MAINTRK": 1,
        "SIDINGTRK": 0,
        "YARDTRK": 0,
        "TRANSITTRK": 0,
        "INDUSTRYTR": 0,
        "OTHRTRK": 0,
        "WDCODE": "",
        "REVISIONDA": "1975/01/01 00:00:00",
        "LASTUPDATE": "9/23/2025",
        "AADT": "10",
        "AADTYEAR": "1983",
        "STATENAME": "TEXAS",
        "STATEAB": "TX",
        "COUNTYNAME": "PARKER",
        "CITYNAME": "ALEDO",
        "LATDD": 32.701498,
        "LONGDD": -97.620453,
        "gridlyProductionCertified": true,
        "gridlyClassification": "PUBLIC_ROADWAY",
        "gridlyDisplayName": "PRIVATE",
        "gridlyId": "FRA-839215V"
      }
    },
    {
      "type": "Feature",
      "id": 212352,
      "geometry": {
        "type": "Point",
        "coordinates": [
          -97.6565349996811,
          32.7049179996245
        ]
      },
      "properties": {
        "OBJECTID": 212352,
        "CROSSING": "839218R",
        "EFFDATE": 1758585600000,
        "REASON": "14",
        "StateCode": "48",
        "CountyCode": "48367",
        "STCYFIPS": "48367",
        "CITYCD": "483670085",
        "RAILROAD": "UP",
        "RRDIV": "TEXOMA",
        "RRSUBDIV": "BAIRD SUB",
        "HIGHWAY": "NA",
        "STREET": "PRIVATE",
        "TTSTN": "668353",
        "MILEPOST": "0267.340",
        "TYPEXING": "Private",
        "POSXING": "At Grade",
        "PRVCAT": "14",
        "INIT": "1",
        "LATITUDE": 32.704918,
        "LONGITUD": -97.656535,
        "LLSOURCE": "1",
        "WHISTBAN": "0",
        "RRCONT": "4025443721",
        "POLCONT": "8008488715",
        "INV_LINK": "https://safetydata.fra.dot.gov/OfficeofSafety/PublicSite/Crossing/Crossing.aspx?phasetype=C&rpttype=I&txtcrossingnum=839218R",
        "ACC_LINK": "https://safetydata.fra.dot.gov/OfficeofSafety/PublicSite/Crossing/Crossing.aspx?phasetype=C&rpttype=A&txtcrossingnum=839218R",
        "TTSTNNAM": "",
        "XPURPOSE": "1",
        "OPERATINGR": "UP",
        "OPERATIN_1": "Primary",
        "DAYTHRU": 7,
        "NGHTTHRU": 7,
        "MAINTRK": 1,
        "SIDINGTRK": 0,
        "YARDTRK": 0,
        "TRANSITTRK": 0,
        "INDUSTRYTR": 0,
        "OTHRTRK": 0,
        "WDCODE": "",
        "REVISIONDA": "1975/01/01 00:00:00",
        "LASTUPDATE": "9/23/2025",
        "AADT": "1",
        "AADTYEAR": "1970",
        "STATENAME": "TEXAS",
        "STATEAB": "TX",
        "COUNTYNAME": "PARKER",
        "CITYNAME": "ALEDO",
        "LATDD": 32.704918,
        "LONGDD": -97.656535,
        "gridlyProductionCertified": true,
        "gridlyClassification": "PUBLIC_ROADWAY",
        "gridlyDisplayName": "PRIVATE",
        "gridlyId": "FRA-839218R"
      }
    },
    {
      "type": "Feature",
      "id": 212353,
      "geometry": {
        "type": "Point",
        "coordinates": [
          -97.6729019996289,
          32.7178840000637
        ]
      },
      "properties": {
        "OBJECTID": 212353,
        "CROSSING": "839220S",
        "EFFDATE": 1758585600000,
        "REASON": "14",
        "StateCode": "48",
        "CountyCode": "48367",
        "STCYFIPS": "48367",
        "CITYCD": "483670085",
        "RAILROAD": "UP",
        "RRDIV": "TEXOMA",
        "RRSUBDIV": "BAIRD SUB",
        "HIGHWAY": "NA",
        "STREET": "PRIVATE",
        "TTSTN": "668353",
        "MILEPOST": "0268.650",
        "TYPEXING": "Private",
        "POSXING": "At Grade",
        "PRVCAT": "14",
        "INIT": "1",
        "LATITUDE": 32.717884,
        "LONGITUD": -97.672902,
        "LLSOURCE": "1",
        "WHISTBAN": "0",
        "RRCONT": "4025443721",
        "POLCONT": "8008488715",
        "INV_LINK": "https://safetydata.fra.dot.gov/OfficeofSafety/PublicSite/Crossing/Crossing.aspx?phasetype=C&rpttype=I&txtcrossingnum=839220S",
        "ACC_LINK": "https://safetydata.fra.dot.gov/OfficeofSafety/PublicSite/Crossing/Crossing.aspx?phasetype=C&rpttype=A&txtcrossingnum=839220S",
        "TTSTNNAM": "",
        "XPURPOSE": "1",
        "OPERATINGR": "UP",
        "OPERATIN_1": "Primary",
        "DAYTHRU": 7,
        "NGHTTHRU": 7,
        "MAINTRK": 1,
        "SIDINGTRK": 0,
        "YARDTRK": 0,
        "TRANSITTRK": 0,
        "INDUSTRYTR": 0,
        "OTHRTRK": 0,
        "WDCODE": "",
        "REVISIONDA": "1975/01/01 00:00:00",
        "LASTUPDATE": "9/23/2025",
        "AADT": "1",
        "AADTYEAR": "1970",
        "STATENAME": "TEXAS",
        "STATEAB": "TX",
        "COUNTYNAME": "PARKER",
        "CITYNAME": "ALEDO",
        "LATDD": 32.717884,
        "LONGDD": -97.672902,
        "gridlyProductionCertified": true,
        "gridlyClassification": "PUBLIC_ROADWAY",
        "gridlyDisplayName": "PRIVATE",
        "gridlyId": "FRA-839220S"
      }
    },
    {
      "type": "Feature",
      "id": 212354,
      "geometry": {
        "type": "Point",
        "coordinates": [
          -97.6869646996003,
          32.7216580997847
        ]
      },
      "properties": {
        "OBJECTID": 212354,
        "CROSSING": "839224U",
        "EFFDATE": 1758585600000,
        "REASON": "14",
        "StateCode": "48",
        "CountyCode": "48367",
        "STCYFIPS": "48367",
        "CITYCD": "483670085",
        "RAILROAD": "UP",
        "RRDIV": "TEXOMA",
        "RRSUBDIV": "BAIRD SUB",
        "HIGHWAY": "NA",
        "STREET": "PRIVATE",
        "TTSTN": "668353",
        "MILEPOST": "0269.530",
        "TYPEXING": "Private",
        "POSXING": "At Grade",
        "PRVCAT": "14",
        "INIT": "1",
        "LATITUDE": 32.7216581,
        "LONGITUD": -97.6869647,
        "LLSOURCE": "1",
        "WHISTBAN": "0",
        "RRCONT": "4025443721",
        "POLCONT": "8008488715",
        "INV_LINK": "https://safetydata.fra.dot.gov/OfficeofSafety/PublicSite/Crossing/Crossing.aspx?phasetype=C&rpttype=I&txtcrossingnum=839224U",
        "ACC_LINK": "https://safetydata.fra.dot.gov/OfficeofSafety/PublicSite/Crossing/Crossing.aspx?phasetype=C&rpttype=A&txtcrossingnum=839224U",
        "TTSTNNAM": "",
        "XPURPOSE": "1",
        "OPERATINGR": "UP",
        "OPERATIN_1": "Primary",
        "DAYTHRU": 7,
        "NGHTTHRU": 7,
        "MAINTRK": 1,
        "SIDINGTRK": 0,
        "YARDTRK": 0,
        "TRANSITTRK": 0,
        "INDUSTRYTR": 0,
        "OTHRTRK": 0,
        "WDCODE": "",
        "REVISIONDA": "1975/01/01 00:00:00",
        "LASTUPDATE": "9/23/2025",
        "AADT": "1",
        "AADTYEAR": "1970",
        "STATENAME": "TEXAS",
        "STATEAB": "TX",
        "COUNTYNAME": "PARKER",
        "CITYNAME": "ALEDO",
        "LATDD": 32.7216581,
        "LONGDD": -97.6869647,
        "gridlyProductionCertified": true,
        "gridlyClassification": "PUBLIC_ROADWAY",
        "gridlyDisplayName": "PRIVATE",
        "gridlyId": "FRA-839224U"
      }
    },
    {
      "type": "Feature",
      "id": 212364,
      "geometry": {
        "type": "Point",
        "coordinates": [
          -97.6932912996861,
          32.7228951000826
        ]
      },
      "properties": {
        "OBJECTID": 212364,
        "CROSSING": "839226H",
        "EFFDATE": 1758585600000,
        "REASON": "14",
        "StateCode": "48",
        "CountyCode": "48367",
        "STCYFIPS": "48367",
        "CITYCD": "483670085",
        "RAILROAD": "UP",
        "RRDIV": "TEXOMA",
        "RRSUBDIV": "BAIRD SUB",
        "HIGHWAY": "NA",
        "STREET": "PRIVATE",
        "TTSTN": "668380",
        "MILEPOST": "0269.910",
        "TYPEXING": "Private",
        "POSXING": "At Grade",
        "PRVCAT": "14",
        "INIT": "1",
        "LATITUDE": 32.7228951,
        "LONGITUD": -97.6932913,
        "LLSOURCE": "1",
        "WHISTBAN": "0",
        "RRCONT": "4025443721",
        "POLCONT": "8008488715",
        "INV_LINK": "https://safetydata.fra.dot.gov/OfficeofSafety/PublicSite/Crossing/Crossing.aspx?phasetype=C&rpttype=I&txtcrossingnum=839226H",
        "ACC_LINK": "https://safetydata.fra.dot.gov/OfficeofSafety/PublicSite/Crossing/Crossing.aspx?phasetype=C&rpttype=A&txtcrossingnum=839226H",
        "TTSTNNAM": "",
        "XPURPOSE": "1",
        "OPERATINGR": "UP",
        "OPERATIN_1": "Primary",
        "DAYTHRU": 7,
        "NGHTTHRU": 7,
        "MAINTRK": 1,
        "SIDINGTRK": 0,
        "YARDTRK": 0,
        "TRANSITTRK": 0,
        "INDUSTRYTR": 0,
        "OTHRTRK": 0,
        "WDCODE": "",
        "REVISIONDA": "1975/01/01 00:00:00",
        "LASTUPDATE": "9/23/2025",
        "AADT": "1",
        "AADTYEAR": "1970",
        "STATENAME": "TEXAS",
        "STATEAB": "TX",
        "COUNTYNAME": "PARKER",
        "CITYNAME": "ALEDO",
        "LATDD": 32.7228951,
        "LONGDD": -97.6932913,
        "gridlyProductionCertified": true,
        "gridlyClassification": "PUBLIC_ROADWAY",
        "gridlyDisplayName": "PRIVATE",
        "gridlyId": "FRA-839226H"
      }
    },
    {
      "type": "Feature",
      "id": 212365,
      "geometry": {
        "type": "Point",
        "coordinates": [
          -97.6994277003751,
          32.7244190000223
        ]
      },
      "properties": {
        "OBJECTID": 212365,
        "CROSSING": "839227P",
        "EFFDATE": 1758585600000,
        "REASON": "14",
        "StateCode": "48",
        "CountyCode": "48367",
        "STCYFIPS": "48367",
        "CITYCD": "483670085",
        "RAILROAD": "UP",
        "RRDIV": "TEXOMA",
        "RRSUBDIV": "BAIRD SUB",
        "HIGHWAY": "NA",
        "STREET": "PRIVATE",
        "TTSTN": "668380",
        "MILEPOST": "0270.280",
        "TYPEXING": "Private",
        "POSXING": "At Grade",
        "PRVCAT": "14",
        "INIT": "1",
        "LATITUDE": 32.724419,
        "LONGITUD": -97.6994277,
        "LLSOURCE": "1",
        "WHISTBAN": "0",
        "RRCONT": "4025443721",
        "POLCONT": "8008488715",
        "INV_LINK": "https://safetydata.fra.dot.gov/OfficeofSafety/PublicSite/Crossing/Crossing.aspx?phasetype=C&rpttype=I&txtcrossingnum=839227P",
        "ACC_LINK": "https://safetydata.fra.dot.gov/OfficeofSafety/PublicSite/Crossing/Crossing.aspx?phasetype=C&rpttype=A&txtcrossingnum=839227P",
        "TTSTNNAM": "",
        "XPURPOSE": "1",
        "OPERATINGR": "UP",
        "OPERATIN_1": "Primary",
        "DAYTHRU": 7,
        "NGHTTHRU": 7,
        "MAINTRK": 1,
        "SIDINGTRK": 0,
        "YARDTRK": 0,
        "TRANSITTRK": 0,
        "INDUSTRYTR": 0,
        "OTHRTRK": 0,
        "WDCODE": "",
        "REVISIONDA": "1975/01/01 00:00:00",
        "LASTUPDATE": "9/23/2025",
        "AADT": "1",
        "AADTYEAR": "1970",
        "STATENAME": "TEXAS",
        "STATEAB": "TX",
        "COUNTYNAME": "PARKER",
        "CITYNAME": "ALEDO",
        "LATDD": 32.724419,
        "LONGDD": -97.6994277,
        "gridlyProductionCertified": true,
        "gridlyClassification": "PUBLIC_ROADWAY",
        "gridlyDisplayName": "PRIVATE",
        "gridlyId": "FRA-839227P"
      }
    },
    {
      "type": "Feature",
      "id": 212366,
      "geometry": {
        "type": "Point",
        "coordinates": [
          -97.7028504998982,
          32.7257193000321
        ]
      },
      "properties": {
        "OBJECTID": 212366,
        "CROSSING": "839228W",
        "EFFDATE": 1758585600000,
        "REASON": "14",
        "StateCode": "48",
        "CountyCode": "48367",
        "STCYFIPS": "48367",
        "CITYCD": "483670085",
        "RAILROAD": "UP",
        "RRDIV": "TEXOMA",
        "RRSUBDIV": "BAIRD SUB",
        "HIGHWAY": "NA",
        "STREET": "PRIVATE",
        "TTSTN": "668380",
        "MILEPOST": "0270.500",
        "TYPEXING": "Private",
        "POSXING": "At Grade",
        "PRVCAT": "14",
        "INIT": "1",
        "LATITUDE": 32.7257193,
        "LONGITUD": -97.7028505,
        "LLSOURCE": "1",
        "WHISTBAN": "0",
        "RRCONT": "4025443721",
        "POLCONT": "8008488715",
        "INV_LINK": "https://safetydata.fra.dot.gov/OfficeofSafety/PublicSite/Crossing/Crossing.aspx?phasetype=C&rpttype=I&txtcrossingnum=839228W",
        "ACC_LINK": "https://safetydata.fra.dot.gov/OfficeofSafety/PublicSite/Crossing/Crossing.aspx?phasetype=C&rpttype=A&txtcrossingnum=839228W",
        "TTSTNNAM": "",
        "XPURPOSE": "1",
        "OPERATINGR": "UP",
        "OPERATIN_1": "Primary",
        "DAYTHRU": 7,
        "NGHTTHRU": 7,
        "MAINTRK": 1,
        "SIDINGTRK": 0,
        "YARDTRK": 0,
        "TRANSITTRK": 0,
        "INDUSTRYTR": 0,
        "OTHRTRK": 0,
        "WDCODE": "",
        "REVISIONDA": "1975/01/01 00:00:00",
        "LASTUPDATE": "9/23/2025",
        "AADT": "1",
        "AADTYEAR": "1970",
        "STATENAME": "TEXAS",
        "STATEAB": "TX",
        "COUNTYNAME": "PARKER",
        "CITYNAME": "ALEDO",
        "LATDD": 32.7257193,
        "LONGDD": -97.7028505,
        "gridlyProductionCertified": true,
        "gridlyClassification": "PUBLIC_ROADWAY",
        "gridlyDisplayName": "PRIVATE",
        "gridlyId": "FRA-839228W"
      }
    },
    {
      "type": "Feature",
      "id": 212368,
      "geometry": {
        "type": "Point",
        "coordinates": [
          -97.7079795998961,
          32.7276705000484
        ]
      },
      "properties": {
        "OBJECTID": 212368,
        "CROSSING": "839229D",
        "EFFDATE": 1758585600000,
        "REASON": "14",
        "StateCode": "48",
        "CountyCode": "48367",
        "STCYFIPS": "48367",
        "CITYCD": "483677280",
        "RAILROAD": "UP",
        "RRDIV": "TEXOMA",
        "RRSUBDIV": "BAIRD SUB",
        "HIGHWAY": "NA",
        "STREET": "PRIVATE",
        "TTSTN": "668380",
        "MILEPOST": "0270.820",
        "TYPEXING": "Private",
        "POSXING": "At Grade",
        "PRVCAT": "14",
        "INIT": "1",
        "LATITUDE": 32.7276705,
        "LONGITUD": -97.7079796,
        "LLSOURCE": "1",
        "WHISTBAN": "0",
        "RRCONT": "4025443721",
        "POLCONT": "8008488715",
        "INV_LINK": "https://safetydata.fra.dot.gov/OfficeofSafety/PublicSite/Crossing/Crossing.aspx?phasetype=C&rpttype=I&txtcrossingnum=839229D",
        "ACC_LINK": "https://safetydata.fra.dot.gov/OfficeofSafety/PublicSite/Crossing/Crossing.aspx?phasetype=C&rpttype=A&txtcrossingnum=839229D",
        "TTSTNNAM": "",
        "XPURPOSE": "1",
        "OPERATINGR": "UP",
        "OPERATIN_1": "Primary",
        "DAYTHRU": 7,
        "NGHTTHRU": 7,
        "MAINTRK": 1,
        "SIDINGTRK": 0,
        "YARDTRK": 0,
        "TRANSITTRK": 0,
        "INDUSTRYTR": 0,
        "OTHRTRK": 0,
        "WDCODE": "",
        "REVISIONDA": "1975/01/01 00:00:00",
        "LASTUPDATE": "9/23/2025",
        "AADT": "1",
        "AADTYEAR": "1970",
        "STATENAME": "TEXAS",
        "STATEAB": "TX",
        "COUNTYNAME": "PARKER",
        "CITYNAME": "WEATHERFORD",
        "LATDD": 32.7276705,
        "LONGDD": -97.7079796,
        "gridlyProductionCertified": true,
        "gridlyClassification": "PUBLIC_ROADWAY",
        "gridlyDisplayName": "PRIVATE",
        "gridlyId": "FRA-839229D"
      }
    },
    {
      "type": "Feature",
      "id": 212369,
      "geometry": {
        "type": "Point",
        "coordinates": [
          -97.71173399993,
          32.729103000185
        ]
      },
      "properties": {
        "OBJECTID": 212369,
        "CROSSING": "839230X",
        "EFFDATE": 1758585600000,
        "REASON": "14",
        "StateCode": "48",
        "CountyCode": "48367",
        "STCYFIPS": "48367",
        "CITYCD": "483677280",
        "RAILROAD": "UP",
        "RRDIV": "TEXOMA",
        "RRSUBDIV": "BAIRD SUB",
        "HIGHWAY": "NA",
        "STREET": "PRIVATE GOLDEN",
        "TTSTN": "668380",
        "MILEPOST": "0271.050",
        "TYPEXING": "Private",
        "POSXING": "At Grade",
        "PRVCAT": "14",
        "INIT": "1",
        "LATITUDE": 32.729103,
        "LONGITUD": -97.711734,
        "LLSOURCE": "1",
        "WHISTBAN": "0",
        "RRCONT": "4025443721",
        "POLCONT": "8008488715",
        "INV_LINK": "https://safetydata.fra.dot.gov/OfficeofSafety/PublicSite/Crossing/Crossing.aspx?phasetype=C&rpttype=I&txtcrossingnum=839230X",
        "ACC_LINK": "https://safetydata.fra.dot.gov/OfficeofSafety/PublicSite/Crossing/Crossing.aspx?phasetype=C&rpttype=A&txtcrossingnum=839230X",
        "TTSTNNAM": "",
        "XPURPOSE": "1",
        "OPERATINGR": "UP",
        "OPERATIN_1": "Primary",
        "DAYTHRU": 7,
        "NGHTTHRU": 7,
        "MAINTRK": 1,
        "SIDINGTRK": 0,
        "YARDTRK": 0,
        "TRANSITTRK": 0,
        "INDUSTRYTR": 0,
        "OTHRTRK": 0,
        "WDCODE": "",
        "REVISIONDA": "1975/01/01 00:00:00",
        "LASTUPDATE": "9/23/2025",
        "AADT": "1",
        "AADTYEAR": "1970",
        "STATENAME": "TEXAS",
        "STATEAB": "TX",
        "COUNTYNAME": "PARKER",
        "CITYNAME": "WEATHERFORD",
        "LATDD": 32.729103,
        "LONGDD": -97.711734,
        "gridlyProductionCertified": true,
        "gridlyClassification": "PUBLIC_ROADWAY",
        "gridlyDisplayName": "PRIVATE GOLDEN",
        "gridlyId": "FRA-839230X"
      }
    },
    {
      "type": "Feature",
      "id": 212370,
      "geometry": {
        "type": "Point",
        "coordinates": [
          -97.7390042001291,
          32.7346421002455
        ]
      },
      "properties": {
        "OBJECTID": 212370,
        "CROSSING": "839232L",
        "EFFDATE": 1758585600000,
        "REASON": "14",
        "StateCode": "48",
        "CountyCode": "48367",
        "STCYFIPS": "48367",
        "CITYCD": "483677280",
        "RAILROAD": "UP",
        "RRDIV": "TEXOMA",
        "RRSUBDIV": "BAIRD SUB",
        "HIGHWAY": "NA",
        "STREET": "PRIVATE",
        "TTSTN": "668380",
        "MILEPOST": "0272.720",
        "TYPEXING": "Private",
        "POSXING": "At Grade",
        "PRVCAT": "14",
        "INIT": "1",
        "LATITUDE": 32.7346421,
        "LONGITUD": -97.7390042,
        "LLSOURCE": "1",
        "WHISTBAN": "0",
        "RRCONT": "4025443721",
        "POLCONT": "8008488715",
        "INV_LINK": "https://safetydata.fra.dot.gov/OfficeofSafety/PublicSite/Crossing/Crossing.aspx?phasetype=C&rpttype=I&txtcrossingnum=839232L",
        "ACC_LINK": "https://safetydata.fra.dot.gov/OfficeofSafety/PublicSite/Crossing/Crossing.aspx?phasetype=C&rpttype=A&txtcrossingnum=839232L",
        "TTSTNNAM": "",
        "XPURPOSE": "1",
        "OPERATINGR": "UP",
        "OPERATIN_1": "Primary",
        "DAYTHRU": 7,
        "NGHTTHRU": 7,
        "MAINTRK": 1,
        "SIDINGTRK": 1,
        "YARDTRK": 0,
        "TRANSITTRK": 0,
        "INDUSTRYTR": 0,
        "OTHRTRK": 0,
        "WDCODE": "",
        "REVISIONDA": "1975/01/01 00:00:00",
        "LASTUPDATE": "9/23/2025",
        "AADT": "1",
        "AADTYEAR": "1970",
        "STATENAME": "TEXAS",
        "STATEAB": "TX",
        "COUNTYNAME": "PARKER",
        "CITYNAME": "WEATHERFORD",
        "LATDD": 32.7346421,
        "LONGDD": -97.7390042,
        "gridlyProductionCertified": true,
        "gridlyClassification": "PUBLIC_ROADWAY",
        "gridlyDisplayName": "PRIVATE",
        "gridlyId": "FRA-839232L"
      }
    },
    {
      "type": "Feature",
      "id": 212470,
      "geometry": {
        "type": "Point",
        "coordinates": [
          -97.7544080003781,
          32.7396729997795
        ]
      },
      "properties": {
        "OBJECTID": 212470,
        "CROSSING": "839234A",
        "EFFDATE": 1758585600000,
        "REASON": "14",
        "StateCode": "48",
        "CountyCode": "48367",
        "STCYFIPS": "48367",
        "CITYCD": "483677280",
        "RAILROAD": "UP",
        "RRDIV": "TEXOMA",
        "RRSUBDIV": "BAIRD SUB",
        "HIGHWAY": "NA",
        "STREET": "PRIVATE",
        "TTSTN": "681443",
        "MILEPOST": "0273.650",
        "TYPEXING": "Private",
        "POSXING": "At Grade",
        "PRVCAT": "14",
        "INIT": "1",
        "LATITUDE": 32.739673,
        "LONGITUD": -97.754408,
        "LLSOURCE": "1",
        "WHISTBAN": "0",
        "RRCONT": "4025443721",
        "POLCONT": "8008488715",
        "INV_LINK": "https://safetydata.fra.dot.gov/OfficeofSafety/PublicSite/Crossing/Crossing.aspx?phasetype=C&rpttype=I&txtcrossingnum=839234A",
        "ACC_LINK": "https://safetydata.fra.dot.gov/OfficeofSafety/PublicSite/Crossing/Crossing.aspx?phasetype=C&rpttype=A&txtcrossingnum=839234A",
        "TTSTNNAM": "",
        "XPURPOSE": "1",
        "OPERATINGR": "UP",
        "OPERATIN_1": "Primary",
        "DAYTHRU": 7,
        "NGHTTHRU": 7,
        "MAINTRK": 1,
        "SIDINGTRK": 0,
        "YARDTRK": 0,
        "TRANSITTRK": 0,
        "INDUSTRYTR": 0,
        "OTHRTRK": 0,
        "WDCODE": "",
        "REVISIONDA": "1975/01/01 00:00:00",
        "LASTUPDATE": "9/23/2025",
        "AADT": "1",
        "AADTYEAR": "1970",
        "STATENAME": "TEXAS",
        "STATEAB": "TX",
        "COUNTYNAME": "PARKER",
        "CITYNAME": "WEATHERFORD",
        "LATDD": 32.739673,
        "LONGDD": -97.754408,
        "gridlyProductionCertified": true,
        "gridlyClassification": "PUBLIC_ROADWAY",
        "gridlyDisplayName": "PRIVATE",
        "gridlyId": "FRA-839234A"
      }
    },
    {
      "type": "Feature",
      "id": 212471,
      "geometry": {
        "type": "Point",
        "coordinates": [
          -97.8769020003311,
          32.782758999812
        ]
      },
      "properties": {
        "OBJECTID": 212471,
        "CROSSING": "839349U",
        "EFFDATE": 1758585600000,
        "REASON": "14",
        "StateCode": "48",
        "CountyCode": "48367",
        "STCYFIPS": "48367",
        "CITYCD": "483677280",
        "RAILROAD": "UP",
        "RRDIV": "TEXOMA",
        "RRSUBDIV": "BAIRD SUB",
        "HIGHWAY": "NA",
        "STREET": "PRIVATE",
        "TTSTN": "668380",
        "MILEPOST": "0281.880",
        "TYPEXING": "Private",
        "POSXING": "At Grade",
        "PRVCAT": "14",
        "INIT": "1",
        "LATITUDE": 32.782759,
        "LONGITUD": -97.876902,
        "LLSOURCE": "1",
        "WHISTBAN": "0",
        "RRCONT": "4025443721",
        "POLCONT": "8008488715",
        "INV_LINK": "https://safetydata.fra.dot.gov/OfficeofSafety/PublicSite/Crossing/Crossing.aspx?phasetype=C&rpttype=I&txtcrossingnum=839349U",
        "ACC_LINK": "https://safetydata.fra.dot.gov/OfficeofSafety/PublicSite/Crossing/Crossing.aspx?phasetype=C&rpttype=A&txtcrossingnum=839349U",
        "TTSTNNAM": "",
        "XPURPOSE": "1",
        "OPERATINGR": "UP",
        "OPERATIN_1": "Primary",
        "DAYTHRU": 7,
        "NGHTTHRU": 7,
        "MAINTRK": 1,
        "SIDINGTRK": 0,
        "YARDTRK": 0,
        "TRANSITTRK": 0,
        "INDUSTRYTR": 0,
        "OTHRTRK": 0,
        "WDCODE": "",
        "REVISIONDA": "1975/01/01 00:00:00",
        "LASTUPDATE": "9/23/2025",
        "AADT": "1",
        "AADTYEAR": "1970",
        "STATENAME": "TEXAS",
        "STATEAB": "TX",
        "COUNTYNAME": "PARKER",
        "CITYNAME": "WEATHERFORD",
        "LATDD": 32.782759,
        "LONGDD": -97.876902,
        "gridlyProductionCertified": true,
        "gridlyClassification": "PUBLIC_ROADWAY",
        "gridlyDisplayName": "PRIVATE",
        "gridlyId": "FRA-839349U"
      }
    },
    {
      "type": "Feature",
      "id": 212492,
      "geometry": {
        "type": "Point",
        "coordinates": [
          -97.9933389998865,
          32.7560769996668
        ]
      },
      "properties": {
        "OBJECTID": 212492,
        "CROSSING": "839357L",
        "EFFDATE": 1758585600000,
        "REASON": "14",
        "StateCode": "48",
        "CountyCode": "48367",
        "STCYFIPS": "48367",
        "CITYCD": "483674602",
        "RAILROAD": "UP",
        "RRDIV": "TEXOMA",
        "RRSUBDIV": "BAIRD SUB",
        "HIGHWAY": "NA",
        "STREET": "PRIVATE",
        "TTSTN": "668394",
        "MILEPOST": "0289.726",
        "TYPEXING": "Private",
        "POSXING": "At Grade",
        "PRVCAT": "14",
        "INIT": "1",
        "LATITUDE": 32.756077,
        "LONGITUD": -97.993339,
        "LLSOURCE": "1",
        "WHISTBAN": "0",
        "RRCONT": "4025443721",
        "POLCONT": "8008488715",
        "INV_LINK": "https://safetydata.fra.dot.gov/OfficeofSafety/PublicSite/Crossing/Crossing.aspx?phasetype=C&rpttype=I&txtcrossingnum=839357L",
        "ACC_LINK": "https://safetydata.fra.dot.gov/OfficeofSafety/PublicSite/Crossing/Crossing.aspx?phasetype=C&rpttype=A&txtcrossingnum=839357L",
        "TTSTNNAM": "",
        "XPURPOSE": "1",
        "OPERATINGR": "UP",
        "OPERATIN_1": "Primary",
        "DAYTHRU": 7,
        "NGHTTHRU": 7,
        "MAINTRK": 1,
        "SIDINGTRK": 1,
        "YARDTRK": 0,
        "TRANSITTRK": 0,
        "INDUSTRYTR": 0,
        "OTHRTRK": 0,
        "WDCODE": "",
        "REVISIONDA": "1975/01/01 00:00:00",
        "LASTUPDATE": "9/23/2025",
        "AADT": "1",
        "AADTYEAR": "1970",
        "STATENAME": "TEXAS",
        "STATEAB": "TX",
        "COUNTYNAME": "PARKER",
        "CITYNAME": "MILLSAP",
        "LATDD": 32.756077,
        "LONGDD": -97.993339,
        "gridlyProductionCertified": true,
        "gridlyClassification": "PUBLIC_ROADWAY",
        "gridlyDisplayName": "PRIVATE",
        "gridlyId": "FRA-839357L"
      }
    },
    {
      "type": "Feature",
      "id": 212835,
      "geometry": {
        "type": "Point",
        "coordinates": [
          -98.0363599997659,
          32.7330322001431
        ]
      },
      "properties": {
        "OBJECTID": 212835,
        "CROSSING": "839361B",
        "EFFDATE": 1758585600000,
        "REASON": "14",
        "StateCode": "48",
        "CountyCode": "48367",
        "STCYFIPS": "48367",
        "CITYCD": "483674602",
        "RAILROAD": "UP",
        "RRDIV": "TEXOMA",
        "RRSUBDIV": "BAIRD SUB",
        "HIGHWAY": "NA",
        "STREET": "PRIVATE",
        "TTSTN": "668394",
        "MILEPOST": "0292.700",
        "TYPEXING": "Private",
        "POSXING": "At Grade",
        "PRVCAT": "14",
        "INIT": "1",
        "LATITUDE": 32.7330322,
        "LONGITUD": -98.03636,
        "LLSOURCE": "1",
        "WHISTBAN": "0",
        "RRCONT": "4025443721",
        "POLCONT": "8008488715",
        "INV_LINK": "https://safetydata.fra.dot.gov/OfficeofSafety/PublicSite/Crossing/Crossing.aspx?phasetype=C&rpttype=I&txtcrossingnum=839361B",
        "ACC_LINK": "https://safetydata.fra.dot.gov/OfficeofSafety/PublicSite/Crossing/Crossing.aspx?phasetype=C&rpttype=A&txtcrossingnum=839361B",
        "TTSTNNAM": "",
        "XPURPOSE": "1",
        "OPERATINGR": "UP",
        "OPERATIN_1": "Primary",
        "DAYTHRU": 7,
        "NGHTTHRU": 7,
        "MAINTRK": 1,
        "SIDINGTRK": 0,
        "YARDTRK": 0,
        "TRANSITTRK": 0,
        "INDUSTRYTR": 0,
        "OTHRTRK": 0,
        "WDCODE": "",
        "REVISIONDA": "1975/01/01 00:00:00",
        "LASTUPDATE": "9/23/2025",
        "AADT": "1",
        "AADTYEAR": "1970",
        "STATENAME": "TEXAS",
        "STATEAB": "TX",
        "COUNTYNAME": "PARKER",
        "CITYNAME": "MILLSAP",
        "LATDD": 32.7330322,
        "LONGDD": -98.03636,
        "gridlyProductionCertified": true,
        "gridlyClassification": "PUBLIC_ROADWAY",
        "gridlyDisplayName": "PRIVATE",
        "gridlyId": "FRA-839361B"
      }
    },
    {
      "type": "Feature",
      "id": 212947,
      "geometry": {
        "type": "Point",
        "coordinates": [
          -97.8180156997086,
          32.7778871999359
        ]
      },
      "properties": {
        "OBJECTID": 212947,
        "CROSSING": "440582V",
        "EFFDATE": 1764547200000,
        "REASON": "14",
        "StateCode": "48",
        "CountyCode": "48367",
        "STCYFIPS": "48367",
        "CITYCD": "483677280",
        "RAILROAD": "UP",
        "RRDIV": "TEXOMA",
        "RRSUBDIV": "BAIRD SUB",
        "HIGHWAY": "ls0000",
        "STREET": "RIC WILLIAMSON MEMORIAL HighWaY",
        "TTSTN": "668380",
        "MILEPOST": "0278.230",
        "TYPEXING": "Public",
        "POSXING": "RR Under",
        "PRVCAT": "14",
        "INIT": "1",
        "LATITUDE": 32.7778872,
        "LONGITUD": -97.8180157,
        "LLSOURCE": "1",
        "WHISTBAN": "0",
        "RRCONT": "4025443721",
        "POLCONT": "8008488715",
        "INV_LINK": "https://safetydata.fra.dot.gov/OfficeofSafety/PublicSite/Crossing/Crossing.aspx?phasetype=C&rpttype=I&txtcrossingnum=440582V",
        "ACC_LINK": "https://safetydata.fra.dot.gov/OfficeofSafety/PublicSite/Crossing/Crossing.aspx?phasetype=C&rpttype=A&txtcrossingnum=440582V",
        "TTSTNNAM": "",
        "XPURPOSE": "1",
        "OPERATINGR": "UP",
        "OPERATIN_1": "Primary",
        "DAYTHRU": 7,
        "NGHTTHRU": 7,
        "MAINTRK": 1,
        "SIDINGTRK": 0,
        "YARDTRK": 0,
        "TRANSITTRK": 0,
        "INDUSTRYTR": 0,
        "OTHRTRK": 0,
        "WDCODE": "",
        "REVISIONDA": "1975/01/01 00:00:00",
        "LASTUPDATE": "12/1/2025",
        "AADT": "10169",
        "AADTYEAR": "2024",
        "STATENAME": "TEXAS",
        "STATEAB": "TX",
        "COUNTYNAME": "PARKER",
        "CITYNAME": "WEATHERFORD",
        "LATDD": 32.7778872,
        "LONGDD": -97.8180157,
        "gridlyProductionCertified": true,
        "gridlyClassification": "PUBLIC_ROADWAY",
        "gridlyDisplayName": "RIC WILLIAMSON MEMORIAL HighWaY",
        "gridlyId": "FRA-440582V"
      }
    },
    {
      "type": "Feature",
      "id": 212948,
      "geometry": {
        "type": "Point",
        "coordinates": [
          -97.7847447004109,
          32.7551503998879
        ]
      },
      "properties": {
        "OBJECTID": 212948,
        "CROSSING": "924290N",
        "EFFDATE": 1761091200000,
        "REASON": "14",
        "StateCode": "48",
        "CountyCode": "48367",
        "STCYFIPS": "48367",
        "CITYCD": "483677280",
        "RAILROAD": "UP",
        "RRDIV": "TEXOMA",
        "RRSUBDIV": "BAIRD SUB",
        "HIGHWAY": "ls0000",
        "STREET": "JACK BORDEN WAY",
        "TTSTN": "668380",
        "MILEPOST": "0275.750",
        "TYPEXING": "Public",
        "POSXING": "RR Under",
        "PRVCAT": "14",
        "INIT": "1",
        "LATITUDE": 32.7551504,
        "LONGITUD": -97.7847447,
        "LLSOURCE": "1",
        "WHISTBAN": "0",
        "RRCONT": "4025443721",
        "POLCONT": "8008488715",
        "INV_LINK": "https://safetydata.fra.dot.gov/OfficeofSafety/PublicSite/Crossing/Crossing.aspx?phasetype=C&rpttype=I&txtcrossingnum=924290N",
        "ACC_LINK": "https://safetydata.fra.dot.gov/OfficeofSafety/PublicSite/Crossing/Crossing.aspx?phasetype=C&rpttype=A&txtcrossingnum=924290N",
        "TTSTNNAM": "",
        "XPURPOSE": "1",
        "OPERATINGR": "UP",
        "OPERATIN_1": "Primary",
        "DAYTHRU": 7,
        "NGHTTHRU": 7,
        "MAINTRK": 1,
        "SIDINGTRK": 0,
        "YARDTRK": 0,
        "TRANSITTRK": 0,
        "INDUSTRYTR": 0,
        "OTHRTRK": 0,
        "WDCODE": "",
        "REVISIONDA": "1975/01/01 00:00:00",
        "LASTUPDATE": "10/22/2025",
        "AADT": "11748",
        "AADTYEAR": "2024",
        "STATENAME": "TEXAS",
        "STATEAB": "TX",
        "COUNTYNAME": "PARKER",
        "CITYNAME": "WEATHERFORD",
        "LATDD": 32.7551504,
        "LONGDD": -97.7847447,
        "gridlyProductionCertified": true,
        "gridlyClassification": "PUBLIC_ROADWAY",
        "gridlyDisplayName": "JACK BORDEN WAY",
        "gridlyId": "FRA-924290N"
      }
    },
    {
      "type": "Feature",
      "id": 212949,
      "geometry": {
        "type": "Point",
        "coordinates": [
          -97.7551035003256,
          32.7399912996563
        ]
      },
      "properties": {
        "OBJECTID": 212949,
        "CROSSING": "839235G",
        "EFFDATE": 1764720000000,
        "REASON": "14",
        "StateCode": "48",
        "CountyCode": "48367",
        "STCYFIPS": "48367",
        "CITYCD": "483677280",
        "RAILROAD": "UP",
        "RRDIV": "TEXOMA",
        "RRSUBDIV": "BAIRD SUB",
        "HIGHWAY": "Ih0020",
        "STREET": "ih0020",
        "TTSTN": "668380",
        "MILEPOST": "0273.690",
        "TYPEXING": "Public",
        "POSXING": "RR Under",
        "PRVCAT": "14",
        "INIT": "2",
        "LATITUDE": 32.7399913,
        "LONGITUD": -97.7551035,
        "LLSOURCE": "1",
        "WHISTBAN": "0",
        "RRCONT": "4025443721",
        "POLCONT": "8008488715",
        "INV_LINK": "https://safetydata.fra.dot.gov/OfficeofSafety/PublicSite/Crossing/Crossing.aspx?phasetype=C&rpttype=I&txtcrossingnum=839235G",
        "ACC_LINK": "https://safetydata.fra.dot.gov/OfficeofSafety/PublicSite/Crossing/Crossing.aspx?phasetype=C&rpttype=A&txtcrossingnum=839235G",
        "TTSTNNAM": "",
        "XPURPOSE": "1",
        "OPERATINGR": "UP",
        "OPERATIN_1": "Primary",
        "DAYTHRU": 7,
        "NGHTTHRU": 7,
        "MAINTRK": 1,
        "SIDINGTRK": 0,
        "YARDTRK": 0,
        "TRANSITTRK": 0,
        "INDUSTRYTR": 0,
        "OTHRTRK": 0,
        "WDCODE": "",
        "REVISIONDA": "1975/01/01 00:00:00",
        "LASTUPDATE": "12/3/2025",
        "AADT": "71648",
        "AADTYEAR": "2024",
        "STATENAME": "TEXAS",
        "STATEAB": "TX",
        "COUNTYNAME": "PARKER",
        "CITYNAME": "WEATHERFORD",
        "LATDD": 32.7399913,
        "LONGDD": -97.7551035,
        "gridlyProductionCertified": true,
        "gridlyClassification": "PUBLIC_ROADWAY",
        "gridlyDisplayName": "ih0020",
        "gridlyId": "FRA-839235G"
      }
    },
    {
      "type": "Feature",
      "id": 212959,
      "geometry": {
        "type": "Point",
        "coordinates": [
          -97.8019202002841,
          32.7658010001388
        ]
      },
      "properties": {
        "OBJECTID": 212959,
        "CROSSING": "839242S",
        "EFFDATE": 1764720000000,
        "REASON": "14",
        "StateCode": "48",
        "CountyCode": "48367",
        "STCYFIPS": "48367",
        "CITYCD": "483677280",
        "RAILROAD": "UP",
        "RRDIV": "TEXOMA",
        "RRSUBDIV": "BAIRD SUB",
        "HIGHWAY": "ls0000",
        "STREET": "FRANKLIN STREET",
        "TTSTN": "668380",
        "MILEPOST": "0276.950",
        "TYPEXING": "Public",
        "POSXING": "RR Under",
        "PRVCAT": "14",
        "INIT": "2",
        "LATITUDE": 32.765801,
        "LONGITUD": -97.8019202,
        "LLSOURCE": "1",
        "WHISTBAN": "0",
        "RRCONT": "4025443721",
        "POLCONT": "8008488715",
        "INV_LINK": "https://safetydata.fra.dot.gov/OfficeofSafety/PublicSite/Crossing/Crossing.aspx?phasetype=C&rpttype=I&txtcrossingnum=839242S",
        "ACC_LINK": "https://safetydata.fra.dot.gov/OfficeofSafety/PublicSite/Crossing/Crossing.aspx?phasetype=C&rpttype=A&txtcrossingnum=839242S",
        "TTSTNNAM": "",
        "XPURPOSE": "1",
        "OPERATINGR": "UP",
        "OPERATIN_1": "Primary",
        "DAYTHRU": 7,
        "NGHTTHRU": 7,
        "MAINTRK": 1,
        "SIDINGTRK": 0,
        "YARDTRK": 0,
        "TRANSITTRK": 0,
        "INDUSTRYTR": 0,
        "OTHRTRK": 0,
        "WDCODE": "",
        "REVISIONDA": "1975/01/01 00:00:00",
        "LASTUPDATE": "12/3/2025",
        "AADT": "3120",
        "AADTYEAR": "2022",
        "STATENAME": "TEXAS",
        "STATEAB": "TX",
        "COUNTYNAME": "PARKER",
        "CITYNAME": "WEATHERFORD",
        "LATDD": 32.765801,
        "LONGDD": -97.8019202,
        "gridlyProductionCertified": true,
        "gridlyClassification": "PUBLIC_ROADWAY",
        "gridlyDisplayName": "FRANKLIN STREET",
        "gridlyId": "FRA-839242S"
      }
    },
    {
      "type": "Feature",
      "id": 212960,
      "geometry": {
        "type": "Point",
        "coordinates": [
          -97.7904241999801,
          32.7588672999845
        ]
      },
      "properties": {
        "OBJECTID": 212960,
        "CROSSING": "920215N",
        "EFFDATE": 1764720000000,
        "REASON": "14",
        "StateCode": "48",
        "CountyCode": "48367",
        "STCYFIPS": "48367",
        "CITYCD": "483677280",
        "RAILROAD": "UP",
        "RRDIV": "TEXOMA",
        "RRSUBDIV": "BAIRD SUB",
        "HIGHWAY": "us0180",
        "STREET": "us0180 / fort worth highway",
        "TTSTN": "668380",
        "MILEPOST": "0276.160",
        "TYPEXING": "Public",
        "POSXING": "RR Under",
        "PRVCAT": "14",
        "INIT": "1",
        "LATITUDE": 32.7588673,
        "LONGITUD": -97.7904242,
        "LLSOURCE": "1",
        "WHISTBAN": "0",
        "RRCONT": "4025443721",
        "POLCONT": "8008488715",
        "INV_LINK": "https://safetydata.fra.dot.gov/OfficeofSafety/PublicSite/Crossing/Crossing.aspx?phasetype=C&rpttype=I&txtcrossingnum=920215N",
        "ACC_LINK": "https://safetydata.fra.dot.gov/OfficeofSafety/PublicSite/Crossing/Crossing.aspx?phasetype=C&rpttype=A&txtcrossingnum=920215N",
        "TTSTNNAM": "",
        "XPURPOSE": "1",
        "OPERATINGR": "UP",
        "OPERATIN_1": "Primary",
        "DAYTHRU": 7,
        "NGHTTHRU": 7,
        "MAINTRK": 1,
        "SIDINGTRK": 0,
        "YARDTRK": 0,
        "TRANSITTRK": 0,
        "INDUSTRYTR": 0,
        "OTHRTRK": 0,
        "WDCODE": "",
        "REVISIONDA": "1975/01/01 00:00:00",
        "LASTUPDATE": "12/3/2025",
        "AADT": "14494",
        "AADTYEAR": "2024",
        "STATENAME": "TEXAS",
        "STATEAB": "TX",
        "COUNTYNAME": "PARKER",
        "CITYNAME": "WEATHERFORD",
        "LATDD": 32.7588673,
        "LONGDD": -97.7904242,
        "gridlyProductionCertified": true,
        "gridlyClassification": "PUBLIC_ROADWAY",
        "gridlyDisplayName": "us0180 / fort worth highway",
        "gridlyId": "FRA-920215N"
      }
    },
    {
      "type": "Feature",
      "id": 213037,
      "geometry": {
        "type": "Point",
        "coordinates": [
          -97.6448869999395,
          32.6987384999658
        ]
      },
      "properties": {
        "OBJECTID": 213037,
        "CROSSING": "921056M",
        "EFFDATE": 1759104000000,
        "REASON": "14",
        "StateCode": "48",
        "CountyCode": "48367",
        "STCYFIPS": "48367",
        "CITYCD": "483670085",
        "RAILROAD": "UP",
        "RRDIV": "TEXOMA",
        "RRSUBDIV": "BAIRD SUB",
        "HIGHWAY": "NA",
        "STREET": "Private",
        "TTSTN": "",
        "MILEPOST": "0266.540",
        "TYPEXING": "Private",
        "POSXING": "RR Over",
        "PRVCAT": "14",
        "INIT": "1",
        "LATITUDE": 32.6987385,
        "LONGITUD": -97.644887,
        "LLSOURCE": "1",
        "WHISTBAN": "",
        "RRCONT": "4025443721",
        "POLCONT": "8008488715",
        "INV_LINK": "https://safetydata.fra.dot.gov/OfficeofSafety/PublicSite/Crossing/Crossing.aspx?phasetype=C&rpttype=I&txtcrossingnum=921056M",
        "ACC_LINK": "https://safetydata.fra.dot.gov/OfficeofSafety/PublicSite/Crossing/Crossing.aspx?phasetype=C&rpttype=A&txtcrossingnum=921056M",
        "TTSTNNAM": "",
        "XPURPOSE": "1",
        "OPERATINGR": "UP",
        "OPERATIN_1": "Primary",
        "DAYTHRU": 7,
        "NGHTTHRU": 7,
        "MAINTRK": 1,
        "SIDINGTRK": 0,
        "YARDTRK": 0,
        "TRANSITTRK": 0,
        "INDUSTRYTR": 0,
        "OTHRTRK": 0,
        "WDCODE": "",
        "REVISIONDA": "1975/01/01 00:00:00",
        "LASTUPDATE": "9/29/2025",
        "AADT": "",
        "AADTYEAR": "",
        "STATENAME": "TEXAS",
        "STATEAB": "TX",
        "COUNTYNAME": "PARKER",
        "CITYNAME": "ALEDO",
        "LATDD": 32.6987385,
        "LONGDD": -97.644887,
        "gridlyProductionCertified": true,
        "gridlyClassification": "PUBLIC_ROADWAY",
        "gridlyDisplayName": "Private",
        "gridlyId": "FRA-921056M"
      }
    },
    {
      "type": "Feature",
      "id": 213071,
      "geometry": {
        "type": "Point",
        "coordinates": [
          -97.9474037996483,
          32.7906821999128
        ]
      },
      "properties": {
        "OBJECTID": 213071,
        "CROSSING": "839354R",
        "EFFDATE": 1764720000000,
        "REASON": "14",
        "StateCode": "48",
        "CountyCode": "48367",
        "STCYFIPS": "48367",
        "CITYCD": "483674602",
        "RAILROAD": "UP",
        "RRDIV": "TEXOMA",
        "RRSUBDIV": "BAIRD SUB",
        "HIGHWAY": "US0180",
        "STREET": "us0180 / mineral wells highway",
        "TTSTN": "668394",
        "MILEPOST": "0286.150",
        "TYPEXING": "Public",
        "POSXING": "RR Over",
        "PRVCAT": "14",
        "INIT": "1",
        "LATITUDE": 32.7906822,
        "LONGITUD": -97.9474038,
        "LLSOURCE": "1",
        "WHISTBAN": "0",
        "RRCONT": "4025443721",
        "POLCONT": "8008488715",
        "INV_LINK": "https://safetydata.fra.dot.gov/OfficeofSafety/PublicSite/Crossing/Crossing.aspx?phasetype=C&rpttype=I&txtcrossingnum=839354R",
        "ACC_LINK": "https://safetydata.fra.dot.gov/OfficeofSafety/PublicSite/Crossing/Crossing.aspx?phasetype=C&rpttype=A&txtcrossingnum=839354R",
        "TTSTNNAM": "",
        "XPURPOSE": "1",
        "OPERATINGR": "UP",
        "OPERATIN_1": "Primary",
        "DAYTHRU": 7,
        "NGHTTHRU": 7,
        "MAINTRK": 1,
        "SIDINGTRK": 0,
        "YARDTRK": 0,
        "TRANSITTRK": 0,
        "INDUSTRYTR": 0,
        "OTHRTRK": 0,
        "WDCODE": "",
        "REVISIONDA": "1975/01/01 00:00:00",
        "LASTUPDATE": "12/3/2025",
        "AADT": "16204",
        "AADTYEAR": "2024",
        "STATENAME": "TEXAS",
        "STATEAB": "TX",
        "COUNTYNAME": "PARKER",
        "CITYNAME": "MILLSAP",
        "LATDD": 32.7906822,
        "LONGDD": -97.9474038,
        "gridlyProductionCertified": true,
        "gridlyClassification": "PUBLIC_ROADWAY",
        "gridlyDisplayName": "us0180 / mineral wells highway",
        "gridlyId": "FRA-839354R"
      }
    },
    {
      "type": "Feature",
      "id": 213409,
      "geometry": {
        "type": "Point",
        "coordinates": [
          -97.690034000381,
          32.7222639998923
        ]
      },
      "properties": {
        "OBJECTID": 213409,
        "CROSSING": "748403H",
        "EFFDATE": 1758499200000,
        "REASON": "14",
        "StateCode": "48",
        "CountyCode": "48367",
        "STCYFIPS": "48367",
        "CITYCD": "483670085",
        "RAILROAD": "UP",
        "RRDIV": "TEXOMA",
        "RRSUBDIV": "BAIRD SUB",
        "HIGHWAY": "NA",
        "STREET": "PRIVATE MAY LAND",
        "TTSTN": "668380",
        "MILEPOST": "0269.720",
        "TYPEXING": "Private",
        "POSXING": "At Grade",
        "PRVCAT": "14",
        "INIT": "1",
        "LATITUDE": 32.722264,
        "LONGITUD": -97.690034,
        "LLSOURCE": "1",
        "WHISTBAN": "0",
        "RRCONT": "4025443721",
        "POLCONT": "8008488715",
        "INV_LINK": "https://safetydata.fra.dot.gov/OfficeofSafety/PublicSite/Crossing/Crossing.aspx?phasetype=C&rpttype=I&txtcrossingnum=748403H",
        "ACC_LINK": "https://safetydata.fra.dot.gov/OfficeofSafety/PublicSite/Crossing/Crossing.aspx?phasetype=C&rpttype=A&txtcrossingnum=748403H",
        "TTSTNNAM": "",
        "XPURPOSE": "1",
        "OPERATINGR": "UP",
        "OPERATIN_1": "Primary",
        "DAYTHRU": 7,
        "NGHTTHRU": 7,
        "MAINTRK": 1,
        "SIDINGTRK": 0,
        "YARDTRK": 0,
        "TRANSITTRK": 0,
        "INDUSTRYTR": 0,
        "OTHRTRK": 0,
        "WDCODE": "",
        "REVISIONDA": "1975/01/01 00:00:00",
        "LASTUPDATE": "9/22/2025",
        "AADT": "1",
        "AADTYEAR": "",
        "STATENAME": "TEXAS",
        "STATEAB": "TX",
        "COUNTYNAME": "PARKER",
        "CITYNAME": "ALEDO",
        "LATDD": 32.722264,
        "LONGDD": -97.690034,
        "gridlyProductionCertified": true,
        "gridlyClassification": "PUBLIC_ROADWAY",
        "gridlyDisplayName": "PRIVATE MAY LAND",
        "gridlyId": "FRA-748403H"
      }
    },
    {
      "type": "Feature",
      "id": 213418,
      "geometry": {
        "type": "Point",
        "coordinates": [
          -98.0096921999149,
          32.7475788001356
        ]
      },
      "properties": {
        "OBJECTID": 213418,
        "CROSSING": "839359A",
        "EFFDATE": 1776297600000,
        "REASON": "14",
        "StateCode": "48",
        "CountyCode": "48367",
        "STCYFIPS": "48367",
        "CITYCD": "483674602",
        "RAILROAD": "UP",
        "RRDIV": "TEXOMA",
        "RRSUBDIV": "BAIRD SUB",
        "HIGHWAY": "FM0113",
        "STREET": "FM0113 / FANNIN STREET",
        "TTSTN": "668394",
        "MILEPOST": "0290.860",
        "TYPEXING": "Public",
        "POSXING": "At Grade",
        "PRVCAT": "14",
        "INIT": "1",
        "LATITUDE": 32.7475788,
        "LONGITUD": -98.0096922,
        "LLSOURCE": "1",
        "WHISTBAN": "0",
        "RRCONT": "4025443721",
        "POLCONT": "8008488715",
        "INV_LINK": "https://safetydata.fra.dot.gov/OfficeofSafety/PublicSite/Crossing/Crossing.aspx?phasetype=C&rpttype=I&txtcrossingnum=839359A",
        "ACC_LINK": "https://safetydata.fra.dot.gov/OfficeofSafety/PublicSite/Crossing/Crossing.aspx?phasetype=C&rpttype=A&txtcrossingnum=839359A",
        "TTSTNNAM": "",
        "XPURPOSE": "1",
        "OPERATINGR": "UP",
        "OPERATIN_1": "Primary",
        "DAYTHRU": 7,
        "NGHTTHRU": 7,
        "MAINTRK": 1,
        "SIDINGTRK": 0,
        "YARDTRK": 0,
        "TRANSITTRK": 0,
        "INDUSTRYTR": 0,
        "OTHRTRK": 0,
        "WDCODE": "All other Gates",
        "REVISIONDA": "1975/01/01 00:00:00",
        "LASTUPDATE": "4/16/2026",
        "AADT": "4403",
        "AADTYEAR": "2024",
        "STATENAME": "TEXAS",
        "STATEAB": "TX",
        "COUNTYNAME": "PARKER",
        "CITYNAME": "MILLSAP",
        "LATDD": 32.7475788,
        "LONGDD": -98.0096922,
        "gridlyProductionCertified": true,
        "gridlyClassification": "PUBLIC_ROADWAY",
        "gridlyDisplayName": "FM0113 / FANNIN STREET",
        "gridlyId": "FRA-839359A"
      }
    },
    {
      "type": "Feature",
      "id": 214964,
      "geometry": {
        "type": "Point",
        "coordinates": [
          -97.7209727998263,
          32.7315303997821
        ]
      },
      "properties": {
        "OBJECTID": 214964,
        "CROSSING": "839231E",
        "EFFDATE": 1768867200000,
        "REASON": "14",
        "StateCode": "48",
        "CountyCode": "48367",
        "STCYFIPS": "48367",
        "CITYCD": "483670208",
        "RAILROAD": "UP",
        "RRDIV": "TEXOMA",
        "RRSUBDIV": "BAIRD SUB",
        "HIGHWAY": "ls0000",
        "STREET": "ANNETTA CENTER POINT ROAD",
        "TTSTN": "668380",
        "MILEPOST": "0271.630",
        "TYPEXING": "Public",
        "POSXING": "At Grade",
        "PRVCAT": "14",
        "INIT": "2",
        "LATITUDE": 32.7315304,
        "LONGITUD": -97.7209728,
        "LLSOURCE": "1",
        "WHISTBAN": "0",
        "RRCONT": "4025443721",
        "POLCONT": "8008488715",
        "INV_LINK": "https://safetydata.fra.dot.gov/OfficeofSafety/PublicSite/Crossing/Crossing.aspx?phasetype=C&rpttype=I&txtcrossingnum=839231E",
        "ACC_LINK": "https://safetydata.fra.dot.gov/OfficeofSafety/PublicSite/Crossing/Crossing.aspx?phasetype=C&rpttype=A&txtcrossingnum=839231E",
        "TTSTNNAM": "",
        "XPURPOSE": "1",
        "OPERATINGR": "UP",
        "OPERATIN_1": "Primary",
        "DAYTHRU": 7,
        "NGHTTHRU": 7,
        "MAINTRK": 1,
        "SIDINGTRK": 0,
        "YARDTRK": 0,
        "TRANSITTRK": 0,
        "INDUSTRYTR": 0,
        "OTHRTRK": 0,
        "WDCODE": "All other Gates",
        "REVISIONDA": "1975/01/01 00:00:00",
        "LASTUPDATE": "1/20/2026",
        "AADT": "1616",
        "AADTYEAR": "2024",
        "STATENAME": "TEXAS",
        "STATEAB": "TX",
        "COUNTYNAME": "PARKER",
        "CITYNAME": "ANNETH NORTH",
        "LATDD": 32.7315304,
        "LONGDD": -97.7209728,
        "gridlyProductionCertified": true,
        "gridlyClassification": "PUBLIC_ROADWAY",
        "gridlyDisplayName": "ANNETTA CENTER POINT ROAD",
        "gridlyId": "FRA-839231E"
      }
    },
    {
      "type": "Feature",
      "id": 214965,
      "geometry": {
        "type": "Point",
        "coordinates": [
          -97.676180599786,
          32.7194242000896
        ]
      },
      "properties": {
        "OBJECTID": 214965,
        "CROSSING": "839221Y",
        "EFFDATE": 1768867200000,
        "REASON": "14",
        "StateCode": "48",
        "CountyCode": "48367",
        "STCYFIPS": "48367",
        "CITYCD": "483670208",
        "RAILROAD": "UP",
        "RRDIV": "TEXOMA",
        "RRSUBDIV": "BAIRD SUB",
        "HIGHWAY": "FM0005",
        "STREET": "FM0005",
        "TTSTN": "668353",
        "MILEPOST": "0268.870",
        "TYPEXING": "Public",
        "POSXING": "At Grade",
        "PRVCAT": "14",
        "INIT": "2",
        "LATITUDE": 32.7194242,
        "LONGITUD": -97.6761806,
        "LLSOURCE": "1",
        "WHISTBAN": "0",
        "RRCONT": "4025443721",
        "POLCONT": "8008488715",
        "INV_LINK": "https://safetydata.fra.dot.gov/OfficeofSafety/PublicSite/Crossing/Crossing.aspx?phasetype=C&rpttype=I&txtcrossingnum=839221Y",
        "ACC_LINK": "https://safetydata.fra.dot.gov/OfficeofSafety/PublicSite/Crossing/Crossing.aspx?phasetype=C&rpttype=A&txtcrossingnum=839221Y",
        "TTSTNNAM": "",
        "XPURPOSE": "1",
        "OPERATINGR": "UP",
        "OPERATIN_1": "Primary",
        "DAYTHRU": 7,
        "NGHTTHRU": 7,
        "MAINTRK": 1,
        "SIDINGTRK": 0,
        "YARDTRK": 0,
        "TRANSITTRK": 0,
        "INDUSTRYTR": 0,
        "OTHRTRK": 0,
        "WDCODE": "All other Gates",
        "REVISIONDA": "1975/01/01 00:00:00",
        "LASTUPDATE": "1/20/2026",
        "AADT": "7803",
        "AADTYEAR": "2024",
        "STATENAME": "TEXAS",
        "STATEAB": "TX",
        "COUNTYNAME": "PARKER",
        "CITYNAME": "ANNETH NORTH",
        "LATDD": 32.7194242,
        "LONGDD": -97.6761806,
        "gridlyProductionCertified": true,
        "gridlyClassification": "PUBLIC_ROADWAY",
        "gridlyDisplayName": "FM0005",
        "gridlyId": "FRA-839221Y"
      }
    },
    {
      "type": "Feature",
      "id": 214966,
      "geometry": {
        "type": "Point",
        "coordinates": [
          -97.9634679002587,
          32.7796154003362
        ]
      },
      "properties": {
        "OBJECTID": 214966,
        "CROSSING": "839356E",
        "EFFDATE": 1768867200000,
        "REASON": "14",
        "StateCode": "48",
        "CountyCode": "48367",
        "STCYFIPS": "48367",
        "CITYCD": "483674602",
        "RAILROAD": "UP",
        "RRDIV": "TEXOMA",
        "RRSUBDIV": "BAIRD SUB",
        "HIGHWAY": "cr0000",
        "STREET": "DOSS ROAD",
        "TTSTN": "668394",
        "MILEPOST": "0287.340",
        "TYPEXING": "Public",
        "POSXING": "At Grade",
        "PRVCAT": "14",
        "INIT": "2",
        "LATITUDE": 32.7796154,
        "LONGITUD": -97.9634679,
        "LLSOURCE": "1",
        "WHISTBAN": "0",
        "RRCONT": "4025443721",
        "POLCONT": "8008488715",
        "INV_LINK": "https://safetydata.fra.dot.gov/OfficeofSafety/PublicSite/Crossing/Crossing.aspx?phasetype=C&rpttype=I&txtcrossingnum=839356E",
        "ACC_LINK": "https://safetydata.fra.dot.gov/OfficeofSafety/PublicSite/Crossing/Crossing.aspx?phasetype=C&rpttype=A&txtcrossingnum=839356E",
        "TTSTNNAM": "",
        "XPURPOSE": "1",
        "OPERATINGR": "UP",
        "OPERATIN_1": "Primary",
        "DAYTHRU": 7,
        "NGHTTHRU": 7,
        "MAINTRK": 1,
        "SIDINGTRK": 1,
        "YARDTRK": 0,
        "TRANSITTRK": 0,
        "INDUSTRYTR": 0,
        "OTHRTRK": 1,
        "WDCODE": "All other Gates",
        "REVISIONDA": "1975/01/01 00:00:00",
        "LASTUPDATE": "1/20/2026",
        "AADT": "115",
        "AADTYEAR": "2024",
        "STATENAME": "TEXAS",
        "STATEAB": "TX",
        "COUNTYNAME": "PARKER",
        "CITYNAME": "MILLSAP",
        "LATDD": 32.7796154,
        "LONGDD": -97.9634679,
        "gridlyProductionCertified": true,
        "gridlyClassification": "PUBLIC_ROADWAY",
        "gridlyDisplayName": "DOSS ROAD",
        "gridlyId": "FRA-839356E"
      }
    },
    {
      "type": "Feature",
      "id": 214967,
      "geometry": {
        "type": "Point",
        "coordinates": [
          -98.0485727999711,
          32.7183863997888
        ]
      },
      "properties": {
        "OBJECTID": 214967,
        "CROSSING": "839362H",
        "EFFDATE": 1768867200000,
        "REASON": "14",
        "StateCode": "48",
        "CountyCode": "48367",
        "STCYFIPS": "48367",
        "CITYCD": "483674602",
        "RAILROAD": "UP",
        "RRDIV": "TEXOMA",
        "RRSUBDIV": "BAIRD SUB",
        "HIGHWAY": "Cr3003",
        "STREET": "BENNETT ROAD",
        "TTSTN": "668473",
        "MILEPOST": "0293.950",
        "TYPEXING": "Public",
        "POSXING": "At Grade",
        "PRVCAT": "14",
        "INIT": "2",
        "LATITUDE": 32.7183864,
        "LONGITUD": -98.0485728,
        "LLSOURCE": "1",
        "WHISTBAN": "0",
        "RRCONT": "4025443721",
        "POLCONT": "8008488715",
        "INV_LINK": "https://safetydata.fra.dot.gov/OfficeofSafety/PublicSite/Crossing/Crossing.aspx?phasetype=C&rpttype=I&txtcrossingnum=839362H",
        "ACC_LINK": "https://safetydata.fra.dot.gov/OfficeofSafety/PublicSite/Crossing/Crossing.aspx?phasetype=C&rpttype=A&txtcrossingnum=839362H",
        "TTSTNNAM": "",
        "XPURPOSE": "1",
        "OPERATINGR": "UP",
        "OPERATIN_1": "Primary",
        "DAYTHRU": 7,
        "NGHTTHRU": 7,
        "MAINTRK": 1,
        "SIDINGTRK": 1,
        "YARDTRK": 0,
        "TRANSITTRK": 0,
        "INDUSTRYTR": 0,
        "OTHRTRK": 2,
        "WDCODE": "All other Gates",
        "REVISIONDA": "1975/01/01 00:00:00",
        "LASTUPDATE": "1/20/2026",
        "AADT": "318",
        "AADTYEAR": "2019",
        "STATENAME": "TEXAS",
        "STATEAB": "TX",
        "COUNTYNAME": "PARKER",
        "CITYNAME": "MILLSAP",
        "LATDD": 32.7183864,
        "LONGDD": -98.0485728,
        "gridlyProductionCertified": true,
        "gridlyClassification": "PUBLIC_ROADWAY",
        "gridlyDisplayName": "BENNETT ROAD",
        "gridlyId": "FRA-839362H"
      }
    },
    {
      "type": "Feature",
      "id": 214968,
      "geometry": {
        "type": "Point",
        "coordinates": [
          -97.952463500299,
          32.7872402996614
        ]
      },
      "properties": {
        "OBJECTID": 214968,
        "CROSSING": "839355X",
        "EFFDATE": 1768867200000,
        "REASON": "14",
        "StateCode": "48",
        "CountyCode": "48367",
        "STCYFIPS": "48367",
        "CITYCD": "483674602",
        "RAILROAD": "UP",
        "RRDIV": "TEXOMA",
        "RRSUBDIV": "BAIRD SUB",
        "HIGHWAY": "Cr0466",
        "STREET": "NEWBERRY ROAD",
        "TTSTN": "668394",
        "MILEPOST": "0286.520",
        "TYPEXING": "Public",
        "POSXING": "At Grade",
        "PRVCAT": "14",
        "INIT": "2",
        "LATITUDE": 32.7872403,
        "LONGITUD": -97.9524635,
        "LLSOURCE": "1",
        "WHISTBAN": "0",
        "RRCONT": "4025443721",
        "POLCONT": "8008488715",
        "INV_LINK": "https://safetydata.fra.dot.gov/OfficeofSafety/PublicSite/Crossing/Crossing.aspx?phasetype=C&rpttype=I&txtcrossingnum=839355X",
        "ACC_LINK": "https://safetydata.fra.dot.gov/OfficeofSafety/PublicSite/Crossing/Crossing.aspx?phasetype=C&rpttype=A&txtcrossingnum=839355X",
        "TTSTNNAM": "",
        "XPURPOSE": "1",
        "OPERATINGR": "UP",
        "OPERATIN_1": "Primary",
        "DAYTHRU": 7,
        "NGHTTHRU": 7,
        "MAINTRK": 1,
        "SIDINGTRK": 1,
        "YARDTRK": 0,
        "TRANSITTRK": 0,
        "INDUSTRYTR": 0,
        "OTHRTRK": 1,
        "WDCODE": "All other Gates",
        "REVISIONDA": "1975/01/01 00:00:00",
        "LASTUPDATE": "1/20/2026",
        "AADT": "165",
        "AADTYEAR": "2024",
        "STATENAME": "TEXAS",
        "STATEAB": "TX",
        "COUNTYNAME": "PARKER",
        "CITYNAME": "MILLSAP",
        "LATDD": 32.7872403,
        "LONGDD": -97.9524635,
        "gridlyProductionCertified": true,
        "gridlyClassification": "PUBLIC_ROADWAY",
        "gridlyDisplayName": "NEWBERRY ROAD",
        "gridlyId": "FRA-839355X"
      }
    },
    {
      "type": "Feature",
      "id": 214969,
      "geometry": {
        "type": "Point",
        "coordinates": [
          -97.9970111995802,
          32.7541760001515
        ]
      },
      "properties": {
        "OBJECTID": 214969,
        "CROSSING": "839358T",
        "EFFDATE": 1768867200000,
        "REASON": "14",
        "StateCode": "48",
        "CountyCode": "48367",
        "STCYFIPS": "48367",
        "CITYCD": "483674602",
        "RAILROAD": "UP",
        "RRDIV": "TEXOMA",
        "RRSUBDIV": "BAIRD SUB",
        "HIGHWAY": "Cr0468",
        "STREET": "COOL JUNCTION ROAD",
        "TTSTN": "668394",
        "MILEPOST": "0289.960",
        "TYPEXING": "Public",
        "POSXING": "At Grade",
        "PRVCAT": "14",
        "INIT": "2",
        "LATITUDE": 32.754176,
        "LONGITUD": -97.9970112,
        "LLSOURCE": "1",
        "WHISTBAN": "0",
        "RRCONT": "4025443721",
        "POLCONT": "8008488715",
        "INV_LINK": "https://safetydata.fra.dot.gov/OfficeofSafety/PublicSite/Crossing/Crossing.aspx?phasetype=C&rpttype=I&txtcrossingnum=839358T",
        "ACC_LINK": "https://safetydata.fra.dot.gov/OfficeofSafety/PublicSite/Crossing/Crossing.aspx?phasetype=C&rpttype=A&txtcrossingnum=839358T",
        "TTSTNNAM": "",
        "XPURPOSE": "1",
        "OPERATINGR": "UP",
        "OPERATIN_1": "Primary",
        "DAYTHRU": 7,
        "NGHTTHRU": 7,
        "MAINTRK": 1,
        "SIDINGTRK": 0,
        "YARDTRK": 0,
        "TRANSITTRK": 0,
        "INDUSTRYTR": 0,
        "OTHRTRK": 0,
        "WDCODE": "All other Gates",
        "REVISIONDA": "1975/01/01 00:00:00",
        "LASTUPDATE": "1/20/2026",
        "AADT": "123",
        "AADTYEAR": "2019",
        "STATENAME": "TEXAS",
        "STATEAB": "TX",
        "COUNTYNAME": "PARKER",
        "CITYNAME": "MILLSAP",
        "LATDD": 32.754176,
        "LONGDD": -97.9970112,
        "gridlyProductionCertified": true,
        "gridlyClassification": "PUBLIC_ROADWAY",
        "gridlyDisplayName": "COOL JUNCTION ROAD",
        "gridlyId": "FRA-839358T"
      }
    },
    {
      "type": "Feature",
      "id": 214971,
      "geometry": {
        "type": "Point",
        "coordinates": [
          -97.7973324996365,
          32.7631150998691
        ]
      },
      "properties": {
        "OBJECTID": 214971,
        "CROSSING": "839240D",
        "EFFDATE": 1768867200000,
        "REASON": "14",
        "StateCode": "48",
        "CountyCode": "48367",
        "STCYFIPS": "48367",
        "CITYCD": "483677280",
        "RAILROAD": "UP",
        "RRDIV": "TEXOMA",
        "RRSUBDIV": "BAIRD SUB",
        "HIGHWAY": "FM0051",
        "STREET": "FM0051 / MAIN STREET",
        "TTSTN": "668380",
        "MILEPOST": "0276.640",
        "TYPEXING": "Public",
        "POSXING": "At Grade",
        "PRVCAT": "14",
        "INIT": "2",
        "LATITUDE": 32.7631151,
        "LONGITUD": -97.7973325,
        "LLSOURCE": "1",
        "WHISTBAN": "0",
        "RRCONT": "4025443721",
        "POLCONT": "8008488715",
        "INV_LINK": "https://safetydata.fra.dot.gov/OfficeofSafety/PublicSite/Crossing/Crossing.aspx?phasetype=C&rpttype=I&txtcrossingnum=839240D",
        "ACC_LINK": "https://safetydata.fra.dot.gov/OfficeofSafety/PublicSite/Crossing/Crossing.aspx?phasetype=C&rpttype=A&txtcrossingnum=839240D",
        "TTSTNNAM": "",
        "XPURPOSE": "1",
        "OPERATINGR": "UP",
        "OPERATIN_1": "Primary",
        "DAYTHRU": 7,
        "NGHTTHRU": 7,
        "MAINTRK": 1,
        "SIDINGTRK": 1,
        "YARDTRK": 0,
        "TRANSITTRK": 0,
        "INDUSTRYTR": 0,
        "OTHRTRK": 1,
        "WDCODE": "All other Gates",
        "REVISIONDA": "1975/01/01 00:00:00",
        "LASTUPDATE": "1/20/2026",
        "AADT": "12716",
        "AADTYEAR": "2024",
        "STATENAME": "TEXAS",
        "STATEAB": "TX",
        "COUNTYNAME": "PARKER",
        "CITYNAME": "WEATHERFORD",
        "LATDD": 32.7631151,
        "LONGDD": -97.7973325,
        "gridlyProductionCertified": true,
        "gridlyClassification": "PUBLIC_ROADWAY",
        "gridlyDisplayName": "FM0051 / MAIN STREET",
        "gridlyId": "FRA-839240D"
      }
    },
    {
      "type": "Feature",
      "id": 214972,
      "geometry": {
        "type": "Point",
        "coordinates": [
          -97.9191659998021,
          32.7865734997052
        ]
      },
      "properties": {
        "OBJECTID": 214972,
        "CROSSING": "839352C",
        "EFFDATE": 1768867200000,
        "REASON": "14",
        "StateCode": "48",
        "CountyCode": "48367",
        "STCYFIPS": "48367",
        "CITYCD": "483677280",
        "RAILROAD": "UP",
        "RRDIV": "TEXOMA",
        "RRSUBDIV": "BAIRD SUB",
        "HIGHWAY": "CR0000",
        "STREET": "CLARK LAKE ROAD",
        "TTSTN": "668380",
        "MILEPOST": "0284.370",
        "TYPEXING": "Public",
        "POSXING": "At Grade",
        "PRVCAT": "14",
        "INIT": "2",
        "LATITUDE": 32.7865735,
        "LONGITUD": -97.919166,
        "LLSOURCE": "1",
        "WHISTBAN": "0",
        "RRCONT": "4025443721",
        "POLCONT": "8008488715",
        "INV_LINK": "https://safetydata.fra.dot.gov/OfficeofSafety/PublicSite/Crossing/Crossing.aspx?phasetype=C&rpttype=I&txtcrossingnum=839352C",
        "ACC_LINK": "https://safetydata.fra.dot.gov/OfficeofSafety/PublicSite/Crossing/Crossing.aspx?phasetype=C&rpttype=A&txtcrossingnum=839352C",
        "TTSTNNAM": "",
        "XPURPOSE": "1",
        "OPERATINGR": "UP",
        "OPERATIN_1": "Primary",
        "DAYTHRU": 7,
        "NGHTTHRU": 7,
        "MAINTRK": 1,
        "SIDINGTRK": 0,
        "YARDTRK": 0,
        "TRANSITTRK": 0,
        "INDUSTRYTR": 0,
        "OTHRTRK": 0,
        "WDCODE": "All other Gates",
        "REVISIONDA": "1975/01/01 00:00:00",
        "LASTUPDATE": "1/20/2026",
        "AADT": "419",
        "AADTYEAR": "2024",
        "STATENAME": "TEXAS",
        "STATEAB": "TX",
        "COUNTYNAME": "PARKER",
        "CITYNAME": "WEATHERFORD",
        "LATDD": 32.7865735,
        "LONGDD": -97.919166,
        "gridlyProductionCertified": true,
        "gridlyClassification": "PUBLIC_ROADWAY",
        "gridlyDisplayName": "CLARK LAKE ROAD",
        "gridlyId": "FRA-839352C"
      }
    },
    {
      "type": "Feature",
      "id": 214973,
      "geometry": {
        "type": "Point",
        "coordinates": [
          -97.8454620999591,
          32.7811636001972
        ]
      },
      "properties": {
        "OBJECTID": 214973,
        "CROSSING": "839345S",
        "EFFDATE": 1768867200000,
        "REASON": "14",
        "StateCode": "48",
        "CountyCode": "48367",
        "STCYFIPS": "48367",
        "CITYCD": "483677280",
        "RAILROAD": "UP",
        "RRDIV": "TEXOMA",
        "RRSUBDIV": "BAIRD SUB",
        "HIGHWAY": "CR0590",
        "STREET": "GARNER ADELL ROAD",
        "TTSTN": "668380",
        "MILEPOST": "0279.950",
        "TYPEXING": "Public",
        "POSXING": "At Grade",
        "PRVCAT": "14",
        "INIT": "2",
        "LATITUDE": 32.7811636,
        "LONGITUD": -97.8454621,
        "LLSOURCE": "1",
        "WHISTBAN": "0",
        "RRCONT": "4025443721",
        "POLCONT": "8008488715",
        "INV_LINK": "https://safetydata.fra.dot.gov/OfficeofSafety/PublicSite/Crossing/Crossing.aspx?phasetype=C&rpttype=I&txtcrossingnum=839345S",
        "ACC_LINK": "https://safetydata.fra.dot.gov/OfficeofSafety/PublicSite/Crossing/Crossing.aspx?phasetype=C&rpttype=A&txtcrossingnum=839345S",
        "TTSTNNAM": "",
        "XPURPOSE": "1",
        "OPERATINGR": "UP",
        "OPERATIN_1": "Primary",
        "DAYTHRU": 7,
        "NGHTTHRU": 7,
        "MAINTRK": 1,
        "SIDINGTRK": 0,
        "YARDTRK": 0,
        "TRANSITTRK": 0,
        "INDUSTRYTR": 0,
        "OTHRTRK": 0,
        "WDCODE": "All other Gates",
        "REVISIONDA": "1975/01/01 00:00:00",
        "LASTUPDATE": "1/20/2026",
        "AADT": "1016",
        "AADTYEAR": "2019",
        "STATENAME": "TEXAS",
        "STATEAB": "TX",
        "COUNTYNAME": "PARKER",
        "CITYNAME": "WEATHERFORD",
        "LATDD": 32.7811636,
        "LONGDD": -97.8454621,
        "gridlyProductionCertified": true,
        "gridlyClassification": "PUBLIC_ROADWAY",
        "gridlyDisplayName": "GARNER ADELL ROAD",
        "gridlyId": "FRA-839345S"
      }
    },
    {
      "type": "Feature",
      "id": 214974,
      "geometry": {
        "type": "Point",
        "coordinates": [
          -97.7954284000176,
          32.7620671002764
        ]
      },
      "properties": {
        "OBJECTID": 214974,
        "CROSSING": "839239J",
        "EFFDATE": 1768867200000,
        "REASON": "14",
        "StateCode": "48",
        "CountyCode": "48367",
        "STCYFIPS": "48367",
        "CITYCD": "483677280",
        "RAILROAD": "UP",
        "RRDIV": "TEXOMA",
        "RRSUBDIV": "BAIRD SUB",
        "HIGHWAY": "lS0000",
        "STREET": "ELM STREET",
        "TTSTN": "668380",
        "MILEPOST": "0276.520",
        "TYPEXING": "Public",
        "POSXING": "At Grade",
        "PRVCAT": "14",
        "INIT": "2",
        "LATITUDE": 32.7620671,
        "LONGITUD": -97.7954284,
        "LLSOURCE": "1",
        "WHISTBAN": "0",
        "RRCONT": "4025443721",
        "POLCONT": "8008488715",
        "INV_LINK": "https://safetydata.fra.dot.gov/OfficeofSafety/PublicSite/Crossing/Crossing.aspx?phasetype=C&rpttype=I&txtcrossingnum=839239J",
        "ACC_LINK": "https://safetydata.fra.dot.gov/OfficeofSafety/PublicSite/Crossing/Crossing.aspx?phasetype=C&rpttype=A&txtcrossingnum=839239J",
        "TTSTNNAM": "",
        "XPURPOSE": "1",
        "OPERATINGR": "UP",
        "OPERATIN_1": "Primary",
        "DAYTHRU": 7,
        "NGHTTHRU": 7,
        "MAINTRK": 1,
        "SIDINGTRK": 0,
        "YARDTRK": 0,
        "TRANSITTRK": 0,
        "INDUSTRYTR": 0,
        "OTHRTRK": 1,
        "WDCODE": "All other Gates",
        "REVISIONDA": "1975/01/01 00:00:00",
        "LASTUPDATE": "1/20/2026",
        "AADT": "5787",
        "AADTYEAR": "2024",
        "STATENAME": "TEXAS",
        "STATEAB": "TX",
        "COUNTYNAME": "PARKER",
        "CITYNAME": "WEATHERFORD",
        "LATDD": 32.7620671,
        "LONGDD": -97.7954284,
        "gridlyProductionCertified": true,
        "gridlyClassification": "PUBLIC_ROADWAY",
        "gridlyDisplayName": "ELM STREET",
        "gridlyId": "FRA-839239J"
      }
    },
    {
      "type": "Feature",
      "id": 214975,
      "geometry": {
        "type": "Point",
        "coordinates": [
          -97.9000036996083,
          32.7831528997657
        ]
      },
      "properties": {
        "OBJECTID": 214975,
        "CROSSING": "839350N",
        "EFFDATE": 1768867200000,
        "REASON": "14",
        "StateCode": "48",
        "CountyCode": "48367",
        "STCYFIPS": "48367",
        "CITYCD": "483677280",
        "RAILROAD": "UP",
        "RRDIV": "TEXOMA",
        "RRSUBDIV": "BAIRD SUB",
        "HIGHWAY": "Cr0513",
        "STREET": "n LAMBERT ROAD",
        "TTSTN": "668380",
        "MILEPOST": "0283.240",
        "TYPEXING": "Public",
        "POSXING": "At Grade",
        "PRVCAT": "14",
        "INIT": "2",
        "LATITUDE": 32.7831529,
        "LONGITUD": -97.9000037,
        "LLSOURCE": "1",
        "WHISTBAN": "0",
        "RRCONT": "4025443721",
        "POLCONT": "8008488715",
        "INV_LINK": "https://safetydata.fra.dot.gov/OfficeofSafety/PublicSite/Crossing/Crossing.aspx?phasetype=C&rpttype=I&txtcrossingnum=839350N",
        "ACC_LINK": "https://safetydata.fra.dot.gov/OfficeofSafety/PublicSite/Crossing/Crossing.aspx?phasetype=C&rpttype=A&txtcrossingnum=839350N",
        "TTSTNNAM": "",
        "XPURPOSE": "1",
        "OPERATINGR": "UP",
        "OPERATIN_1": "Primary",
        "DAYTHRU": 7,
        "NGHTTHRU": 7,
        "MAINTRK": 1,
        "SIDINGTRK": 0,
        "YARDTRK": 0,
        "TRANSITTRK": 0,
        "INDUSTRYTR": 0,
        "OTHRTRK": 0,
        "WDCODE": "All other Gates",
        "REVISIONDA": "1975/01/01 00:00:00",
        "LASTUPDATE": "1/20/2026",
        "AADT": "373",
        "AADTYEAR": "2024",
        "STATENAME": "TEXAS",
        "STATEAB": "TX",
        "COUNTYNAME": "PARKER",
        "CITYNAME": "WEATHERFORD",
        "LATDD": 32.7831529,
        "LONGDD": -97.9000037,
        "gridlyProductionCertified": true,
        "gridlyClassification": "PUBLIC_ROADWAY",
        "gridlyDisplayName": "n LAMBERT ROAD",
        "gridlyId": "FRA-839350N"
      }
    }
  ]
}
