{
  "type": "FeatureCollection",
  "features": [
    {
      "type": "Feature",
      "id": 201869,
      "geometry": {
        "type": "Point",
        "coordinates": [
          -101.543213300281,
          33.3597190002513
        ]
      },
      "properties": {
        "OBJECTID": 201869,
        "CROSSING": "015014C",
        "EFFDATE": 1771286400000,
        "REASON": "14",
        "StateCode": "48",
        "CountyCode": "48169",
        "STCYFIPS": "48169",
        "CITYCD": "483036410",
        "RAILROAD": "BNSF",
        "RRDIV": "RED RIVER",
        "RRSUBDIV": "SLATON",
        "HIGHWAY": "CR0130",
        "STREET": "COUNTY ROAD 130 / NINETH STREET",
        "TTSTN": "676837",
        "MILEPOST": "0697.944",
        "TYPEXING": "Public",
        "POSXING": "At Grade",
        "PRVCAT": "14",
        "INIT": "2",
        "LATITUDE": 33.359719,
        "LONGITUD": -101.5432133,
        "LLSOURCE": "1",
        "WHISTBAN": "0",
        "RRCONT": "8173521549",
        "POLCONT": "8008325452",
        "INV_LINK": "https://safetydata.fra.dot.gov/OfficeofSafety/PublicSite/Crossing/Crossing.aspx?phasetype=C&rpttype=I&txtcrossingnum=015014C",
        "ACC_LINK": "https://safetydata.fra.dot.gov/OfficeofSafety/PublicSite/Crossing/Crossing.aspx?phasetype=C&rpttype=A&txtcrossingnum=015014C",
        "TTSTNNAM": "SOUTHLAND",
        "XPURPOSE": "1",
        "OPERATINGR": "BNSF",
        "OPERATIN_1": "Primary",
        "DAYTHRU": 5,
        "NGHTTHRU": 5,
        "MAINTRK": 1,
        "SIDINGTRK": 1,
        "YARDTRK": 0,
        "TRANSITTRK": 0,
        "INDUSTRYTR": 0,
        "OTHRTRK": 1,
        "WDCODE": "All other Gates",
        "REVISIONDA": "1996/01/01 00:00:00",
        "LASTUPDATE": "2/17/2026",
        "AADT": "113",
        "AADTYEAR": "2022",
        "STATENAME": "TEXAS",
        "STATEAB": "TX",
        "COUNTYNAME": "GARZA",
        "CITYNAME": "SLATON",
        "LATDD": 33.359719,
        "LONGDD": -101.5432133,
        "gridlyProductionCertified": true,
        "gridlyClassification": "PUBLIC_ROADWAY",
        "gridlyDisplayName": "COUNTY ROAD 130 / NINETH STREET",
        "gridlyId": "FRA-015014C"
      }
    },
    {
      "type": "Feature",
      "id": 201870,
      "geometry": {
        "type": "Point",
        "coordinates": [
          -101.555915899708,
          33.3712786998187
        ]
      },
      "properties": {
        "OBJECTID": 201870,
        "CROSSING": "015012N",
        "EFFDATE": 1771286400000,
        "REASON": "14",
        "StateCode": "48",
        "CountyCode": "48169",
        "STCYFIPS": "48169",
        "CITYCD": "483036410",
        "RAILROAD": "BNSF",
        "RRDIV": "RED RIVER",
        "RRSUBDIV": "SLATON",
        "HIGHWAY": "CR6010",
        "STREET": "STATE  STREET",
        "TTSTN": "676837",
        "MILEPOST": "0696.861",
        "TYPEXING": "Public",
        "POSXING": "At Grade",
        "PRVCAT": "14",
        "INIT": "2",
        "LATITUDE": 33.3712787,
        "LONGITUD": -101.5559159,
        "LLSOURCE": "1",
        "WHISTBAN": "0",
        "RRCONT": "8173521549",
        "POLCONT": "8008325452",
        "INV_LINK": "https://safetydata.fra.dot.gov/OfficeofSafety/PublicSite/Crossing/Crossing.aspx?phasetype=C&rpttype=I&txtcrossingnum=015012N",
        "ACC_LINK": "https://safetydata.fra.dot.gov/OfficeofSafety/PublicSite/Crossing/Crossing.aspx?phasetype=C&rpttype=A&txtcrossingnum=015012N",
        "TTSTNNAM": "SOUTHLAND",
        "XPURPOSE": "1",
        "OPERATINGR": "BNSF",
        "OPERATIN_1": "Primary",
        "DAYTHRU": 5,
        "NGHTTHRU": 5,
        "MAINTRK": 1,
        "SIDINGTRK": 0,
        "YARDTRK": 0,
        "TRANSITTRK": 0,
        "INDUSTRYTR": 0,
        "OTHRTRK": 0,
        "WDCODE": "Crossbucks",
        "REVISIONDA": "1996/01/01 00:00:00",
        "LASTUPDATE": "2/17/2026",
        "AADT": "14",
        "AADTYEAR": "2019",
        "STATENAME": "TEXAS",
        "STATEAB": "TX",
        "COUNTYNAME": "GARZA",
        "CITYNAME": "SLATON",
        "LATDD": 33.3712787,
        "LONGDD": -101.5559159,
        "gridlyProductionCertified": true,
        "gridlyClassification": "PUBLIC_ROADWAY",
        "gridlyDisplayName": "STATE  STREET",
        "gridlyId": "FRA-015012N"
      }
    },
    {
      "type": "Feature",
      "id": 203553,
      "geometry": {
        "type": "Point",
        "coordinates": [
          -101.336716999981,
          33.1462908998328
        ]
      },
      "properties": {
        "OBJECTID": 203553,
        "CROSSING": "015026W",
        "EFFDATE": 1734393600000,
        "REASON": "14",
        "StateCode": "48",
        "CountyCode": "48169",
        "STCYFIPS": "48169",
        "CITYCD": "481695480",
        "RAILROAD": "BNSF",
        "RRDIV": "RED RIVER",
        "RRSUBDIV": "SLATON",
        "HIGHWAY": "Not Yet Reported by State",
        "STREET": "CO RD 231",
        "TTSTN": "676857",
        "MILEPOST": "0717.929",
        "TYPEXING": "Private",
        "POSXING": "At Grade",
        "PRVCAT": "14",
        "INIT": "1",
        "LATITUDE": 33.1462909,
        "LONGITUD": -101.336717,
        "LLSOURCE": "1",
        "WHISTBAN": "0",
        "RRCONT": "8173521549",
        "POLCONT": "8008325452",
        "INV_LINK": "https://safetydata.fra.dot.gov/OfficeofSafety/PublicSite/Crossing/Crossing.aspx?phasetype=C&rpttype=I&txtcrossingnum=015026W",
        "ACC_LINK": "https://safetydata.fra.dot.gov/OfficeofSafety/PublicSite/Crossing/Crossing.aspx?phasetype=C&rpttype=A&txtcrossingnum=015026W",
        "TTSTNNAM": "AUGUSTUS",
        "XPURPOSE": "1",
        "OPERATINGR": "BNSF",
        "OPERATIN_1": "Primary",
        "DAYTHRU": 3,
        "NGHTTHRU": 3,
        "MAINTRK": 1,
        "SIDINGTRK": 0,
        "YARDTRK": 0,
        "TRANSITTRK": 0,
        "INDUSTRYTR": 0,
        "OTHRTRK": 0,
        "WDCODE": "",
        "REVISIONDA": "1996/01/01 00:00:00",
        "LASTUPDATE": "12/17/2024",
        "AADT": "",
        "AADTYEAR": "1970",
        "STATENAME": "TEXAS",
        "STATEAB": "TX",
        "COUNTYNAME": "GARZA",
        "CITYNAME": "POST",
        "LATDD": 33.1462909,
        "LONGDD": -101.336717,
        "gridlyProductionCertified": true,
        "gridlyClassification": "PUBLIC_ROADWAY",
        "gridlyDisplayName": "CO RD 231",
        "gridlyId": "FRA-015026W"
      }
    },
    {
      "type": "Feature",
      "id": 203554,
      "geometry": {
        "type": "Point",
        "coordinates": [
          -101.229472999718,
          33.0647147000135
        ]
      },
      "properties": {
        "OBJECTID": 203554,
        "CROSSING": "015029S",
        "EFFDATE": 1734393600000,
        "REASON": "14",
        "StateCode": "48",
        "CountyCode": "48169",
        "STCYFIPS": "48169",
        "CITYCD": "481695480",
        "RAILROAD": "BNSF",
        "RRDIV": "RED RIVER",
        "RRSUBDIV": "SLATON",
        "HIGHWAY": "Not Yet Reported by State",
        "STREET": "PRIVATE",
        "TTSTN": "676870",
        "MILEPOST": "0726.700",
        "TYPEXING": "Private",
        "POSXING": "At Grade",
        "PRVCAT": "14",
        "INIT": "1",
        "LATITUDE": 33.0647147,
        "LONGITUD": -101.229473,
        "LLSOURCE": "1",
        "WHISTBAN": "0",
        "RRCONT": "8173521549",
        "POLCONT": "8008325452",
        "INV_LINK": "https://safetydata.fra.dot.gov/OfficeofSafety/PublicSite/Crossing/Crossing.aspx?phasetype=C&rpttype=I&txtcrossingnum=015029S",
        "ACC_LINK": "https://safetydata.fra.dot.gov/OfficeofSafety/PublicSite/Crossing/Crossing.aspx?phasetype=C&rpttype=A&txtcrossingnum=015029S",
        "TTSTNNAM": "JUSTICEBURG",
        "XPURPOSE": "1",
        "OPERATINGR": "BNSF",
        "OPERATIN_1": "Primary",
        "DAYTHRU": 3,
        "NGHTTHRU": 3,
        "MAINTRK": 1,
        "SIDINGTRK": 0,
        "YARDTRK": 0,
        "TRANSITTRK": 0,
        "INDUSTRYTR": 0,
        "OTHRTRK": 0,
        "WDCODE": "",
        "REVISIONDA": "1996/01/01 00:00:00",
        "LASTUPDATE": "12/17/2024",
        "AADT": "",
        "AADTYEAR": "1970",
        "STATENAME": "TEXAS",
        "STATEAB": "TX",
        "COUNTYNAME": "GARZA",
        "CITYNAME": "POST",
        "LATDD": 33.0647147,
        "LONGDD": -101.229473,
        "gridlyProductionCertified": true,
        "gridlyClassification": "PUBLIC_ROADWAY",
        "gridlyDisplayName": "PRIVATE",
        "gridlyId": "FRA-015029S"
      }
    },
    {
      "type": "Feature",
      "id": 203555,
      "geometry": {
        "type": "Point",
        "coordinates": [
          -101.178276000348,
          33.0153939003757
        ]
      },
      "properties": {
        "OBJECTID": 203555,
        "CROSSING": "015034N",
        "EFFDATE": 1734393600000,
        "REASON": "14",
        "StateCode": "48",
        "CountyCode": "48169",
        "STCYFIPS": "48169",
        "CITYCD": "481695480",
        "RAILROAD": "BNSF",
        "RRDIV": "RED RIVER",
        "RRSUBDIV": "SLATON",
        "HIGHWAY": "Not Yet Reported by State",
        "STREET": "PRIVATE",
        "TTSTN": "676870",
        "MILEPOST": "0731.310",
        "TYPEXING": "Private",
        "POSXING": "At Grade",
        "PRVCAT": "14",
        "INIT": "1",
        "LATITUDE": 33.0153939,
        "LONGITUD": -101.178276,
        "LLSOURCE": "1",
        "WHISTBAN": "0",
        "RRCONT": "8173521549",
        "POLCONT": "8008325452",
        "INV_LINK": "https://safetydata.fra.dot.gov/OfficeofSafety/PublicSite/Crossing/Crossing.aspx?phasetype=C&rpttype=I&txtcrossingnum=015034N",
        "ACC_LINK": "https://safetydata.fra.dot.gov/OfficeofSafety/PublicSite/Crossing/Crossing.aspx?phasetype=C&rpttype=A&txtcrossingnum=015034N",
        "TTSTNNAM": "JUSTICEBURG",
        "XPURPOSE": "1",
        "OPERATINGR": "BNSF",
        "OPERATIN_1": "Primary",
        "DAYTHRU": 3,
        "NGHTTHRU": 3,
        "MAINTRK": 1,
        "SIDINGTRK": 0,
        "YARDTRK": 0,
        "TRANSITTRK": 0,
        "INDUSTRYTR": 0,
        "OTHRTRK": 0,
        "WDCODE": "",
        "REVISIONDA": "1996/01/01 00:00:00",
        "LASTUPDATE": "12/17/2024",
        "AADT": "000010",
        "AADTYEAR": "1976",
        "STATENAME": "TEXAS",
        "STATEAB": "TX",
        "COUNTYNAME": "GARZA",
        "CITYNAME": "POST",
        "LATDD": 33.0153939,
        "LONGDD": -101.178276,
        "gridlyProductionCertified": true,
        "gridlyClassification": "PUBLIC_ROADWAY",
        "gridlyDisplayName": "PRIVATE",
        "gridlyId": "FRA-015034N"
      }
    },
    {
      "type": "Feature",
      "id": 203621,
      "geometry": {
        "type": "Point",
        "coordinates": [
          -101.129911000098,
          32.9841209002075
        ]
      },
      "properties": {
        "OBJECTID": 203621,
        "CROSSING": "015036C",
        "EFFDATE": 1734393600000,
        "REASON": "14",
        "StateCode": "48",
        "CountyCode": "48169",
        "STCYFIPS": "48169",
        "CITYCD": "481695480",
        "RAILROAD": "BNSF",
        "RRDIV": "RED RIVER",
        "RRSUBDIV": "SLATON",
        "HIGHWAY": "Not Yet Reported by State",
        "STREET": "PRIVATE",
        "TTSTN": "679132",
        "MILEPOST": "0734.900",
        "TYPEXING": "Private",
        "POSXING": "At Grade",
        "PRVCAT": "14",
        "INIT": "1",
        "LATITUDE": 32.9841209,
        "LONGITUD": -101.129911,
        "LLSOURCE": "1",
        "WHISTBAN": "0",
        "RRCONT": "8173521549",
        "POLCONT": "8008325452",
        "INV_LINK": "https://safetydata.fra.dot.gov/OfficeofSafety/PublicSite/Crossing/Crossing.aspx?phasetype=C&rpttype=I&txtcrossingnum=015036C",
        "ACC_LINK": "https://safetydata.fra.dot.gov/OfficeofSafety/PublicSite/Crossing/Crossing.aspx?phasetype=C&rpttype=A&txtcrossingnum=015036C",
        "TTSTNNAM": "FULLERVILLE",
        "XPURPOSE": "1",
        "OPERATINGR": "BNSF",
        "OPERATIN_1": "Primary",
        "DAYTHRU": 3,
        "NGHTTHRU": 3,
        "MAINTRK": 1,
        "SIDINGTRK": 0,
        "YARDTRK": 0,
        "TRANSITTRK": 0,
        "INDUSTRYTR": 0,
        "OTHRTRK": 0,
        "WDCODE": "",
        "REVISIONDA": "1996/01/01 00:00:00",
        "LASTUPDATE": "12/17/2024",
        "AADT": "",
        "AADTYEAR": "1970",
        "STATENAME": "TEXAS",
        "STATEAB": "TX",
        "COUNTYNAME": "GARZA",
        "CITYNAME": "POST",
        "LATDD": 32.9841209,
        "LONGDD": -101.129911,
        "gridlyProductionCertified": true,
        "gridlyClassification": "PUBLIC_ROADWAY",
        "gridlyDisplayName": "PRIVATE",
        "gridlyId": "FRA-015036C"
      }
    },
    {
      "type": "Feature",
      "id": 203659,
      "geometry": {
        "type": "Point",
        "coordinates": [
          -101.151724499987,
          32.9937534002308
        ]
      },
      "properties": {
        "OBJECTID": 203659,
        "CROSSING": "015035V",
        "EFFDATE": 1774396800000,
        "REASON": "14",
        "StateCode": "48",
        "CountyCode": "48169",
        "STCYFIPS": "48169",
        "CITYCD": "481695480",
        "RAILROAD": "BNSF",
        "RRDIV": "RED RIVER",
        "RRSUBDIV": "SLATON",
        "HIGHWAY": "FM1269",
        "STREET": "FM1269",
        "TTSTN": "676870",
        "MILEPOST": "0733.471",
        "TYPEXING": "Public",
        "POSXING": "At Grade",
        "PRVCAT": "14",
        "INIT": "2",
        "LATITUDE": 32.9937534,
        "LONGITUD": -101.1517245,
        "LLSOURCE": "1",
        "WHISTBAN": "0",
        "RRCONT": "8173521549",
        "POLCONT": "8008325452",
        "INV_LINK": "https://safetydata.fra.dot.gov/OfficeofSafety/PublicSite/Crossing/Crossing.aspx?phasetype=C&rpttype=I&txtcrossingnum=015035V",
        "ACC_LINK": "https://safetydata.fra.dot.gov/OfficeofSafety/PublicSite/Crossing/Crossing.aspx?phasetype=C&rpttype=A&txtcrossingnum=015035V",
        "TTSTNNAM": "JUSTICEBURG",
        "XPURPOSE": "1",
        "OPERATINGR": "BNSF",
        "OPERATIN_1": "Primary",
        "DAYTHRU": 3,
        "NGHTTHRU": 3,
        "MAINTRK": 1,
        "SIDINGTRK": 0,
        "YARDTRK": 0,
        "TRANSITTRK": 0,
        "INDUSTRYTR": 0,
        "OTHRTRK": 0,
        "WDCODE": "All other Gates",
        "REVISIONDA": "1996/01/01 00:00:00",
        "LASTUPDATE": "3/25/2026",
        "AADT": "26",
        "AADTYEAR": "2023",
        "STATENAME": "TEXAS",
        "STATEAB": "TX",
        "COUNTYNAME": "GARZA",
        "CITYNAME": "POST",
        "LATDD": 32.9937534,
        "LONGDD": -101.1517245,
        "gridlyProductionCertified": true,
        "gridlyClassification": "PUBLIC_ROADWAY",
        "gridlyDisplayName": "FM1269",
        "gridlyId": "FRA-015035V"
      }
    },
    {
      "type": "Feature",
      "id": 203679,
      "geometry": {
        "type": "Point",
        "coordinates": [
          -101.101253999628,
          32.9734028999493
        ]
      },
      "properties": {
        "OBJECTID": 203679,
        "CROSSING": "015037J",
        "EFFDATE": 1734393600000,
        "REASON": "14",
        "StateCode": "48",
        "CountyCode": "48169",
        "STCYFIPS": "48169",
        "CITYCD": "481693558",
        "RAILROAD": "BNSF",
        "RRDIV": "RED RIVER",
        "RRSUBDIV": "SLATON",
        "HIGHWAY": "Not Yet Reported by State",
        "STREET": "PRIVATE",
        "TTSTN": "679132",
        "MILEPOST": "0736.800",
        "TYPEXING": "Private",
        "POSXING": "At Grade",
        "PRVCAT": "14",
        "INIT": "1",
        "LATITUDE": 32.9734029,
        "LONGITUD": -101.101254,
        "LLSOURCE": "1",
        "WHISTBAN": "0",
        "RRCONT": "8173521549",
        "POLCONT": "8008325452",
        "INV_LINK": "https://safetydata.fra.dot.gov/OfficeofSafety/PublicSite/Crossing/Crossing.aspx?phasetype=C&rpttype=I&txtcrossingnum=015037J",
        "ACC_LINK": "https://safetydata.fra.dot.gov/OfficeofSafety/PublicSite/Crossing/Crossing.aspx?phasetype=C&rpttype=A&txtcrossingnum=015037J",
        "TTSTNNAM": "FULLERVILLE",
        "XPURPOSE": "1",
        "OPERATINGR": "BNSF",
        "OPERATIN_1": "Primary",
        "DAYTHRU": 3,
        "NGHTTHRU": 3,
        "MAINTRK": 1,
        "SIDINGTRK": 0,
        "YARDTRK": 0,
        "TRANSITTRK": 0,
        "INDUSTRYTR": 0,
        "OTHRTRK": 0,
        "WDCODE": "",
        "REVISIONDA": "1996/01/01 00:00:00",
        "LASTUPDATE": "12/17/2024",
        "AADT": "",
        "AADTYEAR": "1970",
        "STATENAME": "TEXAS",
        "STATEAB": "TX",
        "COUNTYNAME": "GARZA",
        "CITYNAME": "JUSTICEBURG",
        "LATDD": 32.9734029,
        "LONGDD": -101.101254,
        "gridlyProductionCertified": true,
        "gridlyClassification": "PUBLIC_ROADWAY",
        "gridlyDisplayName": "PRIVATE",
        "gridlyId": "FRA-015037J"
      }
    },
    {
      "type": "Feature",
      "id": 205327,
      "geometry": {
        "type": "Point",
        "coordinates": [
          -101.376704699964,
          33.1980688001929
        ]
      },
      "properties": {
        "OBJECTID": 205327,
        "CROSSING": "015019L",
        "EFFDATE": 1774224000000,
        "REASON": "14",
        "StateCode": "48",
        "CountyCode": "48169",
        "STCYFIPS": "48169",
        "CITYCD": "481695480",
        "RAILROAD": "BNSF",
        "RRDIV": "RED RIVER",
        "RRSUBDIV": "SLATON",
        "HIGHWAY": "SS0575",
        "STREET": "SS0575 / EAST FIFTEEN STREET",
        "TTSTN": "676853",
        "MILEPOST": "0713.153",
        "TYPEXING": "Public",
        "POSXING": "At Grade",
        "PRVCAT": "14",
        "INIT": "2",
        "LATITUDE": 33.1980688,
        "LONGITUD": -101.3767047,
        "LLSOURCE": "1",
        "WHISTBAN": "0",
        "RRCONT": "8173521549",
        "POLCONT": "8008325452",
        "INV_LINK": "https://safetydata.fra.dot.gov/OfficeofSafety/PublicSite/Crossing/Crossing.aspx?phasetype=C&rpttype=I&txtcrossingnum=015019L",
        "ACC_LINK": "https://safetydata.fra.dot.gov/OfficeofSafety/PublicSite/Crossing/Crossing.aspx?phasetype=C&rpttype=A&txtcrossingnum=015019L",
        "TTSTNNAM": "POST",
        "XPURPOSE": "1",
        "OPERATINGR": "BNSF",
        "OPERATIN_1": "Primary",
        "DAYTHRU": 4,
        "NGHTTHRU": 3,
        "MAINTRK": 1,
        "SIDINGTRK": 1,
        "YARDTRK": 0,
        "TRANSITTRK": 0,
        "INDUSTRYTR": 0,
        "OTHRTRK": 1,
        "WDCODE": "All other Gates",
        "REVISIONDA": "1996/01/01 00:00:00",
        "LASTUPDATE": "3/23/2026",
        "AADT": "2717",
        "AADTYEAR": "2023",
        "STATENAME": "TEXAS",
        "STATEAB": "TX",
        "COUNTYNAME": "GARZA",
        "CITYNAME": "POST",
        "LATDD": 33.1980688,
        "LONGDD": -101.3767047,
        "gridlyProductionCertified": true,
        "gridlyClassification": "PUBLIC_ROADWAY",
        "gridlyDisplayName": "SS0575 / EAST FIFTEEN STREET",
        "gridlyId": "FRA-015019L"
      }
    },
    {
      "type": "Feature",
      "id": 205438,
      "geometry": {
        "type": "Point",
        "coordinates": [
          -101.196097299977,
          33.03576190016
        ]
      },
      "properties": {
        "OBJECTID": 205438,
        "CROSSING": "015032A",
        "EFFDATE": 1774396800000,
        "REASON": "14",
        "StateCode": "48",
        "CountyCode": "48169",
        "STCYFIPS": "48169",
        "CITYCD": "481695480",
        "RAILROAD": "BNSF",
        "RRDIV": "RED RIVER",
        "RRSUBDIV": "SLATON",
        "HIGHWAY": "CR0386",
        "STREET": "COUNTY ROAD 386",
        "TTSTN": "676870",
        "MILEPOST": "0729.550",
        "TYPEXING": "Public",
        "POSXING": "At Grade",
        "PRVCAT": "14",
        "INIT": "2",
        "LATITUDE": 33.0357619,
        "LONGITUD": -101.1960973,
        "LLSOURCE": "1",
        "WHISTBAN": "0",
        "RRCONT": "8173521549",
        "POLCONT": "8008325452",
        "INV_LINK": "https://safetydata.fra.dot.gov/OfficeofSafety/PublicSite/Crossing/Crossing.aspx?phasetype=C&rpttype=I&txtcrossingnum=015032A",
        "ACC_LINK": "https://safetydata.fra.dot.gov/OfficeofSafety/PublicSite/Crossing/Crossing.aspx?phasetype=C&rpttype=A&txtcrossingnum=015032A",
        "TTSTNNAM": "JUSTICEBURG",
        "XPURPOSE": "1",
        "OPERATINGR": "BNSF",
        "OPERATIN_1": "Primary",
        "DAYTHRU": 3,
        "NGHTTHRU": 3,
        "MAINTRK": 1,
        "SIDINGTRK": 0,
        "YARDTRK": 0,
        "TRANSITTRK": 0,
        "INDUSTRYTR": 0,
        "OTHRTRK": 0,
        "WDCODE": "All other Gates",
        "REVISIONDA": "1996/01/01 00:00:00",
        "LASTUPDATE": "3/25/2026",
        "AADT": "27",
        "AADTYEAR": "2022",
        "STATENAME": "TEXAS",
        "STATEAB": "TX",
        "COUNTYNAME": "GARZA",
        "CITYNAME": "POST",
        "LATDD": 33.0357619,
        "LONGDD": -101.1960973,
        "gridlyProductionCertified": true,
        "gridlyClassification": "PUBLIC_ROADWAY",
        "gridlyDisplayName": "COUNTY ROAD 386",
        "gridlyId": "FRA-015032A"
      }
    },
    {
      "type": "Feature",
      "id": 205865,
      "geometry": {
        "type": "Point",
        "coordinates": [
          -101.203149599573,
          33.0422917001961
        ]
      },
      "properties": {
        "OBJECTID": 205865,
        "CROSSING": "015031T",
        "EFFDATE": 1774224000000,
        "REASON": "14",
        "StateCode": "48",
        "CountyCode": "48169",
        "STCYFIPS": "48169",
        "CITYCD": "481695480",
        "RAILROAD": "BNSF",
        "RRDIV": "RED RIVER",
        "RRSUBDIV": "SLATON",
        "HIGHWAY": "CR0340",
        "STREET": "COUNTY ROAD 340",
        "TTSTN": "676870",
        "MILEPOST": "0728.930",
        "TYPEXING": "Public",
        "POSXING": "At Grade",
        "PRVCAT": "14",
        "INIT": "2",
        "LATITUDE": 33.0422917,
        "LONGITUD": -101.2031496,
        "LLSOURCE": "1",
        "WHISTBAN": "0",
        "RRCONT": "8173521549",
        "POLCONT": "8008325452",
        "INV_LINK": "https://safetydata.fra.dot.gov/OfficeofSafety/PublicSite/Crossing/Crossing.aspx?phasetype=C&rpttype=I&txtcrossingnum=015031T",
        "ACC_LINK": "https://safetydata.fra.dot.gov/OfficeofSafety/PublicSite/Crossing/Crossing.aspx?phasetype=C&rpttype=A&txtcrossingnum=015031T",
        "TTSTNNAM": "JUSTICEBURG",
        "XPURPOSE": "1",
        "OPERATINGR": "BNSF",
        "OPERATIN_1": "Primary",
        "DAYTHRU": 4,
        "NGHTTHRU": 3,
        "MAINTRK": 1,
        "SIDINGTRK": 1,
        "YARDTRK": 1,
        "TRANSITTRK": 0,
        "INDUSTRYTR": 0,
        "OTHRTRK": 2,
        "WDCODE": "All other Gates",
        "REVISIONDA": "1996/01/01 00:00:00",
        "LASTUPDATE": "3/23/2026",
        "AADT": "11",
        "AADTYEAR": "2022",
        "STATENAME": "TEXAS",
        "STATEAB": "TX",
        "COUNTYNAME": "GARZA",
        "CITYNAME": "POST",
        "LATDD": 33.0422917,
        "LONGDD": -101.2031496,
        "gridlyProductionCertified": true,
        "gridlyClassification": "PUBLIC_ROADWAY",
        "gridlyDisplayName": "COUNTY ROAD 340",
        "gridlyId": "FRA-015031T"
      }
    },
    {
      "type": "Feature",
      "id": 206111,
      "geometry": {
        "type": "Point",
        "coordinates": [
          -101.374115399582,
          33.190964199813
        ]
      },
      "properties": {
        "OBJECTID": 206111,
        "CROSSING": "015021M",
        "EFFDATE": 1774224000000,
        "REASON": "14",
        "StateCode": "48",
        "CountyCode": "48169",
        "STCYFIPS": "48169",
        "CITYCD": "481695480",
        "RAILROAD": "BNSF",
        "RRDIV": "RED RIVER",
        "RRSUBDIV": "SLATON",
        "HIGHWAY": "US0380",
        "STREET": "US0380 / MAIN STREET",
        "TTSTN": "676853",
        "MILEPOST": "0713.681",
        "TYPEXING": "Public",
        "POSXING": "At Grade",
        "PRVCAT": "14",
        "INIT": "2",
        "LATITUDE": 33.1909642,
        "LONGITUD": -101.3741154,
        "LLSOURCE": "1",
        "WHISTBAN": "0",
        "RRCONT": "8173521549",
        "POLCONT": "8008325452",
        "INV_LINK": "https://safetydata.fra.dot.gov/OfficeofSafety/PublicSite/Crossing/Crossing.aspx?phasetype=C&rpttype=I&txtcrossingnum=015021M",
        "ACC_LINK": "https://safetydata.fra.dot.gov/OfficeofSafety/PublicSite/Crossing/Crossing.aspx?phasetype=C&rpttype=A&txtcrossingnum=015021M",
        "TTSTNNAM": "POST",
        "XPURPOSE": "1",
        "OPERATINGR": "BNSF",
        "OPERATIN_1": "Primary",
        "DAYTHRU": 4,
        "NGHTTHRU": 3,
        "MAINTRK": 1,
        "SIDINGTRK": 1,
        "YARDTRK": 0,
        "TRANSITTRK": 0,
        "INDUSTRYTR": 0,
        "OTHRTRK": 1,
        "WDCODE": "All other Gates",
        "REVISIONDA": "1996/01/01 00:00:00",
        "LASTUPDATE": "3/23/2026",
        "AADT": "2309",
        "AADTYEAR": "2023",
        "STATENAME": "TEXAS",
        "STATEAB": "TX",
        "COUNTYNAME": "GARZA",
        "CITYNAME": "POST",
        "LATDD": 33.1909642,
        "LONGDD": -101.3741154,
        "gridlyProductionCertified": true,
        "gridlyClassification": "PUBLIC_ROADWAY",
        "gridlyDisplayName": "US0380 / MAIN STREET",
        "gridlyId": "FRA-015021M"
      }
    },
    {
      "type": "Feature",
      "id": 206853,
      "geometry": {
        "type": "Point",
        "coordinates": [
          -101.374090200041,
          33.1859891999384
        ]
      },
      "properties": {
        "OBJECTID": 206853,
        "CROSSING": "015022U",
        "EFFDATE": 1774224000000,
        "REASON": "14",
        "StateCode": "48",
        "CountyCode": "48169",
        "STCYFIPS": "48169",
        "CITYCD": "481695480",
        "RAILROAD": "BNSF",
        "RRDIV": "RED RIVER",
        "RRSUBDIV": "SLATON",
        "HIGHWAY": "LS0000",
        "STREET": "EAST FIFTH STREET",
        "TTSTN": "676853",
        "MILEPOST": "0714.021",
        "TYPEXING": "Public",
        "POSXING": "At Grade",
        "PRVCAT": "14",
        "INIT": "2",
        "LATITUDE": 33.1859892,
        "LONGITUD": -101.3740902,
        "LLSOURCE": "1",
        "WHISTBAN": "0",
        "RRCONT": "8173521549",
        "POLCONT": "8008325452",
        "INV_LINK": "https://safetydata.fra.dot.gov/OfficeofSafety/PublicSite/Crossing/Crossing.aspx?phasetype=C&rpttype=I&txtcrossingnum=015022U",
        "ACC_LINK": "https://safetydata.fra.dot.gov/OfficeofSafety/PublicSite/Crossing/Crossing.aspx?phasetype=C&rpttype=A&txtcrossingnum=015022U",
        "TTSTNNAM": "POST",
        "XPURPOSE": "1",
        "OPERATINGR": "BNSF",
        "OPERATIN_1": "Primary",
        "DAYTHRU": 4,
        "NGHTTHRU": 3,
        "MAINTRK": 1,
        "SIDINGTRK": 1,
        "YARDTRK": 0,
        "TRANSITTRK": 0,
        "INDUSTRYTR": 0,
        "OTHRTRK": 1,
        "WDCODE": "All other Gates",
        "REVISIONDA": "1996/01/01 00:00:00",
        "LASTUPDATE": "3/23/2026",
        "AADT": "364",
        "AADTYEAR": "2022",
        "STATENAME": "TEXAS",
        "STATEAB": "TX",
        "COUNTYNAME": "GARZA",
        "CITYNAME": "POST",
        "LATDD": 33.1859892,
        "LONGDD": -101.3740902,
        "gridlyProductionCertified": true,
        "gridlyClassification": "PUBLIC_ROADWAY",
        "gridlyDisplayName": "EAST FIFTH STREET",
        "gridlyId": "FRA-015022U"
      }
    },
    {
      "type": "Feature",
      "id": 207007,
      "geometry": {
        "type": "Point",
        "coordinates": [
          -101.320340800387,
          33.1407803997679
        ]
      },
      "properties": {
        "OBJECTID": 207007,
        "CROSSING": "015027D",
        "EFFDATE": 1774224000000,
        "REASON": "14",
        "StateCode": "48",
        "CountyCode": "48169",
        "STCYFIPS": "48169",
        "CITYCD": "481695480",
        "RAILROAD": "BNSF",
        "RRDIV": "RED RIVER",
        "RRSUBDIV": "SLATON",
        "HIGHWAY": "CR0235",
        "STREET": "COUNTY ROAD 235",
        "TTSTN": "676857",
        "MILEPOST": "0718.953",
        "TYPEXING": "Public",
        "POSXING": "At Grade",
        "PRVCAT": "14",
        "INIT": "2",
        "LATITUDE": 33.1407804,
        "LONGITUD": -101.3203408,
        "LLSOURCE": "1",
        "WHISTBAN": "0",
        "RRCONT": "8173521549",
        "POLCONT": "8008325452",
        "INV_LINK": "https://safetydata.fra.dot.gov/OfficeofSafety/PublicSite/Crossing/Crossing.aspx?phasetype=C&rpttype=I&txtcrossingnum=015027D",
        "ACC_LINK": "https://safetydata.fra.dot.gov/OfficeofSafety/PublicSite/Crossing/Crossing.aspx?phasetype=C&rpttype=A&txtcrossingnum=015027D",
        "TTSTNNAM": "AUGUSTUS",
        "XPURPOSE": "1",
        "OPERATINGR": "BNSF",
        "OPERATIN_1": "Primary",
        "DAYTHRU": 3,
        "NGHTTHRU": 3,
        "MAINTRK": 1,
        "SIDINGTRK": 0,
        "YARDTRK": 0,
        "TRANSITTRK": 0,
        "INDUSTRYTR": 0,
        "OTHRTRK": 0,
        "WDCODE": "All other Gates",
        "REVISIONDA": "1996/01/01 00:00:00",
        "LASTUPDATE": "3/23/2026",
        "AADT": "33",
        "AADTYEAR": "2022",
        "STATENAME": "TEXAS",
        "STATEAB": "TX",
        "COUNTYNAME": "GARZA",
        "CITYNAME": "POST",
        "LATDD": 33.1407804,
        "LONGDD": -101.3203408,
        "gridlyProductionCertified": true,
        "gridlyClassification": "PUBLIC_ROADWAY",
        "gridlyDisplayName": "COUNTY ROAD 235",
        "gridlyId": "FRA-015027D"
      }
    },
    {
      "type": "Feature",
      "id": 215183,
      "geometry": {
        "type": "Point",
        "coordinates": [
          -101.373774199674,
          33.1794047003392
        ]
      },
      "properties": {
        "OBJECTID": 215183,
        "CROSSING": "015024H",
        "EFFDATE": 1769990400000,
        "REASON": "14",
        "StateCode": "48",
        "CountyCode": "48169",
        "STCYFIPS": "48169",
        "CITYCD": "481695480",
        "RAILROAD": "BNSF",
        "RRDIV": "RED RIVER",
        "RRSUBDIV": "SLATON",
        "HIGHWAY": "US0084",
        "STREET": "US0084 / EAST BROADWAY STREET",
        "TTSTN": "676853",
        "MILEPOST": "0714.487",
        "TYPEXING": "Public",
        "POSXING": "RR Under",
        "PRVCAT": "14",
        "INIT": "2",
        "LATITUDE": 33.1794047,
        "LONGITUD": -101.3737742,
        "LLSOURCE": "1",
        "WHISTBAN": "0",
        "RRCONT": "8173521549",
        "POLCONT": "8008325452",
        "INV_LINK": "https://safetydata.fra.dot.gov/OfficeofSafety/PublicSite/Crossing/Crossing.aspx?phasetype=C&rpttype=I&txtcrossingnum=015024H",
        "ACC_LINK": "https://safetydata.fra.dot.gov/OfficeofSafety/PublicSite/Crossing/Crossing.aspx?phasetype=C&rpttype=A&txtcrossingnum=015024H",
        "TTSTNNAM": "POST",
        "XPURPOSE": "1",
        "OPERATINGR": "BNSF",
        "OPERATIN_1": "Primary",
        "DAYTHRU": 3,
        "NGHTTHRU": 3,
        "MAINTRK": 1,
        "SIDINGTRK": 0,
        "YARDTRK": 0,
        "TRANSITTRK": 0,
        "INDUSTRYTR": 0,
        "OTHRTRK": 0,
        "WDCODE": "",
        "REVISIONDA": "1996/01/01 00:00:00",
        "LASTUPDATE": "2/2/2026",
        "AADT": "10144",
        "AADTYEAR": "2024",
        "STATENAME": "TEXAS",
        "STATEAB": "TX",
        "COUNTYNAME": "GARZA",
        "CITYNAME": "POST",
        "LATDD": 33.1794047,
        "LONGDD": -101.3737742,
        "gridlyProductionCertified": true,
        "gridlyClassification": "PUBLIC_ROADWAY",
        "gridlyDisplayName": "US0084 / EAST BROADWAY STREET",
        "gridlyId": "FRA-015024H"
      }
    },
    {
      "type": "Feature",
      "id": 215186,
      "geometry": {
        "type": "Point",
        "coordinates": [
          -101.3681379998,
          33.1651527997349
        ]
      },
      "properties": {
        "OBJECTID": 215186,
        "CROSSING": "015025P",
        "EFFDATE": 1769990400000,
        "REASON": "14",
        "StateCode": "48",
        "CountyCode": "48169",
        "STCYFIPS": "48169",
        "CITYCD": "481695480",
        "RAILROAD": "BNSF",
        "RRDIV": "RED RIVER",
        "RRSUBDIV": "SLATON",
        "HIGHWAY": "CR0225",
        "STREET": "WHITE ROAD",
        "TTSTN": "676853",
        "MILEPOST": "0715.500",
        "TYPEXING": "Public",
        "POSXING": "RR Over",
        "PRVCAT": "14",
        "INIT": "2",
        "LATITUDE": 33.1651528,
        "LONGITUD": -101.368138,
        "LLSOURCE": "1",
        "WHISTBAN": "0",
        "RRCONT": "8173521549",
        "POLCONT": "8008325452",
        "INV_LINK": "https://safetydata.fra.dot.gov/OfficeofSafety/PublicSite/Crossing/Crossing.aspx?phasetype=C&rpttype=I&txtcrossingnum=015025P",
        "ACC_LINK": "https://safetydata.fra.dot.gov/OfficeofSafety/PublicSite/Crossing/Crossing.aspx?phasetype=C&rpttype=A&txtcrossingnum=015025P",
        "TTSTNNAM": "POST",
        "XPURPOSE": "1",
        "OPERATINGR": "BNSF",
        "OPERATIN_1": "Primary",
        "DAYTHRU": 3,
        "NGHTTHRU": 3,
        "MAINTRK": 1,
        "SIDINGTRK": 0,
        "YARDTRK": 0,
        "TRANSITTRK": 0,
        "INDUSTRYTR": 0,
        "OTHRTRK": 0,
        "WDCODE": "",
        "REVISIONDA": "1996/01/01 00:00:00",
        "LASTUPDATE": "2/2/2026",
        "AADT": "772",
        "AADTYEAR": "2022",
        "STATENAME": "TEXAS",
        "STATEAB": "TX",
        "COUNTYNAME": "GARZA",
        "CITYNAME": "POST",
        "LATDD": 33.1651528,
        "LONGDD": -101.368138,
        "gridlyProductionCertified": true,
        "gridlyClassification": "PUBLIC_ROADWAY",
        "gridlyDisplayName": "WHITE ROAD",
        "gridlyId": "FRA-015025P"
      }
    },
    {
      "type": "Feature",
      "id": 215187,
      "geometry": {
        "type": "Point",
        "coordinates": [
          -101.489449400021,
          33.3010778000534
        ]
      },
      "properties": {
        "OBJECTID": 215187,
        "CROSSING": "015015J",
        "EFFDATE": 1769990400000,
        "REASON": "14",
        "StateCode": "48",
        "CountyCode": "48169",
        "STCYFIPS": "48169",
        "CITYCD": "481695480",
        "RAILROAD": "BNSF",
        "RRDIV": "RED RIVER",
        "RRSUBDIV": "SLATON",
        "HIGHWAY": "FM0211",
        "STREET": "FM0211",
        "TTSTN": "676853",
        "MILEPOST": "0703.230",
        "TYPEXING": "Public",
        "POSXING": "RR Under",
        "PRVCAT": "14",
        "INIT": "2",
        "LATITUDE": 33.3010778,
        "LONGITUD": -101.4894494,
        "LLSOURCE": "1",
        "WHISTBAN": "0",
        "RRCONT": "8173521549",
        "POLCONT": "8008325452",
        "INV_LINK": "https://safetydata.fra.dot.gov/OfficeofSafety/PublicSite/Crossing/Crossing.aspx?phasetype=C&rpttype=I&txtcrossingnum=015015J",
        "ACC_LINK": "https://safetydata.fra.dot.gov/OfficeofSafety/PublicSite/Crossing/Crossing.aspx?phasetype=C&rpttype=A&txtcrossingnum=015015J",
        "TTSTNNAM": "POST",
        "XPURPOSE": "1",
        "OPERATINGR": "BNSF",
        "OPERATIN_1": "Primary",
        "DAYTHRU": 3,
        "NGHTTHRU": 3,
        "MAINTRK": 1,
        "SIDINGTRK": 0,
        "YARDTRK": 0,
        "TRANSITTRK": 0,
        "INDUSTRYTR": 0,
        "OTHRTRK": 0,
        "WDCODE": "",
        "REVISIONDA": "1996/01/01 00:00:00",
        "LASTUPDATE": "2/2/2026",
        "AADT": "136",
        "AADTYEAR": "2024",
        "STATENAME": "TEXAS",
        "STATEAB": "TX",
        "COUNTYNAME": "GARZA",
        "CITYNAME": "POST",
        "LATDD": 33.3010778,
        "LONGDD": -101.4894494,
        "gridlyProductionCertified": true,
        "gridlyClassification": "PUBLIC_ROADWAY",
        "gridlyDisplayName": "FM0211",
        "gridlyId": "FRA-015015J"
      }
    },
    {
      "type": "Feature",
      "id": 216335,
      "geometry": {
        "type": "Point",
        "coordinates": [
          -101.270514499885,
          33.1100082001191
        ]
      },
      "properties": {
        "OBJECTID": 216335,
        "CROSSING": "015028K",
        "EFFDATE": 1774396800000,
        "REASON": "14",
        "StateCode": "48",
        "CountyCode": "48169",
        "STCYFIPS": "48169",
        "CITYCD": "481695480",
        "RAILROAD": "BNSF",
        "RRDIV": "RED RIVER",
        "RRSUBDIV": "SLATON",
        "HIGHWAY": "CR0340",
        "STREET": "COUNTY ROAD 340",
        "TTSTN": "676857",
        "MILEPOST": "0722.561",
        "TYPEXING": "Public",
        "POSXING": "At Grade",
        "PRVCAT": "14",
        "INIT": "2",
        "LATITUDE": 33.1100082,
        "LONGITUD": -101.2705145,
        "LLSOURCE": "1",
        "WHISTBAN": "0",
        "RRCONT": "8173521549",
        "POLCONT": "8008325452",
        "INV_LINK": "https://safetydata.fra.dot.gov/OfficeofSafety/PublicSite/Crossing/Crossing.aspx?phasetype=C&rpttype=I&txtcrossingnum=015028K",
        "ACC_LINK": "https://safetydata.fra.dot.gov/OfficeofSafety/PublicSite/Crossing/Crossing.aspx?phasetype=C&rpttype=A&txtcrossingnum=015028K",
        "TTSTNNAM": "AUGUSTUS",
        "XPURPOSE": "1",
        "OPERATINGR": "BNSF",
        "OPERATIN_1": "Primary",
        "DAYTHRU": 3,
        "NGHTTHRU": 3,
        "MAINTRK": 1,
        "SIDINGTRK": 0,
        "YARDTRK": 0,
        "TRANSITTRK": 0,
        "INDUSTRYTR": 0,
        "OTHRTRK": 0,
        "WDCODE": "Crossbucks",
        "REVISIONDA": "1996/01/01 00:00:00",
        "LASTUPDATE": "3/25/2026",
        "AADT": "000021",
        "AADTYEAR": "2019",
        "STATENAME": "TEXAS",
        "STATEAB": "TX",
        "COUNTYNAME": "GARZA",
        "CITYNAME": "POST",
        "LATDD": 33.1100082,
        "LONGDD": -101.2705145,
        "gridlyProductionCertified": true,
        "gridlyClassification": "PUBLIC_ROADWAY",
        "gridlyDisplayName": "COUNTY ROAD 340",
        "gridlyId": "FRA-015028K"
      }
    }
  ]
}
