{
  "type": "FeatureCollection",
  "features": [
    {
      "type": "Feature",
      "id": 201259,
      "geometry": {
        "type": "Point",
        "coordinates": [
          -93.9717339996321,
          31.2526130001573
        ]
      },
      "properties": {
        "OBJECTID": 201259,
        "CROSSING": "024081V",
        "EFFDATE": 1599091200000,
        "REASON": "14",
        "StateCode": "48",
        "CountyCode": "48403",
        "STCYFIPS": "48403",
        "CITYCD": "484035360",
        "RAILROAD": "BNSF",
        "RRDIV": "South",
        "RRSUBDIV": "San Augustine",
        "HIGHWAY": "LS 0000",
        "STREET": "Private",
        "TTSTN": "681194",
        "MILEPOST": "0097.400",
        "TYPEXING": "Private",
        "POSXING": "At Grade",
        "PRVCAT": "14",
        "INIT": "1",
        "LATITUDE": 31.252613,
        "LONGITUD": -93.971734,
        "LLSOURCE": "1",
        "WHISTBAN": "0",
        "RRCONT": "8173521549",
        "POLCONT": "8663869321",
        "INV_LINK": "https://safetydata.fra.dot.gov/OfficeofSafety/PublicSite/Crossing/Crossing.aspx?phasetype=C&rpttype=I&txtcrossingnum=024081V",
        "ACC_LINK": "https://safetydata.fra.dot.gov/OfficeofSafety/PublicSite/Crossing/Crossing.aspx?phasetype=C&rpttype=A&txtcrossingnum=024081V",
        "TTSTNNAM": "Jasper",
        "XPURPOSE": "1",
        "OPERATINGR": "BNSF",
        "OPERATIN_1": "Primary",
        "DAYTHRU": 2,
        "NGHTTHRU": 2,
        "MAINTRK": 1,
        "SIDINGTRK": 0,
        "YARDTRK": 0,
        "TRANSITTRK": 0,
        "INDUSTRYTR": 0,
        "OTHRTRK": 0,
        "WDCODE": "",
        "REVISIONDA": "1996/01/01 00:00:00",
        "LASTUPDATE": "9/3/2020",
        "AADT": "190",
        "AADTYEAR": "1991",
        "STATENAME": "TEXAS",
        "STATEAB": "TX",
        "COUNTYNAME": "SABINE",
        "CITYNAME": "PINELAND",
        "LATDD": 31.252613,
        "LONGDD": -93.971734,
        "gridlyProductionCertified": true,
        "gridlyClassification": "PUBLIC_ROADWAY",
        "gridlyDisplayName": "Private",
        "gridlyId": "FRA-024081V"
      }
    },
    {
      "type": "Feature",
      "id": 201485,
      "geometry": {
        "type": "Point",
        "coordinates": [
          -93.9652169998252,
          31.1611120001991
        ]
      },
      "properties": {
        "OBJECTID": 201485,
        "CROSSING": "023893X",
        "EFFDATE": 1665705600000,
        "REASON": "14",
        "StateCode": "48",
        "CountyCode": "48403",
        "STCYFIPS": "48403",
        "CITYCD": "484035360",
        "RAILROAD": "BNSF",
        "RRDIV": "South",
        "RRSUBDIV": "San Augustine",
        "HIGHWAY": "CR 0466",
        "STREET": "Bradshaw Drive East",
        "TTSTN": "681612",
        "MILEPOST": "0090.865",
        "TYPEXING": "Public",
        "POSXING": "At Grade",
        "PRVCAT": "14",
        "INIT": "2",
        "LATITUDE": 31.161112,
        "LONGITUD": -93.965217,
        "LLSOURCE": "1",
        "WHISTBAN": "0",
        "RRCONT": "8173521549",
        "POLCONT": "8663869321",
        "INV_LINK": "https://safetydata.fra.dot.gov/OfficeofSafety/PublicSite/Crossing/Crossing.aspx?phasetype=C&rpttype=I&txtcrossingnum=023893X",
        "ACC_LINK": "https://safetydata.fra.dot.gov/OfficeofSafety/PublicSite/Crossing/Crossing.aspx?phasetype=C&rpttype=A&txtcrossingnum=023893X",
        "TTSTNNAM": "Jasper",
        "XPURPOSE": "1",
        "OPERATINGR": "BNSF",
        "OPERATIN_1": "Primary",
        "DAYTHRU": 2,
        "NGHTTHRU": 2,
        "MAINTRK": 1,
        "SIDINGTRK": 0,
        "YARDTRK": 0,
        "TRANSITTRK": 0,
        "INDUSTRYTR": 0,
        "OTHRTRK": 0,
        "WDCODE": "Crossbucks",
        "REVISIONDA": "1996/01/01 00:00:00",
        "LASTUPDATE": "10/14/2022",
        "AADT": "20",
        "AADTYEAR": "2019",
        "STATENAME": "TEXAS",
        "STATEAB": "TX",
        "COUNTYNAME": "SABINE",
        "CITYNAME": "PINELAND",
        "LATDD": 31.161112,
        "LONGDD": -93.965217,
        "gridlyProductionCertified": true,
        "gridlyClassification": "PUBLIC_ROADWAY",
        "gridlyDisplayName": "Bradshaw Drive East",
        "gridlyId": "FRA-023893X"
      }
    },
    {
      "type": "Feature",
      "id": 201491,
      "geometry": {
        "type": "Point",
        "coordinates": [
          -93.9714159996148,
          31.2563679999561
        ]
      },
      "properties": {
        "OBJECTID": 201491,
        "CROSSING": "023900F",
        "EFFDATE": 1665705600000,
        "REASON": "14",
        "StateCode": "48",
        "CountyCode": "48403",
        "STCYFIPS": "48403",
        "CITYCD": "484035360",
        "RAILROAD": "BNSF",
        "RRDIV": "South",
        "RRSUBDIV": "San Augustine",
        "HIGHWAY": "FM 0083",
        "STREET": "FM 0083",
        "TTSTN": "681194",
        "MILEPOST": "0097.682",
        "TYPEXING": "Public",
        "POSXING": "At Grade",
        "PRVCAT": "14",
        "INIT": "2",
        "LATITUDE": 31.256368,
        "LONGITUD": -93.971416,
        "LLSOURCE": "1",
        "WHISTBAN": "0",
        "RRCONT": "8173521549",
        "POLCONT": "8663869321",
        "INV_LINK": "https://safetydata.fra.dot.gov/OfficeofSafety/PublicSite/Crossing/Crossing.aspx?phasetype=C&rpttype=I&txtcrossingnum=023900F",
        "ACC_LINK": "https://safetydata.fra.dot.gov/OfficeofSafety/PublicSite/Crossing/Crossing.aspx?phasetype=C&rpttype=A&txtcrossingnum=023900F",
        "TTSTNNAM": "Jasper",
        "XPURPOSE": "1",
        "OPERATINGR": "BNSF",
        "OPERATIN_1": "Primary",
        "DAYTHRU": 2,
        "NGHTTHRU": 2,
        "MAINTRK": 1,
        "SIDINGTRK": 0,
        "YARDTRK": 0,
        "TRANSITTRK": 0,
        "INDUSTRYTR": 0,
        "OTHRTRK": 0,
        "WDCODE": "All other Gates",
        "REVISIONDA": "1996/01/01 00:00:00",
        "LASTUPDATE": "10/14/2022",
        "AADT": "2676",
        "AADTYEAR": "2019",
        "STATENAME": "TEXAS",
        "STATEAB": "TX",
        "COUNTYNAME": "SABINE",
        "CITYNAME": "PINELAND",
        "LATDD": 31.256368,
        "LONGDD": -93.971416,
        "gridlyProductionCertified": true,
        "gridlyClassification": "PUBLIC_ROADWAY",
        "gridlyDisplayName": "FM 0083",
        "gridlyId": "FRA-023900F"
      }
    },
    {
      "type": "Feature",
      "id": 204613,
      "geometry": {
        "type": "Point",
        "coordinates": [
          -93.9597190003677,
          31.1743069996577
        ]
      },
      "properties": {
        "OBJECTID": 204613,
        "CROSSING": "023894E",
        "EFFDATE": 1734393600000,
        "REASON": "14",
        "StateCode": "48",
        "CountyCode": "48403",
        "STCYFIPS": "48403",
        "CITYCD": "484035360",
        "RAILROAD": "BNSF",
        "RRDIV": "South",
        "RRSUBDIV": "San Augustine",
        "HIGHWAY": "FM 0201",
        "STREET": "CO RD 201",
        "TTSTN": "681612",
        "MILEPOST": "0091.831",
        "TYPEXING": "Public",
        "POSXING": "At Grade",
        "PRVCAT": "14",
        "INIT": "1",
        "LATITUDE": 31.174307,
        "LONGITUD": -93.959719,
        "LLSOURCE": "1",
        "WHISTBAN": "0",
        "RRCONT": "8173521549",
        "POLCONT": "8663869321",
        "INV_LINK": "https://safetydata.fra.dot.gov/OfficeofSafety/PublicSite/Crossing/Crossing.aspx?phasetype=C&rpttype=I&txtcrossingnum=023894E",
        "ACC_LINK": "https://safetydata.fra.dot.gov/OfficeofSafety/PublicSite/Crossing/Crossing.aspx?phasetype=C&rpttype=A&txtcrossingnum=023894E",
        "TTSTNNAM": "Jasper",
        "XPURPOSE": "1",
        "OPERATINGR": "BNSF",
        "OPERATIN_1": "Primary",
        "DAYTHRU": 2,
        "NGHTTHRU": 2,
        "MAINTRK": 1,
        "SIDINGTRK": 0,
        "YARDTRK": 0,
        "TRANSITTRK": 0,
        "INDUSTRYTR": 0,
        "OTHRTRK": 0,
        "WDCODE": "All other Gates",
        "REVISIONDA": "1996/01/01 00:00:00",
        "LASTUPDATE": "12/17/2024",
        "AADT": "360",
        "AADTYEAR": "2019",
        "STATENAME": "TEXAS",
        "STATEAB": "TX",
        "COUNTYNAME": "SABINE",
        "CITYNAME": "PINELAND",
        "LATDD": 31.174307,
        "LONGDD": -93.959719,
        "gridlyProductionCertified": true,
        "gridlyClassification": "PUBLIC_ROADWAY",
        "gridlyDisplayName": "CO RD 201",
        "gridlyId": "FRA-023894E"
      }
    },
    {
      "type": "Feature",
      "id": 204614,
      "geometry": {
        "type": "Point",
        "coordinates": [
          -93.9594230000917,
          31.1818900001453
        ]
      },
      "properties": {
        "OBJECTID": 204614,
        "CROSSING": "023895L",
        "EFFDATE": 1734393600000,
        "REASON": "14",
        "StateCode": "48",
        "CountyCode": "48403",
        "STCYFIPS": "48403",
        "CITYCD": "484035360",
        "RAILROAD": "BNSF",
        "RRDIV": "South",
        "RRSUBDIV": "San Augustine",
        "HIGHWAY": "CR 0000",
        "STREET": "M WILLIAMS DR",
        "TTSTN": "681612",
        "MILEPOST": "0092.356",
        "TYPEXING": "Private",
        "POSXING": "At Grade",
        "PRVCAT": "14",
        "INIT": "1",
        "LATITUDE": 31.18189,
        "LONGITUD": -93.959423,
        "LLSOURCE": "1",
        "WHISTBAN": "0",
        "RRCONT": "8173521549",
        "POLCONT": "8663869321",
        "INV_LINK": "https://safetydata.fra.dot.gov/OfficeofSafety/PublicSite/Crossing/Crossing.aspx?phasetype=C&rpttype=I&txtcrossingnum=023895L",
        "ACC_LINK": "https://safetydata.fra.dot.gov/OfficeofSafety/PublicSite/Crossing/Crossing.aspx?phasetype=C&rpttype=A&txtcrossingnum=023895L",
        "TTSTNNAM": "Jasper",
        "XPURPOSE": "1",
        "OPERATINGR": "BNSF",
        "OPERATIN_1": "Primary",
        "DAYTHRU": 2,
        "NGHTTHRU": 2,
        "MAINTRK": 1,
        "SIDINGTRK": 0,
        "YARDTRK": 0,
        "TRANSITTRK": 0,
        "INDUSTRYTR": 0,
        "OTHRTRK": 0,
        "WDCODE": "",
        "REVISIONDA": "1996/01/01 00:00:00",
        "LASTUPDATE": "12/17/2024",
        "AADT": "1",
        "AADTYEAR": "1970",
        "STATENAME": "TEXAS",
        "STATEAB": "TX",
        "COUNTYNAME": "SABINE",
        "CITYNAME": "PINELAND",
        "LATDD": 31.18189,
        "LONGDD": -93.959423,
        "gridlyProductionCertified": true,
        "gridlyClassification": "PUBLIC_ROADWAY",
        "gridlyDisplayName": "M WILLIAMS DR",
        "gridlyId": "FRA-023895L"
      }
    },
    {
      "type": "Feature",
      "id": 204615,
      "geometry": {
        "type": "Point",
        "coordinates": [
          -93.9667230002462,
          31.2076050001395
        ]
      },
      "properties": {
        "OBJECTID": 204615,
        "CROSSING": "023896T",
        "EFFDATE": 1734393600000,
        "REASON": "14",
        "StateCode": "48",
        "CountyCode": "48403",
        "STCYFIPS": "48403",
        "CITYCD": "484035360",
        "RAILROAD": "BNSF",
        "RRDIV": "South",
        "RRSUBDIV": "San Augustine",
        "HIGHWAY": "CR 0116",
        "STREET": "BILL LOWE RD",
        "TTSTN": "681194",
        "MILEPOST": "0094.195",
        "TYPEXING": "Public",
        "POSXING": "At Grade",
        "PRVCAT": "14",
        "INIT": "1",
        "LATITUDE": 31.207605,
        "LONGITUD": -93.966723,
        "LLSOURCE": "1",
        "WHISTBAN": "0",
        "RRCONT": "8173521549",
        "POLCONT": "8663869321",
        "INV_LINK": "https://safetydata.fra.dot.gov/OfficeofSafety/PublicSite/Crossing/Crossing.aspx?phasetype=C&rpttype=I&txtcrossingnum=023896T",
        "ACC_LINK": "https://safetydata.fra.dot.gov/OfficeofSafety/PublicSite/Crossing/Crossing.aspx?phasetype=C&rpttype=A&txtcrossingnum=023896T",
        "TTSTNNAM": "Jasper",
        "XPURPOSE": "1",
        "OPERATINGR": "BNSF",
        "OPERATIN_1": "Primary",
        "DAYTHRU": 2,
        "NGHTTHRU": 2,
        "MAINTRK": 1,
        "SIDINGTRK": 0,
        "YARDTRK": 0,
        "TRANSITTRK": 0,
        "INDUSTRYTR": 0,
        "OTHRTRK": 0,
        "WDCODE": "Crossbucks",
        "REVISIONDA": "1996/01/01 00:00:00",
        "LASTUPDATE": "12/17/2024",
        "AADT": "8",
        "AADTYEAR": "2019",
        "STATENAME": "TEXAS",
        "STATEAB": "TX",
        "COUNTYNAME": "SABINE",
        "CITYNAME": "PINELAND",
        "LATDD": 31.207605,
        "LONGDD": -93.966723,
        "gridlyProductionCertified": true,
        "gridlyClassification": "PUBLIC_ROADWAY",
        "gridlyDisplayName": "BILL LOWE RD",
        "gridlyId": "FRA-023896T"
      }
    },
    {
      "type": "Feature",
      "id": 204616,
      "geometry": {
        "type": "Point",
        "coordinates": [
          -93.9764019997846,
          31.2330440003489
        ]
      },
      "properties": {
        "OBJECTID": 204616,
        "CROSSING": "023897A",
        "EFFDATE": 1734393600000,
        "REASON": "14",
        "StateCode": "48",
        "CountyCode": "48403",
        "STCYFIPS": "48403",
        "CITYCD": "484035360",
        "RAILROAD": "BNSF",
        "RRDIV": "South",
        "RRSUBDIV": "San Augustine",
        "HIGHWAY": "CR 0444",
        "STREET": "DELTA HEIGHTS RD",
        "TTSTN": "681194",
        "MILEPOST": "0096.042",
        "TYPEXING": "Public",
        "POSXING": "At Grade",
        "PRVCAT": "14",
        "INIT": "1",
        "LATITUDE": 31.233044,
        "LONGITUD": -93.976402,
        "LLSOURCE": "1",
        "WHISTBAN": "0",
        "RRCONT": "8173521549",
        "POLCONT": "8663869321",
        "INV_LINK": "https://safetydata.fra.dot.gov/OfficeofSafety/PublicSite/Crossing/Crossing.aspx?phasetype=C&rpttype=I&txtcrossingnum=023897A",
        "ACC_LINK": "https://safetydata.fra.dot.gov/OfficeofSafety/PublicSite/Crossing/Crossing.aspx?phasetype=C&rpttype=A&txtcrossingnum=023897A",
        "TTSTNNAM": "Jasper",
        "XPURPOSE": "1",
        "OPERATINGR": "BNSF",
        "OPERATIN_1": "Primary",
        "DAYTHRU": 2,
        "NGHTTHRU": 2,
        "MAINTRK": 1,
        "SIDINGTRK": 0,
        "YARDTRK": 0,
        "TRANSITTRK": 0,
        "INDUSTRYTR": 0,
        "OTHRTRK": 0,
        "WDCODE": "Crossbucks",
        "REVISIONDA": "1996/01/01 00:00:00",
        "LASTUPDATE": "12/17/2024",
        "AADT": "5",
        "AADTYEAR": "2019",
        "STATENAME": "TEXAS",
        "STATEAB": "TX",
        "COUNTYNAME": "SABINE",
        "CITYNAME": "PINELAND",
        "LATDD": 31.233044,
        "LONGDD": -93.976402,
        "gridlyProductionCertified": true,
        "gridlyClassification": "PUBLIC_ROADWAY",
        "gridlyDisplayName": "DELTA HEIGHTS RD",
        "gridlyId": "FRA-023897A"
      }
    },
    {
      "type": "Feature",
      "id": 204617,
      "geometry": {
        "type": "Point",
        "coordinates": [
          -93.974162000318,
          31.243811000152
        ]
      },
      "properties": {
        "OBJECTID": 204617,
        "CROSSING": "023898G",
        "EFFDATE": 1734393600000,
        "REASON": "14",
        "StateCode": "48",
        "CountyCode": "48403",
        "STCYFIPS": "48403",
        "CITYCD": "484035360",
        "RAILROAD": "BNSF",
        "RRDIV": "RED RIVER",
        "RRSUBDIV": "LONGVIEW",
        "HIGHWAY": "FM 2426",
        "STREET": "FM RD 2426",
        "TTSTN": "681194",
        "MILEPOST": "0097.017",
        "TYPEXING": "Public",
        "POSXING": "At Grade",
        "PRVCAT": "14",
        "INIT": "1",
        "LATITUDE": 31.243811,
        "LONGITUD": -93.974162,
        "LLSOURCE": "1",
        "WHISTBAN": "0",
        "RRCONT": "8173521549",
        "POLCONT": "8663869321",
        "INV_LINK": "https://safetydata.fra.dot.gov/OfficeofSafety/PublicSite/Crossing/Crossing.aspx?phasetype=C&rpttype=I&txtcrossingnum=023898G",
        "ACC_LINK": "https://safetydata.fra.dot.gov/OfficeofSafety/PublicSite/Crossing/Crossing.aspx?phasetype=C&rpttype=A&txtcrossingnum=023898G",
        "TTSTNNAM": "PINELAND",
        "XPURPOSE": "1",
        "OPERATINGR": "BNSF",
        "OPERATIN_1": "Primary",
        "DAYTHRU": 2,
        "NGHTTHRU": 2,
        "MAINTRK": 1,
        "SIDINGTRK": 0,
        "YARDTRK": 0,
        "TRANSITTRK": 0,
        "INDUSTRYTR": 0,
        "OTHRTRK": 0,
        "WDCODE": "All other Gates",
        "REVISIONDA": "1996/01/01 00:00:00",
        "LASTUPDATE": "12/17/2024",
        "AADT": "2106",
        "AADTYEAR": "2019",
        "STATENAME": "TEXAS",
        "STATEAB": "TX",
        "COUNTYNAME": "SABINE",
        "CITYNAME": "PINELAND",
        "LATDD": 31.243811,
        "LONGDD": -93.974162,
        "gridlyProductionCertified": true,
        "gridlyClassification": "PUBLIC_ROADWAY",
        "gridlyDisplayName": "FM RD 2426",
        "gridlyId": "FRA-023898G"
      }
    },
    {
      "type": "Feature",
      "id": 204618,
      "geometry": {
        "type": "Point",
        "coordinates": [
          -93.971750000424,
          31.2526171002911
        ]
      },
      "properties": {
        "OBJECTID": 204618,
        "CROSSING": "023899N",
        "EFFDATE": 1734393600000,
        "REASON": "14",
        "StateCode": "48",
        "CountyCode": "48403",
        "STCYFIPS": "48403",
        "CITYCD": "484035360",
        "RAILROAD": "BNSF",
        "RRDIV": "RED RIVER",
        "RRSUBDIV": "LONGVIEW",
        "HIGHWAY": "PVT",
        "STREET": "PRIVATE",
        "TTSTN": "",
        "MILEPOST": "0097.628",
        "TYPEXING": "Private",
        "POSXING": "At Grade",
        "PRVCAT": "14",
        "INIT": "1",
        "LATITUDE": 31.2526171,
        "LONGITUD": -93.97175,
        "LLSOURCE": "1",
        "WHISTBAN": "",
        "RRCONT": "8173521549",
        "POLCONT": "8008325452",
        "INV_LINK": "https://safetydata.fra.dot.gov/OfficeofSafety/PublicSite/Crossing/Crossing.aspx?phasetype=C&rpttype=I&txtcrossingnum=023899N",
        "ACC_LINK": "https://safetydata.fra.dot.gov/OfficeofSafety/PublicSite/Crossing/Crossing.aspx?phasetype=C&rpttype=A&txtcrossingnum=023899N",
        "TTSTNNAM": "PINELAND",
        "XPURPOSE": "1",
        "OPERATINGR": "BNSF",
        "OPERATIN_1": "Primary",
        "DAYTHRU": 2,
        "NGHTTHRU": 2,
        "MAINTRK": 1,
        "SIDINGTRK": 0,
        "YARDTRK": 0,
        "TRANSITTRK": 0,
        "INDUSTRYTR": 0,
        "OTHRTRK": 0,
        "WDCODE": "",
        "REVISIONDA": "1996/01/01 00:00:00",
        "LASTUPDATE": "12/17/2024",
        "AADT": "",
        "AADTYEAR": "",
        "STATENAME": "TEXAS",
        "STATEAB": "TX",
        "COUNTYNAME": "SABINE",
        "CITYNAME": "PINELAND",
        "LATDD": 31.2526171,
        "LONGDD": -93.97175,
        "gridlyProductionCertified": true,
        "gridlyClassification": "PUBLIC_ROADWAY",
        "gridlyDisplayName": "PRIVATE",
        "gridlyId": "FRA-023899N"
      }
    },
    {
      "type": "Feature",
      "id": 204619,
      "geometry": {
        "type": "Point",
        "coordinates": [
          -93.9714680003917,
          31.2629750002811
        ]
      },
      "properties": {
        "OBJECTID": 204619,
        "CROSSING": "023901M",
        "EFFDATE": 1734393600000,
        "REASON": "14",
        "StateCode": "48",
        "CountyCode": "48403",
        "STCYFIPS": "48403",
        "CITYCD": "484035360",
        "RAILROAD": "BNSF",
        "RRDIV": "South",
        "RRSUBDIV": "San Augustine",
        "HIGHWAY": "CR 0000",
        "STREET": "PRIVATE",
        "TTSTN": "681194",
        "MILEPOST": "0098.138",
        "TYPEXING": "Private",
        "POSXING": "At Grade",
        "PRVCAT": "14",
        "INIT": "1",
        "LATITUDE": 31.262975,
        "LONGITUD": -93.971468,
        "LLSOURCE": "1",
        "WHISTBAN": "0",
        "RRCONT": "8173521549",
        "POLCONT": "8663869321",
        "INV_LINK": "https://safetydata.fra.dot.gov/OfficeofSafety/PublicSite/Crossing/Crossing.aspx?phasetype=C&rpttype=I&txtcrossingnum=023901M",
        "ACC_LINK": "https://safetydata.fra.dot.gov/OfficeofSafety/PublicSite/Crossing/Crossing.aspx?phasetype=C&rpttype=A&txtcrossingnum=023901M",
        "TTSTNNAM": "Jasper",
        "XPURPOSE": "1",
        "OPERATINGR": "BNSF",
        "OPERATIN_1": "Primary",
        "DAYTHRU": 2,
        "NGHTTHRU": 2,
        "MAINTRK": 1,
        "SIDINGTRK": 0,
        "YARDTRK": 0,
        "TRANSITTRK": 0,
        "INDUSTRYTR": 0,
        "OTHRTRK": 0,
        "WDCODE": "",
        "REVISIONDA": "1996/01/01 00:00:00",
        "LASTUPDATE": "12/17/2024",
        "AADT": "1",
        "AADTYEAR": "1970",
        "STATENAME": "TEXAS",
        "STATEAB": "TX",
        "COUNTYNAME": "SABINE",
        "CITYNAME": "PINELAND",
        "LATDD": 31.262975,
        "LONGDD": -93.971468,
        "gridlyProductionCertified": true,
        "gridlyClassification": "PUBLIC_ROADWAY",
        "gridlyDisplayName": "PRIVATE",
        "gridlyId": "FRA-023901M"
      }
    },
    {
      "type": "Feature",
      "id": 204620,
      "geometry": {
        "type": "Point",
        "coordinates": [
          -93.973312999848,
          31.268846999949
        ]
      },
      "properties": {
        "OBJECTID": 204620,
        "CROSSING": "023902U",
        "EFFDATE": 1734393600000,
        "REASON": "14",
        "StateCode": "48",
        "CountyCode": "48403",
        "STCYFIPS": "48403",
        "CITYCD": "484035360",
        "RAILROAD": "BNSF",
        "RRDIV": "South",
        "RRSUBDIV": "San Augustine",
        "HIGHWAY": "CR 0000",
        "STREET": "PRIVATE",
        "TTSTN": "681194",
        "MILEPOST": "0098.557",
        "TYPEXING": "Private",
        "POSXING": "At Grade",
        "PRVCAT": "14",
        "INIT": "1",
        "LATITUDE": 31.268847,
        "LONGITUD": -93.973313,
        "LLSOURCE": "1",
        "WHISTBAN": "0",
        "RRCONT": "8173521549",
        "POLCONT": "8663869321",
        "INV_LINK": "https://safetydata.fra.dot.gov/OfficeofSafety/PublicSite/Crossing/Crossing.aspx?phasetype=C&rpttype=I&txtcrossingnum=023902U",
        "ACC_LINK": "https://safetydata.fra.dot.gov/OfficeofSafety/PublicSite/Crossing/Crossing.aspx?phasetype=C&rpttype=A&txtcrossingnum=023902U",
        "TTSTNNAM": "Jasper",
        "XPURPOSE": "1",
        "OPERATINGR": "BNSF",
        "OPERATIN_1": "Primary",
        "DAYTHRU": 2,
        "NGHTTHRU": 2,
        "MAINTRK": 1,
        "SIDINGTRK": 0,
        "YARDTRK": 0,
        "TRANSITTRK": 0,
        "INDUSTRYTR": 0,
        "OTHRTRK": 0,
        "WDCODE": "",
        "REVISIONDA": "1996/01/01 00:00:00",
        "LASTUPDATE": "12/17/2024",
        "AADT": "1",
        "AADTYEAR": "1970",
        "STATENAME": "TEXAS",
        "STATEAB": "TX",
        "COUNTYNAME": "SABINE",
        "CITYNAME": "PINELAND",
        "LATDD": 31.268847,
        "LONGDD": -93.973313,
        "gridlyProductionCertified": true,
        "gridlyClassification": "PUBLIC_ROADWAY",
        "gridlyDisplayName": "PRIVATE",
        "gridlyId": "FRA-023902U"
      }
    },
    {
      "type": "Feature",
      "id": 204621,
      "geometry": {
        "type": "Point",
        "coordinates": [
          -93.9432400002669,
          31.2726840002356
        ]
      },
      "properties": {
        "OBJECTID": 204621,
        "CROSSING": "023903B",
        "EFFDATE": 1734393600000,
        "REASON": "14",
        "StateCode": "48",
        "CountyCode": "48403",
        "STCYFIPS": "48403",
        "CITYCD": "484035360",
        "RAILROAD": "BNSF",
        "RRDIV": "South",
        "RRSUBDIV": "San Augustine",
        "HIGHWAY": "FM 0001",
        "STREET": "FM RD 1",
        "TTSTN": "681194",
        "MILEPOST": "0099.030",
        "TYPEXING": "Public",
        "POSXING": "RR Over",
        "PRVCAT": "14",
        "INIT": "1",
        "LATITUDE": 31.272684,
        "LONGITUD": -93.94324,
        "LLSOURCE": "1",
        "WHISTBAN": "0",
        "RRCONT": "8173521549",
        "POLCONT": "8663869321",
        "INV_LINK": "https://safetydata.fra.dot.gov/OfficeofSafety/PublicSite/Crossing/Crossing.aspx?phasetype=C&rpttype=I&txtcrossingnum=023903B",
        "ACC_LINK": "https://safetydata.fra.dot.gov/OfficeofSafety/PublicSite/Crossing/Crossing.aspx?phasetype=C&rpttype=A&txtcrossingnum=023903B",
        "TTSTNNAM": "Jasper",
        "XPURPOSE": "1",
        "OPERATINGR": "BNSF",
        "OPERATIN_1": "Primary",
        "DAYTHRU": 2,
        "NGHTTHRU": 2,
        "MAINTRK": 1,
        "SIDINGTRK": 0,
        "YARDTRK": 0,
        "TRANSITTRK": 0,
        "INDUSTRYTR": 0,
        "OTHRTRK": 0,
        "WDCODE": "",
        "REVISIONDA": "1996/01/01 00:00:00",
        "LASTUPDATE": "12/17/2024",
        "AADT": "540",
        "AADTYEAR": "2011",
        "STATENAME": "TEXAS",
        "STATEAB": "TX",
        "COUNTYNAME": "SABINE",
        "CITYNAME": "PINELAND",
        "LATDD": 31.272684,
        "LONGDD": -93.94324,
        "gridlyProductionCertified": true,
        "gridlyClassification": "PUBLIC_ROADWAY",
        "gridlyDisplayName": "FM RD 1",
        "gridlyId": "FRA-023903B"
      }
    },
    {
      "type": "Feature",
      "id": 204717,
      "geometry": {
        "type": "Point",
        "coordinates": [
          -93.9937150002867,
          31.31527800033
        ]
      },
      "properties": {
        "OBJECTID": 204717,
        "CROSSING": "023904H",
        "EFFDATE": 1734393600000,
        "REASON": "14",
        "StateCode": "48",
        "CountyCode": "48403",
        "STCYFIPS": "48403",
        "CITYCD": "484035360",
        "RAILROAD": "BNSF",
        "RRDIV": "South",
        "RRSUBDIV": "San Augustine",
        "HIGHWAY": "CR 0245",
        "STREET": "CHARLIE FORCE RD",
        "TTSTN": "681154",
        "MILEPOST": "0102.179",
        "TYPEXING": "Public",
        "POSXING": "At Grade",
        "PRVCAT": "14",
        "INIT": "1",
        "LATITUDE": 31.315278,
        "LONGITUD": -93.993715,
        "LLSOURCE": "1",
        "WHISTBAN": "0",
        "RRCONT": "8173521549",
        "POLCONT": "8663869321",
        "INV_LINK": "https://safetydata.fra.dot.gov/OfficeofSafety/PublicSite/Crossing/Crossing.aspx?phasetype=C&rpttype=I&txtcrossingnum=023904H",
        "ACC_LINK": "https://safetydata.fra.dot.gov/OfficeofSafety/PublicSite/Crossing/Crossing.aspx?phasetype=C&rpttype=A&txtcrossingnum=023904H",
        "TTSTNNAM": "Jasper",
        "XPURPOSE": "1",
        "OPERATINGR": "BNSF",
        "OPERATIN_1": "Primary",
        "DAYTHRU": 2,
        "NGHTTHRU": 2,
        "MAINTRK": 1,
        "SIDINGTRK": 0,
        "YARDTRK": 0,
        "TRANSITTRK": 0,
        "INDUSTRYTR": 0,
        "OTHRTRK": 0,
        "WDCODE": "Crossbucks",
        "REVISIONDA": "1996/01/01 00:00:00",
        "LASTUPDATE": "12/17/2024",
        "AADT": "37",
        "AADTYEAR": "2019",
        "STATENAME": "TEXAS",
        "STATEAB": "TX",
        "COUNTYNAME": "SABINE",
        "CITYNAME": "PINELAND",
        "LATDD": 31.315278,
        "LONGDD": -93.993715,
        "gridlyProductionCertified": true,
        "gridlyClassification": "PUBLIC_ROADWAY",
        "gridlyDisplayName": "CHARLIE FORCE RD",
        "gridlyId": "FRA-023904H"
      }
    },
    {
      "type": "Feature",
      "id": 204718,
      "geometry": {
        "type": "Point",
        "coordinates": [
          -94.011885999683,
          31.3426000001364
        ]
      },
      "properties": {
        "OBJECTID": 204718,
        "CROSSING": "023905P",
        "EFFDATE": 1734393600000,
        "REASON": "14",
        "StateCode": "48",
        "CountyCode": "48403",
        "STCYFIPS": "48403",
        "CITYCD": "484035360",
        "RAILROAD": "BNSF",
        "RRDIV": "South",
        "RRSUBDIV": "San Augustine",
        "HIGHWAY": "LS 0000",
        "STREET": "BAILEY ST",
        "TTSTN": "681154",
        "MILEPOST": "0104.405",
        "TYPEXING": "Public",
        "POSXING": "At Grade",
        "PRVCAT": "14",
        "INIT": "1",
        "LATITUDE": 31.3426,
        "LONGITUD": -94.011886,
        "LLSOURCE": "1",
        "WHISTBAN": "0",
        "RRCONT": "8173521549",
        "POLCONT": "8663869321",
        "INV_LINK": "https://safetydata.fra.dot.gov/OfficeofSafety/PublicSite/Crossing/Crossing.aspx?phasetype=C&rpttype=I&txtcrossingnum=023905P",
        "ACC_LINK": "https://safetydata.fra.dot.gov/OfficeofSafety/PublicSite/Crossing/Crossing.aspx?phasetype=C&rpttype=A&txtcrossingnum=023905P",
        "TTSTNNAM": "Jasper",
        "XPURPOSE": "1",
        "OPERATINGR": "BNSF",
        "OPERATIN_1": "Primary",
        "DAYTHRU": 2,
        "NGHTTHRU": 2,
        "MAINTRK": 1,
        "SIDINGTRK": 0,
        "YARDTRK": 0,
        "TRANSITTRK": 0,
        "INDUSTRYTR": 0,
        "OTHRTRK": 0,
        "WDCODE": "Crossbucks",
        "REVISIONDA": "1996/01/01 00:00:00",
        "LASTUPDATE": "12/17/2024",
        "AADT": "91",
        "AADTYEAR": "2019",
        "STATENAME": "TEXAS",
        "STATEAB": "TX",
        "COUNTYNAME": "SABINE",
        "CITYNAME": "PINELAND",
        "LATDD": 31.3426,
        "LONGDD": -94.011886,
        "gridlyProductionCertified": true,
        "gridlyClassification": "PUBLIC_ROADWAY",
        "gridlyDisplayName": "BAILEY ST",
        "gridlyId": "FRA-023905P"
      }
    },
    {
      "type": "Feature",
      "id": 204875,
      "geometry": {
        "type": "Point",
        "coordinates": [
          -94.012546999832,
          31.3446190002617
        ]
      },
      "properties": {
        "OBJECTID": 204875,
        "CROSSING": "023906W",
        "EFFDATE": 1734393600000,
        "REASON": "14",
        "StateCode": "48",
        "CountyCode": "48403",
        "STCYFIPS": "48403",
        "CITYCD": "484035360",
        "RAILROAD": "BNSF",
        "RRDIV": "South",
        "RRSUBDIV": "San Augustine",
        "HIGHWAY": "ST 0184",
        "STREET": "BENTON ST",
        "TTSTN": "681154",
        "MILEPOST": "0104.549",
        "TYPEXING": "Public",
        "POSXING": "At Grade",
        "PRVCAT": "14",
        "INIT": "1",
        "LATITUDE": 31.344619,
        "LONGITUD": -94.012547,
        "LLSOURCE": "1",
        "WHISTBAN": "0",
        "RRCONT": "8173521549",
        "POLCONT": "8663869321",
        "INV_LINK": "https://safetydata.fra.dot.gov/OfficeofSafety/PublicSite/Crossing/Crossing.aspx?phasetype=C&rpttype=I&txtcrossingnum=023906W",
        "ACC_LINK": "https://safetydata.fra.dot.gov/OfficeofSafety/PublicSite/Crossing/Crossing.aspx?phasetype=C&rpttype=A&txtcrossingnum=023906W",
        "TTSTNNAM": "Jasper",
        "XPURPOSE": "1",
        "OPERATINGR": "BNSF",
        "OPERATIN_1": "Primary",
        "DAYTHRU": 2,
        "NGHTTHRU": 2,
        "MAINTRK": 1,
        "SIDINGTRK": 0,
        "YARDTRK": 0,
        "TRANSITTRK": 0,
        "INDUSTRYTR": 0,
        "OTHRTRK": 1,
        "WDCODE": "All other Gates",
        "REVISIONDA": "1996/01/01 00:00:00",
        "LASTUPDATE": "12/17/2024",
        "AADT": "706",
        "AADTYEAR": "2019",
        "STATENAME": "TEXAS",
        "STATEAB": "TX",
        "COUNTYNAME": "SABINE",
        "CITYNAME": "PINELAND",
        "LATDD": 31.344619,
        "LONGDD": -94.012547,
        "gridlyProductionCertified": true,
        "gridlyClassification": "PUBLIC_ROADWAY",
        "gridlyDisplayName": "BENTON ST",
        "gridlyId": "FRA-023906W"
      }
    },
    {
      "type": "Feature",
      "id": 204885,
      "geometry": {
        "type": "Point",
        "coordinates": [
          -94.0269489997745,
          31.3960459999893
        ]
      },
      "properties": {
        "OBJECTID": 204885,
        "CROSSING": "023907D",
        "EFFDATE": 1734393600000,
        "REASON": "14",
        "StateCode": "48",
        "CountyCode": "48403",
        "STCYFIPS": "48403",
        "CITYCD": "484035360",
        "RAILROAD": "BNSF",
        "RRDIV": "South",
        "RRSUBDIV": "San Augustine",
        "HIGHWAY": "CR 0293",
        "STREET": "HORN ROAD",
        "TTSTN": "681154",
        "MILEPOST": "0108.362",
        "TYPEXING": "Public",
        "POSXING": "At Grade",
        "PRVCAT": "14",
        "INIT": "1",
        "LATITUDE": 31.396046,
        "LONGITUD": -94.026949,
        "LLSOURCE": "1",
        "WHISTBAN": "0",
        "RRCONT": "8173521549",
        "POLCONT": "8663869321",
        "INV_LINK": "https://safetydata.fra.dot.gov/OfficeofSafety/PublicSite/Crossing/Crossing.aspx?phasetype=C&rpttype=I&txtcrossingnum=023907D",
        "ACC_LINK": "https://safetydata.fra.dot.gov/OfficeofSafety/PublicSite/Crossing/Crossing.aspx?phasetype=C&rpttype=A&txtcrossingnum=023907D",
        "TTSTNNAM": "Jasper",
        "XPURPOSE": "1",
        "OPERATINGR": "BNSF",
        "OPERATIN_1": "Primary",
        "DAYTHRU": 2,
        "NGHTTHRU": 2,
        "MAINTRK": 1,
        "SIDINGTRK": 0,
        "YARDTRK": 0,
        "TRANSITTRK": 0,
        "INDUSTRYTR": 0,
        "OTHRTRK": 0,
        "WDCODE": "Crossbucks",
        "REVISIONDA": "1996/01/01 00:00:00",
        "LASTUPDATE": "12/17/2024",
        "AADT": "5",
        "AADTYEAR": "2019",
        "STATENAME": "TEXAS",
        "STATEAB": "TX",
        "COUNTYNAME": "SABINE",
        "CITYNAME": "PINELAND",
        "LATDD": 31.396046,
        "LONGDD": -94.026949,
        "gridlyProductionCertified": true,
        "gridlyClassification": "PUBLIC_ROADWAY",
        "gridlyDisplayName": "HORN ROAD",
        "gridlyId": "FRA-023907D"
      }
    }
  ]
}
