{
  "type": "FeatureCollection",
  "features": [
    {
      "type": "Feature",
      "id": 202079,
      "geometry": {
        "type": "Point",
        "coordinates": [
          -97.7915037000671,
          26.3862780999468
        ]
      },
      "properties": {
        "OBJECTID": 202079,
        "CROSSING": "432761R",
        "EFFDATE": 1770681600000,
        "REASON": "14",
        "StateCode": "48",
        "CountyCode": "48489",
        "STCYFIPS": "48489",
        "CITYCD": "484894180",
        "RAILROAD": "UP",
        "RRDIV": "GULF COAST",
        "RRSUBDIV": "Brownsville Sub",
        "HIGHWAY": "CO1600",
        "STREET": "MESQUITE ROAD",
        "TTSTN": "689770",
        "MILEPOST": "0039.900",
        "TYPEXING": "Public",
        "POSXING": "At Grade",
        "PRVCAT": "14",
        "INIT": "2",
        "LATITUDE": 26.3862781,
        "LONGITUD": -97.7915037,
        "LLSOURCE": "1",
        "WHISTBAN": "0",
        "RRCONT": "4025443721",
        "POLCONT": "8008488715",
        "INV_LINK": "https://safetydata.fra.dot.gov/OfficeofSafety/PublicSite/Crossing/Crossing.aspx?phasetype=C&rpttype=I&txtcrossingnum=432761R",
        "ACC_LINK": "https://safetydata.fra.dot.gov/OfficeofSafety/PublicSite/Crossing/Crossing.aspx?phasetype=C&rpttype=A&txtcrossingnum=432761R",
        "TTSTNNAM": "",
        "XPURPOSE": "1",
        "OPERATINGR": "UP",
        "OPERATIN_1": "Primary",
        "DAYTHRU": 2,
        "NGHTTHRU": 1,
        "MAINTRK": 1,
        "SIDINGTRK": 0,
        "YARDTRK": 0,
        "TRANSITTRK": 0,
        "INDUSTRYTR": 0,
        "OTHRTRK": 0,
        "WDCODE": "Stop signs",
        "REVISIONDA": "1975/01/01 00:00:00",
        "LASTUPDATE": "2/10/2026",
        "AADT": "110",
        "AADTYEAR": "2024",
        "STATENAME": "TEXAS",
        "STATEAB": "TX",
        "COUNTYNAME": "WILLACY",
        "CITYNAME": "LYFORD",
        "LATDD": 26.3862781,
        "LONGDD": -97.7915037,
        "gridlyProductionCertified": true,
        "gridlyClassification": "PUBLIC_ROADWAY",
        "gridlyDisplayName": "MESQUITE ROAD",
        "gridlyId": "FRA-432761R"
      }
    },
    {
      "type": "Feature",
      "id": 202082,
      "geometry": {
        "type": "Point",
        "coordinates": [
          -97.7911327003464,
          26.3935364001268
        ]
      },
      "properties": {
        "OBJECTID": 202082,
        "CROSSING": "432762X",
        "EFFDATE": 1770681600000,
        "REASON": "14",
        "StateCode": "48",
        "CountyCode": "48489",
        "STCYFIPS": "48489",
        "CITYCD": "484894180",
        "RAILROAD": "UP",
        "RRDIV": "GULF COAST",
        "RRSUBDIV": "Brownsville Sub",
        "HIGHWAY": "FM0491",
        "STREET": "FM0491",
        "TTSTN": "689770",
        "MILEPOST": "0040.400",
        "TYPEXING": "Public",
        "POSXING": "At Grade",
        "PRVCAT": "14",
        "INIT": "2",
        "LATITUDE": 26.3935364,
        "LONGITUD": -97.7911327,
        "LLSOURCE": "1",
        "WHISTBAN": "0",
        "RRCONT": "4025443721",
        "POLCONT": "8008488715",
        "INV_LINK": "https://safetydata.fra.dot.gov/OfficeofSafety/PublicSite/Crossing/Crossing.aspx?phasetype=C&rpttype=I&txtcrossingnum=432762X",
        "ACC_LINK": "https://safetydata.fra.dot.gov/OfficeofSafety/PublicSite/Crossing/Crossing.aspx?phasetype=C&rpttype=A&txtcrossingnum=432762X",
        "TTSTNNAM": "",
        "XPURPOSE": "1",
        "OPERATINGR": "UP",
        "OPERATIN_1": "Primary",
        "DAYTHRU": 3,
        "NGHTTHRU": 2,
        "MAINTRK": 1,
        "SIDINGTRK": 0,
        "YARDTRK": 0,
        "TRANSITTRK": 0,
        "INDUSTRYTR": 0,
        "OTHRTRK": 0,
        "WDCODE": "All other Gates",
        "REVISIONDA": "1975/01/01 00:00:00",
        "LASTUPDATE": "2/10/2026",
        "AADT": "732",
        "AADTYEAR": "2019",
        "STATENAME": "TEXAS",
        "STATEAB": "TX",
        "COUNTYNAME": "WILLACY",
        "CITYNAME": "LYFORD",
        "LATDD": 26.3935364,
        "LONGDD": -97.7911327,
        "gridlyProductionCertified": true,
        "gridlyClassification": "PUBLIC_ROADWAY",
        "gridlyDisplayName": "FM0491",
        "gridlyId": "FRA-432762X"
      }
    },
    {
      "type": "Feature",
      "id": 202083,
      "geometry": {
        "type": "Point",
        "coordinates": [
          -97.7917394000314,
          26.37175719991
        ]
      },
      "properties": {
        "OBJECTID": 202083,
        "CROSSING": "432760J",
        "EFFDATE": 1770681600000,
        "REASON": "14",
        "StateCode": "48",
        "CountyCode": "48489",
        "STCYFIPS": "48489",
        "CITYCD": "484894180",
        "RAILROAD": "UP",
        "RRDIV": "GULF COAST",
        "RRSUBDIV": "Brownsville Sub",
        "HIGHWAY": "CR1400",
        "STREET": "POINCIANA ROAD",
        "TTSTN": "689770",
        "MILEPOST": "0038.860",
        "TYPEXING": "Public",
        "POSXING": "At Grade",
        "PRVCAT": "14",
        "INIT": "2",
        "LATITUDE": 26.3717572,
        "LONGITUD": -97.7917394,
        "LLSOURCE": "1",
        "WHISTBAN": "0",
        "RRCONT": "4025443721",
        "POLCONT": "8008488715",
        "INV_LINK": "https://safetydata.fra.dot.gov/OfficeofSafety/PublicSite/Crossing/Crossing.aspx?phasetype=C&rpttype=I&txtcrossingnum=432760J",
        "ACC_LINK": "https://safetydata.fra.dot.gov/OfficeofSafety/PublicSite/Crossing/Crossing.aspx?phasetype=C&rpttype=A&txtcrossingnum=432760J",
        "TTSTNNAM": "",
        "XPURPOSE": "1",
        "OPERATINGR": "UP",
        "OPERATIN_1": "Primary",
        "DAYTHRU": 2,
        "NGHTTHRU": 1,
        "MAINTRK": 1,
        "SIDINGTRK": 0,
        "YARDTRK": 0,
        "TRANSITTRK": 0,
        "INDUSTRYTR": 0,
        "OTHRTRK": 0,
        "WDCODE": "Stop signs",
        "REVISIONDA": "1975/01/01 00:00:00",
        "LASTUPDATE": "2/10/2026",
        "AADT": "30",
        "AADTYEAR": "2024",
        "STATENAME": "TEXAS",
        "STATEAB": "TX",
        "COUNTYNAME": "WILLACY",
        "CITYNAME": "LYFORD",
        "LATDD": 26.3717572,
        "LONGDD": -97.7917394,
        "gridlyProductionCertified": true,
        "gridlyClassification": "PUBLIC_ROADWAY",
        "gridlyDisplayName": "POINCIANA ROAD",
        "gridlyId": "FRA-432760J"
      }
    },
    {
      "type": "Feature",
      "id": 203615,
      "geometry": {
        "type": "Point",
        "coordinates": [
          -97.7779327998659,
          26.5188992996851
        ]
      },
      "properties": {
        "OBJECTID": 203615,
        "CROSSING": "427692A",
        "EFFDATE": 1770681600000,
        "REASON": "22",
        "StateCode": "48",
        "CountyCode": "48489",
        "STCYFIPS": "48489",
        "CITYCD": "484895670",
        "RAILROAD": "UP",
        "RRDIV": "GULF COAST",
        "RRSUBDIV": "Brownsville Sub",
        "HIGHWAY": "FM1761",
        "STREET": "FM 1761",
        "TTSTN": "689740",
        "MILEPOST": "0049.030",
        "TYPEXING": "Public",
        "POSXING": "At Grade",
        "PRVCAT": "22",
        "INIT": "1",
        "LATITUDE": 26.5188993,
        "LONGITUD": -97.7779328,
        "LLSOURCE": "1",
        "WHISTBAN": "0",
        "RRCONT": "4025443721",
        "POLCONT": "8008488715",
        "INV_LINK": "https://safetydata.fra.dot.gov/OfficeofSafety/PublicSite/Crossing/Crossing.aspx?phasetype=C&rpttype=I&txtcrossingnum=427692A",
        "ACC_LINK": "https://safetydata.fra.dot.gov/OfficeofSafety/PublicSite/Crossing/Crossing.aspx?phasetype=C&rpttype=A&txtcrossingnum=427692A",
        "TTSTNNAM": "",
        "XPURPOSE": "1",
        "OPERATINGR": "UP",
        "OPERATIN_1": "Primary",
        "DAYTHRU": 3,
        "NGHTTHRU": 2,
        "MAINTRK": 1,
        "SIDINGTRK": 0,
        "YARDTRK": 0,
        "TRANSITTRK": 0,
        "INDUSTRYTR": 0,
        "OTHRTRK": 0,
        "WDCODE": "All other Gates",
        "REVISIONDA": "1975/01/01 00:00:00",
        "LASTUPDATE": "2/10/2026",
        "AADT": "725",
        "AADTYEAR": "2024",
        "STATENAME": "TEXAS",
        "STATEAB": "TX",
        "COUNTYNAME": "WILLACY",
        "CITYNAME": "RAYMONDVILLE",
        "LATDD": 26.5188993,
        "LONGDD": -97.7779328,
        "gridlyProductionCertified": true,
        "gridlyClassification": "PUBLIC_ROADWAY",
        "gridlyDisplayName": "FM 1761",
        "gridlyId": "FRA-427692A"
      }
    },
    {
      "type": "Feature",
      "id": 203616,
      "geometry": {
        "type": "Point",
        "coordinates": [
          -97.7816077996085,
          26.492490299823
        ]
      },
      "properties": {
        "OBJECTID": 203616,
        "CROSSING": "427698R",
        "EFFDATE": 1770681600000,
        "REASON": "22",
        "StateCode": "48",
        "CountyCode": "48489",
        "STCYFIPS": "48489",
        "CITYCD": "484895670",
        "RAILROAD": "UP",
        "RRDIV": "GULF COAST",
        "RRSUBDIV": "Brownsville Sub",
        "HIGHWAY": "LS0000",
        "STREET": "CANAL AVENUE",
        "TTSTN": "689740",
        "MILEPOST": "0047.210",
        "TYPEXING": "Public",
        "POSXING": "At Grade",
        "PRVCAT": "22",
        "INIT": "1",
        "LATITUDE": 26.4924903,
        "LONGITUD": -97.7816078,
        "LLSOURCE": "1",
        "WHISTBAN": "0",
        "RRCONT": "4025443721",
        "POLCONT": "8008488715",
        "INV_LINK": "https://safetydata.fra.dot.gov/OfficeofSafety/PublicSite/Crossing/Crossing.aspx?phasetype=C&rpttype=I&txtcrossingnum=427698R",
        "ACC_LINK": "https://safetydata.fra.dot.gov/OfficeofSafety/PublicSite/Crossing/Crossing.aspx?phasetype=C&rpttype=A&txtcrossingnum=427698R",
        "TTSTNNAM": "",
        "XPURPOSE": "1",
        "OPERATINGR": "UP",
        "OPERATIN_1": "Primary",
        "DAYTHRU": 2,
        "NGHTTHRU": 1,
        "MAINTRK": 1,
        "SIDINGTRK": 0,
        "YARDTRK": 0,
        "TRANSITTRK": 0,
        "INDUSTRYTR": 0,
        "OTHRTRK": 2,
        "WDCODE": "All other Gates",
        "REVISIONDA": "1975/01/01 00:00:00",
        "LASTUPDATE": "2/10/2026",
        "AADT": "339",
        "AADTYEAR": "2024",
        "STATENAME": "TEXAS",
        "STATEAB": "TX",
        "COUNTYNAME": "WILLACY",
        "CITYNAME": "RAYMONDVILLE",
        "LATDD": 26.4924903,
        "LONGDD": -97.7816078,
        "gridlyProductionCertified": true,
        "gridlyClassification": "PUBLIC_ROADWAY",
        "gridlyDisplayName": "CANAL AVENUE",
        "gridlyId": "FRA-427698R"
      }
    },
    {
      "type": "Feature",
      "id": 204104,
      "geometry": {
        "type": "Point",
        "coordinates": [
          -97.7830878000902,
          26.4818817998034
        ]
      },
      "properties": {
        "OBJECTID": 204104,
        "CROSSING": "435801W",
        "EFFDATE": 1771891200000,
        "REASON": "14",
        "StateCode": "48",
        "CountyCode": "48489",
        "STCYFIPS": "48489",
        "CITYCD": "484895670",
        "RAILROAD": "UP",
        "RRDIV": "GULF COAST",
        "RRSUBDIV": "Brownsville Sub",
        "HIGHWAY": "SH0186",
        "STREET": "SH0186 / WEST HILDALGO AVENUE",
        "TTSTN": "689740",
        "MILEPOST": "0046.420",
        "TYPEXING": "Public",
        "POSXING": "At Grade",
        "PRVCAT": "14",
        "INIT": "2",
        "LATITUDE": 26.4818818,
        "LONGITUD": -97.7830878,
        "LLSOURCE": "1",
        "WHISTBAN": "0",
        "RRCONT": "4025443721",
        "POLCONT": "8008488715",
        "INV_LINK": "https://safetydata.fra.dot.gov/OfficeofSafety/PublicSite/Crossing/Crossing.aspx?phasetype=C&rpttype=I&txtcrossingnum=435801W",
        "ACC_LINK": "https://safetydata.fra.dot.gov/OfficeofSafety/PublicSite/Crossing/Crossing.aspx?phasetype=C&rpttype=A&txtcrossingnum=435801W",
        "TTSTNNAM": "",
        "XPURPOSE": "1",
        "OPERATINGR": "UP",
        "OPERATIN_1": "Primary",
        "DAYTHRU": 3,
        "NGHTTHRU": 2,
        "MAINTRK": 1,
        "SIDINGTRK": 0,
        "YARDTRK": 0,
        "TRANSITTRK": 0,
        "INDUSTRYTR": 0,
        "OTHRTRK": 0,
        "WDCODE": "All other Gates",
        "REVISIONDA": "1975/01/01 00:00:00",
        "LASTUPDATE": "2/24/2026",
        "AADT": "8820",
        "AADTYEAR": "2019",
        "STATENAME": "TEXAS",
        "STATEAB": "TX",
        "COUNTYNAME": "WILLACY",
        "CITYNAME": "RAYMONDVILLE",
        "LATDD": 26.4818818,
        "LONGDD": -97.7830878,
        "gridlyProductionCertified": true,
        "gridlyClassification": "PUBLIC_ROADWAY",
        "gridlyDisplayName": "SH0186 / WEST HILDALGO AVENUE",
        "gridlyId": "FRA-435801W"
      }
    },
    {
      "type": "Feature",
      "id": 204105,
      "geometry": {
        "type": "Point",
        "coordinates": [
          -97.7837832003247,
          26.4769026996956
        ]
      },
      "properties": {
        "OBJECTID": 204105,
        "CROSSING": "435797J",
        "EFFDATE": 1771891200000,
        "REASON": "14",
        "StateCode": "48",
        "CountyCode": "48489",
        "STCYFIPS": "48489",
        "CITYCD": "484895670",
        "RAILROAD": "UP",
        "RRDIV": "GULF COAST",
        "RRSUBDIV": "Brownsville Sub",
        "HIGHWAY": "LS0000",
        "STREET": "WEST GEM AVENUE",
        "TTSTN": "689740",
        "MILEPOST": "0046.040",
        "TYPEXING": "Public",
        "POSXING": "At Grade",
        "PRVCAT": "14",
        "INIT": "2",
        "LATITUDE": 26.4769027,
        "LONGITUD": -97.7837832,
        "LLSOURCE": "1",
        "WHISTBAN": "0",
        "RRCONT": "4025443721",
        "POLCONT": "8008488715",
        "INV_LINK": "https://safetydata.fra.dot.gov/OfficeofSafety/PublicSite/Crossing/Crossing.aspx?phasetype=C&rpttype=I&txtcrossingnum=435797J",
        "ACC_LINK": "https://safetydata.fra.dot.gov/OfficeofSafety/PublicSite/Crossing/Crossing.aspx?phasetype=C&rpttype=A&txtcrossingnum=435797J",
        "TTSTNNAM": "",
        "XPURPOSE": "1",
        "OPERATINGR": "UP",
        "OPERATIN_1": "Primary",
        "DAYTHRU": 2,
        "NGHTTHRU": 1,
        "MAINTRK": 1,
        "SIDINGTRK": 0,
        "YARDTRK": 0,
        "TRANSITTRK": 0,
        "INDUSTRYTR": 0,
        "OTHRTRK": 0,
        "WDCODE": "All other Gates",
        "REVISIONDA": "1975/01/01 00:00:00",
        "LASTUPDATE": "2/24/2026",
        "AADT": "901",
        "AADTYEAR": "2024",
        "STATENAME": "TEXAS",
        "STATEAB": "TX",
        "COUNTYNAME": "WILLACY",
        "CITYNAME": "RAYMONDVILLE",
        "LATDD": 26.4769027,
        "LONGDD": -97.7837832,
        "gridlyProductionCertified": true,
        "gridlyClassification": "PUBLIC_ROADWAY",
        "gridlyDisplayName": "WEST GEM AVENUE",
        "gridlyId": "FRA-435797J"
      }
    },
    {
      "type": "Feature",
      "id": 204449,
      "geometry": {
        "type": "Point",
        "coordinates": [
          -97.783368200223,
          26.4798738002069
        ]
      },
      "properties": {
        "OBJECTID": 204449,
        "CROSSING": "435799X",
        "EFFDATE": 1771891200000,
        "REASON": "14",
        "StateCode": "48",
        "CountyCode": "48489",
        "STCYFIPS": "48489",
        "CITYCD": "484895670",
        "RAILROAD": "UP",
        "RRDIV": "GULF COAST",
        "RRSUBDIV": "Brownsville Sub",
        "HIGHWAY": "LS0000",
        "STREET": "WEST RODRIGUEZ AVENUE",
        "TTSTN": "689740",
        "MILEPOST": "0046.270",
        "TYPEXING": "Public",
        "POSXING": "At Grade",
        "PRVCAT": "14",
        "INIT": "2",
        "LATITUDE": 26.4798738,
        "LONGITUD": -97.7833682,
        "LLSOURCE": "1",
        "WHISTBAN": "0",
        "RRCONT": "4025443721",
        "POLCONT": "8008488715",
        "INV_LINK": "https://safetydata.fra.dot.gov/OfficeofSafety/PublicSite/Crossing/Crossing.aspx?phasetype=C&rpttype=I&txtcrossingnum=435799X",
        "ACC_LINK": "https://safetydata.fra.dot.gov/OfficeofSafety/PublicSite/Crossing/Crossing.aspx?phasetype=C&rpttype=A&txtcrossingnum=435799X",
        "TTSTNNAM": "",
        "XPURPOSE": "1",
        "OPERATINGR": "UP",
        "OPERATIN_1": "Primary",
        "DAYTHRU": 2,
        "NGHTTHRU": 1,
        "MAINTRK": 1,
        "SIDINGTRK": 0,
        "YARDTRK": 0,
        "TRANSITTRK": 0,
        "INDUSTRYTR": 0,
        "OTHRTRK": 0,
        "WDCODE": "All other Gates",
        "REVISIONDA": "1975/01/01 00:00:00",
        "LASTUPDATE": "2/24/2026",
        "AADT": "667",
        "AADTYEAR": "2024",
        "STATENAME": "TEXAS",
        "STATEAB": "TX",
        "COUNTYNAME": "WILLACY",
        "CITYNAME": "RAYMONDVILLE",
        "LATDD": 26.4798738,
        "LONGDD": -97.7833682,
        "gridlyProductionCertified": true,
        "gridlyClassification": "PUBLIC_ROADWAY",
        "gridlyDisplayName": "WEST RODRIGUEZ AVENUE",
        "gridlyId": "FRA-435799X"
      }
    },
    {
      "type": "Feature",
      "id": 204450,
      "geometry": {
        "type": "Point",
        "coordinates": [
          -97.7832287996572,
          26.4808716002066
        ]
      },
      "properties": {
        "OBJECTID": 204450,
        "CROSSING": "435800P",
        "EFFDATE": 1771891200000,
        "REASON": "14",
        "StateCode": "48",
        "CountyCode": "48489",
        "STCYFIPS": "48489",
        "CITYCD": "484895670",
        "RAILROAD": "UP",
        "RRDIV": "GULF COAST",
        "RRSUBDIV": "Brownsville Sub",
        "HIGHWAY": "LS0000",
        "STREET": "WEST KIMBALL AVENUE",
        "TTSTN": "689740",
        "MILEPOST": "0046.340",
        "TYPEXING": "Public",
        "POSXING": "At Grade",
        "PRVCAT": "14",
        "INIT": "2",
        "LATITUDE": 26.4808716,
        "LONGITUD": -97.7832288,
        "LLSOURCE": "1",
        "WHISTBAN": "0",
        "RRCONT": "4025443721",
        "POLCONT": "8008488715",
        "INV_LINK": "https://safetydata.fra.dot.gov/OfficeofSafety/PublicSite/Crossing/Crossing.aspx?phasetype=C&rpttype=I&txtcrossingnum=435800P",
        "ACC_LINK": "https://safetydata.fra.dot.gov/OfficeofSafety/PublicSite/Crossing/Crossing.aspx?phasetype=C&rpttype=A&txtcrossingnum=435800P",
        "TTSTNNAM": "",
        "XPURPOSE": "1",
        "OPERATINGR": "UP",
        "OPERATIN_1": "Primary",
        "DAYTHRU": 2,
        "NGHTTHRU": 1,
        "MAINTRK": 1,
        "SIDINGTRK": 0,
        "YARDTRK": 0,
        "TRANSITTRK": 0,
        "INDUSTRYTR": 0,
        "OTHRTRK": 0,
        "WDCODE": "All other Gates",
        "REVISIONDA": "1975/01/01 00:00:00",
        "LASTUPDATE": "2/24/2026",
        "AADT": "1787",
        "AADTYEAR": "2019",
        "STATENAME": "TEXAS",
        "STATEAB": "TX",
        "COUNTYNAME": "WILLACY",
        "CITYNAME": "RAYMONDVILLE",
        "LATDD": 26.4808716,
        "LONGDD": -97.7832288,
        "gridlyProductionCertified": true,
        "gridlyClassification": "PUBLIC_ROADWAY",
        "gridlyDisplayName": "WEST KIMBALL AVENUE",
        "gridlyId": "FRA-435800P"
      }
    },
    {
      "type": "Feature",
      "id": 204904,
      "geometry": {
        "type": "Point",
        "coordinates": [
          -97.7827992998485,
          26.4839449998688
        ]
      },
      "properties": {
        "OBJECTID": 204904,
        "CROSSING": "435802D",
        "EFFDATE": 1771891200000,
        "REASON": "14",
        "StateCode": "48",
        "CountyCode": "48489",
        "STCYFIPS": "48489",
        "CITYCD": "484895670",
        "RAILROAD": "UP",
        "RRDIV": "GULF COAST",
        "RRSUBDIV": "Brownsville Sub",
        "HIGHWAY": "LS0000",
        "STREET": "WEST RAYMOND AVENUE",
        "TTSTN": "689740",
        "MILEPOST": "0046.580",
        "TYPEXING": "Public",
        "POSXING": "At Grade",
        "PRVCAT": "14",
        "INIT": "2",
        "LATITUDE": 26.483945,
        "LONGITUD": -97.7827993,
        "LLSOURCE": "1",
        "WHISTBAN": "0",
        "RRCONT": "4025443721",
        "POLCONT": "8008488715",
        "INV_LINK": "https://safetydata.fra.dot.gov/OfficeofSafety/PublicSite/Crossing/Crossing.aspx?phasetype=C&rpttype=I&txtcrossingnum=435802D",
        "ACC_LINK": "https://safetydata.fra.dot.gov/OfficeofSafety/PublicSite/Crossing/Crossing.aspx?phasetype=C&rpttype=A&txtcrossingnum=435802D",
        "TTSTNNAM": "",
        "XPURPOSE": "1",
        "OPERATINGR": "UP",
        "OPERATIN_1": "Primary",
        "DAYTHRU": 2,
        "NGHTTHRU": 1,
        "MAINTRK": 1,
        "SIDINGTRK": 0,
        "YARDTRK": 0,
        "TRANSITTRK": 0,
        "INDUSTRYTR": 0,
        "OTHRTRK": 0,
        "WDCODE": "All other Gates",
        "REVISIONDA": "1975/01/01 00:00:00",
        "LASTUPDATE": "2/24/2026",
        "AADT": "351",
        "AADTYEAR": "2024",
        "STATENAME": "TEXAS",
        "STATEAB": "TX",
        "COUNTYNAME": "WILLACY",
        "CITYNAME": "RAYMONDVILLE",
        "LATDD": 26.483945,
        "LONGDD": -97.7827993,
        "gridlyProductionCertified": true,
        "gridlyClassification": "PUBLIC_ROADWAY",
        "gridlyDisplayName": "WEST RAYMOND AVENUE",
        "gridlyId": "FRA-435802D"
      }
    },
    {
      "type": "Feature",
      "id": 204905,
      "geometry": {
        "type": "Point",
        "coordinates": [
          -97.7836452999454,
          26.4778900996667
        ]
      },
      "properties": {
        "OBJECTID": 204905,
        "CROSSING": "435798R",
        "EFFDATE": 1771891200000,
        "REASON": "14",
        "StateCode": "48",
        "CountyCode": "48489",
        "STCYFIPS": "48489",
        "CITYCD": "484895670",
        "RAILROAD": "UP",
        "RRDIV": "GULF COAST",
        "RRSUBDIV": "Brownsville Sub",
        "HIGHWAY": "LS0000",
        "STREET": "WEST RIGGS AVENUE",
        "TTSTN": "689740",
        "MILEPOST": "0046.120",
        "TYPEXING": "Public",
        "POSXING": "At Grade",
        "PRVCAT": "14",
        "INIT": "2",
        "LATITUDE": 26.4778901,
        "LONGITUD": -97.7836453,
        "LLSOURCE": "1",
        "WHISTBAN": "0",
        "RRCONT": "4025443721",
        "POLCONT": "8008488715",
        "INV_LINK": "https://safetydata.fra.dot.gov/OfficeofSafety/PublicSite/Crossing/Crossing.aspx?phasetype=C&rpttype=I&txtcrossingnum=435798R",
        "ACC_LINK": "https://safetydata.fra.dot.gov/OfficeofSafety/PublicSite/Crossing/Crossing.aspx?phasetype=C&rpttype=A&txtcrossingnum=435798R",
        "TTSTNNAM": "",
        "XPURPOSE": "1",
        "OPERATINGR": "UP",
        "OPERATIN_1": "Primary",
        "DAYTHRU": 3,
        "NGHTTHRU": 2,
        "MAINTRK": 1,
        "SIDINGTRK": 0,
        "YARDTRK": 0,
        "TRANSITTRK": 0,
        "INDUSTRYTR": 0,
        "OTHRTRK": 0,
        "WDCODE": "All other Gates",
        "REVISIONDA": "1975/01/01 00:00:00",
        "LASTUPDATE": "2/24/2026",
        "AADT": "685",
        "AADTYEAR": "2024",
        "STATENAME": "TEXAS",
        "STATEAB": "TX",
        "COUNTYNAME": "WILLACY",
        "CITYNAME": "RAYMONDVILLE",
        "LATDD": 26.4778901,
        "LONGDD": -97.7836453,
        "gridlyProductionCertified": true,
        "gridlyClassification": "PUBLIC_ROADWAY",
        "gridlyDisplayName": "WEST RIGGS AVENUE",
        "gridlyId": "FRA-435798R"
      }
    },
    {
      "type": "Feature",
      "id": 205477,
      "geometry": {
        "type": "Point",
        "coordinates": [
          -97.7892701999116,
          26.4298741003428
        ]
      },
      "properties": {
        "OBJECTID": 205477,
        "CROSSING": "435788K",
        "EFFDATE": 1775433600000,
        "REASON": "14",
        "StateCode": "48",
        "CountyCode": "48489",
        "STCYFIPS": "48489",
        "CITYCD": "484894180",
        "RAILROAD": "UP",
        "RRDIV": "GULF COAST",
        "RRSUBDIV": "Brownsville Sub",
        "HIGHWAY": "CR 2200",
        "STREET": "Holly Road",
        "TTSTN": "689770",
        "MILEPOST": "0042.820",
        "TYPEXING": "Public",
        "POSXING": "At Grade",
        "PRVCAT": "14",
        "INIT": "1",
        "LATITUDE": 26.4298741,
        "LONGITUD": -97.7892702,
        "LLSOURCE": "1",
        "WHISTBAN": "0",
        "RRCONT": "4025443721",
        "POLCONT": "8008488715",
        "INV_LINK": "https://safetydata.fra.dot.gov/OfficeofSafety/PublicSite/Crossing/Crossing.aspx?phasetype=C&rpttype=I&txtcrossingnum=435788K",
        "ACC_LINK": "https://safetydata.fra.dot.gov/OfficeofSafety/PublicSite/Crossing/Crossing.aspx?phasetype=C&rpttype=A&txtcrossingnum=435788K",
        "TTSTNNAM": "",
        "XPURPOSE": "1",
        "OPERATINGR": "UP",
        "OPERATIN_1": "Primary",
        "DAYTHRU": 2,
        "NGHTTHRU": 1,
        "MAINTRK": 1,
        "SIDINGTRK": 0,
        "YARDTRK": 0,
        "TRANSITTRK": 0,
        "INDUSTRYTR": 0,
        "OTHRTRK": 0,
        "WDCODE": "Crossbucks",
        "REVISIONDA": "1975/01/01 00:00:00",
        "LASTUPDATE": "4/6/2026",
        "AADT": "297",
        "AADTYEAR": "2019",
        "STATENAME": "TEXAS",
        "STATEAB": "TX",
        "COUNTYNAME": "WILLACY",
        "CITYNAME": "LYFORD",
        "LATDD": 26.4298741,
        "LONGDD": -97.7892702,
        "gridlyProductionCertified": true,
        "gridlyClassification": "PUBLIC_ROADWAY",
        "gridlyDisplayName": "Holly Road",
        "gridlyId": "FRA-435788K"
      }
    },
    {
      "type": "Feature",
      "id": 205478,
      "geometry": {
        "type": "Point",
        "coordinates": [
          -97.7907681999367,
          26.4008186000531
        ]
      },
      "properties": {
        "OBJECTID": 205478,
        "CROSSING": "435779L",
        "EFFDATE": 1775433600000,
        "REASON": "14",
        "StateCode": "48",
        "CountyCode": "48489",
        "STCYFIPS": "48489",
        "CITYCD": "484894180",
        "RAILROAD": "UP",
        "RRDIV": "GULF COAST",
        "RRSUBDIV": "Brownsville Sub",
        "HIGHWAY": "CR4208",
        "STREET": "Olive Road",
        "TTSTN": "689770",
        "MILEPOST": "0040.900",
        "TYPEXING": "Public",
        "POSXING": "At Grade",
        "PRVCAT": "14",
        "INIT": "1",
        "LATITUDE": 26.4008186,
        "LONGITUD": -97.7907682,
        "LLSOURCE": "1",
        "WHISTBAN": "0",
        "RRCONT": "4025443721",
        "POLCONT": "8008488715",
        "INV_LINK": "https://safetydata.fra.dot.gov/OfficeofSafety/PublicSite/Crossing/Crossing.aspx?phasetype=C&rpttype=I&txtcrossingnum=435779L",
        "ACC_LINK": "https://safetydata.fra.dot.gov/OfficeofSafety/PublicSite/Crossing/Crossing.aspx?phasetype=C&rpttype=A&txtcrossingnum=435779L",
        "TTSTNNAM": "",
        "XPURPOSE": "1",
        "OPERATINGR": "UP",
        "OPERATIN_1": "Primary",
        "DAYTHRU": 2,
        "NGHTTHRU": 1,
        "MAINTRK": 1,
        "SIDINGTRK": 0,
        "YARDTRK": 0,
        "TRANSITTRK": 0,
        "INDUSTRYTR": 0,
        "OTHRTRK": 0,
        "WDCODE": "All other Gates",
        "REVISIONDA": "1975/01/01 00:00:00",
        "LASTUPDATE": "4/6/2026",
        "AADT": "555",
        "AADTYEAR": "2024",
        "STATENAME": "TEXAS",
        "STATEAB": "TX",
        "COUNTYNAME": "WILLACY",
        "CITYNAME": "LYFORD",
        "LATDD": 26.4008186,
        "LONGDD": -97.7907682,
        "gridlyProductionCertified": true,
        "gridlyClassification": "PUBLIC_ROADWAY",
        "gridlyDisplayName": "Olive Road",
        "gridlyId": "FRA-435779L"
      }
    },
    {
      "type": "Feature",
      "id": 207811,
      "geometry": {
        "type": "Point",
        "coordinates": [
          -97.7810540996269,
          26.4964509998213
        ]
      },
      "properties": {
        "OBJECTID": 207811,
        "CROSSING": "427696C",
        "EFFDATE": 1756684800000,
        "REASON": "14",
        "StateCode": "48",
        "CountyCode": "48489",
        "STCYFIPS": "48489",
        "CITYCD": "484895670",
        "RAILROAD": "UP",
        "RRDIV": "GULF COAST",
        "RRSUBDIV": "Brownsville Sub",
        "HIGHWAY": "FM 1762",
        "STREET": "FM 1762",
        "TTSTN": "689740",
        "MILEPOST": "0047.480",
        "TYPEXING": "Public",
        "POSXING": "At Grade",
        "PRVCAT": "14",
        "INIT": "1",
        "LATITUDE": 26.496451,
        "LONGITUD": -97.7810541,
        "LLSOURCE": "1",
        "WHISTBAN": "0",
        "RRCONT": "4025443721",
        "POLCONT": "8008488715",
        "INV_LINK": "https://safetydata.fra.dot.gov/OfficeofSafety/PublicSite/Crossing/Crossing.aspx?phasetype=C&rpttype=I&txtcrossingnum=427696C",
        "ACC_LINK": "https://safetydata.fra.dot.gov/OfficeofSafety/PublicSite/Crossing/Crossing.aspx?phasetype=C&rpttype=A&txtcrossingnum=427696C",
        "TTSTNNAM": "",
        "XPURPOSE": "1",
        "OPERATINGR": "UP",
        "OPERATIN_1": "Primary",
        "DAYTHRU": 3,
        "NGHTTHRU": 2,
        "MAINTRK": 1,
        "SIDINGTRK": 0,
        "YARDTRK": 0,
        "TRANSITTRK": 0,
        "INDUSTRYTR": 0,
        "OTHRTRK": 1,
        "WDCODE": "All other Gates",
        "REVISIONDA": "1975/01/01 00:00:00",
        "LASTUPDATE": "9/1/2025",
        "AADT": "675",
        "AADTYEAR": "2019",
        "STATENAME": "TEXAS",
        "STATEAB": "TX",
        "COUNTYNAME": "WILLACY",
        "CITYNAME": "RAYMONDVILLE",
        "LATDD": 26.496451,
        "LONGDD": -97.7810541,
        "gridlyProductionCertified": true,
        "gridlyClassification": "PUBLIC_ROADWAY",
        "gridlyDisplayName": "FM 1762",
        "gridlyId": "FRA-427696C"
      }
    },
    {
      "type": "Feature",
      "id": 208466,
      "geometry": {
        "type": "Point",
        "coordinates": [
          -97.7672319999296,
          26.5980599000896
        ]
      },
      "properties": {
        "OBJECTID": 208466,
        "CROSSING": "427686W",
        "EFFDATE": 1756252800000,
        "REASON": "14",
        "StateCode": "48",
        "CountyCode": "48489",
        "STCYFIPS": "48489",
        "CITYCD": "484895670",
        "RAILROAD": "UP",
        "RRDIV": "GULF COAST",
        "RRSUBDIV": "Brownsville Sub",
        "HIGHWAY": "NA",
        "STREET": "Private",
        "TTSTN": "689740",
        "MILEPOST": "0054.530",
        "TYPEXING": "Private",
        "POSXING": "At Grade",
        "PRVCAT": "14",
        "INIT": "1",
        "LATITUDE": 26.5980599,
        "LONGITUD": -97.767232,
        "LLSOURCE": "1",
        "WHISTBAN": "0",
        "RRCONT": "4025443721",
        "POLCONT": "8008488715",
        "INV_LINK": "https://safetydata.fra.dot.gov/OfficeofSafety/PublicSite/Crossing/Crossing.aspx?phasetype=C&rpttype=I&txtcrossingnum=427686W",
        "ACC_LINK": "https://safetydata.fra.dot.gov/OfficeofSafety/PublicSite/Crossing/Crossing.aspx?phasetype=C&rpttype=A&txtcrossingnum=427686W",
        "TTSTNNAM": "",
        "XPURPOSE": "1",
        "OPERATINGR": "UP",
        "OPERATIN_1": "Primary",
        "DAYTHRU": 3,
        "NGHTTHRU": 2,
        "MAINTRK": 1,
        "SIDINGTRK": 0,
        "YARDTRK": 0,
        "TRANSITTRK": 0,
        "INDUSTRYTR": 0,
        "OTHRTRK": 0,
        "WDCODE": "",
        "REVISIONDA": "1975/01/01 00:00:00",
        "LASTUPDATE": "8/27/2025",
        "AADT": "1",
        "AADTYEAR": "1990",
        "STATENAME": "TEXAS",
        "STATEAB": "TX",
        "COUNTYNAME": "WILLACY",
        "CITYNAME": "RAYMONDVILLE",
        "LATDD": 26.5980599,
        "LONGDD": -97.767232,
        "gridlyProductionCertified": true,
        "gridlyClassification": "PUBLIC_ROADWAY",
        "gridlyDisplayName": "Private",
        "gridlyId": "FRA-427686W"
      }
    },
    {
      "type": "Feature",
      "id": 208467,
      "geometry": {
        "type": "Point",
        "coordinates": [
          -97.7685089003087,
          26.5865726000406
        ]
      },
      "properties": {
        "OBJECTID": 208467,
        "CROSSING": "427687D",
        "EFFDATE": 1756252800000,
        "REASON": "14",
        "StateCode": "48",
        "CountyCode": "48489",
        "STCYFIPS": "48489",
        "CITYCD": "484895670",
        "RAILROAD": "UP",
        "RRDIV": "GULF COAST",
        "RRSUBDIV": "Brownsville Sub",
        "HIGHWAY": "NA",
        "STREET": "PRIVATE THOMAS RANCH",
        "TTSTN": "689740",
        "MILEPOST": "0053.730",
        "TYPEXING": "Private",
        "POSXING": "At Grade",
        "PRVCAT": "14",
        "INIT": "1",
        "LATITUDE": 26.5865726,
        "LONGITUD": -97.7685089,
        "LLSOURCE": "1",
        "WHISTBAN": "0",
        "RRCONT": "4025443721",
        "POLCONT": "8008488715",
        "INV_LINK": "https://safetydata.fra.dot.gov/OfficeofSafety/PublicSite/Crossing/Crossing.aspx?phasetype=C&rpttype=I&txtcrossingnum=427687D",
        "ACC_LINK": "https://safetydata.fra.dot.gov/OfficeofSafety/PublicSite/Crossing/Crossing.aspx?phasetype=C&rpttype=A&txtcrossingnum=427687D",
        "TTSTNNAM": "",
        "XPURPOSE": "1",
        "OPERATINGR": "UP",
        "OPERATIN_1": "Primary",
        "DAYTHRU": 3,
        "NGHTTHRU": 2,
        "MAINTRK": 1,
        "SIDINGTRK": 0,
        "YARDTRK": 0,
        "TRANSITTRK": 0,
        "INDUSTRYTR": 0,
        "OTHRTRK": 0,
        "WDCODE": "",
        "REVISIONDA": "1975/01/01 00:00:00",
        "LASTUPDATE": "8/27/2025",
        "AADT": "1",
        "AADTYEAR": "1990",
        "STATENAME": "TEXAS",
        "STATEAB": "TX",
        "COUNTYNAME": "WILLACY",
        "CITYNAME": "RAYMONDVILLE",
        "LATDD": 26.5865726,
        "LONGDD": -97.7685089,
        "gridlyProductionCertified": true,
        "gridlyClassification": "PUBLIC_ROADWAY",
        "gridlyDisplayName": "PRIVATE THOMAS RANCH",
        "gridlyId": "FRA-427687D"
      }
    },
    {
      "type": "Feature",
      "id": 208469,
      "geometry": {
        "type": "Point",
        "coordinates": [
          -97.771051700298,
          26.5682897001024
        ]
      },
      "properties": {
        "OBJECTID": 208469,
        "CROSSING": "427688K",
        "EFFDATE": 1756252800000,
        "REASON": "14",
        "StateCode": "48",
        "CountyCode": "48489",
        "STCYFIPS": "48489",
        "CITYCD": "484895670",
        "RAILROAD": "UP",
        "RRDIV": "GULF COAST",
        "RRSUBDIV": "Brownsville Sub",
        "HIGHWAY": "NA",
        "STREET": "PRIVATE YTURRIA RANCH",
        "TTSTN": "689740",
        "MILEPOST": "0052.500",
        "TYPEXING": "Private",
        "POSXING": "At Grade",
        "PRVCAT": "14",
        "INIT": "1",
        "LATITUDE": 26.5682897,
        "LONGITUD": -97.7710517,
        "LLSOURCE": "1",
        "WHISTBAN": "0",
        "RRCONT": "4025443721",
        "POLCONT": "8008488715",
        "INV_LINK": "https://safetydata.fra.dot.gov/OfficeofSafety/PublicSite/Crossing/Crossing.aspx?phasetype=C&rpttype=I&txtcrossingnum=427688K",
        "ACC_LINK": "https://safetydata.fra.dot.gov/OfficeofSafety/PublicSite/Crossing/Crossing.aspx?phasetype=C&rpttype=A&txtcrossingnum=427688K",
        "TTSTNNAM": "",
        "XPURPOSE": "1",
        "OPERATINGR": "UP",
        "OPERATIN_1": "Primary",
        "DAYTHRU": 3,
        "NGHTTHRU": 2,
        "MAINTRK": 1,
        "SIDINGTRK": 0,
        "YARDTRK": 0,
        "TRANSITTRK": 0,
        "INDUSTRYTR": 0,
        "OTHRTRK": 0,
        "WDCODE": "",
        "REVISIONDA": "1975/01/01 00:00:00",
        "LASTUPDATE": "8/27/2025",
        "AADT": "1",
        "AADTYEAR": "1990",
        "STATENAME": "TEXAS",
        "STATEAB": "TX",
        "COUNTYNAME": "WILLACY",
        "CITYNAME": "RAYMONDVILLE",
        "LATDD": 26.5682897,
        "LONGDD": -97.7710517,
        "gridlyProductionCertified": true,
        "gridlyClassification": "PUBLIC_ROADWAY",
        "gridlyDisplayName": "PRIVATE YTURRIA RANCH",
        "gridlyId": "FRA-427688K"
      }
    },
    {
      "type": "Feature",
      "id": 208470,
      "geometry": {
        "type": "Point",
        "coordinates": [
          -97.7722575996337,
          26.5596344002935
        ]
      },
      "properties": {
        "OBJECTID": 208470,
        "CROSSING": "427689S",
        "EFFDATE": 1756252800000,
        "REASON": "14",
        "StateCode": "48",
        "CountyCode": "48489",
        "STCYFIPS": "48489",
        "CITYCD": "484895670",
        "RAILROAD": "UP",
        "RRDIV": "GULF COAST",
        "RRSUBDIV": "Brownsville Sub",
        "HIGHWAY": "NA",
        "STREET": "PRIVATE",
        "TTSTN": "689740",
        "MILEPOST": "0051.920",
        "TYPEXING": "Private",
        "POSXING": "At Grade",
        "PRVCAT": "14",
        "INIT": "1",
        "LATITUDE": 26.5596344,
        "LONGITUD": -97.7722576,
        "LLSOURCE": "1",
        "WHISTBAN": "0",
        "RRCONT": "4025443721",
        "POLCONT": "8008488715",
        "INV_LINK": "https://safetydata.fra.dot.gov/OfficeofSafety/PublicSite/Crossing/Crossing.aspx?phasetype=C&rpttype=I&txtcrossingnum=427689S",
        "ACC_LINK": "https://safetydata.fra.dot.gov/OfficeofSafety/PublicSite/Crossing/Crossing.aspx?phasetype=C&rpttype=A&txtcrossingnum=427689S",
        "TTSTNNAM": "",
        "XPURPOSE": "1",
        "OPERATINGR": "UP",
        "OPERATIN_1": "Primary",
        "DAYTHRU": 3,
        "NGHTTHRU": 2,
        "MAINTRK": 1,
        "SIDINGTRK": 0,
        "YARDTRK": 0,
        "TRANSITTRK": 0,
        "INDUSTRYTR": 0,
        "OTHRTRK": 0,
        "WDCODE": "",
        "REVISIONDA": "1975/01/01 00:00:00",
        "LASTUPDATE": "8/27/2025",
        "AADT": "1",
        "AADTYEAR": "1990",
        "STATENAME": "TEXAS",
        "STATEAB": "TX",
        "COUNTYNAME": "WILLACY",
        "CITYNAME": "RAYMONDVILLE",
        "LATDD": 26.5596344,
        "LONGDD": -97.7722576,
        "gridlyProductionCertified": true,
        "gridlyClassification": "PUBLIC_ROADWAY",
        "gridlyDisplayName": "PRIVATE",
        "gridlyId": "FRA-427689S"
      }
    },
    {
      "type": "Feature",
      "id": 208471,
      "geometry": {
        "type": "Point",
        "coordinates": [
          -97.7747768996952,
          26.5415505997999
        ]
      },
      "properties": {
        "OBJECTID": 208471,
        "CROSSING": "427690L",
        "EFFDATE": 1756252800000,
        "REASON": "14",
        "StateCode": "48",
        "CountyCode": "48489",
        "STCYFIPS": "48489",
        "CITYCD": "484895670",
        "RAILROAD": "UP",
        "RRDIV": "GULF COAST",
        "RRSUBDIV": "Brownsville Sub",
        "HIGHWAY": "NA",
        "STREET": "PRIVATE EL CHAPOTE RANCH",
        "TTSTN": "689740",
        "MILEPOST": "0050.580",
        "TYPEXING": "Private",
        "POSXING": "At Grade",
        "PRVCAT": "14",
        "INIT": "1",
        "LATITUDE": 26.5415506,
        "LONGITUD": -97.7747769,
        "LLSOURCE": "1",
        "WHISTBAN": "0",
        "RRCONT": "4025443721",
        "POLCONT": "8008488715",
        "INV_LINK": "https://safetydata.fra.dot.gov/OfficeofSafety/PublicSite/Crossing/Crossing.aspx?phasetype=C&rpttype=I&txtcrossingnum=427690L",
        "ACC_LINK": "https://safetydata.fra.dot.gov/OfficeofSafety/PublicSite/Crossing/Crossing.aspx?phasetype=C&rpttype=A&txtcrossingnum=427690L",
        "TTSTNNAM": "",
        "XPURPOSE": "1",
        "OPERATINGR": "UP",
        "OPERATIN_1": "Primary",
        "DAYTHRU": 3,
        "NGHTTHRU": 2,
        "MAINTRK": 1,
        "SIDINGTRK": 0,
        "YARDTRK": 0,
        "TRANSITTRK": 0,
        "INDUSTRYTR": 0,
        "OTHRTRK": 0,
        "WDCODE": "",
        "REVISIONDA": "1975/01/01 00:00:00",
        "LASTUPDATE": "8/27/2025",
        "AADT": "1",
        "AADTYEAR": "1990",
        "STATENAME": "TEXAS",
        "STATEAB": "TX",
        "COUNTYNAME": "WILLACY",
        "CITYNAME": "RAYMONDVILLE",
        "LATDD": 26.5415506,
        "LONGDD": -97.7747769,
        "gridlyProductionCertified": true,
        "gridlyClassification": "PUBLIC_ROADWAY",
        "gridlyDisplayName": "PRIVATE EL CHAPOTE RANCH",
        "gridlyId": "FRA-427690L"
      }
    },
    {
      "type": "Feature",
      "id": 208474,
      "geometry": {
        "type": "Point",
        "coordinates": [
          -97.7916257999788,
          26.3608286997411
        ]
      },
      "properties": {
        "OBJECTID": 208474,
        "CROSSING": "432757B",
        "EFFDATE": 1756252800000,
        "REASON": "14",
        "StateCode": "48",
        "CountyCode": "48489",
        "STCYFIPS": "48489",
        "CITYCD": "484896287",
        "RAILROAD": "UP",
        "RRDIV": "GULF COAST",
        "RRSUBDIV": "Brownsville Sub",
        "HIGHWAY": "NA",
        "STREET": "PRIVATE",
        "TTSTN": "689790",
        "MILEPOST": "0038.080",
        "TYPEXING": "Private",
        "POSXING": "At Grade",
        "PRVCAT": "14",
        "INIT": "1",
        "LATITUDE": 26.3608287,
        "LONGITUD": -97.7916258,
        "LLSOURCE": "1",
        "WHISTBAN": "0",
        "RRCONT": "4025443721",
        "POLCONT": "8008488715",
        "INV_LINK": "https://safetydata.fra.dot.gov/OfficeofSafety/PublicSite/Crossing/Crossing.aspx?phasetype=C&rpttype=I&txtcrossingnum=432757B",
        "ACC_LINK": "https://safetydata.fra.dot.gov/OfficeofSafety/PublicSite/Crossing/Crossing.aspx?phasetype=C&rpttype=A&txtcrossingnum=432757B",
        "TTSTNNAM": "",
        "XPURPOSE": "1",
        "OPERATINGR": "UP",
        "OPERATIN_1": "Primary",
        "DAYTHRU": 3,
        "NGHTTHRU": 2,
        "MAINTRK": 1,
        "SIDINGTRK": 0,
        "YARDTRK": 0,
        "TRANSITTRK": 0,
        "INDUSTRYTR": 0,
        "OTHRTRK": 0,
        "WDCODE": "",
        "REVISIONDA": "1975/01/01 00:00:00",
        "LASTUPDATE": "8/27/2025",
        "AADT": "1",
        "AADTYEAR": "1990",
        "STATENAME": "TEXAS",
        "STATEAB": "TX",
        "COUNTYNAME": "WILLACY",
        "CITYNAME": "SEBASTIAN",
        "LATDD": 26.3608287,
        "LONGDD": -97.7916258,
        "gridlyProductionCertified": true,
        "gridlyClassification": "PUBLIC_ROADWAY",
        "gridlyDisplayName": "PRIVATE",
        "gridlyId": "FRA-432757B"
      }
    },
    {
      "type": "Feature",
      "id": 208475,
      "geometry": {
        "type": "Point",
        "coordinates": [
          -97.7903826996106,
          26.4081926003257
        ]
      },
      "properties": {
        "OBJECTID": 208475,
        "CROSSING": "435781M",
        "EFFDATE": 1756252800000,
        "REASON": "14",
        "StateCode": "48",
        "CountyCode": "48489",
        "STCYFIPS": "48489",
        "CITYCD": "484894180",
        "RAILROAD": "UP",
        "RRDIV": "GULF COAST",
        "RRSUBDIV": "Brownsville Sub",
        "HIGHWAY": "ST 0000",
        "STREET": "WEST GLEN LOFTON AVENUE",
        "TTSTN": "689770",
        "MILEPOST": "0041.370",
        "TYPEXING": "Public",
        "POSXING": "At Grade",
        "PRVCAT": "14",
        "INIT": "1",
        "LATITUDE": 26.4081926,
        "LONGITUD": -97.7903827,
        "LLSOURCE": "1",
        "WHISTBAN": "0",
        "RRCONT": "4025443721",
        "POLCONT": "8008488715",
        "INV_LINK": "https://safetydata.fra.dot.gov/OfficeofSafety/PublicSite/Crossing/Crossing.aspx?phasetype=C&rpttype=I&txtcrossingnum=435781M",
        "ACC_LINK": "https://safetydata.fra.dot.gov/OfficeofSafety/PublicSite/Crossing/Crossing.aspx?phasetype=C&rpttype=A&txtcrossingnum=435781M",
        "TTSTNNAM": "",
        "XPURPOSE": "1",
        "OPERATINGR": "UP",
        "OPERATIN_1": "Primary",
        "DAYTHRU": 3,
        "NGHTTHRU": 2,
        "MAINTRK": 1,
        "SIDINGTRK": 0,
        "YARDTRK": 0,
        "TRANSITTRK": 0,
        "INDUSTRYTR": 0,
        "OTHRTRK": 1,
        "WDCODE": "All other Gates",
        "REVISIONDA": "1975/01/01 00:00:00",
        "LASTUPDATE": "8/27/2025",
        "AADT": "3100",
        "AADTYEAR": "2009",
        "STATENAME": "TEXAS",
        "STATEAB": "TX",
        "COUNTYNAME": "WILLACY",
        "CITYNAME": "LYFORD",
        "LATDD": 26.4081926,
        "LONGDD": -97.7903827,
        "gridlyProductionCertified": true,
        "gridlyClassification": "PUBLIC_ROADWAY",
        "gridlyDisplayName": "WEST GLEN LOFTON AVENUE",
        "gridlyId": "FRA-435781M"
      }
    },
    {
      "type": "Feature",
      "id": 208483,
      "geometry": {
        "type": "Point",
        "coordinates": [
          -97.7787296001331,
          26.512684399726
        ]
      },
      "properties": {
        "OBJECTID": 208483,
        "CROSSING": "427693G",
        "EFFDATE": 1756252800000,
        "REASON": "14",
        "StateCode": "48",
        "CountyCode": "48489",
        "STCYFIPS": "48489",
        "CITYCD": "484895670",
        "RAILROAD": "UP",
        "RRDIV": "GULF COAST",
        "RRSUBDIV": "Brownsville Sub",
        "HIGHWAY": "CO 4160",
        "STREET": "REYES ROAD/CR 3500",
        "TTSTN": "689740",
        "MILEPOST": "0048.610",
        "TYPEXING": "Public",
        "POSXING": "At Grade",
        "PRVCAT": "14",
        "INIT": "1",
        "LATITUDE": 26.5126844,
        "LONGITUD": -97.7787296,
        "LLSOURCE": "1",
        "WHISTBAN": "0",
        "RRCONT": "4025443721",
        "POLCONT": "8008488715",
        "INV_LINK": "https://safetydata.fra.dot.gov/OfficeofSafety/PublicSite/Crossing/Crossing.aspx?phasetype=C&rpttype=I&txtcrossingnum=427693G",
        "ACC_LINK": "https://safetydata.fra.dot.gov/OfficeofSafety/PublicSite/Crossing/Crossing.aspx?phasetype=C&rpttype=A&txtcrossingnum=427693G",
        "TTSTNNAM": "",
        "XPURPOSE": "1",
        "OPERATINGR": "UP",
        "OPERATIN_1": "Primary",
        "DAYTHRU": 2,
        "NGHTTHRU": 1,
        "MAINTRK": 1,
        "SIDINGTRK": 0,
        "YARDTRK": 0,
        "TRANSITTRK": 0,
        "INDUSTRYTR": 0,
        "OTHRTRK": 1,
        "WDCODE": "Crossbucks",
        "REVISIONDA": "1975/01/01 00:00:00",
        "LASTUPDATE": "8/27/2025",
        "AADT": "34",
        "AADTYEAR": "2019",
        "STATENAME": "TEXAS",
        "STATEAB": "TX",
        "COUNTYNAME": "WILLACY",
        "CITYNAME": "RAYMONDVILLE",
        "LATDD": 26.5126844,
        "LONGDD": -97.7787296,
        "gridlyProductionCertified": true,
        "gridlyClassification": "PUBLIC_ROADWAY",
        "gridlyDisplayName": "REYES ROAD/CR 3500",
        "gridlyId": "FRA-427693G"
      }
    },
    {
      "type": "Feature",
      "id": 208484,
      "geometry": {
        "type": "Point",
        "coordinates": [
          -97.7799646003924,
          26.5039271998199
        ]
      },
      "properties": {
        "OBJECTID": 208484,
        "CROSSING": "427694N",
        "EFFDATE": 1756252800000,
        "REASON": "14",
        "StateCode": "48",
        "CountyCode": "48489",
        "STCYFIPS": "48489",
        "CITYCD": "484895670",
        "RAILROAD": "UP",
        "RRDIV": "GULF COAST",
        "RRSUBDIV": "Brownsville Sub",
        "HIGHWAY": "CO 3401",
        "STREET": "ROCKCOURT ROAD/CR 3401",
        "TTSTN": "689740",
        "MILEPOST": "0048.000",
        "TYPEXING": "Public",
        "POSXING": "At Grade",
        "PRVCAT": "14",
        "INIT": "1",
        "LATITUDE": 26.5039272,
        "LONGITUD": -97.7799646,
        "LLSOURCE": "1",
        "WHISTBAN": "0",
        "RRCONT": "4025443721",
        "POLCONT": "8008488715",
        "INV_LINK": "https://safetydata.fra.dot.gov/OfficeofSafety/PublicSite/Crossing/Crossing.aspx?phasetype=C&rpttype=I&txtcrossingnum=427694N",
        "ACC_LINK": "https://safetydata.fra.dot.gov/OfficeofSafety/PublicSite/Crossing/Crossing.aspx?phasetype=C&rpttype=A&txtcrossingnum=427694N",
        "TTSTNNAM": "",
        "XPURPOSE": "1",
        "OPERATINGR": "UP",
        "OPERATIN_1": "Primary",
        "DAYTHRU": 2,
        "NGHTTHRU": 1,
        "MAINTRK": 1,
        "SIDINGTRK": 1,
        "YARDTRK": 0,
        "TRANSITTRK": 0,
        "INDUSTRYTR": 0,
        "OTHRTRK": 1,
        "WDCODE": "Crossbucks",
        "REVISIONDA": "1975/01/01 00:00:00",
        "LASTUPDATE": "8/27/2025",
        "AADT": "8",
        "AADTYEAR": "2019",
        "STATENAME": "TEXAS",
        "STATEAB": "TX",
        "COUNTYNAME": "WILLACY",
        "CITYNAME": "RAYMONDVILLE",
        "LATDD": 26.5039272,
        "LONGDD": -97.7799646,
        "gridlyProductionCertified": true,
        "gridlyClassification": "PUBLIC_ROADWAY",
        "gridlyDisplayName": "ROCKCOURT ROAD/CR 3401",
        "gridlyId": "FRA-427694N"
      }
    },
    {
      "type": "Feature",
      "id": 210757,
      "geometry": {
        "type": "Point",
        "coordinates": [
          -97.7888967001794,
          26.437151999627
        ]
      },
      "properties": {
        "OBJECTID": 210757,
        "CROSSING": "435789S",
        "EFFDATE": 1771804800000,
        "REASON": "14",
        "StateCode": "48",
        "CountyCode": "48489",
        "STCYFIPS": "48489",
        "CITYCD": "484894180",
        "RAILROAD": "UP",
        "RRDIV": "GULF COAST",
        "RRSUBDIV": "Brownsville Sub",
        "HIGHWAY": "CR2400",
        "STREET": "LUPINE ROAD",
        "TTSTN": "689770",
        "MILEPOST": "0043.320",
        "TYPEXING": "Public",
        "POSXING": "At Grade",
        "PRVCAT": "14",
        "INIT": "2",
        "LATITUDE": 26.437152,
        "LONGITUD": -97.7888967,
        "LLSOURCE": "1",
        "WHISTBAN": "0",
        "RRCONT": "4025443721",
        "POLCONT": "8008488715",
        "INV_LINK": "https://safetydata.fra.dot.gov/OfficeofSafety/PublicSite/Crossing/Crossing.aspx?phasetype=C&rpttype=I&txtcrossingnum=435789S",
        "ACC_LINK": "https://safetydata.fra.dot.gov/OfficeofSafety/PublicSite/Crossing/Crossing.aspx?phasetype=C&rpttype=A&txtcrossingnum=435789S",
        "TTSTNNAM": "",
        "XPURPOSE": "1",
        "OPERATINGR": "UP",
        "OPERATIN_1": "Primary",
        "DAYTHRU": 2,
        "NGHTTHRU": 1,
        "MAINTRK": 1,
        "SIDINGTRK": 0,
        "YARDTRK": 0,
        "TRANSITTRK": 0,
        "INDUSTRYTR": 0,
        "OTHRTRK": 0,
        "WDCODE": "Crossbucks",
        "REVISIONDA": "1975/01/01 00:00:00",
        "LASTUPDATE": "2/23/2026",
        "AADT": "8",
        "AADTYEAR": "2019",
        "STATENAME": "TEXAS",
        "STATEAB": "TX",
        "COUNTYNAME": "WILLACY",
        "CITYNAME": "LYFORD",
        "LATDD": 26.437152,
        "LONGDD": -97.7888967,
        "gridlyProductionCertified": true,
        "gridlyClassification": "PUBLIC_ROADWAY",
        "gridlyDisplayName": "LUPINE ROAD",
        "gridlyId": "FRA-435789S"
      }
    },
    {
      "type": "Feature",
      "id": 210758,
      "geometry": {
        "type": "Point",
        "coordinates": [
          -97.7896426001059,
          26.4226112002924
        ]
      },
      "properties": {
        "OBJECTID": 210758,
        "CROSSING": "435787D",
        "EFFDATE": 1771804800000,
        "REASON": "14",
        "StateCode": "48",
        "CountyCode": "48489",
        "STCYFIPS": "48489",
        "CITYCD": "484894180",
        "RAILROAD": "UP",
        "RRDIV": "GULF COAST",
        "RRSUBDIV": "Brownsville Sub",
        "HIGHWAY": "FM1921",
        "STREET": "FM1921",
        "TTSTN": "689770",
        "MILEPOST": "0042.300",
        "TYPEXING": "Public",
        "POSXING": "At Grade",
        "PRVCAT": "14",
        "INIT": "2",
        "LATITUDE": 26.4226112,
        "LONGITUD": -97.7896426,
        "LLSOURCE": "1",
        "WHISTBAN": "0",
        "RRCONT": "4025443721",
        "POLCONT": "8008488715",
        "INV_LINK": "https://safetydata.fra.dot.gov/OfficeofSafety/PublicSite/Crossing/Crossing.aspx?phasetype=C&rpttype=I&txtcrossingnum=435787D",
        "ACC_LINK": "https://safetydata.fra.dot.gov/OfficeofSafety/PublicSite/Crossing/Crossing.aspx?phasetype=C&rpttype=A&txtcrossingnum=435787D",
        "TTSTNNAM": "",
        "XPURPOSE": "1",
        "OPERATINGR": "UP",
        "OPERATIN_1": "Primary",
        "DAYTHRU": 3,
        "NGHTTHRU": 2,
        "MAINTRK": 1,
        "SIDINGTRK": 0,
        "YARDTRK": 0,
        "TRANSITTRK": 0,
        "INDUSTRYTR": 0,
        "OTHRTRK": 0,
        "WDCODE": "All other Gates",
        "REVISIONDA": "1975/01/01 00:00:00",
        "LASTUPDATE": "2/23/2026",
        "AADT": "1028",
        "AADTYEAR": "2023",
        "STATENAME": "TEXAS",
        "STATEAB": "TX",
        "COUNTYNAME": "WILLACY",
        "CITYNAME": "LYFORD",
        "LATDD": 26.4226112,
        "LONGDD": -97.7896426,
        "gridlyProductionCertified": true,
        "gridlyClassification": "PUBLIC_ROADWAY",
        "gridlyDisplayName": "FM1921",
        "gridlyId": "FRA-435787D"
      }
    },
    {
      "type": "Feature",
      "id": 214497,
      "geometry": {
        "type": "Point",
        "coordinates": [
          -97.7823836996722,
          26.4869276001336
        ]
      },
      "properties": {
        "OBJECTID": 214497,
        "CROSSING": "427700P",
        "EFFDATE": 1768348800000,
        "REASON": "14",
        "StateCode": "48",
        "CountyCode": "48489",
        "STCYFIPS": "48489",
        "CITYCD": "484895670",
        "RAILROAD": "UP",
        "RRDIV": "GULF COAST",
        "RRSUBDIV": "Brownsville Sub",
        "HIGHWAY": "LS0000",
        "STREET": "WEST SAUZ AVENUE",
        "TTSTN": "689740",
        "MILEPOST": "0046.810",
        "TYPEXING": "Public",
        "POSXING": "At Grade",
        "PRVCAT": "14",
        "INIT": "2",
        "LATITUDE": 26.4869276,
        "LONGITUD": -97.7823837,
        "LLSOURCE": "1",
        "WHISTBAN": "0",
        "RRCONT": "4025443721",
        "POLCONT": "8008488715",
        "INV_LINK": "https://safetydata.fra.dot.gov/OfficeofSafety/PublicSite/Crossing/Crossing.aspx?phasetype=C&rpttype=I&txtcrossingnum=427700P",
        "ACC_LINK": "https://safetydata.fra.dot.gov/OfficeofSafety/PublicSite/Crossing/Crossing.aspx?phasetype=C&rpttype=A&txtcrossingnum=427700P",
        "TTSTNNAM": "",
        "XPURPOSE": "1",
        "OPERATINGR": "UP",
        "OPERATIN_1": "Primary",
        "DAYTHRU": 3,
        "NGHTTHRU": 2,
        "MAINTRK": 1,
        "SIDINGTRK": 0,
        "YARDTRK": 0,
        "TRANSITTRK": 0,
        "INDUSTRYTR": 0,
        "OTHRTRK": 0,
        "WDCODE": "All other Gates",
        "REVISIONDA": "1975/01/01 00:00:00",
        "LASTUPDATE": "1/14/2026",
        "AADT": "1017",
        "AADTYEAR": "2024",
        "STATENAME": "TEXAS",
        "STATEAB": "TX",
        "COUNTYNAME": "WILLACY",
        "CITYNAME": "RAYMONDVILLE",
        "LATDD": 26.4869276,
        "LONGDD": -97.7823837,
        "gridlyProductionCertified": true,
        "gridlyClassification": "PUBLIC_ROADWAY",
        "gridlyDisplayName": "WEST SAUZ AVENUE",
        "gridlyId": "FRA-427700P"
      }
    },
    {
      "type": "Feature",
      "id": 214498,
      "geometry": {
        "type": "Point",
        "coordinates": [
          -97.7820828996976,
          26.4892211998708
        ]
      },
      "properties": {
        "OBJECTID": 214498,
        "CROSSING": "427699X",
        "EFFDATE": 1768348800000,
        "REASON": "14",
        "StateCode": "48",
        "CountyCode": "48489",
        "STCYFIPS": "48489",
        "CITYCD": "484895670",
        "RAILROAD": "UP",
        "RRDIV": "GULF COAST",
        "RRSUBDIV": "Brownsville Sub",
        "HIGHWAY": "LS0000",
        "STREET": "WEST SAN FRANCISCO AVENUE",
        "TTSTN": "689740",
        "MILEPOST": "0046.980",
        "TYPEXING": "Public",
        "POSXING": "At Grade",
        "PRVCAT": "14",
        "INIT": "2",
        "LATITUDE": 26.4892212,
        "LONGITUD": -97.7820829,
        "LLSOURCE": "1",
        "WHISTBAN": "0",
        "RRCONT": "4025443721",
        "POLCONT": "8008488715",
        "INV_LINK": "https://safetydata.fra.dot.gov/OfficeofSafety/PublicSite/Crossing/Crossing.aspx?phasetype=C&rpttype=I&txtcrossingnum=427699X",
        "ACC_LINK": "https://safetydata.fra.dot.gov/OfficeofSafety/PublicSite/Crossing/Crossing.aspx?phasetype=C&rpttype=A&txtcrossingnum=427699X",
        "TTSTNNAM": "",
        "XPURPOSE": "1",
        "OPERATINGR": "UP",
        "OPERATIN_1": "Primary",
        "DAYTHRU": 2,
        "NGHTTHRU": 1,
        "MAINTRK": 1,
        "SIDINGTRK": 0,
        "YARDTRK": 0,
        "TRANSITTRK": 0,
        "INDUSTRYTR": 0,
        "OTHRTRK": 1,
        "WDCODE": "All other Gates",
        "REVISIONDA": "1975/01/01 00:00:00",
        "LASTUPDATE": "1/14/2026",
        "AADT": "1813",
        "AADTYEAR": "2024",
        "STATENAME": "TEXAS",
        "STATEAB": "TX",
        "COUNTYNAME": "WILLACY",
        "CITYNAME": "RAYMONDVILLE",
        "LATDD": 26.4892212,
        "LONGDD": -97.7820829,
        "gridlyProductionCertified": true,
        "gridlyClassification": "PUBLIC_ROADWAY",
        "gridlyDisplayName": "WEST SAN FRANCISCO AVENUE",
        "gridlyId": "FRA-427699X"
      }
    },
    {
      "type": "Feature",
      "id": 214499,
      "geometry": {
        "type": "Point",
        "coordinates": [
          -97.7769021995714,
          26.526289199811
        ]
      },
      "properties": {
        "OBJECTID": 214499,
        "CROSSING": "427691T",
        "EFFDATE": 1768348800000,
        "REASON": "14",
        "StateCode": "48",
        "CountyCode": "48489",
        "STCYFIPS": "48489",
        "CITYCD": "484895670",
        "RAILROAD": "UP",
        "RRDIV": "GULF COAST",
        "RRSUBDIV": "Brownsville Sub",
        "HIGHWAY": "CR3690",
        "STREET": "CONLEY ROAD",
        "TTSTN": "689740",
        "MILEPOST": "0049.560",
        "TYPEXING": "Public",
        "POSXING": "At Grade",
        "PRVCAT": "14",
        "INIT": "2",
        "LATITUDE": 26.5262892,
        "LONGITUD": -97.7769022,
        "LLSOURCE": "1",
        "WHISTBAN": "0",
        "RRCONT": "4025443721",
        "POLCONT": "8008488715",
        "INV_LINK": "https://safetydata.fra.dot.gov/OfficeofSafety/PublicSite/Crossing/Crossing.aspx?phasetype=C&rpttype=I&txtcrossingnum=427691T",
        "ACC_LINK": "https://safetydata.fra.dot.gov/OfficeofSafety/PublicSite/Crossing/Crossing.aspx?phasetype=C&rpttype=A&txtcrossingnum=427691T",
        "TTSTNNAM": "",
        "XPURPOSE": "1",
        "OPERATINGR": "UP",
        "OPERATIN_1": "Primary",
        "DAYTHRU": 3,
        "NGHTTHRU": 2,
        "MAINTRK": 1,
        "SIDINGTRK": 0,
        "YARDTRK": 0,
        "TRANSITTRK": 0,
        "INDUSTRYTR": 0,
        "OTHRTRK": 0,
        "WDCODE": "All other Gates",
        "REVISIONDA": "1975/01/01 00:00:00",
        "LASTUPDATE": "1/14/2026",
        "AADT": "57",
        "AADTYEAR": "2019",
        "STATENAME": "TEXAS",
        "STATEAB": "TX",
        "COUNTYNAME": "WILLACY",
        "CITYNAME": "RAYMONDVILLE",
        "LATDD": 26.5262892,
        "LONGDD": -97.7769022,
        "gridlyProductionCertified": true,
        "gridlyClassification": "PUBLIC_ROADWAY",
        "gridlyDisplayName": "CONLEY ROAD",
        "gridlyId": "FRA-427691T"
      }
    },
    {
      "type": "Feature",
      "id": 214500,
      "geometry": {
        "type": "Point",
        "coordinates": [
          -97.7826602002183,
          26.4849403001691
        ]
      },
      "properties": {
        "OBJECTID": 214500,
        "CROSSING": "427701W",
        "EFFDATE": 1768348800000,
        "REASON": "14",
        "StateCode": "48",
        "CountyCode": "48489",
        "STCYFIPS": "48489",
        "CITYCD": "484895670",
        "RAILROAD": "UP",
        "RRDIV": "GULF COAST",
        "RRSUBDIV": "Brownsville Sub",
        "HIGHWAY": "LS0000",
        "STREET": "WEST DURHAM AVENUE",
        "TTSTN": "689740",
        "MILEPOST": "0046.660",
        "TYPEXING": "Public",
        "POSXING": "At Grade",
        "PRVCAT": "14",
        "INIT": "2",
        "LATITUDE": 26.4849403,
        "LONGITUD": -97.7826602,
        "LLSOURCE": "1",
        "WHISTBAN": "0",
        "RRCONT": "4025443721",
        "POLCONT": "8008488715",
        "INV_LINK": "https://safetydata.fra.dot.gov/OfficeofSafety/PublicSite/Crossing/Crossing.aspx?phasetype=C&rpttype=I&txtcrossingnum=427701W",
        "ACC_LINK": "https://safetydata.fra.dot.gov/OfficeofSafety/PublicSite/Crossing/Crossing.aspx?phasetype=C&rpttype=A&txtcrossingnum=427701W",
        "TTSTNNAM": "",
        "XPURPOSE": "1",
        "OPERATINGR": "UP",
        "OPERATIN_1": "Primary",
        "DAYTHRU": 2,
        "NGHTTHRU": 1,
        "MAINTRK": 1,
        "SIDINGTRK": 0,
        "YARDTRK": 0,
        "TRANSITTRK": 0,
        "INDUSTRYTR": 0,
        "OTHRTRK": 0,
        "WDCODE": "All other Gates",
        "REVISIONDA": "1975/01/01 00:00:00",
        "LASTUPDATE": "1/14/2026",
        "AADT": "716",
        "AADTYEAR": "2024",
        "STATENAME": "TEXAS",
        "STATEAB": "TX",
        "COUNTYNAME": "WILLACY",
        "CITYNAME": "RAYMONDVILLE",
        "LATDD": 26.4849403,
        "LONGDD": -97.7826602,
        "gridlyProductionCertified": true,
        "gridlyClassification": "PUBLIC_ROADWAY",
        "gridlyDisplayName": "WEST DURHAM AVENUE",
        "gridlyId": "FRA-427701W"
      }
    },
    {
      "type": "Feature",
      "id": 214675,
      "geometry": {
        "type": "Point",
        "coordinates": [
          -97.7901751995597,
          26.4122357003091
        ]
      },
      "properties": {
        "OBJECTID": 214675,
        "CROSSING": "435784H",
        "EFFDATE": 1771459200000,
        "REASON": "14",
        "StateCode": "48",
        "CountyCode": "48489",
        "STCYFIPS": "48489",
        "CITYCD": "484894180",
        "RAILROAD": "UP",
        "RRDIV": "GULF COAST",
        "RRSUBDIV": "Brownsville Sub",
        "HIGHWAY": "LS0000",
        "STREET": "WEST BULLDOG AVENUE",
        "TTSTN": "689770",
        "MILEPOST": "0041.620",
        "TYPEXING": "Public",
        "POSXING": "At Grade",
        "PRVCAT": "14",
        "INIT": "2",
        "LATITUDE": 26.4122357,
        "LONGITUD": -97.7901752,
        "LLSOURCE": "1",
        "WHISTBAN": "0",
        "RRCONT": "4025443721",
        "POLCONT": "8008488715",
        "INV_LINK": "https://safetydata.fra.dot.gov/OfficeofSafety/PublicSite/Crossing/Crossing.aspx?phasetype=C&rpttype=I&txtcrossingnum=435784H",
        "ACC_LINK": "https://safetydata.fra.dot.gov/OfficeofSafety/PublicSite/Crossing/Crossing.aspx?phasetype=C&rpttype=A&txtcrossingnum=435784H",
        "TTSTNNAM": "",
        "XPURPOSE": "1",
        "OPERATINGR": "UP",
        "OPERATIN_1": "Primary",
        "DAYTHRU": 2,
        "NGHTTHRU": 1,
        "MAINTRK": 1,
        "SIDINGTRK": 0,
        "YARDTRK": 0,
        "TRANSITTRK": 0,
        "INDUSTRYTR": 0,
        "OTHRTRK": 0,
        "WDCODE": "All other Gates",
        "REVISIONDA": "1975/01/01 00:00:00",
        "LASTUPDATE": "2/19/2026",
        "AADT": "1012",
        "AADTYEAR": "2024",
        "STATENAME": "TEXAS",
        "STATEAB": "TX",
        "COUNTYNAME": "WILLACY",
        "CITYNAME": "LYFORD",
        "LATDD": 26.4122357,
        "LONGDD": -97.7901752,
        "gridlyProductionCertified": true,
        "gridlyClassification": "PUBLIC_ROADWAY",
        "gridlyDisplayName": "WEST BULLDOG AVENUE",
        "gridlyId": "FRA-435784H"
      }
    },
    {
      "type": "Feature",
      "id": 214676,
      "geometry": {
        "type": "Point",
        "coordinates": [
          -97.790331699557,
          26.4091798000943
        ]
      },
      "properties": {
        "OBJECTID": 214676,
        "CROSSING": "435782U",
        "EFFDATE": 1771459200000,
        "REASON": "14",
        "StateCode": "48",
        "CountyCode": "48489",
        "STCYFIPS": "48489",
        "CITYCD": "484894180",
        "RAILROAD": "UP",
        "RRDIV": "GULF COAST",
        "RRSUBDIV": "Brownsville Sub",
        "HIGHWAY": "LS0000",
        "STREET": "WEST BROADWAY AVENUE",
        "TTSTN": "689770",
        "MILEPOST": "0041.430",
        "TYPEXING": "Public",
        "POSXING": "At Grade",
        "PRVCAT": "14",
        "INIT": "2",
        "LATITUDE": 26.4091798,
        "LONGITUD": -97.7903317,
        "LLSOURCE": "1",
        "WHISTBAN": "0",
        "RRCONT": "4025443721",
        "POLCONT": "8008488715",
        "INV_LINK": "https://safetydata.fra.dot.gov/OfficeofSafety/PublicSite/Crossing/Crossing.aspx?phasetype=C&rpttype=I&txtcrossingnum=435782U",
        "ACC_LINK": "https://safetydata.fra.dot.gov/OfficeofSafety/PublicSite/Crossing/Crossing.aspx?phasetype=C&rpttype=A&txtcrossingnum=435782U",
        "TTSTNNAM": "",
        "XPURPOSE": "1",
        "OPERATINGR": "UP",
        "OPERATIN_1": "Primary",
        "DAYTHRU": 2,
        "NGHTTHRU": 1,
        "MAINTRK": 1,
        "SIDINGTRK": 0,
        "YARDTRK": 0,
        "TRANSITTRK": 0,
        "INDUSTRYTR": 0,
        "OTHRTRK": 1,
        "WDCODE": "All other Gates",
        "REVISIONDA": "1975/01/01 00:00:00",
        "LASTUPDATE": "2/19/2026",
        "AADT": "1709",
        "AADTYEAR": "2019",
        "STATENAME": "TEXAS",
        "STATEAB": "TX",
        "COUNTYNAME": "WILLACY",
        "CITYNAME": "LYFORD",
        "LATDD": 26.4091798,
        "LONGDD": -97.7903317,
        "gridlyProductionCertified": true,
        "gridlyClassification": "PUBLIC_ROADWAY",
        "gridlyDisplayName": "WEST BROADWAY AVENUE",
        "gridlyId": "FRA-435782U"
      }
    },
    {
      "type": "Feature",
      "id": 214948,
      "geometry": {
        "type": "Point",
        "coordinates": [
          -97.7914245001001,
          26.340699799718
        ]
      },
      "properties": {
        "OBJECTID": 214948,
        "CROSSING": "432752S",
        "EFFDATE": 1770595200000,
        "REASON": "14",
        "StateCode": "48",
        "CountyCode": "48489",
        "STCYFIPS": "48489",
        "CITYCD": "484896287",
        "RAILROAD": "UP",
        "RRDIV": "GULF COAST",
        "RRSUBDIV": "Brownsville Sub",
        "HIGHWAY": "CR4229",
        "STREET": "WEST SECOND STREET",
        "TTSTN": "689790",
        "MILEPOST": "0036.700",
        "TYPEXING": "Public",
        "POSXING": "At Grade",
        "PRVCAT": "14",
        "INIT": "2",
        "LATITUDE": 26.3406998,
        "LONGITUD": -97.7914245,
        "LLSOURCE": "1",
        "WHISTBAN": "0",
        "RRCONT": "4025443721",
        "POLCONT": "8008488715",
        "INV_LINK": "https://safetydata.fra.dot.gov/OfficeofSafety/PublicSite/Crossing/Crossing.aspx?phasetype=C&rpttype=I&txtcrossingnum=432752S",
        "ACC_LINK": "https://safetydata.fra.dot.gov/OfficeofSafety/PublicSite/Crossing/Crossing.aspx?phasetype=C&rpttype=A&txtcrossingnum=432752S",
        "TTSTNNAM": "",
        "XPURPOSE": "1",
        "OPERATINGR": "UP",
        "OPERATIN_1": "Primary",
        "DAYTHRU": 2,
        "NGHTTHRU": 1,
        "MAINTRK": 1,
        "SIDINGTRK": 0,
        "YARDTRK": 0,
        "TRANSITTRK": 0,
        "INDUSTRYTR": 0,
        "OTHRTRK": 0,
        "WDCODE": "All other Gates",
        "REVISIONDA": "1975/01/01 00:00:00",
        "LASTUPDATE": "2/9/2026",
        "AADT": "30",
        "AADTYEAR": "2019",
        "STATENAME": "TEXAS",
        "STATEAB": "TX",
        "COUNTYNAME": "WILLACY",
        "CITYNAME": "SEBASTIAN",
        "LATDD": 26.3406998,
        "LONGDD": -97.7914245,
        "gridlyProductionCertified": true,
        "gridlyClassification": "PUBLIC_ROADWAY",
        "gridlyDisplayName": "WEST SECOND STREET",
        "gridlyId": "FRA-432752S"
      }
    },
    {
      "type": "Feature",
      "id": 215051,
      "geometry": {
        "type": "Point",
        "coordinates": [
          -97.7898982004486,
          26.417630700374
        ]
      },
      "properties": {
        "OBJECTID": 215051,
        "CROSSING": "435786W",
        "EFFDATE": 1771804800000,
        "REASON": "14",
        "StateCode": "48",
        "CountyCode": "48489",
        "STCYFIPS": "48489",
        "CITYCD": "484894180",
        "RAILROAD": "UP",
        "RRDIV": "GULF COAST",
        "RRSUBDIV": "Brownsville Sub",
        "HIGHWAY": "LS0000",
        "STREET": "WEST HIDALGO AVENUE",
        "TTSTN": "689770",
        "MILEPOST": "0041.950",
        "TYPEXING": "Public",
        "POSXING": "At Grade",
        "PRVCAT": "14",
        "INIT": "2",
        "LATITUDE": 26.4176307,
        "LONGITUD": -97.7898982,
        "LLSOURCE": "1",
        "WHISTBAN": "0",
        "RRCONT": "4025443721",
        "POLCONT": "8008488715",
        "INV_LINK": "https://safetydata.fra.dot.gov/OfficeofSafety/PublicSite/Crossing/Crossing.aspx?phasetype=C&rpttype=I&txtcrossingnum=435786W",
        "ACC_LINK": "https://safetydata.fra.dot.gov/OfficeofSafety/PublicSite/Crossing/Crossing.aspx?phasetype=C&rpttype=A&txtcrossingnum=435786W",
        "TTSTNNAM": "",
        "XPURPOSE": "1",
        "OPERATINGR": "UP",
        "OPERATIN_1": "Primary",
        "DAYTHRU": 2,
        "NGHTTHRU": 1,
        "MAINTRK": 1,
        "SIDINGTRK": 0,
        "YARDTRK": 0,
        "TRANSITTRK": 0,
        "INDUSTRYTR": 0,
        "OTHRTRK": 0,
        "WDCODE": "All other Gates",
        "REVISIONDA": "1975/01/01 00:00:00",
        "LASTUPDATE": "2/23/2026",
        "AADT": "684",
        "AADTYEAR": "2024",
        "STATENAME": "TEXAS",
        "STATEAB": "TX",
        "COUNTYNAME": "WILLACY",
        "CITYNAME": "LYFORD",
        "LATDD": 26.4176307,
        "LONGDD": -97.7898982,
        "gridlyProductionCertified": true,
        "gridlyClassification": "PUBLIC_ROADWAY",
        "gridlyDisplayName": "WEST HIDALGO AVENUE",
        "gridlyId": "FRA-435786W"
      }
    },
    {
      "type": "Feature",
      "id": 215052,
      "geometry": {
        "type": "Point",
        "coordinates": [
          -97.7841307001176,
          26.4744186996135
        ]
      },
      "properties": {
        "OBJECTID": 215052,
        "CROSSING": "435796C",
        "EFFDATE": 1771804800000,
        "REASON": "14",
        "StateCode": "48",
        "CountyCode": "48489",
        "STCYFIPS": "48489",
        "CITYCD": "484895670",
        "RAILROAD": "UP",
        "RRDIV": "GULF COAST",
        "RRSUBDIV": "Brownsville Sub",
        "HIGHWAY": "LS0000",
        "STREET": "WEST WOOD AVENUE",
        "TTSTN": "689740",
        "MILEPOST": "0045.870",
        "TYPEXING": "Public",
        "POSXING": "At Grade",
        "PRVCAT": "14",
        "INIT": "2",
        "LATITUDE": 26.4744187,
        "LONGITUD": -97.7841307,
        "LLSOURCE": "1",
        "WHISTBAN": "0",
        "RRCONT": "4025443721",
        "POLCONT": "8008488715",
        "INV_LINK": "https://safetydata.fra.dot.gov/OfficeofSafety/PublicSite/Crossing/Crossing.aspx?phasetype=C&rpttype=I&txtcrossingnum=435796C",
        "ACC_LINK": "https://safetydata.fra.dot.gov/OfficeofSafety/PublicSite/Crossing/Crossing.aspx?phasetype=C&rpttype=A&txtcrossingnum=435796C",
        "TTSTNNAM": "",
        "XPURPOSE": "1",
        "OPERATINGR": "UP",
        "OPERATIN_1": "Primary",
        "DAYTHRU": 2,
        "NGHTTHRU": 1,
        "MAINTRK": 1,
        "SIDINGTRK": 0,
        "YARDTRK": 0,
        "TRANSITTRK": 0,
        "INDUSTRYTR": 0,
        "OTHRTRK": 1,
        "WDCODE": "All other Gates",
        "REVISIONDA": "1975/01/01 00:00:00",
        "LASTUPDATE": "2/23/2026",
        "AADT": "976",
        "AADTYEAR": "2024",
        "STATENAME": "TEXAS",
        "STATEAB": "TX",
        "COUNTYNAME": "WILLACY",
        "CITYNAME": "RAYMONDVILLE",
        "LATDD": 26.4744187,
        "LONGDD": -97.7841307,
        "gridlyProductionCertified": true,
        "gridlyClassification": "PUBLIC_ROADWAY",
        "gridlyDisplayName": "WEST WOOD AVENUE",
        "gridlyId": "FRA-435796C"
      }
    },
    {
      "type": "Feature",
      "id": 215053,
      "geometry": {
        "type": "Point",
        "coordinates": [
          -97.7851670999356,
          26.4669945997155
        ]
      },
      "properties": {
        "OBJECTID": 215053,
        "CROSSING": "435795V",
        "EFFDATE": 1771804800000,
        "REASON": "14",
        "StateCode": "48",
        "CountyCode": "48489",
        "STCYFIPS": "48489",
        "CITYCD": "484895670",
        "RAILROAD": "UP",
        "RRDIV": "GULF COAST",
        "RRSUBDIV": "Brownsville Sub",
        "HIGHWAY": "CR2900",
        "STREET": "GOYO GARCIA ROAD",
        "TTSTN": "689740",
        "MILEPOST": "0045.370",
        "TYPEXING": "Public",
        "POSXING": "At Grade",
        "PRVCAT": "14",
        "INIT": "1",
        "LATITUDE": 26.4669946,
        "LONGITUD": -97.7851671,
        "LLSOURCE": "1",
        "WHISTBAN": "0",
        "RRCONT": "4025443721",
        "POLCONT": "8008488715",
        "INV_LINK": "https://safetydata.fra.dot.gov/OfficeofSafety/PublicSite/Crossing/Crossing.aspx?phasetype=C&rpttype=I&txtcrossingnum=435795V",
        "ACC_LINK": "https://safetydata.fra.dot.gov/OfficeofSafety/PublicSite/Crossing/Crossing.aspx?phasetype=C&rpttype=A&txtcrossingnum=435795V",
        "TTSTNNAM": "",
        "XPURPOSE": "1",
        "OPERATINGR": "UP",
        "OPERATIN_1": "Primary",
        "DAYTHRU": 2,
        "NGHTTHRU": 1,
        "MAINTRK": 1,
        "SIDINGTRK": 0,
        "YARDTRK": 0,
        "TRANSITTRK": 0,
        "INDUSTRYTR": 0,
        "OTHRTRK": 0,
        "WDCODE": "All other Gates",
        "REVISIONDA": "1975/01/01 00:00:00",
        "LASTUPDATE": "2/23/2026",
        "AADT": "969",
        "AADTYEAR": "2019",
        "STATENAME": "TEXAS",
        "STATEAB": "TX",
        "COUNTYNAME": "WILLACY",
        "CITYNAME": "RAYMONDVILLE",
        "LATDD": 26.4669946,
        "LONGDD": -97.7851671,
        "gridlyProductionCertified": true,
        "gridlyClassification": "PUBLIC_ROADWAY",
        "gridlyDisplayName": "GOYO GARCIA ROAD",
        "gridlyId": "FRA-435795V"
      }
    },
    {
      "type": "Feature",
      "id": 215054,
      "geometry": {
        "type": "Point",
        "coordinates": [
          -97.7862087001008,
          26.4595301003762
        ]
      },
      "properties": {
        "OBJECTID": 215054,
        "CROSSING": "435794N",
        "EFFDATE": 1771804800000,
        "REASON": "14",
        "StateCode": "48",
        "CountyCode": "48489",
        "STCYFIPS": "48489",
        "CITYCD": "484895670",
        "RAILROAD": "UP",
        "RRDIV": "GULF COAST",
        "RRSUBDIV": "Brownsville Sub",
        "HIGHWAY": "CR4110",
        "STREET": "EMMA ROSS ROAD",
        "TTSTN": "689740",
        "MILEPOST": "0044.870",
        "TYPEXING": "Public",
        "POSXING": "At Grade",
        "PRVCAT": "14",
        "INIT": "1",
        "LATITUDE": 26.4595301,
        "LONGITUD": -97.7862087,
        "LLSOURCE": "1",
        "WHISTBAN": "0",
        "RRCONT": "4025443721",
        "POLCONT": "8008488715",
        "INV_LINK": "https://safetydata.fra.dot.gov/OfficeofSafety/PublicSite/Crossing/Crossing.aspx?phasetype=C&rpttype=I&txtcrossingnum=435794N",
        "ACC_LINK": "https://safetydata.fra.dot.gov/OfficeofSafety/PublicSite/Crossing/Crossing.aspx?phasetype=C&rpttype=A&txtcrossingnum=435794N",
        "TTSTNNAM": "",
        "XPURPOSE": "1",
        "OPERATINGR": "UP",
        "OPERATIN_1": "Primary",
        "DAYTHRU": 2,
        "NGHTTHRU": 1,
        "MAINTRK": 1,
        "SIDINGTRK": 0,
        "YARDTRK": 0,
        "TRANSITTRK": 0,
        "INDUSTRYTR": 0,
        "OTHRTRK": 0,
        "WDCODE": "All other Gates",
        "REVISIONDA": "1975/01/01 00:00:00",
        "LASTUPDATE": "2/23/2026",
        "AADT": "980",
        "AADTYEAR": "2024",
        "STATENAME": "TEXAS",
        "STATEAB": "TX",
        "COUNTYNAME": "WILLACY",
        "CITYNAME": "RAYMONDVILLE",
        "LATDD": 26.4595301,
        "LONGDD": -97.7862087,
        "gridlyProductionCertified": true,
        "gridlyClassification": "PUBLIC_ROADWAY",
        "gridlyDisplayName": "EMMA ROSS ROAD",
        "gridlyId": "FRA-435794N"
      }
    },
    {
      "type": "Feature",
      "id": 215055,
      "geometry": {
        "type": "Point",
        "coordinates": [
          -97.7872265003009,
          26.4522439998021
        ]
      },
      "properties": {
        "OBJECTID": 215055,
        "CROSSING": "435792A",
        "EFFDATE": 1771804800000,
        "REASON": "14",
        "StateCode": "48",
        "CountyCode": "48489",
        "STCYFIPS": "48489",
        "CITYCD": "484895670",
        "RAILROAD": "UP",
        "RRDIV": "GULF COAST",
        "RRSUBDIV": "Brownsville Sub",
        "HIGHWAY": "FM0490",
        "STREET": "FM0490",
        "TTSTN": "689740",
        "MILEPOST": "0044.350",
        "TYPEXING": "Public",
        "POSXING": "At Grade",
        "PRVCAT": "14",
        "INIT": "2",
        "LATITUDE": 26.452244,
        "LONGITUD": -97.7872265,
        "LLSOURCE": "1",
        "WHISTBAN": "0",
        "RRCONT": "4025443721",
        "POLCONT": "8008488715",
        "INV_LINK": "https://safetydata.fra.dot.gov/OfficeofSafety/PublicSite/Crossing/Crossing.aspx?phasetype=C&rpttype=I&txtcrossingnum=435792A",
        "ACC_LINK": "https://safetydata.fra.dot.gov/OfficeofSafety/PublicSite/Crossing/Crossing.aspx?phasetype=C&rpttype=A&txtcrossingnum=435792A",
        "TTSTNNAM": "",
        "XPURPOSE": "1",
        "OPERATINGR": "UP",
        "OPERATIN_1": "Primary",
        "DAYTHRU": 3,
        "NGHTTHRU": 2,
        "MAINTRK": 1,
        "SIDINGTRK": 0,
        "YARDTRK": 0,
        "TRANSITTRK": 0,
        "INDUSTRYTR": 0,
        "OTHRTRK": 0,
        "WDCODE": "All other Gates",
        "REVISIONDA": "1975/01/01 00:00:00",
        "LASTUPDATE": "2/23/2026",
        "AADT": "3034",
        "AADTYEAR": "2023",
        "STATENAME": "TEXAS",
        "STATEAB": "TX",
        "COUNTYNAME": "WILLACY",
        "CITYNAME": "RAYMONDVILLE",
        "LATDD": 26.452244,
        "LONGDD": -97.7872265,
        "gridlyProductionCertified": true,
        "gridlyClassification": "PUBLIC_ROADWAY",
        "gridlyDisplayName": "FM0490",
        "gridlyId": "FRA-435792A"
      }
    },
    {
      "type": "Feature",
      "id": 215780,
      "geometry": {
        "type": "Point",
        "coordinates": [
          -97.7915885998446,
          26.3572213997917
        ]
      },
      "properties": {
        "OBJECTID": 215780,
        "CROSSING": "432758H",
        "EFFDATE": 1770681600000,
        "REASON": "14",
        "StateCode": "48",
        "CountyCode": "48489",
        "STCYFIPS": "48489",
        "CITYCD": "484896287",
        "RAILROAD": "UP",
        "RRDIV": "GULF COAST",
        "RRSUBDIV": "Brownsville Sub",
        "HIGHWAY": "CO1200",
        "STREET": "SANDIA ROAD",
        "TTSTN": "689790",
        "MILEPOST": "0037.830",
        "TYPEXING": "Public",
        "POSXING": "At Grade",
        "PRVCAT": "14",
        "INIT": "2",
        "LATITUDE": 26.3572214,
        "LONGITUD": -97.7915886,
        "LLSOURCE": "1",
        "WHISTBAN": "0",
        "RRCONT": "4025443721",
        "POLCONT": "8008488715",
        "INV_LINK": "https://safetydata.fra.dot.gov/OfficeofSafety/PublicSite/Crossing/Crossing.aspx?phasetype=C&rpttype=I&txtcrossingnum=432758H",
        "ACC_LINK": "https://safetydata.fra.dot.gov/OfficeofSafety/PublicSite/Crossing/Crossing.aspx?phasetype=C&rpttype=A&txtcrossingnum=432758H",
        "TTSTNNAM": "",
        "XPURPOSE": "1",
        "OPERATINGR": "UP",
        "OPERATIN_1": "Primary",
        "DAYTHRU": 2,
        "NGHTTHRU": 1,
        "MAINTRK": 1,
        "SIDINGTRK": 0,
        "YARDTRK": 0,
        "TRANSITTRK": 0,
        "INDUSTRYTR": 0,
        "OTHRTRK": 0,
        "WDCODE": "Stop signs",
        "REVISIONDA": "1975/01/01 00:00:00",
        "LASTUPDATE": "2/10/2026",
        "AADT": "47",
        "AADTYEAR": "2019",
        "STATENAME": "TEXAS",
        "STATEAB": "TX",
        "COUNTYNAME": "WILLACY",
        "CITYNAME": "SEBASTIAN",
        "LATDD": 26.3572214,
        "LONGDD": -97.7915886,
        "gridlyProductionCertified": true,
        "gridlyClassification": "PUBLIC_ROADWAY",
        "gridlyDisplayName": "SANDIA ROAD",
        "gridlyId": "FRA-432758H"
      }
    },
    {
      "type": "Feature",
      "id": 215782,
      "geometry": {
        "type": "Point",
        "coordinates": [
          -97.7915150996881,
          26.3499574003898
        ]
      },
      "properties": {
        "OBJECTID": 215782,
        "CROSSING": "432756U",
        "EFFDATE": 1770681600000,
        "REASON": "14",
        "StateCode": "48",
        "CountyCode": "48489",
        "STCYFIPS": "48489",
        "CITYCD": "484896287",
        "RAILROAD": "UP",
        "RRDIV": "GULF COAST",
        "RRSUBDIV": "Brownsville Sub",
        "HIGHWAY": "CR1100",
        "STREET": "PAULINE STREET ",
        "TTSTN": "689790",
        "MILEPOST": "0037.320",
        "TYPEXING": "Public",
        "POSXING": "At Grade",
        "PRVCAT": "14",
        "INIT": "2",
        "LATITUDE": 26.3499574,
        "LONGITUD": -97.7915151,
        "LLSOURCE": "1",
        "WHISTBAN": "0",
        "RRCONT": "4025443721",
        "POLCONT": "8008488715",
        "INV_LINK": "https://safetydata.fra.dot.gov/OfficeofSafety/PublicSite/Crossing/Crossing.aspx?phasetype=C&rpttype=I&txtcrossingnum=432756U",
        "ACC_LINK": "https://safetydata.fra.dot.gov/OfficeofSafety/PublicSite/Crossing/Crossing.aspx?phasetype=C&rpttype=A&txtcrossingnum=432756U",
        "TTSTNNAM": "",
        "XPURPOSE": "1",
        "OPERATINGR": "UP",
        "OPERATIN_1": "Primary",
        "DAYTHRU": 2,
        "NGHTTHRU": 1,
        "MAINTRK": 1,
        "SIDINGTRK": 0,
        "YARDTRK": 0,
        "TRANSITTRK": 0,
        "INDUSTRYTR": 0,
        "OTHRTRK": 0,
        "WDCODE": "All other Gates",
        "REVISIONDA": "1975/01/01 00:00:00",
        "LASTUPDATE": "2/10/2026",
        "AADT": "204",
        "AADTYEAR": "2024",
        "STATENAME": "TEXAS",
        "STATEAB": "TX",
        "COUNTYNAME": "WILLACY",
        "CITYNAME": "SEBASTIAN",
        "LATDD": 26.3499574,
        "LONGDD": -97.7915151,
        "gridlyProductionCertified": true,
        "gridlyClassification": "PUBLIC_ROADWAY",
        "gridlyDisplayName": "PAULINE STREET",
        "gridlyId": "FRA-432756U"
      }
    },
    {
      "type": "Feature",
      "id": 215792,
      "geometry": {
        "type": "Point",
        "coordinates": [
          -97.7914580000737,
          26.3427179997718
        ]
      },
      "properties": {
        "OBJECTID": 215792,
        "CROSSING": "432753Y",
        "EFFDATE": 1770681600000,
        "REASON": "14",
        "StateCode": "48",
        "CountyCode": "48489",
        "STCYFIPS": "48489",
        "CITYCD": "484896287",
        "RAILROAD": "UP",
        "RRDIV": "GULF COAST",
        "RRSUBDIV": "Brownsville Sub",
        "HIGHWAY": "FM0506",
        "STREET": "FM0506 / WEST MAIN STREET",
        "TTSTN": "689790",
        "MILEPOST": "0036.830",
        "TYPEXING": "Public",
        "POSXING": "At Grade",
        "PRVCAT": "14",
        "INIT": "2",
        "LATITUDE": 26.342718,
        "LONGITUD": -97.791458,
        "LLSOURCE": "1",
        "WHISTBAN": "0",
        "RRCONT": "4025443721",
        "POLCONT": "8008488715",
        "INV_LINK": "https://safetydata.fra.dot.gov/OfficeofSafety/PublicSite/Crossing/Crossing.aspx?phasetype=C&rpttype=I&txtcrossingnum=432753Y",
        "ACC_LINK": "https://safetydata.fra.dot.gov/OfficeofSafety/PublicSite/Crossing/Crossing.aspx?phasetype=C&rpttype=A&txtcrossingnum=432753Y",
        "TTSTNNAM": "",
        "XPURPOSE": "1",
        "OPERATINGR": "UP",
        "OPERATIN_1": "Primary",
        "DAYTHRU": 3,
        "NGHTTHRU": 2,
        "MAINTRK": 1,
        "SIDINGTRK": 0,
        "YARDTRK": 0,
        "TRANSITTRK": 0,
        "INDUSTRYTR": 0,
        "OTHRTRK": 1,
        "WDCODE": "All other Gates",
        "REVISIONDA": "1975/01/01 00:00:00",
        "LASTUPDATE": "2/10/2026",
        "AADT": "3486",
        "AADTYEAR": "2024",
        "STATENAME": "TEXAS",
        "STATEAB": "TX",
        "COUNTYNAME": "WILLACY",
        "CITYNAME": "SEBASTIAN",
        "LATDD": 26.342718,
        "LONGDD": -97.791458,
        "gridlyProductionCertified": true,
        "gridlyClassification": "PUBLIC_ROADWAY",
        "gridlyDisplayName": "FM0506 / WEST MAIN STREET",
        "gridlyId": "FRA-432753Y"
      }
    },
    {
      "type": "Feature",
      "id": 215793,
      "geometry": {
        "type": "Point",
        "coordinates": [
          -97.7916630998261,
          26.3644990999387
        ]
      },
      "properties": {
        "OBJECTID": 215793,
        "CROSSING": "432759P",
        "EFFDATE": 1770681600000,
        "REASON": "14",
        "StateCode": "48",
        "CountyCode": "48489",
        "STCYFIPS": "48489",
        "CITYCD": "484896287",
        "RAILROAD": "UP",
        "RRDIV": "GULF COAST",
        "RRSUBDIV": "Brownsville Sub",
        "HIGHWAY": "CR1300",
        "STREET": "MULBERRY STREET ",
        "TTSTN": "689790",
        "MILEPOST": "0038.350",
        "TYPEXING": "Public",
        "POSXING": "At Grade",
        "PRVCAT": "14",
        "INIT": "2",
        "LATITUDE": 26.3644991,
        "LONGITUD": -97.7916631,
        "LLSOURCE": "1",
        "WHISTBAN": "0",
        "RRCONT": "4025443721",
        "POLCONT": "8008488715",
        "INV_LINK": "https://safetydata.fra.dot.gov/OfficeofSafety/PublicSite/Crossing/Crossing.aspx?phasetype=C&rpttype=I&txtcrossingnum=432759P",
        "ACC_LINK": "https://safetydata.fra.dot.gov/OfficeofSafety/PublicSite/Crossing/Crossing.aspx?phasetype=C&rpttype=A&txtcrossingnum=432759P",
        "TTSTNNAM": "",
        "XPURPOSE": "1",
        "OPERATINGR": "UP",
        "OPERATIN_1": "Primary",
        "DAYTHRU": 2,
        "NGHTTHRU": 1,
        "MAINTRK": 1,
        "SIDINGTRK": 0,
        "YARDTRK": 0,
        "TRANSITTRK": 0,
        "INDUSTRYTR": 0,
        "OTHRTRK": 0,
        "WDCODE": "All other Gates",
        "REVISIONDA": "1975/01/01 00:00:00",
        "LASTUPDATE": "2/10/2026",
        "AADT": "90",
        "AADTYEAR": "2019",
        "STATENAME": "TEXAS",
        "STATEAB": "TX",
        "COUNTYNAME": "WILLACY",
        "CITYNAME": "SEBASTIAN",
        "LATDD": 26.3644991,
        "LONGDD": -97.7916631,
        "gridlyProductionCertified": true,
        "gridlyClassification": "PUBLIC_ROADWAY",
        "gridlyDisplayName": "MULBERRY STREET",
        "gridlyId": "FRA-432759P"
      }
    },
    {
      "type": "Feature",
      "id": 215798,
      "geometry": {
        "type": "Point",
        "coordinates": [
          -97.7914859996628,
          26.3457619997821
        ]
      },
      "properties": {
        "OBJECTID": 215798,
        "CROSSING": "432754F",
        "EFFDATE": 1770681600000,
        "REASON": "14",
        "StateCode": "48",
        "CountyCode": "48489",
        "STCYFIPS": "48489",
        "CITYCD": "484896287",
        "RAILROAD": "UP",
        "RRDIV": "GULF COAST",
        "RRSUBDIV": "Brownsville Sub",
        "HIGHWAY": "CR4225",
        "STREET": "WEST SEVENTH STREET",
        "TTSTN": "689790",
        "MILEPOST": "0037.030",
        "TYPEXING": "Public",
        "POSXING": "At Grade",
        "PRVCAT": "14",
        "INIT": "2",
        "LATITUDE": 26.345762,
        "LONGITUD": -97.791486,
        "LLSOURCE": "1",
        "WHISTBAN": "0",
        "RRCONT": "4025443721",
        "POLCONT": "8008488715",
        "INV_LINK": "https://safetydata.fra.dot.gov/OfficeofSafety/PublicSite/Crossing/Crossing.aspx?phasetype=C&rpttype=I&txtcrossingnum=432754F",
        "ACC_LINK": "https://safetydata.fra.dot.gov/OfficeofSafety/PublicSite/Crossing/Crossing.aspx?phasetype=C&rpttype=A&txtcrossingnum=432754F",
        "TTSTNNAM": "",
        "XPURPOSE": "1",
        "OPERATINGR": "UP",
        "OPERATIN_1": "Primary",
        "DAYTHRU": 2,
        "NGHTTHRU": 1,
        "MAINTRK": 1,
        "SIDINGTRK": 0,
        "YARDTRK": 0,
        "TRANSITTRK": 0,
        "INDUSTRYTR": 1,
        "OTHRTRK": 1,
        "WDCODE": "All other Gates",
        "REVISIONDA": "1975/01/01 00:00:00",
        "LASTUPDATE": "2/10/2026",
        "AADT": "101",
        "AADTYEAR": "2019",
        "STATENAME": "TEXAS",
        "STATEAB": "TX",
        "COUNTYNAME": "WILLACY",
        "CITYNAME": "SEBASTIAN",
        "LATDD": 26.345762,
        "LONGDD": -97.791486,
        "gridlyProductionCertified": true,
        "gridlyClassification": "PUBLIC_ROADWAY",
        "gridlyDisplayName": "WEST SEVENTH STREET",
        "gridlyId": "FRA-432754F"
      }
    },
    {
      "type": "Feature",
      "id": 215799,
      "geometry": {
        "type": "Point",
        "coordinates": [
          -97.7914834996513,
          26.3467358001508
        ]
      },
      "properties": {
        "OBJECTID": 215799,
        "CROSSING": "432755M",
        "EFFDATE": 1770681600000,
        "REASON": "14",
        "StateCode": "48",
        "CountyCode": "48489",
        "STCYFIPS": "48489",
        "CITYCD": "484896287",
        "RAILROAD": "UP",
        "RRDIV": "GULF COAST",
        "RRSUBDIV": "Brownsville Sub",
        "HIGHWAY": "CR4226",
        "STREET": "WEST EIGHTH STREET",
        "TTSTN": "689790",
        "MILEPOST": "0037.100",
        "TYPEXING": "Public",
        "POSXING": "At Grade",
        "PRVCAT": "14",
        "INIT": "2",
        "LATITUDE": 26.3467358,
        "LONGITUD": -97.7914835,
        "LLSOURCE": "1",
        "WHISTBAN": "0",
        "RRCONT": "4025443721",
        "POLCONT": "8008488715",
        "INV_LINK": "https://safetydata.fra.dot.gov/OfficeofSafety/PublicSite/Crossing/Crossing.aspx?phasetype=C&rpttype=I&txtcrossingnum=432755M",
        "ACC_LINK": "https://safetydata.fra.dot.gov/OfficeofSafety/PublicSite/Crossing/Crossing.aspx?phasetype=C&rpttype=A&txtcrossingnum=432755M",
        "TTSTNNAM": "",
        "XPURPOSE": "1",
        "OPERATINGR": "UP",
        "OPERATIN_1": "Primary",
        "DAYTHRU": 2,
        "NGHTTHRU": 1,
        "MAINTRK": 1,
        "SIDINGTRK": 0,
        "YARDTRK": 0,
        "TRANSITTRK": 0,
        "INDUSTRYTR": 0,
        "OTHRTRK": 0,
        "WDCODE": "All other Gates",
        "REVISIONDA": "1975/01/01 00:00:00",
        "LASTUPDATE": "2/10/2026",
        "AADT": "676",
        "AADTYEAR": "2024",
        "STATENAME": "TEXAS",
        "STATEAB": "TX",
        "COUNTYNAME": "WILLACY",
        "CITYNAME": "SEBASTIAN",
        "LATDD": 26.3467358,
        "LONGDD": -97.7914835,
        "gridlyProductionCertified": true,
        "gridlyClassification": "PUBLIC_ROADWAY",
        "gridlyDisplayName": "WEST EIGHTH STREET",
        "gridlyId": "FRA-432755M"
      }
    }
  ]
}
