{
  "type": "FeatureCollection",
  "features": [
    {
      "type": "Feature",
      "id": 202701,
      "geometry": {
        "type": "Point",
        "coordinates": [
          -105.003723700165,
          31.0777765000876
        ]
      },
      "properties": {
        "OBJECTID": 202701,
        "CROSSING": "796204K",
        "EFFDATE": 1768521600000,
        "REASON": "14",
        "StateCode": "48",
        "CountyCode": "48229",
        "STCYFIPS": "48229",
        "CITYCD": "481097140",
        "RAILROAD": "UP",
        "RRDIV": "TEXOMA",
        "RRSUBDIV": "TOYAH SUB",
        "HIGHWAY": "CR1006",
        "STREET": "gARREN ROAD",
        "TTSTN": "696452",
        "MILEPOST": "0746.430",
        "TYPEXING": "Public",
        "POSXING": "At Grade",
        "PRVCAT": "14",
        "INIT": "2",
        "LATITUDE": 31.0777765,
        "LONGITUD": -105.0037237,
        "LLSOURCE": "1",
        "WHISTBAN": "0",
        "RRCONT": "4025443721",
        "POLCONT": "8008488715",
        "INV_LINK": "https://safetydata.fra.dot.gov/OfficeofSafety/PublicSite/Crossing/Crossing.aspx?phasetype=C&rpttype=I&txtcrossingnum=796204K",
        "ACC_LINK": "https://safetydata.fra.dot.gov/OfficeofSafety/PublicSite/Crossing/Crossing.aspx?phasetype=C&rpttype=A&txtcrossingnum=796204K",
        "TTSTNNAM": "",
        "XPURPOSE": "1",
        "OPERATINGR": "UP",
        "OPERATIN_1": "Primary",
        "DAYTHRU": 8,
        "NGHTTHRU": 8,
        "MAINTRK": 1,
        "SIDINGTRK": 0,
        "YARDTRK": 1,
        "TRANSITTRK": 0,
        "INDUSTRYTR": 0,
        "OTHRTRK": 2,
        "WDCODE": "All other Gates",
        "REVISIONDA": "1975/01/01 00:00:00",
        "LASTUPDATE": "1/16/2026",
        "AADT": "20",
        "AADTYEAR": "2019",
        "STATENAME": "TEXAS",
        "STATEAB": "TX",
        "COUNTYNAME": "HUDSPETH",
        "CITYNAME": "VAN HORN",
        "LATDD": 31.0777765,
        "LONGDD": -105.0037237,
        "gridlyProductionCertified": true,
        "gridlyClassification": "PUBLIC_ROADWAY",
        "gridlyDisplayName": "gARREN ROAD",
        "gridlyId": "FRA-796204K"
      }
    },
    {
      "type": "Feature",
      "id": 202703,
      "geometry": {
        "type": "Point",
        "coordinates": [
          -105.003439100409,
          31.0771938000772
        ]
      },
      "properties": {
        "OBJECTID": 202703,
        "CROSSING": "796205S",
        "EFFDATE": 1768521600000,
        "REASON": "14",
        "StateCode": "48",
        "CountyCode": "48229",
        "STCYFIPS": "48229",
        "CITYCD": "481097140",
        "RAILROAD": "UP",
        "RRDIV": "TEXOMA",
        "RRSUBDIV": "TOYAH SUB",
        "HIGHWAY": "CR1006",
        "STREET": "SOUTH GARREN ROAD",
        "TTSTN": "696452",
        "MILEPOST": "0746.010",
        "TYPEXING": "Public",
        "POSXING": "At Grade",
        "PRVCAT": "14",
        "INIT": "2",
        "LATITUDE": 31.0771938,
        "LONGITUD": -105.0034391,
        "LLSOURCE": "1",
        "WHISTBAN": "0",
        "RRCONT": "4025443721",
        "POLCONT": "8008488715",
        "INV_LINK": "https://safetydata.fra.dot.gov/OfficeofSafety/PublicSite/Crossing/Crossing.aspx?phasetype=C&rpttype=I&txtcrossingnum=796205S",
        "ACC_LINK": "https://safetydata.fra.dot.gov/OfficeofSafety/PublicSite/Crossing/Crossing.aspx?phasetype=C&rpttype=A&txtcrossingnum=796205S",
        "TTSTNNAM": "",
        "XPURPOSE": "1",
        "OPERATINGR": "UP",
        "OPERATIN_1": "Primary",
        "DAYTHRU": 8,
        "NGHTTHRU": 8,
        "MAINTRK": 1,
        "SIDINGTRK": 0,
        "YARDTRK": 0,
        "TRANSITTRK": 0,
        "INDUSTRYTR": 0,
        "OTHRTRK": 0,
        "WDCODE": "Crossbucks",
        "REVISIONDA": "1975/01/01 00:00:00",
        "LASTUPDATE": "1/16/2026",
        "AADT": "82",
        "AADTYEAR": "2022",
        "STATENAME": "TEXAS",
        "STATEAB": "TX",
        "COUNTYNAME": "HUDSPETH",
        "CITYNAME": "VAN HORN",
        "LATDD": 31.0771938,
        "LONGDD": -105.0034391,
        "gridlyProductionCertified": true,
        "gridlyClassification": "PUBLIC_ROADWAY",
        "gridlyDisplayName": "SOUTH GARREN ROAD",
        "gridlyId": "FRA-796205S"
      }
    },
    {
      "type": "Feature",
      "id": 206363,
      "geometry": {
        "type": "Point",
        "coordinates": [
          -105.127199399722,
          31.1086049998439
        ]
      },
      "properties": {
        "OBJECTID": 206363,
        "CROSSING": "796202W",
        "EFFDATE": 1768521600000,
        "REASON": "14",
        "StateCode": "48",
        "CountyCode": "48229",
        "STCYFIPS": "48229",
        "CITYCD": "482296375",
        "RAILROAD": "UP",
        "RRDIV": "TEXOMA",
        "RRSUBDIV": "TOYAH SUB",
        "HIGHWAY": "CR0000",
        "STREET": "EAGLE FLAT ROAD",
        "TTSTN": "696454",
        "MILEPOST": "0754.030",
        "TYPEXING": "Public",
        "POSXING": "At Grade",
        "PRVCAT": "14",
        "INIT": "2",
        "LATITUDE": 31.108605,
        "LONGITUD": -105.1271994,
        "LLSOURCE": "1",
        "WHISTBAN": "0",
        "RRCONT": "4025443721",
        "POLCONT": "8008488715",
        "INV_LINK": "https://safetydata.fra.dot.gov/OfficeofSafety/PublicSite/Crossing/Crossing.aspx?phasetype=C&rpttype=I&txtcrossingnum=796202W",
        "ACC_LINK": "https://safetydata.fra.dot.gov/OfficeofSafety/PublicSite/Crossing/Crossing.aspx?phasetype=C&rpttype=A&txtcrossingnum=796202W",
        "TTSTNNAM": "",
        "XPURPOSE": "1",
        "OPERATINGR": "UP",
        "OPERATIN_1": "Primary",
        "DAYTHRU": 8,
        "NGHTTHRU": 8,
        "MAINTRK": 1,
        "SIDINGTRK": 1,
        "YARDTRK": 1,
        "TRANSITTRK": 0,
        "INDUSTRYTR": 0,
        "OTHRTRK": 0,
        "WDCODE": "Stop signs",
        "REVISIONDA": "1975/01/01 00:00:00",
        "LASTUPDATE": "1/16/2026",
        "AADT": "5",
        "AADTYEAR": "2022",
        "STATENAME": "TEXAS",
        "STATEAB": "TX",
        "COUNTYNAME": "HUDSPETH",
        "CITYNAME": "SIERRA BLANCA",
        "LATDD": 31.108605,
        "LONGDD": -105.1271994,
        "gridlyProductionCertified": true,
        "gridlyClassification": "PUBLIC_ROADWAY",
        "gridlyDisplayName": "EAGLE FLAT ROAD",
        "gridlyId": "FRA-796202W"
      }
    },
    {
      "type": "Feature",
      "id": 207033,
      "geometry": {
        "type": "Point",
        "coordinates": [
          -105.419389399588,
          31.1907160998924
        ]
      },
      "properties": {
        "OBJECTID": 207033,
        "CROSSING": "742891T",
        "EFFDATE": 1756425600000,
        "REASON": "14",
        "StateCode": "48",
        "CountyCode": "48229",
        "STCYFIPS": "48229",
        "CITYCD": "482296375",
        "RAILROAD": "UP",
        "RRDIV": "TEXOMA",
        "RRSUBDIV": "VALENTINE SUB",
        "HIGHWAY": "PRIVATE",
        "STREET": "MERRIDIAN ROAD",
        "TTSTN": "696460",
        "MILEPOST": "0740.750",
        "TYPEXING": "Public",
        "POSXING": "At Grade",
        "PRVCAT": "14",
        "INIT": "1",
        "LATITUDE": 31.1907161,
        "LONGITUD": -105.4193894,
        "LLSOURCE": "1",
        "WHISTBAN": "0",
        "RRCONT": "4025443721",
        "POLCONT": "8008488715",
        "INV_LINK": "https://safetydata.fra.dot.gov/OfficeofSafety/PublicSite/Crossing/Crossing.aspx?phasetype=C&rpttype=I&txtcrossingnum=742891T",
        "ACC_LINK": "https://safetydata.fra.dot.gov/OfficeofSafety/PublicSite/Crossing/Crossing.aspx?phasetype=C&rpttype=A&txtcrossingnum=742891T",
        "TTSTNNAM": "",
        "XPURPOSE": "1",
        "OPERATINGR": "UP",
        "OPERATIN_1": "Primary",
        "DAYTHRU": 15,
        "NGHTTHRU": 15,
        "MAINTRK": 1,
        "SIDINGTRK": 0,
        "YARDTRK": 0,
        "TRANSITTRK": 0,
        "INDUSTRYTR": 0,
        "OTHRTRK": 0,
        "WDCODE": "All other Gates",
        "REVISIONDA": "1975/01/01 00:00:00",
        "LASTUPDATE": "8/29/2025",
        "AADT": "1",
        "AADTYEAR": "1970",
        "STATENAME": "TEXAS",
        "STATEAB": "TX",
        "COUNTYNAME": "HUDSPETH",
        "CITYNAME": "SIERRA BLANCA",
        "LATDD": 31.1907161,
        "LONGDD": -105.4193894,
        "gridlyProductionCertified": true,
        "gridlyClassification": "PUBLIC_ROADWAY",
        "gridlyDisplayName": "MERRIDIAN ROAD",
        "gridlyId": "FRA-742891T"
      }
    },
    {
      "type": "Feature",
      "id": 207034,
      "geometry": {
        "type": "Point",
        "coordinates": [
          -105.796210700163,
          31.2473445996749
        ]
      },
      "properties": {
        "OBJECTID": 207034,
        "CROSSING": "742898R",
        "EFFDATE": 1756425600000,
        "REASON": "14",
        "StateCode": "48",
        "CountyCode": "48229",
        "STCYFIPS": "48229",
        "CITYCD": "482296375",
        "RAILROAD": "UP",
        "RRDIV": "TEXOMA",
        "RRSUBDIV": "VALENTINE SUB",
        "HIGHWAY": "PRIVATE",
        "STREET": "WILKEY ROAD",
        "TTSTN": "696484",
        "MILEPOST": "0771.260",
        "TYPEXING": "Private",
        "POSXING": "At Grade",
        "PRVCAT": "14",
        "INIT": "1",
        "LATITUDE": 31.2473446,
        "LONGITUD": -105.7962107,
        "LLSOURCE": "1",
        "WHISTBAN": "0",
        "RRCONT": "4025443721",
        "POLCONT": "8008488715",
        "INV_LINK": "https://safetydata.fra.dot.gov/OfficeofSafety/PublicSite/Crossing/Crossing.aspx?phasetype=C&rpttype=I&txtcrossingnum=742898R",
        "ACC_LINK": "https://safetydata.fra.dot.gov/OfficeofSafety/PublicSite/Crossing/Crossing.aspx?phasetype=C&rpttype=A&txtcrossingnum=742898R",
        "TTSTNNAM": "",
        "XPURPOSE": "1",
        "OPERATINGR": "UP",
        "OPERATIN_1": "Primary",
        "DAYTHRU": 10,
        "NGHTTHRU": 10,
        "MAINTRK": 1,
        "SIDINGTRK": 0,
        "YARDTRK": 0,
        "TRANSITTRK": 0,
        "INDUSTRYTR": 0,
        "OTHRTRK": 0,
        "WDCODE": "",
        "REVISIONDA": "1975/01/01 00:00:00",
        "LASTUPDATE": "8/29/2025",
        "AADT": "1",
        "AADTYEAR": "1970",
        "STATENAME": "TEXAS",
        "STATEAB": "TX",
        "COUNTYNAME": "HUDSPETH",
        "CITYNAME": "SIERRA BLANCA",
        "LATDD": 31.2473446,
        "LONGDD": -105.7962107,
        "gridlyProductionCertified": true,
        "gridlyClassification": "PUBLIC_ROADWAY",
        "gridlyDisplayName": "WILKEY ROAD",
        "gridlyId": "FRA-742898R"
      }
    },
    {
      "type": "Feature",
      "id": 207599,
      "geometry": {
        "type": "Point",
        "coordinates": [
          -105.472213600077,
          31.2304247997703
        ]
      },
      "properties": {
        "OBJECTID": 207599,
        "CROSSING": "920228P",
        "EFFDATE": 1756425600000,
        "REASON": "14",
        "StateCode": "48",
        "CountyCode": "48229",
        "STCYFIPS": "48229",
        "CITYCD": "482296375",
        "RAILROAD": "UP",
        "RRDIV": "TEXOMA",
        "RRSUBDIV": "VALENTINE SUB",
        "HIGHWAY": "NA",
        "STREET": "PRIVATE",
        "TTSTN": "",
        "MILEPOST": "0745.090",
        "TYPEXING": "Private",
        "POSXING": "At Grade",
        "PRVCAT": "14",
        "INIT": "1",
        "LATITUDE": 31.2304248,
        "LONGITUD": -105.4722136,
        "LLSOURCE": "1",
        "WHISTBAN": "",
        "RRCONT": "4025443721",
        "POLCONT": "8008488715",
        "INV_LINK": "https://safetydata.fra.dot.gov/OfficeofSafety/PublicSite/Crossing/Crossing.aspx?phasetype=C&rpttype=I&txtcrossingnum=920228P",
        "ACC_LINK": "https://safetydata.fra.dot.gov/OfficeofSafety/PublicSite/Crossing/Crossing.aspx?phasetype=C&rpttype=A&txtcrossingnum=920228P",
        "TTSTNNAM": "",
        "XPURPOSE": "1",
        "OPERATINGR": "UP",
        "OPERATIN_1": "Primary",
        "DAYTHRU": 10,
        "NGHTTHRU": 10,
        "MAINTRK": 1,
        "SIDINGTRK": 0,
        "YARDTRK": 0,
        "TRANSITTRK": 0,
        "INDUSTRYTR": 0,
        "OTHRTRK": 0,
        "WDCODE": "",
        "REVISIONDA": "1975/01/01 00:00:00",
        "LASTUPDATE": "8/29/2025",
        "AADT": "",
        "AADTYEAR": "",
        "STATENAME": "TEXAS",
        "STATEAB": "TX",
        "COUNTYNAME": "HUDSPETH",
        "CITYNAME": "SIERRA BLANCA",
        "LATDD": 31.2304248,
        "LONGDD": -105.4722136,
        "gridlyProductionCertified": true,
        "gridlyClassification": "PUBLIC_ROADWAY",
        "gridlyDisplayName": "PRIVATE",
        "gridlyId": "FRA-920228P"
      }
    },
    {
      "type": "Feature",
      "id": 207600,
      "geometry": {
        "type": "Point",
        "coordinates": [
          -105.459871100213,
          31.2140190003338
        ]
      },
      "properties": {
        "OBJECTID": 207600,
        "CROSSING": "920229W",
        "EFFDATE": 1756425600000,
        "REASON": "14",
        "StateCode": "48",
        "CountyCode": "48229",
        "STCYFIPS": "48229",
        "CITYCD": "482296375",
        "RAILROAD": "UP",
        "RRDIV": "TEXOMA",
        "RRSUBDIV": "VALENTINE SUB",
        "HIGHWAY": "NA",
        "STREET": "PRIVATE",
        "TTSTN": "696823",
        "MILEPOST": "0743.710",
        "TYPEXING": "Private",
        "POSXING": "At Grade",
        "PRVCAT": "14",
        "INIT": "1",
        "LATITUDE": 31.214019,
        "LONGITUD": -105.4598711,
        "LLSOURCE": "1",
        "WHISTBAN": "0",
        "RRCONT": "4025443721",
        "POLCONT": "8008488715",
        "INV_LINK": "https://safetydata.fra.dot.gov/OfficeofSafety/PublicSite/Crossing/Crossing.aspx?phasetype=C&rpttype=I&txtcrossingnum=920229W",
        "ACC_LINK": "https://safetydata.fra.dot.gov/OfficeofSafety/PublicSite/Crossing/Crossing.aspx?phasetype=C&rpttype=A&txtcrossingnum=920229W",
        "TTSTNNAM": "",
        "XPURPOSE": "1",
        "OPERATINGR": "UP",
        "OPERATIN_1": "Primary",
        "DAYTHRU": 10,
        "NGHTTHRU": 10,
        "MAINTRK": 1,
        "SIDINGTRK": 0,
        "YARDTRK": 0,
        "TRANSITTRK": 0,
        "INDUSTRYTR": 0,
        "OTHRTRK": 0,
        "WDCODE": "",
        "REVISIONDA": "1975/01/01 00:00:00",
        "LASTUPDATE": "8/29/2025",
        "AADT": "10",
        "AADTYEAR": "1999",
        "STATENAME": "TEXAS",
        "STATEAB": "TX",
        "COUNTYNAME": "HUDSPETH",
        "CITYNAME": "SIERRA BLANCA",
        "LATDD": 31.214019,
        "LONGDD": -105.4598711,
        "gridlyProductionCertified": true,
        "gridlyClassification": "PUBLIC_ROADWAY",
        "gridlyDisplayName": "PRIVATE",
        "gridlyId": "FRA-920229W"
      }
    },
    {
      "type": "Feature",
      "id": 208751,
      "geometry": {
        "type": "Point",
        "coordinates": [
          -105.216692699853,
          31.1343589000242
        ]
      },
      "properties": {
        "OBJECTID": 208751,
        "CROSSING": "795428E",
        "EFFDATE": 1756339200000,
        "REASON": "14",
        "StateCode": "48",
        "CountyCode": "48229",
        "STCYFIPS": "48229",
        "CITYCD": "482296375",
        "RAILROAD": "UP",
        "RRDIV": "TEXOMA",
        "RRSUBDIV": "TOYAH SUB",
        "HIGHWAY": "NA",
        "STREET": "PRIVATE",
        "TTSTN": "696460",
        "MILEPOST": "0759.650",
        "TYPEXING": "Private",
        "POSXING": "At Grade",
        "PRVCAT": "14",
        "INIT": "1",
        "LATITUDE": 31.1343589,
        "LONGITUD": -105.2166927,
        "LLSOURCE": "1",
        "WHISTBAN": "0",
        "RRCONT": "4025443721",
        "POLCONT": "8008488715",
        "INV_LINK": "https://safetydata.fra.dot.gov/OfficeofSafety/PublicSite/Crossing/Crossing.aspx?phasetype=C&rpttype=I&txtcrossingnum=795428E",
        "ACC_LINK": "https://safetydata.fra.dot.gov/OfficeofSafety/PublicSite/Crossing/Crossing.aspx?phasetype=C&rpttype=A&txtcrossingnum=795428E",
        "TTSTNNAM": "",
        "XPURPOSE": "1",
        "OPERATINGR": "UP",
        "OPERATIN_1": "Primary",
        "DAYTHRU": 8,
        "NGHTTHRU": 8,
        "MAINTRK": 1,
        "SIDINGTRK": 0,
        "YARDTRK": 0,
        "TRANSITTRK": 0,
        "INDUSTRYTR": 0,
        "OTHRTRK": 0,
        "WDCODE": "",
        "REVISIONDA": "1975/01/01 00:00:00",
        "LASTUPDATE": "8/28/2025",
        "AADT": "1",
        "AADTYEAR": "",
        "STATENAME": "TEXAS",
        "STATEAB": "TX",
        "COUNTYNAME": "HUDSPETH",
        "CITYNAME": "SIERRA BLANCA",
        "LATDD": 31.1343589,
        "LONGDD": -105.2166927,
        "gridlyProductionCertified": true,
        "gridlyClassification": "PUBLIC_ROADWAY",
        "gridlyDisplayName": "PRIVATE",
        "gridlyId": "FRA-795428E"
      }
    },
    {
      "type": "Feature",
      "id": 208753,
      "geometry": {
        "type": "Point",
        "coordinates": [
          -105.27507999981,
          31.1516389001324
        ]
      },
      "properties": {
        "OBJECTID": 208753,
        "CROSSING": "796200H",
        "EFFDATE": 1756339200000,
        "REASON": "14",
        "StateCode": "48",
        "CountyCode": "48229",
        "STCYFIPS": "48229",
        "CITYCD": "482296375",
        "RAILROAD": "UP",
        "RRDIV": "TEXOMA",
        "RRSUBDIV": "TOYAH SUB",
        "HIGHWAY": "NA",
        "STREET": "PRIVATE",
        "TTSTN": "696460",
        "MILEPOST": "0763.300",
        "TYPEXING": "Private",
        "POSXING": "At Grade",
        "PRVCAT": "14",
        "INIT": "1",
        "LATITUDE": 31.1516389,
        "LONGITUD": -105.27508,
        "LLSOURCE": "1",
        "WHISTBAN": "0",
        "RRCONT": "4025443721",
        "POLCONT": "8008488715",
        "INV_LINK": "https://safetydata.fra.dot.gov/OfficeofSafety/PublicSite/Crossing/Crossing.aspx?phasetype=C&rpttype=I&txtcrossingnum=796200H",
        "ACC_LINK": "https://safetydata.fra.dot.gov/OfficeofSafety/PublicSite/Crossing/Crossing.aspx?phasetype=C&rpttype=A&txtcrossingnum=796200H",
        "TTSTNNAM": "",
        "XPURPOSE": "1",
        "OPERATINGR": "UP",
        "OPERATIN_1": "Primary",
        "DAYTHRU": 8,
        "NGHTTHRU": 8,
        "MAINTRK": 1,
        "SIDINGTRK": 0,
        "YARDTRK": 0,
        "TRANSITTRK": 0,
        "INDUSTRYTR": 0,
        "OTHRTRK": 0,
        "WDCODE": "",
        "REVISIONDA": "1975/01/01 00:00:00",
        "LASTUPDATE": "8/28/2025",
        "AADT": "1",
        "AADTYEAR": "1970",
        "STATENAME": "TEXAS",
        "STATEAB": "TX",
        "COUNTYNAME": "HUDSPETH",
        "CITYNAME": "SIERRA BLANCA",
        "LATDD": 31.1516389,
        "LONGDD": -105.27508,
        "gridlyProductionCertified": true,
        "gridlyClassification": "PUBLIC_ROADWAY",
        "gridlyDisplayName": "PRIVATE",
        "gridlyId": "FRA-796200H"
      }
    },
    {
      "type": "Feature",
      "id": 208754,
      "geometry": {
        "type": "Point",
        "coordinates": [
          -105.177668099857,
          31.1227912000745
        ]
      },
      "properties": {
        "OBJECTID": 208754,
        "CROSSING": "796201P",
        "EFFDATE": 1756339200000,
        "REASON": "14",
        "StateCode": "48",
        "CountyCode": "48229",
        "STCYFIPS": "48229",
        "CITYCD": "482296375",
        "RAILROAD": "UP",
        "RRDIV": "TEXOMA",
        "RRSUBDIV": "TOYAH SUB",
        "HIGHWAY": "CO 0000",
        "STREET": "PRIVATE",
        "TTSTN": "696454",
        "MILEPOST": "0757.200",
        "TYPEXING": "Private",
        "POSXING": "At Grade",
        "PRVCAT": "14",
        "INIT": "1",
        "LATITUDE": 31.1227912,
        "LONGITUD": -105.1776681,
        "LLSOURCE": "1",
        "WHISTBAN": "0",
        "RRCONT": "4025443721",
        "POLCONT": "8008488715",
        "INV_LINK": "https://safetydata.fra.dot.gov/OfficeofSafety/PublicSite/Crossing/Crossing.aspx?phasetype=C&rpttype=I&txtcrossingnum=796201P",
        "ACC_LINK": "https://safetydata.fra.dot.gov/OfficeofSafety/PublicSite/Crossing/Crossing.aspx?phasetype=C&rpttype=A&txtcrossingnum=796201P",
        "TTSTNNAM": "",
        "XPURPOSE": "1",
        "OPERATINGR": "UP",
        "OPERATIN_1": "Primary",
        "DAYTHRU": 8,
        "NGHTTHRU": 8,
        "MAINTRK": 1,
        "SIDINGTRK": 0,
        "YARDTRK": 0,
        "TRANSITTRK": 0,
        "INDUSTRYTR": 0,
        "OTHRTRK": 0,
        "WDCODE": "",
        "REVISIONDA": "1975/01/01 00:00:00",
        "LASTUPDATE": "8/28/2025",
        "AADT": "9",
        "AADTYEAR": "1983",
        "STATENAME": "TEXAS",
        "STATEAB": "TX",
        "COUNTYNAME": "HUDSPETH",
        "CITYNAME": "SIERRA BLANCA",
        "LATDD": 31.1227912,
        "LONGDD": -105.1776681,
        "gridlyProductionCertified": true,
        "gridlyClassification": "PUBLIC_ROADWAY",
        "gridlyDisplayName": "PRIVATE",
        "gridlyId": "FRA-796201P"
      }
    },
    {
      "type": "Feature",
      "id": 208755,
      "geometry": {
        "type": "Point",
        "coordinates": [
          -105.078712199848,
          31.0964803001921
        ]
      },
      "properties": {
        "OBJECTID": 208755,
        "CROSSING": "796203D",
        "EFFDATE": 1756339200000,
        "REASON": "14",
        "StateCode": "48",
        "CountyCode": "48229",
        "STCYFIPS": "48229",
        "CITYCD": "482296375",
        "RAILROAD": "UP",
        "RRDIV": "TEXOMA",
        "RRSUBDIV": "TOYAH SUB",
        "HIGHWAY": "NA",
        "STREET": "PRIVATE",
        "TTSTN": "696452",
        "MILEPOST": "0750.960",
        "TYPEXING": "Private",
        "POSXING": "At Grade",
        "PRVCAT": "14",
        "INIT": "1",
        "LATITUDE": 31.0964803,
        "LONGITUD": -105.0787122,
        "LLSOURCE": "1",
        "WHISTBAN": "0",
        "RRCONT": "4025443721",
        "POLCONT": "8008488715",
        "INV_LINK": "https://safetydata.fra.dot.gov/OfficeofSafety/PublicSite/Crossing/Crossing.aspx?phasetype=C&rpttype=I&txtcrossingnum=796203D",
        "ACC_LINK": "https://safetydata.fra.dot.gov/OfficeofSafety/PublicSite/Crossing/Crossing.aspx?phasetype=C&rpttype=A&txtcrossingnum=796203D",
        "TTSTNNAM": "",
        "XPURPOSE": "1",
        "OPERATINGR": "UP",
        "OPERATIN_1": "Primary",
        "DAYTHRU": 8,
        "NGHTTHRU": 8,
        "MAINTRK": 1,
        "SIDINGTRK": 0,
        "YARDTRK": 0,
        "TRANSITTRK": 0,
        "INDUSTRYTR": 0,
        "OTHRTRK": 0,
        "WDCODE": "",
        "REVISIONDA": "1975/01/01 00:00:00",
        "LASTUPDATE": "8/28/2025",
        "AADT": "1",
        "AADTYEAR": "1970",
        "STATENAME": "TEXAS",
        "STATEAB": "TX",
        "COUNTYNAME": "HUDSPETH",
        "CITYNAME": "SIERRA BLANCA",
        "LATDD": 31.0964803,
        "LONGDD": -105.0787122,
        "gridlyProductionCertified": true,
        "gridlyClassification": "PUBLIC_ROADWAY",
        "gridlyDisplayName": "PRIVATE",
        "gridlyId": "FRA-796203D"
      }
    },
    {
      "type": "Feature",
      "id": 209258,
      "geometry": {
        "type": "Point",
        "coordinates": [
          -105.336331799934,
          31.1697670000293
        ]
      },
      "properties": {
        "OBJECTID": 209258,
        "CROSSING": "922330C",
        "EFFDATE": 1756339200000,
        "REASON": "14",
        "StateCode": "48",
        "CountyCode": "48229",
        "STCYFIPS": "48229",
        "CITYCD": "482296375",
        "RAILROAD": "UP",
        "RRDIV": "TEXOMA",
        "RRSUBDIV": "TOYAH SUB",
        "HIGHWAY": "ST 0000",
        "STREET": "PRIVATE US BORDER PATROL",
        "TTSTN": "696460",
        "MILEPOST": "0767.160",
        "TYPEXING": "Private",
        "POSXING": "At Grade",
        "PRVCAT": "14",
        "INIT": "1",
        "LATITUDE": 31.169767,
        "LONGITUD": -105.3363318,
        "LLSOURCE": "1",
        "WHISTBAN": "0",
        "RRCONT": "4025443721",
        "POLCONT": "8008488715",
        "INV_LINK": "https://safetydata.fra.dot.gov/OfficeofSafety/PublicSite/Crossing/Crossing.aspx?phasetype=C&rpttype=I&txtcrossingnum=922330C",
        "ACC_LINK": "https://safetydata.fra.dot.gov/OfficeofSafety/PublicSite/Crossing/Crossing.aspx?phasetype=C&rpttype=A&txtcrossingnum=922330C",
        "TTSTNNAM": "",
        "XPURPOSE": "1",
        "OPERATINGR": "UP",
        "OPERATIN_1": "Primary",
        "DAYTHRU": 8,
        "NGHTTHRU": 8,
        "MAINTRK": 1,
        "SIDINGTRK": 0,
        "YARDTRK": 0,
        "TRANSITTRK": 0,
        "INDUSTRYTR": 0,
        "OTHRTRK": 0,
        "WDCODE": "",
        "REVISIONDA": "1975/01/01 00:00:00",
        "LASTUPDATE": "8/28/2025",
        "AADT": "1",
        "AADTYEAR": "",
        "STATENAME": "TEXAS",
        "STATEAB": "TX",
        "COUNTYNAME": "HUDSPETH",
        "CITYNAME": "SIERRA BLANCA",
        "LATDD": 31.169767,
        "LONGDD": -105.3363318,
        "gridlyProductionCertified": true,
        "gridlyClassification": "PUBLIC_ROADWAY",
        "gridlyDisplayName": "PRIVATE US BORDER PATROL",
        "gridlyId": "FRA-922330C"
      }
    },
    {
      "type": "Feature",
      "id": 211908,
      "geometry": {
        "type": "Point",
        "coordinates": [
          -105.25129760033,
          31.1260821002808
        ]
      },
      "properties": {
        "OBJECTID": 211908,
        "CROSSING": "920239C",
        "EFFDATE": 1758585600000,
        "REASON": "14",
        "StateCode": "48",
        "CountyCode": "48229",
        "STCYFIPS": "48229",
        "CITYCD": "482296375",
        "RAILROAD": "UP",
        "RRDIV": "TEXOMA",
        "RRSUBDIV": "VALENTINE SUB",
        "HIGHWAY": "NA",
        "STREET": "PRIVATE",
        "TTSTN": "696462",
        "MILEPOST": "0729.750",
        "TYPEXING": "Private",
        "POSXING": "At Grade",
        "PRVCAT": "14",
        "INIT": "1",
        "LATITUDE": 31.1260821,
        "LONGITUD": -105.2512976,
        "LLSOURCE": "1",
        "WHISTBAN": "0",
        "RRCONT": "4025443721",
        "POLCONT": "8008488715",
        "INV_LINK": "https://safetydata.fra.dot.gov/OfficeofSafety/PublicSite/Crossing/Crossing.aspx?phasetype=C&rpttype=I&txtcrossingnum=920239C",
        "ACC_LINK": "https://safetydata.fra.dot.gov/OfficeofSafety/PublicSite/Crossing/Crossing.aspx?phasetype=C&rpttype=A&txtcrossingnum=920239C",
        "TTSTNNAM": "",
        "XPURPOSE": "1",
        "OPERATINGR": "UP",
        "OPERATIN_1": "Primary",
        "DAYTHRU": 5,
        "NGHTTHRU": 5,
        "MAINTRK": 1,
        "SIDINGTRK": 0,
        "YARDTRK": 0,
        "TRANSITTRK": 0,
        "INDUSTRYTR": 0,
        "OTHRTRK": 1,
        "WDCODE": "",
        "REVISIONDA": "1975/01/01 00:00:00",
        "LASTUPDATE": "9/23/2025",
        "AADT": "10",
        "AADTYEAR": "1999",
        "STATENAME": "TEXAS",
        "STATEAB": "TX",
        "COUNTYNAME": "HUDSPETH",
        "CITYNAME": "SIERRA BLANCA",
        "LATDD": 31.1260821,
        "LONGDD": -105.2512976,
        "gridlyProductionCertified": true,
        "gridlyClassification": "PUBLIC_ROADWAY",
        "gridlyDisplayName": "PRIVATE",
        "gridlyId": "FRA-920239C"
      }
    },
    {
      "type": "Feature",
      "id": 212295,
      "geometry": {
        "type": "Point",
        "coordinates": [
          -105.349069599846,
          31.1727481001418
        ]
      },
      "properties": {
        "OBJECTID": 212295,
        "CROSSING": "764092A",
        "EFFDATE": 1763337600000,
        "REASON": "14",
        "StateCode": "48",
        "CountyCode": "48229",
        "STCYFIPS": "48229",
        "CITYCD": "482296375",
        "RAILROAD": "UP",
        "RRDIV": "TEXOMA",
        "RRSUBDIV": "VALENTINE SUB",
        "HIGHWAY": "BI0010",
        "STREET": "bi0010 / El Paso Street",
        "TTSTN": "696460",
        "MILEPOST": "0736.390",
        "TYPEXING": "Public",
        "POSXING": "RR Over",
        "PRVCAT": "14",
        "INIT": "2",
        "LATITUDE": 31.1727481,
        "LONGITUD": -105.3490696,
        "LLSOURCE": "1",
        "WHISTBAN": "0",
        "RRCONT": "4025443721",
        "POLCONT": "8008488715",
        "INV_LINK": "https://safetydata.fra.dot.gov/OfficeofSafety/PublicSite/Crossing/Crossing.aspx?phasetype=C&rpttype=I&txtcrossingnum=764092A",
        "ACC_LINK": "https://safetydata.fra.dot.gov/OfficeofSafety/PublicSite/Crossing/Crossing.aspx?phasetype=C&rpttype=A&txtcrossingnum=764092A",
        "TTSTNNAM": "",
        "XPURPOSE": "1",
        "OPERATINGR": "UP",
        "OPERATIN_1": "Primary",
        "DAYTHRU": 0,
        "NGHTTHRU": 0,
        "MAINTRK": 1,
        "SIDINGTRK": 0,
        "YARDTRK": 0,
        "TRANSITTRK": 0,
        "INDUSTRYTR": 0,
        "OTHRTRK": 0,
        "WDCODE": "",
        "REVISIONDA": "1975/01/01 00:00:00",
        "LASTUPDATE": "11/17/2025",
        "AADT": "1420",
        "AADTYEAR": "2024",
        "STATENAME": "TEXAS",
        "STATEAB": "TX",
        "COUNTYNAME": "HUDSPETH",
        "CITYNAME": "SIERRA BLANCA",
        "LATDD": 31.1727481,
        "LONGDD": -105.3490696,
        "gridlyProductionCertified": true,
        "gridlyClassification": "PUBLIC_ROADWAY",
        "gridlyDisplayName": "bi0010 / El Paso Street",
        "gridlyId": "FRA-764092A"
      }
    },
    {
      "type": "Feature",
      "id": 212571,
      "geometry": {
        "type": "Point",
        "coordinates": [
          -105.346597499965,
          31.1712600002615
        ]
      },
      "properties": {
        "OBJECTID": 212571,
        "CROSSING": "764093G",
        "EFFDATE": 1763337600000,
        "REASON": "14",
        "StateCode": "48",
        "CountyCode": "48229",
        "STCYFIPS": "48229",
        "CITYCD": "482296375",
        "RAILROAD": "UP",
        "RRDIV": "TEXOMA",
        "RRSUBDIV": "VALENTINE SUB",
        "HIGHWAY": "IH0010",
        "STREET": "Ih0010 texas mountain trail",
        "TTSTN": "696460",
        "MILEPOST": "0736.170",
        "TYPEXING": "Public",
        "POSXING": "RR Under",
        "PRVCAT": "14",
        "INIT": "1",
        "LATITUDE": 31.17126,
        "LONGITUD": -105.3465975,
        "LLSOURCE": "1",
        "WHISTBAN": "0",
        "RRCONT": "4025443721",
        "POLCONT": "8008488715",
        "INV_LINK": "https://safetydata.fra.dot.gov/OfficeofSafety/PublicSite/Crossing/Crossing.aspx?phasetype=C&rpttype=I&txtcrossingnum=764093G",
        "ACC_LINK": "https://safetydata.fra.dot.gov/OfficeofSafety/PublicSite/Crossing/Crossing.aspx?phasetype=C&rpttype=A&txtcrossingnum=764093G",
        "TTSTNNAM": "",
        "XPURPOSE": "1",
        "OPERATINGR": "UP",
        "OPERATIN_1": "Primary",
        "DAYTHRU": 5,
        "NGHTTHRU": 5,
        "MAINTRK": 1,
        "SIDINGTRK": 0,
        "YARDTRK": 0,
        "TRANSITTRK": 0,
        "INDUSTRYTR": 0,
        "OTHRTRK": 0,
        "WDCODE": "",
        "REVISIONDA": "1975/01/01 00:00:00",
        "LASTUPDATE": "11/17/2025",
        "AADT": "16145",
        "AADTYEAR": "2024",
        "STATENAME": "TEXAS",
        "STATEAB": "TX",
        "COUNTYNAME": "HUDSPETH",
        "CITYNAME": "SIERRA BLANCA",
        "LATDD": 31.17126,
        "LONGDD": -105.3465975,
        "gridlyProductionCertified": true,
        "gridlyClassification": "PUBLIC_ROADWAY",
        "gridlyDisplayName": "Ih0010 texas mountain trail",
        "gridlyId": "FRA-764093G"
      }
    },
    {
      "type": "Feature",
      "id": 212596,
      "geometry": {
        "type": "Point",
        "coordinates": [
          -105.210796700012,
          31.1067299000591
        ]
      },
      "properties": {
        "OBJECTID": 212596,
        "CROSSING": "764221M",
        "EFFDATE": 1759104000000,
        "REASON": "14",
        "StateCode": "48",
        "CountyCode": "48229",
        "STCYFIPS": "48229",
        "CITYCD": "482296375",
        "RAILROAD": "UP",
        "RRDIV": "TEXOMA",
        "RRSUBDIV": "VALENTINE SUB",
        "HIGHWAY": "CO 1011",
        "STREET": "Stone Road",
        "TTSTN": "696447",
        "MILEPOST": "0727.040",
        "TYPEXING": "Private",
        "POSXING": "At Grade",
        "PRVCAT": "14",
        "INIT": "1",
        "LATITUDE": 31.1067299,
        "LONGITUD": -105.2107967,
        "LLSOURCE": "1",
        "WHISTBAN": "0",
        "RRCONT": "4025443721",
        "POLCONT": "8008488715",
        "INV_LINK": "https://safetydata.fra.dot.gov/OfficeofSafety/PublicSite/Crossing/Crossing.aspx?phasetype=C&rpttype=I&txtcrossingnum=764221M",
        "ACC_LINK": "https://safetydata.fra.dot.gov/OfficeofSafety/PublicSite/Crossing/Crossing.aspx?phasetype=C&rpttype=A&txtcrossingnum=764221M",
        "TTSTNNAM": "",
        "XPURPOSE": "1",
        "OPERATINGR": "UP",
        "OPERATIN_1": "Primary",
        "DAYTHRU": 5,
        "NGHTTHRU": 5,
        "MAINTRK": 1,
        "SIDINGTRK": 0,
        "YARDTRK": 0,
        "TRANSITTRK": 0,
        "INDUSTRYTR": 0,
        "OTHRTRK": 0,
        "WDCODE": "",
        "REVISIONDA": "1975/01/01 00:00:00",
        "LASTUPDATE": "9/29/2025",
        "AADT": "17",
        "AADTYEAR": "2007",
        "STATENAME": "TEXAS",
        "STATEAB": "TX",
        "COUNTYNAME": "HUDSPETH",
        "CITYNAME": "SIERRA BLANCA",
        "LATDD": 31.1067299,
        "LONGDD": -105.2107967,
        "gridlyProductionCertified": true,
        "gridlyClassification": "PUBLIC_ROADWAY",
        "gridlyDisplayName": "Stone Road",
        "gridlyId": "FRA-764221M"
      }
    },
    {
      "type": "Feature",
      "id": 212691,
      "geometry": {
        "type": "Point",
        "coordinates": [
          -105.372971300088,
          31.1796094999172
        ]
      },
      "properties": {
        "OBJECTID": 212691,
        "CROSSING": "742890L",
        "EFFDATE": 1759968000000,
        "REASON": "14",
        "StateCode": "48",
        "CountyCode": "48229",
        "STCYFIPS": "48229",
        "CITYCD": "482296375",
        "RAILROAD": "UP",
        "RRDIV": "TEXOMA",
        "RRSUBDIV": "VALENTINE SUB",
        "HIGHWAY": "Cr2518",
        "STREET": "Pasture Road",
        "TTSTN": "696460",
        "MILEPOST": "0737.890",
        "TYPEXING": "Public",
        "POSXING": "At Grade",
        "PRVCAT": "14",
        "INIT": "2",
        "LATITUDE": 31.1796095,
        "LONGITUD": -105.3729713,
        "LLSOURCE": "1",
        "WHISTBAN": "0",
        "RRCONT": "4025443721",
        "POLCONT": "8008488715",
        "INV_LINK": "https://safetydata.fra.dot.gov/OfficeofSafety/PublicSite/Crossing/Crossing.aspx?phasetype=C&rpttype=I&txtcrossingnum=742890L",
        "ACC_LINK": "https://safetydata.fra.dot.gov/OfficeofSafety/PublicSite/Crossing/Crossing.aspx?phasetype=C&rpttype=A&txtcrossingnum=742890L",
        "TTSTNNAM": "",
        "XPURPOSE": "1",
        "OPERATINGR": "UP",
        "OPERATIN_1": "Primary",
        "DAYTHRU": 10,
        "NGHTTHRU": 10,
        "MAINTRK": 1,
        "SIDINGTRK": 1,
        "YARDTRK": 0,
        "TRANSITTRK": 0,
        "INDUSTRYTR": 0,
        "OTHRTRK": 1,
        "WDCODE": "Stop signs",
        "REVISIONDA": "1975/01/01 00:00:00",
        "LASTUPDATE": "10/9/2025",
        "AADT": "5",
        "AADTYEAR": "2022",
        "STATENAME": "TEXAS",
        "STATEAB": "TX",
        "COUNTYNAME": "HUDSPETH",
        "CITYNAME": "SIERRA BLANCA",
        "LATDD": 31.1796095,
        "LONGDD": -105.3729713,
        "gridlyProductionCertified": true,
        "gridlyClassification": "PUBLIC_ROADWAY",
        "gridlyDisplayName": "Pasture Road",
        "gridlyId": "FRA-742890L"
      }
    },
    {
      "type": "Feature",
      "id": 212692,
      "geometry": {
        "type": "Point",
        "coordinates": [
          -105.563916100037,
          31.2666882002842
        ]
      },
      "properties": {
        "OBJECTID": 212692,
        "CROSSING": "742892A",
        "EFFDATE": 1759968000000,
        "REASON": "14",
        "StateCode": "48",
        "CountyCode": "48229",
        "STCYFIPS": "48229",
        "CITYCD": "482296375",
        "RAILROAD": "UP",
        "RRDIV": "TEXOMA",
        "RRSUBDIV": "VALENTINE SUB",
        "HIGHWAY": "Cr1026",
        "STREET": "LASCA branch ROAD",
        "TTSTN": "696476",
        "MILEPOST": "0752.250",
        "TYPEXING": "Public",
        "POSXING": "At Grade",
        "PRVCAT": "14",
        "INIT": "2",
        "LATITUDE": 31.2666882,
        "LONGITUD": -105.5639161,
        "LLSOURCE": "1",
        "WHISTBAN": "0",
        "RRCONT": "4025443721",
        "POLCONT": "8008488715",
        "INV_LINK": "https://safetydata.fra.dot.gov/OfficeofSafety/PublicSite/Crossing/Crossing.aspx?phasetype=C&rpttype=I&txtcrossingnum=742892A",
        "ACC_LINK": "https://safetydata.fra.dot.gov/OfficeofSafety/PublicSite/Crossing/Crossing.aspx?phasetype=C&rpttype=A&txtcrossingnum=742892A",
        "TTSTNNAM": "",
        "XPURPOSE": "1",
        "OPERATINGR": "UP",
        "OPERATIN_1": "Primary",
        "DAYTHRU": 10,
        "NGHTTHRU": 10,
        "MAINTRK": 1,
        "SIDINGTRK": 0,
        "YARDTRK": 0,
        "TRANSITTRK": 0,
        "INDUSTRYTR": 0,
        "OTHRTRK": 0,
        "WDCODE": "Stop signs",
        "REVISIONDA": "1975/01/01 00:00:00",
        "LASTUPDATE": "10/9/2025",
        "AADT": "6",
        "AADTYEAR": "2022",
        "STATENAME": "TEXAS",
        "STATEAB": "TX",
        "COUNTYNAME": "HUDSPETH",
        "CITYNAME": "SIERRA BLANCA",
        "LATDD": 31.2666882,
        "LONGDD": -105.5639161,
        "gridlyProductionCertified": true,
        "gridlyClassification": "PUBLIC_ROADWAY",
        "gridlyDisplayName": "LASCA branch ROAD",
        "gridlyId": "FRA-742892A"
      }
    },
    {
      "type": "Feature",
      "id": 212728,
      "geometry": {
        "type": "Point",
        "coordinates": [
          -105.843802400073,
          31.3000626002196
        ]
      },
      "properties": {
        "OBJECTID": 212728,
        "CROSSING": "742899X",
        "EFFDATE": 1759968000000,
        "REASON": "14",
        "StateCode": "48",
        "CountyCode": "48229",
        "STCYFIPS": "48229",
        "CITYCD": "482292435",
        "RAILROAD": "UP",
        "RRDIV": "TEXOMA",
        "RRSUBDIV": "VALENTINE SUB",
        "HIGHWAY": "SS0148",
        "STREET": "ss0148 / KNOX AVENUE",
        "TTSTN": "696484",
        "MILEPOST": "0776.110",
        "TYPEXING": "Public",
        "POSXING": "At Grade",
        "PRVCAT": "14",
        "INIT": "2",
        "LATITUDE": 31.3000626,
        "LONGITUD": -105.8438024,
        "LLSOURCE": "1",
        "WHISTBAN": "0",
        "RRCONT": "4025443721",
        "POLCONT": "8008488715",
        "INV_LINK": "https://safetydata.fra.dot.gov/OfficeofSafety/PublicSite/Crossing/Crossing.aspx?phasetype=C&rpttype=I&txtcrossingnum=742899X",
        "ACC_LINK": "https://safetydata.fra.dot.gov/OfficeofSafety/PublicSite/Crossing/Crossing.aspx?phasetype=C&rpttype=A&txtcrossingnum=742899X",
        "TTSTNNAM": "",
        "XPURPOSE": "1",
        "OPERATINGR": "UP",
        "OPERATIN_1": "Primary",
        "DAYTHRU": 10,
        "NGHTTHRU": 10,
        "MAINTRK": 1,
        "SIDINGTRK": 0,
        "YARDTRK": 0,
        "TRANSITTRK": 0,
        "INDUSTRYTR": 0,
        "OTHRTRK": 0,
        "WDCODE": "All other Gates",
        "REVISIONDA": "1975/01/01 00:00:00",
        "LASTUPDATE": "10/9/2025",
        "AADT": "1389",
        "AADTYEAR": "2023",
        "STATENAME": "TEXAS",
        "STATEAB": "TX",
        "COUNTYNAME": "HUDSPETH",
        "CITYNAME": "FT HANCOCK",
        "LATDD": 31.3000626,
        "LONGDD": -105.8438024,
        "gridlyProductionCertified": true,
        "gridlyClassification": "PUBLIC_ROADWAY",
        "gridlyDisplayName": "ss0148 / KNOX AVENUE",
        "gridlyId": "FRA-742899X"
      }
    },
    {
      "type": "Feature",
      "id": 212770,
      "geometry": {
        "type": "Point",
        "coordinates": [
          -105.630066199607,
          31.2587048000321
        ]
      },
      "properties": {
        "OBJECTID": 212770,
        "CROSSING": "742894N",
        "EFFDATE": 1759968000000,
        "REASON": "14",
        "StateCode": "48",
        "CountyCode": "48229",
        "STCYFIPS": "48229",
        "CITYCD": "482292435",
        "RAILROAD": "UP",
        "RRDIV": "TEXOMA",
        "RRSUBDIV": "VALENTINE SUB",
        "HIGHWAY": "Cr1025",
        "STREET": "LASCA branch ROAD",
        "TTSTN": "696479",
        "MILEPOST": "0760.310",
        "TYPEXING": "Public",
        "POSXING": "At Grade",
        "PRVCAT": "14",
        "INIT": "2",
        "LATITUDE": 31.2587048,
        "LONGITUD": -105.6300662,
        "LLSOURCE": "1",
        "WHISTBAN": "0",
        "RRCONT": "4025443721",
        "POLCONT": "8008488715",
        "INV_LINK": "https://safetydata.fra.dot.gov/OfficeofSafety/PublicSite/Crossing/Crossing.aspx?phasetype=C&rpttype=I&txtcrossingnum=742894N",
        "ACC_LINK": "https://safetydata.fra.dot.gov/OfficeofSafety/PublicSite/Crossing/Crossing.aspx?phasetype=C&rpttype=A&txtcrossingnum=742894N",
        "TTSTNNAM": "",
        "XPURPOSE": "1",
        "OPERATINGR": "UP",
        "OPERATIN_1": "Primary",
        "DAYTHRU": 10,
        "NGHTTHRU": 10,
        "MAINTRK": 1,
        "SIDINGTRK": 1,
        "YARDTRK": 0,
        "TRANSITTRK": 0,
        "INDUSTRYTR": 0,
        "OTHRTRK": 1,
        "WDCODE": "Stop signs",
        "REVISIONDA": "1975/01/01 00:00:00",
        "LASTUPDATE": "10/9/2025",
        "AADT": "6",
        "AADTYEAR": "2019",
        "STATENAME": "TEXAS",
        "STATEAB": "TX",
        "COUNTYNAME": "HUDSPETH",
        "CITYNAME": "FT HANCOCK",
        "LATDD": 31.2587048,
        "LONGDD": -105.6300662,
        "gridlyProductionCertified": true,
        "gridlyClassification": "PUBLIC_ROADWAY",
        "gridlyDisplayName": "LASCA branch ROAD",
        "gridlyId": "FRA-742894N"
      }
    },
    {
      "type": "Feature",
      "id": 212937,
      "geometry": {
        "type": "Point",
        "coordinates": [
          -105.018152000084,
          31.0086277996255
        ]
      },
      "properties": {
        "OBJECTID": 212937,
        "CROSSING": "764220F",
        "EFFDATE": 1759881600000,
        "REASON": "14",
        "StateCode": "48",
        "CountyCode": "48229",
        "STCYFIPS": "48229",
        "CITYCD": "482437100",
        "RAILROAD": "UP",
        "RRDIV": "TEXOMA",
        "RRSUBDIV": "VALENTINE SUB",
        "HIGHWAY": "Cr1007",
        "STREET": "Guest Ranch Road",
        "TTSTN": "696456",
        "MILEPOST": "0713.700",
        "TYPEXING": "Public",
        "POSXING": "At Grade",
        "PRVCAT": "14",
        "INIT": "2",
        "LATITUDE": 31.0086278,
        "LONGITUD": -105.018152,
        "LLSOURCE": "1",
        "WHISTBAN": "0",
        "RRCONT": "4025443721",
        "POLCONT": "8008488715",
        "INV_LINK": "https://safetydata.fra.dot.gov/OfficeofSafety/PublicSite/Crossing/Crossing.aspx?phasetype=C&rpttype=I&txtcrossingnum=764220F",
        "ACC_LINK": "https://safetydata.fra.dot.gov/OfficeofSafety/PublicSite/Crossing/Crossing.aspx?phasetype=C&rpttype=A&txtcrossingnum=764220F",
        "TTSTNNAM": "",
        "XPURPOSE": "1",
        "OPERATINGR": "UP",
        "OPERATIN_1": "Primary",
        "DAYTHRU": 5,
        "NGHTTHRU": 5,
        "MAINTRK": 1,
        "SIDINGTRK": 0,
        "YARDTRK": 0,
        "TRANSITTRK": 0,
        "INDUSTRYTR": 0,
        "OTHRTRK": 0,
        "WDCODE": "Stop signs",
        "REVISIONDA": "1975/01/01 00:00:00",
        "LASTUPDATE": "10/8/2025",
        "AADT": "82",
        "AADTYEAR": "2022",
        "STATENAME": "TEXAS",
        "STATEAB": "TX",
        "COUNTYNAME": "HUDSPETH",
        "CITYNAME": "VALENTINE",
        "LATDD": 31.0086278,
        "LONGDD": -105.018152,
        "gridlyProductionCertified": true,
        "gridlyClassification": "PUBLIC_ROADWAY",
        "gridlyDisplayName": "Guest Ranch Road",
        "gridlyId": "FRA-764220F"
      }
    },
    {
      "type": "Feature",
      "id": 213086,
      "geometry": {
        "type": "Point",
        "coordinates": [
          -105.787089699943,
          31.2394520002703
        ]
      },
      "properties": {
        "OBJECTID": 213086,
        "CROSSING": "742897J",
        "EFFDATE": 1764720000000,
        "REASON": "14",
        "StateCode": "48",
        "CountyCode": "48229",
        "STCYFIPS": "48229",
        "CITYCD": "482296375",
        "RAILROAD": "UP",
        "RRDIV": "TEXOMA",
        "RRSUBDIV": "VALENTINE SUB",
        "HIGHWAY": "IH0010",
        "STREET": "Ih0010",
        "TTSTN": "696484",
        "MILEPOST": "0770.490",
        "TYPEXING": "Public",
        "POSXING": "RR Under",
        "PRVCAT": "14",
        "INIT": "2",
        "LATITUDE": 31.239452,
        "LONGITUD": -105.7870897,
        "LLSOURCE": "1",
        "WHISTBAN": "0",
        "RRCONT": "4025443721",
        "POLCONT": "8008488715",
        "INV_LINK": "https://safetydata.fra.dot.gov/OfficeofSafety/PublicSite/Crossing/Crossing.aspx?phasetype=C&rpttype=I&txtcrossingnum=742897J",
        "ACC_LINK": "https://safetydata.fra.dot.gov/OfficeofSafety/PublicSite/Crossing/Crossing.aspx?phasetype=C&rpttype=A&txtcrossingnum=742897J",
        "TTSTNNAM": "",
        "XPURPOSE": "1",
        "OPERATINGR": "UP",
        "OPERATIN_1": "Primary",
        "DAYTHRU": 12,
        "NGHTTHRU": 12,
        "MAINTRK": 1,
        "SIDINGTRK": 0,
        "YARDTRK": 0,
        "TRANSITTRK": 0,
        "INDUSTRYTR": 0,
        "OTHRTRK": 0,
        "WDCODE": "",
        "REVISIONDA": "1975/01/01 00:00:00",
        "LASTUPDATE": "12/3/2025",
        "AADT": "16727",
        "AADTYEAR": "2024",
        "STATENAME": "TEXAS",
        "STATEAB": "TX",
        "COUNTYNAME": "HUDSPETH",
        "CITYNAME": "SIERRA BLANCA",
        "LATDD": 31.239452,
        "LONGDD": -105.7870897,
        "gridlyProductionCertified": true,
        "gridlyClassification": "PUBLIC_ROADWAY",
        "gridlyDisplayName": "Ih0010",
        "gridlyId": "FRA-742897J"
      }
    },
    {
      "type": "Feature",
      "id": 213097,
      "geometry": {
        "type": "Point",
        "coordinates": [
          -105.003786999952,
          31.0775239999837
        ]
      },
      "properties": {
        "OBJECTID": 213097,
        "CROSSING": "972517J",
        "EFFDATE": 1758585600000,
        "REASON": "14",
        "StateCode": "48",
        "CountyCode": "48229",
        "STCYFIPS": "48229",
        "CITYCD": "482296375",
        "RAILROAD": "UP",
        "RRDIV": "TEXOMA",
        "RRSUBDIV": "TOYAH SUB",
        "HIGHWAY": "TBD",
        "STREET": "SOUTH GARREN ROAD",
        "TTSTN": "",
        "MILEPOST": "0746.425",
        "TYPEXING": "Public",
        "POSXING": "At Grade",
        "PRVCAT": "14",
        "INIT": "1",
        "LATITUDE": 31.077524,
        "LONGITUD": -105.003787,
        "LLSOURCE": "1",
        "WHISTBAN": "",
        "RRCONT": "4025443721",
        "POLCONT": "8008488715",
        "INV_LINK": "https://safetydata.fra.dot.gov/OfficeofSafety/PublicSite/Crossing/Crossing.aspx?phasetype=C&rpttype=I&txtcrossingnum=972517J",
        "ACC_LINK": "https://safetydata.fra.dot.gov/OfficeofSafety/PublicSite/Crossing/Crossing.aspx?phasetype=C&rpttype=A&txtcrossingnum=972517J",
        "TTSTNNAM": "",
        "XPURPOSE": "1",
        "OPERATINGR": "UP",
        "OPERATIN_1": "Primary",
        "DAYTHRU": 0,
        "NGHTTHRU": 0,
        "MAINTRK": 0,
        "SIDINGTRK": 0,
        "YARDTRK": 0,
        "TRANSITTRK": 0,
        "INDUSTRYTR": 1,
        "OTHRTRK": 0,
        "WDCODE": "Crossbucks",
        "REVISIONDA": "1975/01/01 00:00:00",
        "LASTUPDATE": "9/23/2025",
        "AADT": "500",
        "AADTYEAR": "2017",
        "STATENAME": "TEXAS",
        "STATEAB": "TX",
        "COUNTYNAME": "HUDSPETH",
        "CITYNAME": "SIERRA BLANCA",
        "LATDD": 31.077524,
        "LONGDD": -105.003787,
        "gridlyProductionCertified": true,
        "gridlyClassification": "PUBLIC_ROADWAY",
        "gridlyDisplayName": "SOUTH GARREN ROAD",
        "gridlyId": "FRA-972517J"
      }
    },
    {
      "type": "Feature",
      "id": 213420,
      "geometry": {
        "type": "Point",
        "coordinates": [
          -105.00333699969,
          31.0772279998901
        ]
      },
      "properties": {
        "OBJECTID": 213420,
        "CROSSING": "972518R",
        "EFFDATE": 1758585600000,
        "REASON": "14",
        "StateCode": "48",
        "CountyCode": "48229",
        "STCYFIPS": "48229",
        "CITYCD": "482296375",
        "RAILROAD": "UP",
        "RRDIV": "TEXOMA",
        "RRSUBDIV": "TOYAH SUB",
        "HIGHWAY": "TBD",
        "STREET": "SOUTH GARREN ROAD",
        "TTSTN": "",
        "MILEPOST": "0746.403",
        "TYPEXING": "Public",
        "POSXING": "At Grade",
        "PRVCAT": "14",
        "INIT": "1",
        "LATITUDE": 31.077228,
        "LONGITUD": -105.003337,
        "LLSOURCE": "1",
        "WHISTBAN": "",
        "RRCONT": "4025443721",
        "POLCONT": "8008488715",
        "INV_LINK": "https://safetydata.fra.dot.gov/OfficeofSafety/PublicSite/Crossing/Crossing.aspx?phasetype=C&rpttype=I&txtcrossingnum=972518R",
        "ACC_LINK": "https://safetydata.fra.dot.gov/OfficeofSafety/PublicSite/Crossing/Crossing.aspx?phasetype=C&rpttype=A&txtcrossingnum=972518R",
        "TTSTNNAM": "",
        "XPURPOSE": "1",
        "OPERATINGR": "UP",
        "OPERATIN_1": "Primary",
        "DAYTHRU": 0,
        "NGHTTHRU": 0,
        "MAINTRK": 0,
        "SIDINGTRK": 0,
        "YARDTRK": 0,
        "TRANSITTRK": 0,
        "INDUSTRYTR": 1,
        "OTHRTRK": 0,
        "WDCODE": "Crossbucks",
        "REVISIONDA": "1975/01/01 00:00:00",
        "LASTUPDATE": "9/23/2025",
        "AADT": "500",
        "AADTYEAR": "2017",
        "STATENAME": "TEXAS",
        "STATEAB": "TX",
        "COUNTYNAME": "HUDSPETH",
        "CITYNAME": "SIERRA BLANCA",
        "LATDD": 31.077228,
        "LONGDD": -105.003337,
        "gridlyProductionCertified": true,
        "gridlyClassification": "PUBLIC_ROADWAY",
        "gridlyDisplayName": "SOUTH GARREN ROAD",
        "gridlyId": "FRA-972518R"
      }
    },
    {
      "type": "Feature",
      "id": 213685,
      "geometry": {
        "type": "Point",
        "coordinates": [
          -105.896685699826,
          31.3388953999275
        ]
      },
      "properties": {
        "OBJECTID": 213685,
        "CROSSING": "742900P",
        "EFFDATE": 1759968000000,
        "REASON": "14",
        "StateCode": "48",
        "CountyCode": "48229",
        "STCYFIPS": "48229",
        "CITYCD": "482290023",
        "RAILROAD": "UP",
        "RRDIV": "TEXOMA",
        "RRSUBDIV": "VALENTINE SUB",
        "HIGHWAY": "Cr1092",
        "STREET": "ACALA ROAD",
        "TTSTN": "696489",
        "MILEPOST": "0780.240",
        "TYPEXING": "Public",
        "POSXING": "At Grade",
        "PRVCAT": "14",
        "INIT": "2",
        "LATITUDE": 31.3388954,
        "LONGITUD": -105.8966857,
        "LLSOURCE": "1",
        "WHISTBAN": "0",
        "RRCONT": "4025443721",
        "POLCONT": "8008488715",
        "INV_LINK": "https://safetydata.fra.dot.gov/OfficeofSafety/PublicSite/Crossing/Crossing.aspx?phasetype=C&rpttype=I&txtcrossingnum=742900P",
        "ACC_LINK": "https://safetydata.fra.dot.gov/OfficeofSafety/PublicSite/Crossing/Crossing.aspx?phasetype=C&rpttype=A&txtcrossingnum=742900P",
        "TTSTNNAM": "",
        "XPURPOSE": "1",
        "OPERATINGR": "UP",
        "OPERATIN_1": "Primary",
        "DAYTHRU": 10,
        "NGHTTHRU": 10,
        "MAINTRK": 1,
        "SIDINGTRK": 0,
        "YARDTRK": 0,
        "TRANSITTRK": 0,
        "INDUSTRYTR": 0,
        "OTHRTRK": 0,
        "WDCODE": "Stop signs",
        "REVISIONDA": "1975/01/01 00:00:00",
        "LASTUPDATE": "10/9/2025",
        "AADT": "30",
        "AADTYEAR": "2012",
        "STATENAME": "TEXAS",
        "STATEAB": "TX",
        "COUNTYNAME": "HUDSPETH",
        "CITYNAME": "ACALA",
        "LATDD": 31.3388954,
        "LONGDD": -105.8966857,
        "gridlyProductionCertified": true,
        "gridlyClassification": "PUBLIC_ROADWAY",
        "gridlyDisplayName": "ACALA ROAD",
        "gridlyId": "FRA-742900P"
      }
    },
    {
      "type": "Feature",
      "id": 215751,
      "geometry": {
        "type": "Point",
        "coordinates": [
          -105.357089800025,
          31.1758211996309
        ]
      },
      "properties": {
        "OBJECTID": 215751,
        "CROSSING": "764091T",
        "EFFDATE": 1767916800000,
        "REASON": "14",
        "StateCode": "48",
        "CountyCode": "48229",
        "STCYFIPS": "48229",
        "CITYCD": "482296375",
        "RAILROAD": "UP",
        "RRDIV": "TEXOMA",
        "RRSUBDIV": "VALENTINE SUB",
        "HIGHWAY": "rM1111",
        "STREET": "rm1111 / SIERRA BLANCA AVENUE",
        "TTSTN": "",
        "MILEPOST": "0736.920",
        "TYPEXING": "Public",
        "POSXING": "At Grade",
        "PRVCAT": "14",
        "INIT": "2",
        "LATITUDE": 31.1758212,
        "LONGITUD": -105.3570898,
        "LLSOURCE": "1",
        "WHISTBAN": "0",
        "RRCONT": "4025443721",
        "POLCONT": "8008488715",
        "INV_LINK": "https://safetydata.fra.dot.gov/OfficeofSafety/PublicSite/Crossing/Crossing.aspx?phasetype=C&rpttype=I&txtcrossingnum=764091T",
        "ACC_LINK": "https://safetydata.fra.dot.gov/OfficeofSafety/PublicSite/Crossing/Crossing.aspx?phasetype=C&rpttype=A&txtcrossingnum=764091T",
        "TTSTNNAM": "",
        "XPURPOSE": "1",
        "OPERATINGR": "UP",
        "OPERATIN_1": "Primary",
        "DAYTHRU": 15,
        "NGHTTHRU": 15,
        "MAINTRK": 2,
        "SIDINGTRK": 0,
        "YARDTRK": 0,
        "TRANSITTRK": 0,
        "INDUSTRYTR": 0,
        "OTHRTRK": 0,
        "WDCODE": "All other Gates",
        "REVISIONDA": "1975/01/01 00:00:00",
        "LASTUPDATE": "1/9/2026",
        "AADT": "1141",
        "AADTYEAR": "2023",
        "STATENAME": "TEXAS",
        "STATEAB": "TX",
        "COUNTYNAME": "HUDSPETH",
        "CITYNAME": "SIERRA BLANCA",
        "LATDD": 31.1758212,
        "LONGDD": -105.3570898,
        "gridlyProductionCertified": true,
        "gridlyClassification": "PUBLIC_ROADWAY",
        "gridlyDisplayName": "rm1111 / SIERRA BLANCA AVENUE",
        "gridlyId": "FRA-764091T"
      }
    }
  ]
}
