{
  "type": "FeatureCollection",
  "features": [
    {
      "type": "Feature",
      "id": 202287,
      "geometry": {
        "type": "Point",
        "coordinates": [
          -96.3470460003943,
          32.9693910000142
        ]
      },
      "properties": {
        "OBJECTID": 202287,
        "CROSSING": "415201P",
        "EFFDATE": 1683504000000,
        "REASON": "14",
        "StateCode": "48",
        "CountyCode": "48397",
        "STCYFIPS": "48397",
        "CITYCD": "480856010",
        "RAILROAD": "DGNO",
        "RRDIV": "america region",
        "RRSUBDIV": "DALLAS",
        "HIGHWAY": "private",
        "STREET": "PRIVATE",
        "TTSTN": "662940",
        "MILEPOST": "0731.30",
        "TYPEXING": "Private",
        "POSXING": "At Grade",
        "PRVCAT": "14",
        "INIT": "1",
        "LATITUDE": 32.969391,
        "LONGITUD": -96.347046,
        "LLSOURCE": "2",
        "WHISTBAN": "0",
        "RRCONT": "8008003490",
        "POLCONT": "8008003490",
        "INV_LINK": "https://safetydata.fra.dot.gov/OfficeofSafety/PublicSite/Crossing/Crossing.aspx?phasetype=C&rpttype=I&txtcrossingnum=415201P",
        "ACC_LINK": "https://safetydata.fra.dot.gov/OfficeofSafety/PublicSite/Crossing/Crossing.aspx?phasetype=C&rpttype=A&txtcrossingnum=415201P",
        "TTSTNNAM": "GREENVILLE",
        "XPURPOSE": "1",
        "OPERATINGR": "DGNO",
        "OPERATIN_1": "Primary",
        "DAYTHRU": 1,
        "NGHTTHRU": 3,
        "MAINTRK": 1,
        "SIDINGTRK": 0,
        "YARDTRK": 0,
        "TRANSITTRK": 0,
        "INDUSTRYTR": 0,
        "OTHRTRK": 0,
        "WDCODE": "",
        "REVISIONDA": "1992/01/01 00:00:00",
        "LASTUPDATE": "5/8/2023",
        "AADT": "",
        "AADTYEAR": "1980",
        "STATENAME": "TEXAS",
        "STATEAB": "TX",
        "COUNTYNAME": "ROCKWALL",
        "CITYNAME": "ROYSE CITY",
        "LATDD": 32.969391,
        "LONGDD": -96.347046,
        "gridlyProductionCertified": true,
        "gridlyClassification": "PUBLIC_ROADWAY",
        "gridlyDisplayName": "PRIVATE",
        "gridlyId": "FRA-415201P"
      }
    },
    {
      "type": "Feature",
      "id": 202298,
      "geometry": {
        "type": "Point",
        "coordinates": [
          -96.4392469997598,
          32.9233170002726
        ]
      },
      "properties": {
        "OBJECTID": 202298,
        "CROSSING": "415212C",
        "EFFDATE": 1683504000000,
        "REASON": "14",
        "StateCode": "48",
        "CountyCode": "48397",
        "STCYFIPS": "48397",
        "CITYCD": "483975910",
        "RAILROAD": "DGNO",
        "RRDIV": "america region",
        "RRSUBDIV": "DALLAS",
        "HIGHWAY": "private road",
        "STREET": "PRIVATE",
        "TTSTN": "667140",
        "MILEPOST": "0737.40",
        "TYPEXING": "Private",
        "POSXING": "At Grade",
        "PRVCAT": "14",
        "INIT": "1",
        "LATITUDE": 32.923317,
        "LONGITUD": -96.439247,
        "LLSOURCE": "2",
        "WHISTBAN": "0",
        "RRCONT": "8008003490",
        "POLCONT": "8008003490",
        "INV_LINK": "https://safetydata.fra.dot.gov/OfficeofSafety/PublicSite/Crossing/Crossing.aspx?phasetype=C&rpttype=I&txtcrossingnum=415212C",
        "ACC_LINK": "https://safetydata.fra.dot.gov/OfficeofSafety/PublicSite/Crossing/Crossing.aspx?phasetype=C&rpttype=A&txtcrossingnum=415212C",
        "TTSTNNAM": "ROCKWALL",
        "XPURPOSE": "1",
        "OPERATINGR": "DGNO",
        "OPERATIN_1": "Primary",
        "DAYTHRU": 1,
        "NGHTTHRU": 3,
        "MAINTRK": 1,
        "SIDINGTRK": 0,
        "YARDTRK": 0,
        "TRANSITTRK": 0,
        "INDUSTRYTR": 0,
        "OTHRTRK": 0,
        "WDCODE": "",
        "REVISIONDA": "1992/01/01 00:00:00",
        "LASTUPDATE": "5/8/2023",
        "AADT": "",
        "AADTYEAR": "1970",
        "STATENAME": "TEXAS",
        "STATEAB": "TX",
        "COUNTYNAME": "ROCKWALL",
        "CITYNAME": "ROCKWALL",
        "LATDD": 32.923317,
        "LONGDD": -96.439247,
        "gridlyProductionCertified": true,
        "gridlyClassification": "PUBLIC_ROADWAY",
        "gridlyDisplayName": "PRIVATE",
        "gridlyId": "FRA-415212C"
      }
    },
    {
      "type": "Feature",
      "id": 202404,
      "geometry": {
        "type": "Point",
        "coordinates": [
          -96.3664860003852,
          32.9541470000283
        ]
      },
      "properties": {
        "OBJECTID": 202404,
        "CROSSING": "415203D",
        "EFFDATE": 1683504000000,
        "REASON": "14",
        "StateCode": "48",
        "CountyCode": "48397",
        "STCYFIPS": "48397",
        "CITYCD": "480856010",
        "RAILROAD": "DGNO",
        "RRDIV": "america region",
        "RRSUBDIV": "DALLAS",
        "HIGHWAY": "private",
        "STREET": "PRIVATE",
        "TTSTN": "662940",
        "MILEPOST": "0732.85",
        "TYPEXING": "Private",
        "POSXING": "At Grade",
        "PRVCAT": "14",
        "INIT": "1",
        "LATITUDE": 32.954147,
        "LONGITUD": -96.366486,
        "LLSOURCE": "2",
        "WHISTBAN": "0",
        "RRCONT": "8008003490",
        "POLCONT": "8008003490",
        "INV_LINK": "https://safetydata.fra.dot.gov/OfficeofSafety/PublicSite/Crossing/Crossing.aspx?phasetype=C&rpttype=I&txtcrossingnum=415203D",
        "ACC_LINK": "https://safetydata.fra.dot.gov/OfficeofSafety/PublicSite/Crossing/Crossing.aspx?phasetype=C&rpttype=A&txtcrossingnum=415203D",
        "TTSTNNAM": "GREENVILLE",
        "XPURPOSE": "1",
        "OPERATINGR": "DGNO",
        "OPERATIN_1": "Primary",
        "DAYTHRU": 3,
        "NGHTTHRU": 1,
        "MAINTRK": 1,
        "SIDINGTRK": 0,
        "YARDTRK": 0,
        "TRANSITTRK": 0,
        "INDUSTRYTR": 0,
        "OTHRTRK": 0,
        "WDCODE": "",
        "REVISIONDA": "1992/01/01 00:00:00",
        "LASTUPDATE": "5/8/2023",
        "AADT": "",
        "AADTYEAR": "1970",
        "STATENAME": "TEXAS",
        "STATEAB": "TX",
        "COUNTYNAME": "ROCKWALL",
        "CITYNAME": "ROYSE CITY",
        "LATDD": 32.954147,
        "LONGDD": -96.366486,
        "gridlyProductionCertified": true,
        "gridlyClassification": "PUBLIC_ROADWAY",
        "gridlyDisplayName": "PRIVATE",
        "gridlyId": "FRA-415203D"
      }
    },
    {
      "type": "Feature",
      "id": 202405,
      "geometry": {
        "type": "Point",
        "coordinates": [
          -96.3727189996116,
          32.9492680000006
        ]
      },
      "properties": {
        "OBJECTID": 202405,
        "CROSSING": "415204K",
        "EFFDATE": 1683504000000,
        "REASON": "14",
        "StateCode": "48",
        "CountyCode": "48397",
        "STCYFIPS": "48397",
        "CITYCD": "480856010",
        "RAILROAD": "DGNO",
        "RRDIV": "america region",
        "RRSUBDIV": "DALLAS",
        "HIGHWAY": "PRIVATE",
        "STREET": "PRIVATE",
        "TTSTN": "667140",
        "MILEPOST": "0733.35",
        "TYPEXING": "Private",
        "POSXING": "At Grade",
        "PRVCAT": "14",
        "INIT": "1",
        "LATITUDE": 32.949268,
        "LONGITUD": -96.372719,
        "LLSOURCE": "2",
        "WHISTBAN": "0",
        "RRCONT": "8008003490",
        "POLCONT": "8008003490",
        "INV_LINK": "https://safetydata.fra.dot.gov/OfficeofSafety/PublicSite/Crossing/Crossing.aspx?phasetype=C&rpttype=I&txtcrossingnum=415204K",
        "ACC_LINK": "https://safetydata.fra.dot.gov/OfficeofSafety/PublicSite/Crossing/Crossing.aspx?phasetype=C&rpttype=A&txtcrossingnum=415204K",
        "TTSTNNAM": "ROCKWALL",
        "XPURPOSE": "1",
        "OPERATINGR": "DGNO",
        "OPERATIN_1": "Primary",
        "DAYTHRU": 1,
        "NGHTTHRU": 3,
        "MAINTRK": 1,
        "SIDINGTRK": 0,
        "YARDTRK": 0,
        "TRANSITTRK": 0,
        "INDUSTRYTR": 0,
        "OTHRTRK": 0,
        "WDCODE": "",
        "REVISIONDA": "1992/01/01 00:00:00",
        "LASTUPDATE": "5/8/2023",
        "AADT": "000010",
        "AADTYEAR": "1986",
        "STATENAME": "TEXAS",
        "STATEAB": "TX",
        "COUNTYNAME": "ROCKWALL",
        "CITYNAME": "ROYSE CITY",
        "LATDD": 32.949268,
        "LONGDD": -96.372719,
        "gridlyProductionCertified": true,
        "gridlyClassification": "PUBLIC_ROADWAY",
        "gridlyDisplayName": "PRIVATE",
        "gridlyId": "FRA-415204K"
      }
    },
    {
      "type": "Feature",
      "id": 205872,
      "geometry": {
        "type": "Point",
        "coordinates": [
          -96.3939026996375,
          32.9331389002706
        ]
      },
      "properties": {
        "OBJECTID": 205872,
        "CROSSING": "927436P",
        "EFFDATE": 1776988800000,
        "REASON": "14",
        "StateCode": "48",
        "CountyCode": "48397",
        "STCYFIPS": "48397",
        "CITYCD": "483972330",
        "RAILROAD": "DGNO",
        "RRDIV": "AMERICAN region",
        "RRSUBDIV": "GARLAND",
        "HIGHWAY": "CITY STREET",
        "STREET": "WOODCREEK BLVD",
        "TTSTN": "",
        "MILEPOST": "0735.130",
        "TYPEXING": "Public",
        "POSXING": "At Grade",
        "PRVCAT": "14",
        "INIT": "1",
        "LATITUDE": 32.9331389,
        "LONGITUD": -96.3939027,
        "LLSOURCE": "1",
        "WHISTBAN": "",
        "RRCONT": "8665273499",
        "POLCONT": "8665273499",
        "INV_LINK": "https://safetydata.fra.dot.gov/OfficeofSafety/PublicSite/Crossing/Crossing.aspx?phasetype=C&rpttype=I&txtcrossingnum=927436P",
        "ACC_LINK": "https://safetydata.fra.dot.gov/OfficeofSafety/PublicSite/Crossing/Crossing.aspx?phasetype=C&rpttype=A&txtcrossingnum=927436P",
        "TTSTNNAM": "",
        "XPURPOSE": "1",
        "OPERATINGR": "DGNO",
        "OPERATIN_1": "Primary",
        "DAYTHRU": 0,
        "NGHTTHRU": 0,
        "MAINTRK": 1,
        "SIDINGTRK": 0,
        "YARDTRK": 0,
        "TRANSITTRK": 0,
        "INDUSTRYTR": 0,
        "OTHRTRK": 0,
        "WDCODE": "No signs or signals",
        "REVISIONDA": "1992/01/01 00:00:00",
        "LASTUPDATE": "4/24/2026",
        "AADT": "4324",
        "AADTYEAR": "2019",
        "STATENAME": "TEXAS",
        "STATEAB": "TX",
        "COUNTYNAME": "ROCKWALL",
        "CITYNAME": "FATE",
        "LATDD": 32.9331389,
        "LONGDD": -96.3939027,
        "gridlyProductionCertified": true,
        "gridlyClassification": "PUBLIC_ROADWAY",
        "gridlyDisplayName": "WOODCREEK BLVD",
        "gridlyId": "FRA-927436P"
      }
    },
    {
      "type": "Feature",
      "id": 211343,
      "geometry": {
        "type": "Point",
        "coordinates": [
          -96.3574274995529,
          32.9614875998831
        ]
      },
      "properties": {
        "OBJECTID": 211343,
        "CROSSING": "415202W",
        "EFFDATE": 1764547200000,
        "REASON": "14",
        "StateCode": "48",
        "CountyCode": "48397",
        "STCYFIPS": "48397",
        "CITYCD": "483976010",
        "RAILROAD": "DGNO",
        "RRDIV": "AMERICAN REGION",
        "RRSUBDIV": "DALLAS",
        "HIGHWAY": "ls0000",
        "STREET": "FLOYD RoaD",
        "TTSTN": "662940",
        "MILEPOST": "0732.10",
        "TYPEXING": "Public",
        "POSXING": "At Grade",
        "PRVCAT": "14",
        "INIT": "2",
        "LATITUDE": 32.9614876,
        "LONGITUD": -96.3574275,
        "LLSOURCE": "1",
        "WHISTBAN": "0",
        "RRCONT": "8008003490",
        "POLCONT": "8008003490",
        "INV_LINK": "https://safetydata.fra.dot.gov/OfficeofSafety/PublicSite/Crossing/Crossing.aspx?phasetype=C&rpttype=I&txtcrossingnum=415202W",
        "ACC_LINK": "https://safetydata.fra.dot.gov/OfficeofSafety/PublicSite/Crossing/Crossing.aspx?phasetype=C&rpttype=A&txtcrossingnum=415202W",
        "TTSTNNAM": "GREENVILLE",
        "XPURPOSE": "1",
        "OPERATINGR": "DGNO",
        "OPERATIN_1": "Primary",
        "DAYTHRU": 1,
        "NGHTTHRU": 3,
        "MAINTRK": 1,
        "SIDINGTRK": 0,
        "YARDTRK": 0,
        "TRANSITTRK": 0,
        "INDUSTRYTR": 0,
        "OTHRTRK": 0,
        "WDCODE": "Crossbucks",
        "REVISIONDA": "1992/01/01 00:00:00",
        "LASTUPDATE": "12/1/2025",
        "AADT": "58",
        "AADTYEAR": "2024",
        "STATENAME": "TEXAS",
        "STATEAB": "TX",
        "COUNTYNAME": "ROCKWALL",
        "CITYNAME": "ROYSE CITY",
        "LATDD": 32.9614876,
        "LONGDD": -96.3574275,
        "gridlyProductionCertified": true,
        "gridlyClassification": "PUBLIC_ROADWAY",
        "gridlyDisplayName": "FLOYD RoaD",
        "gridlyId": "FRA-415202W"
      }
    },
    {
      "type": "Feature",
      "id": 211350,
      "geometry": {
        "type": "Point",
        "coordinates": [
          -96.4636691003338,
          32.9066496996614
        ]
      },
      "properties": {
        "OBJECTID": 211350,
        "CROSSING": "415215X",
        "EFFDATE": 1763683200000,
        "REASON": "14",
        "StateCode": "48",
        "CountyCode": "48397",
        "STCYFIPS": "48397",
        "CITYCD": "483975910",
        "RAILROAD": "DGNO",
        "RRDIV": "american region",
        "RRSUBDIV": "Greenville",
        "HIGHWAY": "FM 0740",
        "STREET": "FM 0740",
        "TTSTN": "667140",
        "MILEPOST": "0740.00",
        "TYPEXING": "Public",
        "POSXING": "At Grade",
        "PRVCAT": "14",
        "INIT": "1",
        "LATITUDE": 32.9066497,
        "LONGITUD": -96.4636691,
        "LLSOURCE": "2",
        "WHISTBAN": "0",
        "RRCONT": "8008003490",
        "POLCONT": "8008003490",
        "INV_LINK": "https://safetydata.fra.dot.gov/OfficeofSafety/PublicSite/Crossing/Crossing.aspx?phasetype=C&rpttype=I&txtcrossingnum=415215X",
        "ACC_LINK": "https://safetydata.fra.dot.gov/OfficeofSafety/PublicSite/Crossing/Crossing.aspx?phasetype=C&rpttype=A&txtcrossingnum=415215X",
        "TTSTNNAM": "ROCKWALL",
        "XPURPOSE": "1",
        "OPERATINGR": "DGNO",
        "OPERATIN_1": "Primary",
        "DAYTHRU": 0,
        "NGHTTHRU": 0,
        "MAINTRK": 1,
        "SIDINGTRK": 0,
        "YARDTRK": 0,
        "TRANSITTRK": 0,
        "INDUSTRYTR": 0,
        "OTHRTRK": 0,
        "WDCODE": "All other Gates",
        "REVISIONDA": "1992/01/01 00:00:00",
        "LASTUPDATE": "11/21/2025",
        "AADT": "26540",
        "AADTYEAR": "2019",
        "STATENAME": "TEXAS",
        "STATEAB": "TX",
        "COUNTYNAME": "ROCKWALL",
        "CITYNAME": "ROCKWALL",
        "LATDD": 32.9066497,
        "LONGDD": -96.4636691,
        "gridlyProductionCertified": true,
        "gridlyClassification": "PUBLIC_ROADWAY",
        "gridlyDisplayName": "FM 0740",
        "gridlyId": "FRA-415215X"
      }
    },
    {
      "type": "Feature",
      "id": 211351,
      "geometry": {
        "type": "Point",
        "coordinates": [
          -96.4530316001839,
          32.9228403997438
        ]
      },
      "properties": {
        "OBJECTID": 211351,
        "CROSSING": "415213J",
        "EFFDATE": 1763683200000,
        "REASON": "14",
        "StateCode": "48",
        "CountyCode": "48397",
        "STCYFIPS": "48397",
        "CITYCD": "483975910",
        "RAILROAD": "DGNO",
        "RRDIV": "american region",
        "RRSUBDIV": "greenville",
        "HIGHWAY": "ST 0000",
        "STREET": "TI TOWNSEND",
        "TTSTN": "667140",
        "MILEPOST": "0738.70",
        "TYPEXING": "Public",
        "POSXING": "At Grade",
        "PRVCAT": "14",
        "INIT": "1",
        "LATITUDE": 32.9228404,
        "LONGITUD": -96.4530316,
        "LLSOURCE": "2",
        "WHISTBAN": "0",
        "RRCONT": "8008003490",
        "POLCONT": "8008003490",
        "INV_LINK": "https://safetydata.fra.dot.gov/OfficeofSafety/PublicSite/Crossing/Crossing.aspx?phasetype=C&rpttype=I&txtcrossingnum=415213J",
        "ACC_LINK": "https://safetydata.fra.dot.gov/OfficeofSafety/PublicSite/Crossing/Crossing.aspx?phasetype=C&rpttype=A&txtcrossingnum=415213J",
        "TTSTNNAM": "ROCKWALL",
        "XPURPOSE": "1",
        "OPERATINGR": "DGNO",
        "OPERATIN_1": "Primary",
        "DAYTHRU": 0,
        "NGHTTHRU": 0,
        "MAINTRK": 1,
        "SIDINGTRK": 0,
        "YARDTRK": 0,
        "TRANSITTRK": 0,
        "INDUSTRYTR": 0,
        "OTHRTRK": 3,
        "WDCODE": "All other Gates",
        "REVISIONDA": "1992/01/01 00:00:00",
        "LASTUPDATE": "11/21/2025",
        "AADT": "2804",
        "AADTYEAR": "2019",
        "STATENAME": "TEXAS",
        "STATEAB": "TX",
        "COUNTYNAME": "ROCKWALL",
        "CITYNAME": "ROCKWALL",
        "LATDD": 32.9228404,
        "LONGDD": -96.4530316,
        "gridlyProductionCertified": true,
        "gridlyClassification": "PUBLIC_ROADWAY",
        "gridlyDisplayName": "TI TOWNSEND",
        "gridlyId": "FRA-415213J"
      }
    },
    {
      "type": "Feature",
      "id": 211352,
      "geometry": {
        "type": "Point",
        "coordinates": [
          -96.4681407000191,
          32.90302559992
        ]
      },
      "properties": {
        "OBJECTID": 211352,
        "CROSSING": "415216E",
        "EFFDATE": 1763683200000,
        "REASON": "14",
        "StateCode": "48",
        "CountyCode": "48397",
        "STCYFIPS": "48397",
        "CITYCD": "483975910",
        "RAILROAD": "DGNO",
        "RRDIV": "american region",
        "RRSUBDIV": "greenville",
        "HIGHWAY": "county road",
        "STREET": "TURTLE COVE BLVD",
        "TTSTN": "667140",
        "MILEPOST": "0740.40",
        "TYPEXING": "Public",
        "POSXING": "At Grade",
        "PRVCAT": "14",
        "INIT": "1",
        "LATITUDE": 32.9030256,
        "LONGITUD": -96.4681407,
        "LLSOURCE": "2",
        "WHISTBAN": "0",
        "RRCONT": "8008003490",
        "POLCONT": "8008003490",
        "INV_LINK": "https://safetydata.fra.dot.gov/OfficeofSafety/PublicSite/Crossing/Crossing.aspx?phasetype=C&rpttype=I&txtcrossingnum=415216E",
        "ACC_LINK": "https://safetydata.fra.dot.gov/OfficeofSafety/PublicSite/Crossing/Crossing.aspx?phasetype=C&rpttype=A&txtcrossingnum=415216E",
        "TTSTNNAM": "ROCKWALL",
        "XPURPOSE": "1",
        "OPERATINGR": "DGNO",
        "OPERATIN_1": "Primary",
        "DAYTHRU": 0,
        "NGHTTHRU": 0,
        "MAINTRK": 1,
        "SIDINGTRK": 0,
        "YARDTRK": 0,
        "TRANSITTRK": 0,
        "INDUSTRYTR": 0,
        "OTHRTRK": 0,
        "WDCODE": "All other Gates",
        "REVISIONDA": "1992/01/01 00:00:00",
        "LASTUPDATE": "11/21/2025",
        "AADT": "1526",
        "AADTYEAR": "2019",
        "STATENAME": "TEXAS",
        "STATEAB": "TX",
        "COUNTYNAME": "ROCKWALL",
        "CITYNAME": "ROCKWALL",
        "LATDD": 32.9030256,
        "LONGDD": -96.4681407,
        "gridlyProductionCertified": true,
        "gridlyClassification": "PUBLIC_ROADWAY",
        "gridlyDisplayName": "TURTLE COVE BLVD",
        "gridlyId": "FRA-415216E"
      }
    },
    {
      "type": "Feature",
      "id": 211353,
      "geometry": {
        "type": "Point",
        "coordinates": [
          -96.4182836995923,
          32.9239707003412
        ]
      },
      "properties": {
        "OBJECTID": 211353,
        "CROSSING": "415211V",
        "EFFDATE": 1763683200000,
        "REASON": "14",
        "StateCode": "48",
        "CountyCode": "48397",
        "STCYFIPS": "48397",
        "CITYCD": "483975910",
        "RAILROAD": "DGNO",
        "RRDIV": "american region",
        "RRSUBDIV": "DALLAS",
        "HIGHWAY": "FM 3549",
        "STREET": "Stooghill",
        "TTSTN": "667140",
        "MILEPOST": "0736.60",
        "TYPEXING": "Public",
        "POSXING": "At Grade",
        "PRVCAT": "14",
        "INIT": "1",
        "LATITUDE": 32.9239707,
        "LONGITUD": -96.4182837,
        "LLSOURCE": "2",
        "WHISTBAN": "0",
        "RRCONT": "8008003490",
        "POLCONT": "8008003490",
        "INV_LINK": "https://safetydata.fra.dot.gov/OfficeofSafety/PublicSite/Crossing/Crossing.aspx?phasetype=C&rpttype=I&txtcrossingnum=415211V",
        "ACC_LINK": "https://safetydata.fra.dot.gov/OfficeofSafety/PublicSite/Crossing/Crossing.aspx?phasetype=C&rpttype=A&txtcrossingnum=415211V",
        "TTSTNNAM": "ROCKWALL",
        "XPURPOSE": "1",
        "OPERATINGR": "DGNO",
        "OPERATIN_1": "Primary",
        "DAYTHRU": 0,
        "NGHTTHRU": 0,
        "MAINTRK": 1,
        "SIDINGTRK": 0,
        "YARDTRK": 0,
        "TRANSITTRK": 0,
        "INDUSTRYTR": 0,
        "OTHRTRK": 0,
        "WDCODE": "All other Gates",
        "REVISIONDA": "1992/01/01 00:00:00",
        "LASTUPDATE": "11/21/2025",
        "AADT": "5063",
        "AADTYEAR": "2019",
        "STATENAME": "TEXAS",
        "STATEAB": "TX",
        "COUNTYNAME": "ROCKWALL",
        "CITYNAME": "ROCKWALL",
        "LATDD": 32.9239707,
        "LONGDD": -96.4182837,
        "gridlyProductionCertified": true,
        "gridlyClassification": "PUBLIC_ROADWAY",
        "gridlyDisplayName": "Stooghill",
        "gridlyId": "FRA-415211V"
      }
    },
    {
      "type": "Feature",
      "id": 211357,
      "geometry": {
        "type": "Point",
        "coordinates": [
          -96.3830456000281,
          32.9415238000892
        ]
      },
      "properties": {
        "OBJECTID": 211357,
        "CROSSING": "415207F",
        "EFFDATE": 1763683200000,
        "REASON": "14",
        "StateCode": "48",
        "CountyCode": "48397",
        "STCYFIPS": "48397",
        "CITYCD": "483972330",
        "RAILROAD": "DGNO",
        "RRDIV": "american region",
        "RRSUBDIV": "GARLAND",
        "HIGHWAY": "FM 0551",
        "STREET": "FM 0551",
        "TTSTN": "667140",
        "MILEPOST": "0734.15",
        "TYPEXING": "Public",
        "POSXING": "At Grade",
        "PRVCAT": "14",
        "INIT": "1",
        "LATITUDE": 32.9415238,
        "LONGITUD": -96.3830456,
        "LLSOURCE": "2",
        "WHISTBAN": "0",
        "RRCONT": "8008003490",
        "POLCONT": "8008003490",
        "INV_LINK": "https://safetydata.fra.dot.gov/OfficeofSafety/PublicSite/Crossing/Crossing.aspx?phasetype=C&rpttype=I&txtcrossingnum=415207F",
        "ACC_LINK": "https://safetydata.fra.dot.gov/OfficeofSafety/PublicSite/Crossing/Crossing.aspx?phasetype=C&rpttype=A&txtcrossingnum=415207F",
        "TTSTNNAM": "ROCKWALL",
        "XPURPOSE": "1",
        "OPERATINGR": "DGNO",
        "OPERATIN_1": "Primary",
        "DAYTHRU": 0,
        "NGHTTHRU": 0,
        "MAINTRK": 1,
        "SIDINGTRK": 0,
        "YARDTRK": 0,
        "TRANSITTRK": 0,
        "INDUSTRYTR": 0,
        "OTHRTRK": 0,
        "WDCODE": "All other Gates",
        "REVISIONDA": "1992/01/01 00:00:00",
        "LASTUPDATE": "11/21/2025",
        "AADT": "4324",
        "AADTYEAR": "2019",
        "STATENAME": "TEXAS",
        "STATEAB": "TX",
        "COUNTYNAME": "ROCKWALL",
        "CITYNAME": "FATE",
        "LATDD": 32.9415238,
        "LONGDD": -96.3830456,
        "gridlyProductionCertified": true,
        "gridlyClassification": "PUBLIC_ROADWAY",
        "gridlyDisplayName": "FM 0551",
        "gridlyId": "FRA-415207F"
      }
    },
    {
      "type": "Feature",
      "id": 211358,
      "geometry": {
        "type": "Point",
        "coordinates": [
          -96.3284077997952,
          32.9755028998269
        ]
      },
      "properties": {
        "OBJECTID": 211358,
        "CROSSING": "415196V",
        "EFFDATE": 1763683200000,
        "REASON": "14",
        "StateCode": "48",
        "CountyCode": "48397",
        "STCYFIPS": "48397",
        "CITYCD": "483976010",
        "RAILROAD": "DGNO",
        "RRDIV": "american region",
        "RRSUBDIV": "GARLAND",
        "HIGHWAY": "city street",
        "STREET": "JOSEPHINE",
        "TTSTN": "667110",
        "MILEPOST": "0730.25",
        "TYPEXING": "Public",
        "POSXING": "At Grade",
        "PRVCAT": "14",
        "INIT": "1",
        "LATITUDE": 32.9755029,
        "LONGITUD": -96.3284078,
        "LLSOURCE": "2",
        "WHISTBAN": "0",
        "RRCONT": "8008003490",
        "POLCONT": "8008003490",
        "INV_LINK": "https://safetydata.fra.dot.gov/OfficeofSafety/PublicSite/Crossing/Crossing.aspx?phasetype=C&rpttype=I&txtcrossingnum=415196V",
        "ACC_LINK": "https://safetydata.fra.dot.gov/OfficeofSafety/PublicSite/Crossing/Crossing.aspx?phasetype=C&rpttype=A&txtcrossingnum=415196V",
        "TTSTNNAM": "ROYSE CITY",
        "XPURPOSE": "1",
        "OPERATINGR": "DGNO",
        "OPERATIN_1": "Primary",
        "DAYTHRU": 0,
        "NGHTTHRU": 0,
        "MAINTRK": 1,
        "SIDINGTRK": 0,
        "YARDTRK": 0,
        "TRANSITTRK": 0,
        "INDUSTRYTR": 0,
        "OTHRTRK": 0,
        "WDCODE": "All other Gates",
        "REVISIONDA": "1992/01/01 00:00:00",
        "LASTUPDATE": "11/21/2025",
        "AADT": "1189",
        "AADTYEAR": "2019",
        "STATENAME": "TEXAS",
        "STATEAB": "TX",
        "COUNTYNAME": "ROCKWALL",
        "CITYNAME": "ROYSE CITY",
        "LATDD": 32.9755029,
        "LONGDD": -96.3284078,
        "gridlyProductionCertified": true,
        "gridlyClassification": "PUBLIC_ROADWAY",
        "gridlyDisplayName": "JOSEPHINE",
        "gridlyId": "FRA-415196V"
      }
    },
    {
      "type": "Feature",
      "id": 211362,
      "geometry": {
        "type": "Point",
        "coordinates": [
          -96.3309833002575,
          32.9747814999979
        ]
      },
      "properties": {
        "OBJECTID": 211362,
        "CROSSING": "415197C",
        "EFFDATE": 1763683200000,
        "REASON": "14",
        "StateCode": "48",
        "CountyCode": "48397",
        "STCYFIPS": "48397",
        "CITYCD": "483976010",
        "RAILROAD": "DGNO",
        "RRDIV": "american region",
        "RRSUBDIV": "garland",
        "HIGHWAY": "city street",
        "STREET": "arch st",
        "TTSTN": "667110",
        "MILEPOST": "0730.35",
        "TYPEXING": "Public",
        "POSXING": "At Grade",
        "PRVCAT": "14",
        "INIT": "1",
        "LATITUDE": 32.9747815,
        "LONGITUD": -96.3309833,
        "LLSOURCE": "2",
        "WHISTBAN": "0",
        "RRCONT": "8008003490",
        "POLCONT": "8008003490",
        "INV_LINK": "https://safetydata.fra.dot.gov/OfficeofSafety/PublicSite/Crossing/Crossing.aspx?phasetype=C&rpttype=I&txtcrossingnum=415197C",
        "ACC_LINK": "https://safetydata.fra.dot.gov/OfficeofSafety/PublicSite/Crossing/Crossing.aspx?phasetype=C&rpttype=A&txtcrossingnum=415197C",
        "TTSTNNAM": "ROYSE CITY",
        "XPURPOSE": "1",
        "OPERATINGR": "DGNO",
        "OPERATIN_1": "Primary",
        "DAYTHRU": 0,
        "NGHTTHRU": 0,
        "MAINTRK": 1,
        "SIDINGTRK": 0,
        "YARDTRK": 0,
        "TRANSITTRK": 0,
        "INDUSTRYTR": 0,
        "OTHRTRK": 2,
        "WDCODE": "All other Gates",
        "REVISIONDA": "1992/01/01 00:00:00",
        "LASTUPDATE": "11/21/2025",
        "AADT": "698",
        "AADTYEAR": "2019",
        "STATENAME": "TEXAS",
        "STATEAB": "TX",
        "COUNTYNAME": "ROCKWALL",
        "CITYNAME": "ROYSE CITY",
        "LATDD": 32.9747815,
        "LONGDD": -96.3309833,
        "gridlyProductionCertified": true,
        "gridlyClassification": "PUBLIC_ROADWAY",
        "gridlyDisplayName": "arch st",
        "gridlyId": "FRA-415197C"
      }
    },
    {
      "type": "Feature",
      "id": 211363,
      "geometry": {
        "type": "Point",
        "coordinates": [
          -96.332288599976,
          32.9744644001687
        ]
      },
      "properties": {
        "OBJECTID": 211363,
        "CROSSING": "415198J",
        "EFFDATE": 1763683200000,
        "REASON": "14",
        "StateCode": "48",
        "CountyCode": "48397",
        "STCYFIPS": "48397",
        "CITYCD": "483976010",
        "RAILROAD": "DGNO",
        "RRDIV": "american region",
        "RRSUBDIV": "garland",
        "HIGHWAY": "FM 0548",
        "STREET": "FM 0548",
        "TTSTN": "667110",
        "MILEPOST": "0730.45",
        "TYPEXING": "Public",
        "POSXING": "At Grade",
        "PRVCAT": "14",
        "INIT": "1",
        "LATITUDE": 32.9744644,
        "LONGITUD": -96.3322886,
        "LLSOURCE": "1",
        "WHISTBAN": "0",
        "RRCONT": "8008003490",
        "POLCONT": "8008003490",
        "INV_LINK": "https://safetydata.fra.dot.gov/OfficeofSafety/PublicSite/Crossing/Crossing.aspx?phasetype=C&rpttype=I&txtcrossingnum=415198J",
        "ACC_LINK": "https://safetydata.fra.dot.gov/OfficeofSafety/PublicSite/Crossing/Crossing.aspx?phasetype=C&rpttype=A&txtcrossingnum=415198J",
        "TTSTNNAM": "ROYSE CITY",
        "XPURPOSE": "1",
        "OPERATINGR": "DGNO",
        "OPERATIN_1": "Primary",
        "DAYTHRU": 0,
        "NGHTTHRU": 0,
        "MAINTRK": 1,
        "SIDINGTRK": 0,
        "YARDTRK": 0,
        "TRANSITTRK": 0,
        "INDUSTRYTR": 0,
        "OTHRTRK": 2,
        "WDCODE": "All other Gates",
        "REVISIONDA": "1992/01/01 00:00:00",
        "LASTUPDATE": "11/21/2025",
        "AADT": "7199",
        "AADTYEAR": "2019",
        "STATENAME": "TEXAS",
        "STATEAB": "TX",
        "COUNTYNAME": "ROCKWALL",
        "CITYNAME": "ROYSE CITY",
        "LATDD": 32.9744644,
        "LONGDD": -96.3322886,
        "gridlyProductionCertified": true,
        "gridlyClassification": "PUBLIC_ROADWAY",
        "gridlyDisplayName": "FM 0548",
        "gridlyId": "FRA-415198J"
      }
    },
    {
      "type": "Feature",
      "id": 211366,
      "geometry": {
        "type": "Point",
        "coordinates": [
          -96.3189244003251,
          32.9816587997927
        ]
      },
      "properties": {
        "OBJECTID": 211366,
        "CROSSING": "415195N",
        "EFFDATE": 1764547200000,
        "REASON": "14",
        "StateCode": "48",
        "CountyCode": "48085",
        "STCYFIPS": "48085",
        "CITYCD": "480856010",
        "RAILROAD": "DGNO",
        "RRDIV": "american region",
        "RRSUBDIV": "DALLAS",
        "HIGHWAY": "LS0000",
        "STREET": "EAST COUNTY LINE ROAD",
        "TTSTN": "667110",
        "MILEPOST": "0729.47",
        "TYPEXING": "Public",
        "POSXING": "At Grade",
        "PRVCAT": "14",
        "INIT": "2",
        "LATITUDE": 32.9816588,
        "LONGITUD": -96.3189244,
        "LLSOURCE": "2",
        "WHISTBAN": "0",
        "RRCONT": "8008003490",
        "POLCONT": "8008003490",
        "INV_LINK": "https://safetydata.fra.dot.gov/OfficeofSafety/PublicSite/Crossing/Crossing.aspx?phasetype=C&rpttype=I&txtcrossingnum=415195N",
        "ACC_LINK": "https://safetydata.fra.dot.gov/OfficeofSafety/PublicSite/Crossing/Crossing.aspx?phasetype=C&rpttype=A&txtcrossingnum=415195N",
        "TTSTNNAM": "ROYSE CITY",
        "XPURPOSE": "1",
        "OPERATINGR": "DGNO",
        "OPERATIN_1": "Primary",
        "DAYTHRU": 1,
        "NGHTTHRU": 3,
        "MAINTRK": 1,
        "SIDINGTRK": 0,
        "YARDTRK": 0,
        "TRANSITTRK": 0,
        "INDUSTRYTR": 0,
        "OTHRTRK": 0,
        "WDCODE": "Crossbucks",
        "REVISIONDA": "1992/01/01 00:00:00",
        "LASTUPDATE": "12/1/2025",
        "AADT": "84",
        "AADTYEAR": "2019",
        "STATENAME": "TEXAS",
        "STATEAB": "TX",
        "COUNTYNAME": "COLLIN",
        "CITYNAME": "ROYSE CITY",
        "LATDD": 32.9816588,
        "LONGDD": -96.3189244,
        "gridlyProductionCertified": true,
        "gridlyClassification": "PUBLIC_ROADWAY",
        "gridlyDisplayName": "EAST COUNTY LINE ROAD",
        "gridlyId": "FRA-415195N"
      }
    },
    {
      "type": "Feature",
      "id": 211367,
      "geometry": {
        "type": "Point",
        "coordinates": [
          -96.4361110996806,
          32.9238888003409
        ]
      },
      "properties": {
        "OBJECTID": 211367,
        "CROSSING": "927982N",
        "EFFDATE": 1763683200000,
        "REASON": "14",
        "StateCode": "48",
        "CountyCode": "48397",
        "STCYFIPS": "48397",
        "CITYCD": "483975910",
        "RAILROAD": "DGNO",
        "RRDIV": "american region",
        "RRSUBDIV": "GARLAND",
        "HIGHWAY": "O MUNI",
        "STREET": "JOHN KING BLVD",
        "TTSTN": "",
        "MILEPOST": "0737.66",
        "TYPEXING": "Public",
        "POSXING": "At Grade",
        "PRVCAT": "14",
        "INIT": "1",
        "LATITUDE": 32.9238888,
        "LONGITUD": -96.4361111,
        "LLSOURCE": "1",
        "WHISTBAN": "0",
        "RRCONT": "8008003490",
        "POLCONT": "8008003490",
        "INV_LINK": "https://safetydata.fra.dot.gov/OfficeofSafety/PublicSite/Crossing/Crossing.aspx?phasetype=C&rpttype=I&txtcrossingnum=927982N",
        "ACC_LINK": "https://safetydata.fra.dot.gov/OfficeofSafety/PublicSite/Crossing/Crossing.aspx?phasetype=C&rpttype=A&txtcrossingnum=927982N",
        "TTSTNNAM": "",
        "XPURPOSE": "1",
        "OPERATINGR": "DGNO",
        "OPERATIN_1": "Primary",
        "DAYTHRU": 0,
        "NGHTTHRU": 0,
        "MAINTRK": 1,
        "SIDINGTRK": 0,
        "YARDTRK": 0,
        "TRANSITTRK": 0,
        "INDUSTRYTR": 0,
        "OTHRTRK": 0,
        "WDCODE": "All other Gates",
        "REVISIONDA": "1992/01/01 00:00:00",
        "LASTUPDATE": "11/21/2025",
        "AADT": "000200",
        "AADTYEAR": "1978",
        "STATENAME": "TEXAS",
        "STATEAB": "TX",
        "COUNTYNAME": "ROCKWALL",
        "CITYNAME": "ROCKWALL",
        "LATDD": 32.9238888,
        "LONGDD": -96.4361111,
        "gridlyProductionCertified": true,
        "gridlyClassification": "PUBLIC_ROADWAY",
        "gridlyDisplayName": "JOHN KING BLVD",
        "gridlyId": "FRA-927982N"
      }
    },
    {
      "type": "Feature",
      "id": 211458,
      "geometry": {
        "type": "Point",
        "coordinates": [
          -96.3814311001888,
          32.9427714000628
        ]
      },
      "properties": {
        "OBJECTID": 211458,
        "CROSSING": "415206Y",
        "EFFDATE": 1763683200000,
        "REASON": "14",
        "StateCode": "48",
        "CountyCode": "48397",
        "STCYFIPS": "48397",
        "CITYCD": "483972330",
        "RAILROAD": "DGNO",
        "RRDIV": "american region",
        "RRSUBDIV": "GARLAND",
        "HIGHWAY": "city street",
        "STREET": "WM E CRAWFORD AVE",
        "TTSTN": "667140",
        "MILEPOST": "0734.05",
        "TYPEXING": "Public",
        "POSXING": "At Grade",
        "PRVCAT": "14",
        "INIT": "1",
        "LATITUDE": 32.9427714,
        "LONGITUD": -96.3814311,
        "LLSOURCE": "2",
        "WHISTBAN": "0",
        "RRCONT": "8008003490",
        "POLCONT": "8008003490",
        "INV_LINK": "https://safetydata.fra.dot.gov/OfficeofSafety/PublicSite/Crossing/Crossing.aspx?phasetype=C&rpttype=I&txtcrossingnum=415206Y",
        "ACC_LINK": "https://safetydata.fra.dot.gov/OfficeofSafety/PublicSite/Crossing/Crossing.aspx?phasetype=C&rpttype=A&txtcrossingnum=415206Y",
        "TTSTNNAM": "ROCKWALL",
        "XPURPOSE": "1",
        "OPERATINGR": "DGNO",
        "OPERATIN_1": "Primary",
        "DAYTHRU": 0,
        "NGHTTHRU": 0,
        "MAINTRK": 1,
        "SIDINGTRK": 0,
        "YARDTRK": 0,
        "TRANSITTRK": 0,
        "INDUSTRYTR": 0,
        "OTHRTRK": 0,
        "WDCODE": "All other Gates",
        "REVISIONDA": "1992/01/01 00:00:00",
        "LASTUPDATE": "11/21/2025",
        "AADT": "5352",
        "AADTYEAR": "2019",
        "STATENAME": "TEXAS",
        "STATEAB": "TX",
        "COUNTYNAME": "ROCKWALL",
        "CITYNAME": "FATE",
        "LATDD": 32.9427714,
        "LONGDD": -96.3814311,
        "gridlyProductionCertified": true,
        "gridlyClassification": "PUBLIC_ROADWAY",
        "gridlyDisplayName": "WM E CRAWFORD AVE",
        "gridlyId": "FRA-415206Y"
      }
    },
    {
      "type": "Feature",
      "id": 211541,
      "geometry": {
        "type": "Point",
        "coordinates": [
          -96.3406646003813,
          32.9724291000303
        ]
      },
      "properties": {
        "OBJECTID": 211541,
        "CROSSING": "415200H",
        "EFFDATE": 1763683200000,
        "REASON": "14",
        "StateCode": "48",
        "CountyCode": "48397",
        "STCYFIPS": "48397",
        "CITYCD": "483976010",
        "RAILROAD": "DGNO",
        "RRDIV": "american region",
        "RRSUBDIV": "greenville",
        "HIGHWAY": "HICKORY HILL",
        "STREET": "ERBY CAMPBELL B",
        "TTSTN": "662940",
        "MILEPOST": "0730.90",
        "TYPEXING": "Public",
        "POSXING": "At Grade",
        "PRVCAT": "14",
        "INIT": "1",
        "LATITUDE": 32.9724291,
        "LONGITUD": -96.3406646,
        "LLSOURCE": "2",
        "WHISTBAN": "0",
        "RRCONT": "8008003490",
        "POLCONT": "8008003490",
        "INV_LINK": "https://safetydata.fra.dot.gov/OfficeofSafety/PublicSite/Crossing/Crossing.aspx?phasetype=C&rpttype=I&txtcrossingnum=415200H",
        "ACC_LINK": "https://safetydata.fra.dot.gov/OfficeofSafety/PublicSite/Crossing/Crossing.aspx?phasetype=C&rpttype=A&txtcrossingnum=415200H",
        "TTSTNNAM": "GREENVILLE",
        "XPURPOSE": "1",
        "OPERATINGR": "DGNO",
        "OPERATIN_1": "Primary",
        "DAYTHRU": 0,
        "NGHTTHRU": 0,
        "MAINTRK": 1,
        "SIDINGTRK": 0,
        "YARDTRK": 0,
        "TRANSITTRK": 0,
        "INDUSTRYTR": 0,
        "OTHRTRK": 0,
        "WDCODE": "All other Gates",
        "REVISIONDA": "1992/01/01 00:00:00",
        "LASTUPDATE": "11/21/2025",
        "AADT": "9103",
        "AADTYEAR": "2019",
        "STATENAME": "TEXAS",
        "STATEAB": "TX",
        "COUNTYNAME": "ROCKWALL",
        "CITYNAME": "ROYSE CITY",
        "LATDD": 32.9724291,
        "LONGDD": -96.3406646,
        "gridlyProductionCertified": true,
        "gridlyClassification": "PUBLIC_ROADWAY",
        "gridlyDisplayName": "ERBY CAMPBELL B",
        "gridlyId": "FRA-415200H"
      }
    }
  ]
}
