{
  "type": "FeatureCollection",
  "features": [
    {
      "type": "Feature",
      "id": 201088,
      "geometry": {
        "type": "Point",
        "coordinates": [
          -94.6996804995895,
          32.9295860002601
        ]
      },
      "properties": {
        "OBJECTID": 201088,
        "CROSSING": "938780W",
        "EFFDATE": 1504224000000,
        "REASON": "20",
        "StateCode": "48",
        "CountyCode": "48343",
        "STCYFIPS": "48343",
        "CITYCD": "483434074",
        "RAILROAD": "TN",
        "RRDIV": "STORAGE YARD",
        "RRSUBDIV": "",
        "HIGHWAY": "",
        "STREET": "PRIVATE",
        "TTSTN": "",
        "MILEPOST": "0006.90",
        "TYPEXING": "Private",
        "POSXING": "At Grade",
        "PRVCAT": "20",
        "INIT": "1",
        "LATITUDE": 32.929586,
        "LONGITUD": -94.6996805,
        "LLSOURCE": "2",
        "WHISTBAN": "0",
        "RRCONT": "4124694547",
        "POLCONT": "9036566854",
        "INV_LINK": "https://safetydata.fra.dot.gov/OfficeofSafety/PublicSite/Crossing/Crossing.aspx?phasetype=C&rpttype=I&txtcrossingnum=938780W",
        "ACC_LINK": "https://safetydata.fra.dot.gov/OfficeofSafety/PublicSite/Crossing/Crossing.aspx?phasetype=C&rpttype=A&txtcrossingnum=938780W",
        "TTSTNNAM": "",
        "XPURPOSE": "1",
        "OPERATINGR": "TN",
        "OPERATIN_1": "Primary",
        "DAYTHRU": 0,
        "NGHTTHRU": 0,
        "MAINTRK": 0,
        "SIDINGTRK": 0,
        "YARDTRK": 0,
        "TRANSITTRK": 0,
        "INDUSTRYTR": 0,
        "OTHRTRK": 0,
        "WDCODE": "",
        "REVISIONDA": "1975/01/01 00:00:00",
        "LASTUPDATE": "9/1/2017",
        "AADT": "",
        "AADTYEAR": "",
        "STATENAME": "TEXAS",
        "STATEAB": "TX",
        "COUNTYNAME": "MORRIS",
        "CITYNAME": "LONE STAR",
        "LATDD": 32.929586,
        "LONGDD": -94.6996805,
        "gridlyProductionCertified": true,
        "gridlyClassification": "PUBLIC_ROADWAY",
        "gridlyDisplayName": "PRIVATE",
        "gridlyId": "FRA-938780W"
      }
    },
    {
      "type": "Feature",
      "id": 201089,
      "geometry": {
        "type": "Point",
        "coordinates": [
          -94.6628777000904,
          33.0095054999043
        ]
      },
      "properties": {
        "OBJECTID": 201089,
        "CROSSING": "938783S",
        "EFFDATE": 1504224000000,
        "REASON": "20",
        "StateCode": "48",
        "CountyCode": "48343",
        "STCYFIPS": "48343",
        "CITYCD": "480673310",
        "RAILROAD": "TN",
        "RRDIV": "",
        "RRSUBDIV": "",
        "HIGHWAY": "",
        "STREET": "PRIVATE",
        "TTSTN": "661615",
        "MILEPOST": "0000.00",
        "TYPEXING": "Private",
        "POSXING": "At Grade",
        "PRVCAT": "20",
        "INIT": "1",
        "LATITUDE": 33.0095055,
        "LONGITUD": -94.6628777,
        "LLSOURCE": "2",
        "WHISTBAN": "0",
        "RRCONT": "4124694547",
        "POLCONT": "9036566854",
        "INV_LINK": "https://safetydata.fra.dot.gov/OfficeofSafety/PublicSite/Crossing/Crossing.aspx?phasetype=C&rpttype=I&txtcrossingnum=938783S",
        "ACC_LINK": "https://safetydata.fra.dot.gov/OfficeofSafety/PublicSite/Crossing/Crossing.aspx?phasetype=C&rpttype=A&txtcrossingnum=938783S",
        "TTSTNNAM": "VEALS",
        "XPURPOSE": "1",
        "OPERATINGR": "TN",
        "OPERATIN_1": "Primary",
        "DAYTHRU": 0,
        "NGHTTHRU": 0,
        "MAINTRK": 0,
        "SIDINGTRK": 0,
        "YARDTRK": 0,
        "TRANSITTRK": 0,
        "INDUSTRYTR": 0,
        "OTHRTRK": 0,
        "WDCODE": "",
        "REVISIONDA": "1975/01/01 00:00:00",
        "LASTUPDATE": "9/1/2017",
        "AADT": "",
        "AADTYEAR": "",
        "STATENAME": "TEXAS",
        "STATEAB": "TX",
        "COUNTYNAME": "MORRIS",
        "CITYNAME": "HUGHES SPRINGS",
        "LATDD": 33.0095055,
        "LONGDD": -94.6628777,
        "gridlyProductionCertified": true,
        "gridlyClassification": "PUBLIC_ROADWAY",
        "gridlyDisplayName": "PRIVATE",
        "gridlyId": "FRA-938783S"
      }
    },
    {
      "type": "Feature",
      "id": 201094,
      "geometry": {
        "type": "Point",
        "coordinates": [
          -94.6926888003421,
          32.9332220998294
        ]
      },
      "properties": {
        "OBJECTID": 201094,
        "CROSSING": "938781D",
        "EFFDATE": 1504224000000,
        "REASON": "20",
        "StateCode": "48",
        "CountyCode": "48343",
        "STCYFIPS": "48343",
        "CITYCD": "483434074",
        "RAILROAD": "TN",
        "RRDIV": "LAKE YARD",
        "RRSUBDIV": "",
        "HIGHWAY": "",
        "STREET": "PRIVATE",
        "TTSTN": "",
        "MILEPOST": "0006.30",
        "TYPEXING": "Private",
        "POSXING": "At Grade",
        "PRVCAT": "20",
        "INIT": "1",
        "LATITUDE": 32.9332221,
        "LONGITUD": -94.6926888,
        "LLSOURCE": "2",
        "WHISTBAN": "0",
        "RRCONT": "4124694547",
        "POLCONT": "9036566854",
        "INV_LINK": "https://safetydata.fra.dot.gov/OfficeofSafety/PublicSite/Crossing/Crossing.aspx?phasetype=C&rpttype=I&txtcrossingnum=938781D",
        "ACC_LINK": "https://safetydata.fra.dot.gov/OfficeofSafety/PublicSite/Crossing/Crossing.aspx?phasetype=C&rpttype=A&txtcrossingnum=938781D",
        "TTSTNNAM": "",
        "XPURPOSE": "1",
        "OPERATINGR": "TN",
        "OPERATIN_1": "Primary",
        "DAYTHRU": 0,
        "NGHTTHRU": 0,
        "MAINTRK": 0,
        "SIDINGTRK": 0,
        "YARDTRK": 0,
        "TRANSITTRK": 0,
        "INDUSTRYTR": 0,
        "OTHRTRK": 0,
        "WDCODE": "",
        "REVISIONDA": "1975/01/01 00:00:00",
        "LASTUPDATE": "9/1/2017",
        "AADT": "",
        "AADTYEAR": "",
        "STATENAME": "TEXAS",
        "STATEAB": "TX",
        "COUNTYNAME": "MORRIS",
        "CITYNAME": "LONE STAR",
        "LATDD": 32.9332221,
        "LONGDD": -94.6926888,
        "gridlyProductionCertified": true,
        "gridlyClassification": "PUBLIC_ROADWAY",
        "gridlyDisplayName": "PRIVATE",
        "gridlyId": "FRA-938781D"
      }
    },
    {
      "type": "Feature",
      "id": 201095,
      "geometry": {
        "type": "Point",
        "coordinates": [
          -94.6597583002663,
          32.9683777002366
        ]
      },
      "properties": {
        "OBJECTID": 201095,
        "CROSSING": "938782K",
        "EFFDATE": 1504224000000,
        "REASON": "20",
        "StateCode": "48",
        "CountyCode": "48343",
        "STCYFIPS": "48343",
        "CITYCD": "483434074",
        "RAILROAD": "TN",
        "RRDIV": "",
        "RRSUBDIV": "",
        "HIGHWAY": "",
        "STREET": "PRIVATE",
        "TTSTN": "661666",
        "MILEPOST": "0003.26",
        "TYPEXING": "Private",
        "POSXING": "At Grade",
        "PRVCAT": "20",
        "INIT": "1",
        "LATITUDE": 32.9683777,
        "LONGITUD": -94.6597583,
        "LLSOURCE": "2",
        "WHISTBAN": "0",
        "RRCONT": "4124694547",
        "POLCONT": "9036566854",
        "INV_LINK": "https://safetydata.fra.dot.gov/OfficeofSafety/PublicSite/Crossing/Crossing.aspx?phasetype=C&rpttype=I&txtcrossingnum=938782K",
        "ACC_LINK": "https://safetydata.fra.dot.gov/OfficeofSafety/PublicSite/Crossing/Crossing.aspx?phasetype=C&rpttype=A&txtcrossingnum=938782K",
        "TTSTNNAM": "BOND",
        "XPURPOSE": "1",
        "OPERATINGR": "TN",
        "OPERATIN_1": "Primary",
        "DAYTHRU": 0,
        "NGHTTHRU": 0,
        "MAINTRK": 0,
        "SIDINGTRK": 0,
        "YARDTRK": 0,
        "TRANSITTRK": 0,
        "INDUSTRYTR": 0,
        "OTHRTRK": 0,
        "WDCODE": "",
        "REVISIONDA": "1975/01/01 00:00:00",
        "LASTUPDATE": "9/1/2017",
        "AADT": "",
        "AADTYEAR": "",
        "STATENAME": "TEXAS",
        "STATEAB": "TX",
        "COUNTYNAME": "MORRIS",
        "CITYNAME": "LONE STAR",
        "LATDD": 32.9683777,
        "LONGDD": -94.6597583,
        "gridlyProductionCertified": true,
        "gridlyClassification": "PUBLIC_ROADWAY",
        "gridlyDisplayName": "PRIVATE",
        "gridlyId": "FRA-938782K"
      }
    },
    {
      "type": "Feature",
      "id": 201101,
      "geometry": {
        "type": "Point",
        "coordinates": [
          -94.7078361001364,
          32.9281498998351
        ]
      },
      "properties": {
        "OBJECTID": 201101,
        "CROSSING": "840745G",
        "EFFDATE": 1504224000000,
        "REASON": "20",
        "StateCode": "48",
        "CountyCode": "48343",
        "STCYFIPS": "48343",
        "CITYCD": "483434074",
        "RAILROAD": "TN",
        "RRDIV": "",
        "RRSUBDIV": "",
        "HIGHWAY": "US 0259",
        "STREET": "US 0259",
        "TTSTN": "661690",
        "MILEPOST": "0007.60",
        "TYPEXING": "Public",
        "POSXING": "RR Under",
        "PRVCAT": "20",
        "INIT": "1",
        "LATITUDE": 32.9281499,
        "LONGITUD": -94.7078361,
        "LLSOURCE": "2",
        "WHISTBAN": "0",
        "RRCONT": "4124694547",
        "POLCONT": "9036566854",
        "INV_LINK": "https://safetydata.fra.dot.gov/OfficeofSafety/PublicSite/Crossing/Crossing.aspx?phasetype=C&rpttype=I&txtcrossingnum=840745G",
        "ACC_LINK": "https://safetydata.fra.dot.gov/OfficeofSafety/PublicSite/Crossing/Crossing.aspx?phasetype=C&rpttype=A&txtcrossingnum=840745G",
        "TTSTNNAM": "LONE STAR",
        "XPURPOSE": "1",
        "OPERATINGR": "TN",
        "OPERATIN_1": "Primary",
        "DAYTHRU": 20,
        "NGHTTHRU": 20,
        "MAINTRK": 1,
        "SIDINGTRK": 0,
        "YARDTRK": 0,
        "TRANSITTRK": 0,
        "INDUSTRYTR": 0,
        "OTHRTRK": 0,
        "WDCODE": "",
        "REVISIONDA": "1975/01/01 00:00:00",
        "LASTUPDATE": "9/1/2017",
        "AADT": "007000",
        "AADTYEAR": "2011",
        "STATENAME": "TEXAS",
        "STATEAB": "TX",
        "COUNTYNAME": "MORRIS",
        "CITYNAME": "LONE STAR",
        "LATDD": 32.9281499,
        "LONGDD": -94.7078361,
        "gridlyProductionCertified": true,
        "gridlyClassification": "PUBLIC_ROADWAY",
        "gridlyDisplayName": "US 0259",
        "gridlyId": "FRA-840745G"
      }
    },
    {
      "type": "Feature",
      "id": 201102,
      "geometry": {
        "type": "Point",
        "coordinates": [
          -94.6638199995858,
          32.95796000037
        ]
      },
      "properties": {
        "OBJECTID": 201102,
        "CROSSING": "840752S",
        "EFFDATE": 1504224000000,
        "REASON": "20",
        "StateCode": "48",
        "CountyCode": "48343",
        "STCYFIPS": "48343",
        "CITYCD": "483434074",
        "RAILROAD": "TN",
        "RRDIV": "",
        "RRSUBDIV": "",
        "HIGHWAY": "IND RD",
        "STREET": "PRIVATE CROSSING",
        "TTSTN": "661666",
        "MILEPOST": "0003.70",
        "TYPEXING": "Private",
        "POSXING": "At Grade",
        "PRVCAT": "20",
        "INIT": "1",
        "LATITUDE": 32.95796,
        "LONGITUD": -94.66382,
        "LLSOURCE": "",
        "WHISTBAN": "0",
        "RRCONT": "4124694547",
        "POLCONT": "9036566854",
        "INV_LINK": "https://safetydata.fra.dot.gov/OfficeofSafety/PublicSite/Crossing/Crossing.aspx?phasetype=C&rpttype=I&txtcrossingnum=840752S",
        "ACC_LINK": "https://safetydata.fra.dot.gov/OfficeofSafety/PublicSite/Crossing/Crossing.aspx?phasetype=C&rpttype=A&txtcrossingnum=840752S",
        "TTSTNNAM": "BOND",
        "XPURPOSE": "1",
        "OPERATINGR": "TN",
        "OPERATIN_1": "Primary",
        "DAYTHRU": 0,
        "NGHTTHRU": 0,
        "MAINTRK": 0,
        "SIDINGTRK": 0,
        "YARDTRK": 0,
        "TRANSITTRK": 0,
        "INDUSTRYTR": 0,
        "OTHRTRK": 0,
        "WDCODE": "",
        "REVISIONDA": "1975/01/01 00:00:00",
        "LASTUPDATE": "9/1/2017",
        "AADT": "",
        "AADTYEAR": "1970",
        "STATENAME": "TEXAS",
        "STATEAB": "TX",
        "COUNTYNAME": "MORRIS",
        "CITYNAME": "LONE STAR",
        "LATDD": 32.95796,
        "LONGDD": -94.66382,
        "gridlyProductionCertified": true,
        "gridlyClassification": "PUBLIC_ROADWAY",
        "gridlyDisplayName": "PRIVATE CROSSING",
        "gridlyId": "FRA-840752S"
      }
    },
    {
      "type": "Feature",
      "id": 201103,
      "geometry": {
        "type": "Point",
        "coordinates": [
          -94.6577420001701,
          32.9754059996629
        ]
      },
      "properties": {
        "OBJECTID": 201103,
        "CROSSING": "840756U",
        "EFFDATE": 1504224000000,
        "REASON": "20",
        "StateCode": "48",
        "CountyCode": "48343",
        "STCYFIPS": "48343",
        "CITYCD": "480673310",
        "RAILROAD": "TN",
        "RRDIV": "",
        "RRSUBDIV": "",
        "HIGHWAY": "IND RD",
        "STREET": "PRIVATE CROSSING",
        "TTSTN": "661658",
        "MILEPOST": "0002.60",
        "TYPEXING": "Private",
        "POSXING": "At Grade",
        "PRVCAT": "20",
        "INIT": "1",
        "LATITUDE": 32.975406,
        "LONGITUD": -94.657742,
        "LLSOURCE": "",
        "WHISTBAN": "0",
        "RRCONT": "4124694547",
        "POLCONT": "9036566854",
        "INV_LINK": "https://safetydata.fra.dot.gov/OfficeofSafety/PublicSite/Crossing/Crossing.aspx?phasetype=C&rpttype=I&txtcrossingnum=840756U",
        "ACC_LINK": "https://safetydata.fra.dot.gov/OfficeofSafety/PublicSite/Crossing/Crossing.aspx?phasetype=C&rpttype=A&txtcrossingnum=840756U",
        "TTSTNNAM": "LAMAN",
        "XPURPOSE": "1",
        "OPERATINGR": "TN",
        "OPERATIN_1": "Primary",
        "DAYTHRU": 0,
        "NGHTTHRU": 0,
        "MAINTRK": 0,
        "SIDINGTRK": 0,
        "YARDTRK": 0,
        "TRANSITTRK": 0,
        "INDUSTRYTR": 0,
        "OTHRTRK": 0,
        "WDCODE": "",
        "REVISIONDA": "1975/01/01 00:00:00",
        "LASTUPDATE": "9/1/2017",
        "AADT": "",
        "AADTYEAR": "1970",
        "STATENAME": "TEXAS",
        "STATEAB": "TX",
        "COUNTYNAME": "MORRIS",
        "CITYNAME": "HUGHES SPRINGS",
        "LATDD": 32.975406,
        "LONGDD": -94.657742,
        "gridlyProductionCertified": true,
        "gridlyClassification": "PUBLIC_ROADWAY",
        "gridlyDisplayName": "PRIVATE CROSSING",
        "gridlyId": "FRA-840756U"
      }
    },
    {
      "type": "Feature",
      "id": 201941,
      "geometry": {
        "type": "Point",
        "coordinates": [
          -94.6597377001002,
          33.0023381001841
        ]
      },
      "properties": {
        "OBJECTID": 201941,
        "CROSSING": "840758H",
        "EFFDATE": 1665705600000,
        "REASON": "14",
        "StateCode": "48",
        "CountyCode": "48343",
        "STCYFIPS": "48343",
        "CITYCD": "480673310",
        "RAILROAD": "TN",
        "RRDIV": "",
        "RRSUBDIV": "",
        "HIGHWAY": "CO 2100",
        "STREET": "CR 2100",
        "TTSTN": "661655",
        "MILEPOST": "0000.50",
        "TYPEXING": "Public",
        "POSXING": "At Grade",
        "PRVCAT": "14",
        "INIT": "2",
        "LATITUDE": 33.0023381,
        "LONGITUD": -94.6597377,
        "LLSOURCE": "",
        "WHISTBAN": "0",
        "RRCONT": "4124694547",
        "POLCONT": "9036566854",
        "INV_LINK": "https://safetydata.fra.dot.gov/OfficeofSafety/PublicSite/Crossing/Crossing.aspx?phasetype=C&rpttype=I&txtcrossingnum=840758H",
        "ACC_LINK": "https://safetydata.fra.dot.gov/OfficeofSafety/PublicSite/Crossing/Crossing.aspx?phasetype=C&rpttype=A&txtcrossingnum=840758H",
        "TTSTNNAM": "",
        "XPURPOSE": "1",
        "OPERATINGR": "TN",
        "OPERATIN_1": "Primary",
        "DAYTHRU": 6,
        "NGHTTHRU": 2,
        "MAINTRK": 1,
        "SIDINGTRK": 0,
        "YARDTRK": 0,
        "TRANSITTRK": 0,
        "INDUSTRYTR": 0,
        "OTHRTRK": 0,
        "WDCODE": "Flashing lights",
        "REVISIONDA": "1975/01/01 00:00:00",
        "LASTUPDATE": "10/14/2022",
        "AADT": "222",
        "AADTYEAR": "2019",
        "STATENAME": "TEXAS",
        "STATEAB": "TX",
        "COUNTYNAME": "MORRIS",
        "CITYNAME": "HUGHES SPRINGS",
        "LATDD": 33.0023381,
        "LONGDD": -94.6597377,
        "gridlyProductionCertified": true,
        "gridlyClassification": "PUBLIC_ROADWAY",
        "gridlyDisplayName": "CR 2100",
        "gridlyId": "FRA-840758H"
      }
    },
    {
      "type": "Feature",
      "id": 201973,
      "geometry": {
        "type": "Point",
        "coordinates": [
          -94.6622022002344,
          32.9596891003431
        ]
      },
      "properties": {
        "OBJECTID": 201973,
        "CROSSING": "840753Y",
        "EFFDATE": 1665705600000,
        "REASON": "14",
        "StateCode": "48",
        "CountyCode": "48343",
        "STCYFIPS": "48343",
        "CITYCD": "483434074",
        "RAILROAD": "TN",
        "RRDIV": "",
        "RRSUBDIV": "",
        "HIGHWAY": "FM 0250",
        "STREET": "FM 0250",
        "TTSTN": "661666",
        "MILEPOST": "0003.60",
        "TYPEXING": "Public",
        "POSXING": "At Grade",
        "PRVCAT": "14",
        "INIT": "2",
        "LATITUDE": 32.9596891,
        "LONGITUD": -94.6622022,
        "LLSOURCE": "",
        "WHISTBAN": "0",
        "RRCONT": "4124694547",
        "POLCONT": "9036566854",
        "INV_LINK": "https://safetydata.fra.dot.gov/OfficeofSafety/PublicSite/Crossing/Crossing.aspx?phasetype=C&rpttype=I&txtcrossingnum=840753Y",
        "ACC_LINK": "https://safetydata.fra.dot.gov/OfficeofSafety/PublicSite/Crossing/Crossing.aspx?phasetype=C&rpttype=A&txtcrossingnum=840753Y",
        "TTSTNNAM": "BOND",
        "XPURPOSE": "1",
        "OPERATINGR": "TN",
        "OPERATIN_1": "Primary",
        "DAYTHRU": 10,
        "NGHTTHRU": 0,
        "MAINTRK": 1,
        "SIDINGTRK": 0,
        "YARDTRK": 0,
        "TRANSITTRK": 0,
        "INDUSTRYTR": 0,
        "OTHRTRK": 0,
        "WDCODE": "All other Gates",
        "REVISIONDA": "1975/01/01 00:00:00",
        "LASTUPDATE": "10/14/2022",
        "AADT": "2519",
        "AADTYEAR": "2019",
        "STATENAME": "TEXAS",
        "STATEAB": "TX",
        "COUNTYNAME": "MORRIS",
        "CITYNAME": "LONE STAR",
        "LATDD": 32.9596891,
        "LONGDD": -94.6622022,
        "gridlyProductionCertified": true,
        "gridlyClassification": "PUBLIC_ROADWAY",
        "gridlyDisplayName": "FM 0250",
        "gridlyId": "FRA-840753Y"
      }
    },
    {
      "type": "Feature",
      "id": 202784,
      "geometry": {
        "type": "Point",
        "coordinates": [
          -94.7789339999166,
          33.029377000088
        ]
      },
      "properties": {
        "OBJECTID": 202784,
        "CROSSING": "331502A",
        "EFFDATE": 1772409600000,
        "REASON": "14",
        "StateCode": "48",
        "CountyCode": "48343",
        "STCYFIPS": "48343",
        "CITYCD": "483431700",
        "RAILROAD": "KCS",
        "RRDIV": "Speedway",
        "RRSUBDIV": "Greenville",
        "HIGHWAY": "NA",
        "STREET": "PRIVATE ROAD",
        "TTSTN": "661660",
        "MILEPOST": "0086.290",
        "TYPEXING": "Private",
        "POSXING": "At Grade",
        "PRVCAT": "14",
        "INIT": "1",
        "LATITUDE": 33.029377,
        "LONGITUD": -94.778934,
        "LLSOURCE": "1",
        "WHISTBAN": "0",
        "RRCONT": "3186766269",
        "POLCONT": "8775279464",
        "INV_LINK": "https://safetydata.fra.dot.gov/OfficeofSafety/PublicSite/Crossing/Crossing.aspx?phasetype=C&rpttype=I&txtcrossingnum=331502A",
        "ACC_LINK": "https://safetydata.fra.dot.gov/OfficeofSafety/PublicSite/Crossing/Crossing.aspx?phasetype=C&rpttype=A&txtcrossingnum=331502A",
        "TTSTNNAM": "661660",
        "XPURPOSE": "1",
        "OPERATINGR": "CPKC",
        "OPERATIN_1": "Primary",
        "DAYTHRU": 4,
        "NGHTTHRU": 3,
        "MAINTRK": 1,
        "SIDINGTRK": 0,
        "YARDTRK": 0,
        "TRANSITTRK": 0,
        "INDUSTRYTR": 0,
        "OTHRTRK": 0,
        "WDCODE": "",
        "REVISIONDA": "1975/01/01 00:00:00",
        "LASTUPDATE": "3/2/2026",
        "AADT": "1",
        "AADTYEAR": "1970",
        "STATENAME": "TEXAS",
        "STATEAB": "TX",
        "COUNTYNAME": "MORRIS",
        "CITYNAME": "DAINGERFIELD",
        "LATDD": 33.029377,
        "LONGDD": -94.778934,
        "gridlyProductionCertified": true,
        "gridlyClassification": "PUBLIC_ROADWAY",
        "gridlyDisplayName": "PRIVATE ROAD",
        "gridlyId": "FRA-331502A"
      }
    },
    {
      "type": "Feature",
      "id": 202950,
      "geometry": {
        "type": "Point",
        "coordinates": [
          -94.6883210000895,
          33.0318509996917
        ]
      },
      "properties": {
        "OBJECTID": 202950,
        "CROSSING": "331493D",
        "EFFDATE": 1772409600000,
        "REASON": "14",
        "StateCode": "48",
        "CountyCode": "48343",
        "STCYFIPS": "48343",
        "CITYCD": "483431700",
        "RAILROAD": "KCS",
        "RRDIV": "Speedway",
        "RRSUBDIV": "Greenville",
        "HIGHWAY": "CO 4114",
        "STREET": "CR 4114",
        "TTSTN": "661615",
        "MILEPOST": "0080.370",
        "TYPEXING": "Public",
        "POSXING": "At Grade",
        "PRVCAT": "14",
        "INIT": "1",
        "LATITUDE": 33.031851,
        "LONGITUD": -94.688321,
        "LLSOURCE": "1",
        "WHISTBAN": "0",
        "RRCONT": "3186766269",
        "POLCONT": "8775279464",
        "INV_LINK": "https://safetydata.fra.dot.gov/OfficeofSafety/PublicSite/Crossing/Crossing.aspx?phasetype=C&rpttype=I&txtcrossingnum=331493D",
        "ACC_LINK": "https://safetydata.fra.dot.gov/OfficeofSafety/PublicSite/Crossing/Crossing.aspx?phasetype=C&rpttype=A&txtcrossingnum=331493D",
        "TTSTNNAM": "661615",
        "XPURPOSE": "1",
        "OPERATINGR": "CPKC",
        "OPERATIN_1": "Primary",
        "DAYTHRU": 4,
        "NGHTTHRU": 3,
        "MAINTRK": 1,
        "SIDINGTRK": 0,
        "YARDTRK": 0,
        "TRANSITTRK": 0,
        "INDUSTRYTR": 0,
        "OTHRTRK": 0,
        "WDCODE": "Crossbucks",
        "REVISIONDA": "1975/01/01 00:00:00",
        "LASTUPDATE": "3/2/2026",
        "AADT": "28",
        "AADTYEAR": "2019",
        "STATENAME": "TEXAS",
        "STATEAB": "TX",
        "COUNTYNAME": "MORRIS",
        "CITYNAME": "DAINGERFIELD",
        "LATDD": 33.031851,
        "LONGDD": -94.688321,
        "gridlyProductionCertified": true,
        "gridlyClassification": "PUBLIC_ROADWAY",
        "gridlyDisplayName": "CR 4114",
        "gridlyId": "FRA-331493D"
      }
    },
    {
      "type": "Feature",
      "id": 203482,
      "geometry": {
        "type": "Point",
        "coordinates": [
          -94.7231649997554,
          33.0302779997757
        ]
      },
      "properties": {
        "OBJECTID": 203482,
        "CROSSING": "331497F",
        "EFFDATE": 1772409600000,
        "REASON": "14",
        "StateCode": "48",
        "CountyCode": "48343",
        "STCYFIPS": "48343",
        "CITYCD": "483431700",
        "RAILROAD": "KCS",
        "RRDIV": "Speedway",
        "RRSUBDIV": "Greenville",
        "HIGHWAY": "US 0259",
        "STREET": "SH 0011",
        "TTSTN": "661650",
        "MILEPOST": "0082.700",
        "TYPEXING": "Public",
        "POSXING": "RR Over",
        "PRVCAT": "14",
        "INIT": "1",
        "LATITUDE": 33.030278,
        "LONGITUD": -94.723165,
        "LLSOURCE": "1",
        "WHISTBAN": "0",
        "RRCONT": "3186766269",
        "POLCONT": "8775279464",
        "INV_LINK": "https://safetydata.fra.dot.gov/OfficeofSafety/PublicSite/Crossing/Crossing.aspx?phasetype=C&rpttype=I&txtcrossingnum=331497F",
        "ACC_LINK": "https://safetydata.fra.dot.gov/OfficeofSafety/PublicSite/Crossing/Crossing.aspx?phasetype=C&rpttype=A&txtcrossingnum=331497F",
        "TTSTNNAM": "661650",
        "XPURPOSE": "1",
        "OPERATINGR": "CPKC",
        "OPERATIN_1": "Primary",
        "DAYTHRU": 4,
        "NGHTTHRU": 3,
        "MAINTRK": 1,
        "SIDINGTRK": 0,
        "YARDTRK": 0,
        "TRANSITTRK": 0,
        "INDUSTRYTR": 0,
        "OTHRTRK": 0,
        "WDCODE": "",
        "REVISIONDA": "1975/01/01 00:00:00",
        "LASTUPDATE": "3/2/2026",
        "AADT": "11000",
        "AADTYEAR": "2011",
        "STATENAME": "TEXAS",
        "STATEAB": "TX",
        "COUNTYNAME": "MORRIS",
        "CITYNAME": "DAINGERFIELD",
        "LATDD": 33.030278,
        "LONGDD": -94.723165,
        "gridlyProductionCertified": true,
        "gridlyClassification": "PUBLIC_ROADWAY",
        "gridlyDisplayName": "SH 0011",
        "gridlyId": "FRA-331497F"
      }
    },
    {
      "type": "Feature",
      "id": 203816,
      "geometry": {
        "type": "Point",
        "coordinates": [
          -94.7083059998784,
          33.0392249999594
        ]
      },
      "properties": {
        "OBJECTID": 203816,
        "CROSSING": "927228N",
        "EFFDATE": 1772409600000,
        "REASON": "14",
        "StateCode": "48",
        "CountyCode": "48343",
        "STCYFIPS": "48343",
        "CITYCD": "483431700",
        "RAILROAD": "KCS",
        "RRDIV": "Speedway",
        "RRSUBDIV": "Greenville",
        "HIGHWAY": "NA",
        "STREET": "Atlas Ind Xings",
        "TTSTN": "",
        "MILEPOST": "0081.544",
        "TYPEXING": "Private",
        "POSXING": "At Grade",
        "PRVCAT": "14",
        "INIT": "1",
        "LATITUDE": 33.039225,
        "LONGITUD": -94.708306,
        "LLSOURCE": "1",
        "WHISTBAN": "",
        "RRCONT": "3186766269",
        "POLCONT": "8775279464",
        "INV_LINK": "https://safetydata.fra.dot.gov/OfficeofSafety/PublicSite/Crossing/Crossing.aspx?phasetype=C&rpttype=I&txtcrossingnum=927228N",
        "ACC_LINK": "https://safetydata.fra.dot.gov/OfficeofSafety/PublicSite/Crossing/Crossing.aspx?phasetype=C&rpttype=A&txtcrossingnum=927228N",
        "TTSTNNAM": "",
        "XPURPOSE": "1",
        "OPERATINGR": "CPKC",
        "OPERATIN_1": "Primary",
        "DAYTHRU": 4,
        "NGHTTHRU": 3,
        "MAINTRK": 1,
        "SIDINGTRK": 0,
        "YARDTRK": 0,
        "TRANSITTRK": 0,
        "INDUSTRYTR": 0,
        "OTHRTRK": 0,
        "WDCODE": "",
        "REVISIONDA": "1975/01/01 00:00:00",
        "LASTUPDATE": "3/2/2026",
        "AADT": "",
        "AADTYEAR": "",
        "STATENAME": "TEXAS",
        "STATEAB": "TX",
        "COUNTYNAME": "MORRIS",
        "CITYNAME": "DAINGERFIELD",
        "LATDD": 33.039225,
        "LONGDD": -94.708306,
        "gridlyProductionCertified": true,
        "gridlyClassification": "PUBLIC_ROADWAY",
        "gridlyDisplayName": "Atlas Ind Xings",
        "gridlyId": "FRA-927228N"
      }
    },
    {
      "type": "Feature",
      "id": 204073,
      "geometry": {
        "type": "Point",
        "coordinates": [
          -94.7175049999161,
          33.0363759997311
        ]
      },
      "properties": {
        "OBJECTID": 204073,
        "CROSSING": "331494K",
        "EFFDATE": 1772064000000,
        "REASON": "14",
        "StateCode": "48",
        "CountyCode": "48343",
        "STCYFIPS": "48343",
        "CITYCD": "483431700",
        "RAILROAD": "KCS",
        "RRDIV": "Speedway",
        "RRSUBDIV": "Greenville",
        "HIGHWAY": "ST 0000",
        "STREET": "NICHOLS Streeet",
        "TTSTN": "661650",
        "MILEPOST": "0082.160",
        "TYPEXING": "Public",
        "POSXING": "At Grade",
        "PRVCAT": "14",
        "INIT": "1",
        "LATITUDE": 33.036376,
        "LONGITUD": -94.717505,
        "LLSOURCE": "1",
        "WHISTBAN": "1",
        "RRCONT": "3186766269",
        "POLCONT": "8775279464",
        "INV_LINK": "https://safetydata.fra.dot.gov/OfficeofSafety/PublicSite/Crossing/Crossing.aspx?phasetype=C&rpttype=I&txtcrossingnum=331494K",
        "ACC_LINK": "https://safetydata.fra.dot.gov/OfficeofSafety/PublicSite/Crossing/Crossing.aspx?phasetype=C&rpttype=A&txtcrossingnum=331494K",
        "TTSTNNAM": "661650",
        "XPURPOSE": "1",
        "OPERATINGR": "CPKC",
        "OPERATIN_1": "Primary",
        "DAYTHRU": 4,
        "NGHTTHRU": 3,
        "MAINTRK": 1,
        "SIDINGTRK": 0,
        "YARDTRK": 0,
        "TRANSITTRK": 0,
        "INDUSTRYTR": 0,
        "OTHRTRK": 0,
        "WDCODE": "All other Gates",
        "REVISIONDA": "1975/01/01 00:00:00",
        "LASTUPDATE": "2/26/2026",
        "AADT": "000396",
        "AADTYEAR": "2023",
        "STATENAME": "TEXAS",
        "STATEAB": "TX",
        "COUNTYNAME": "MORRIS",
        "CITYNAME": "DAINGERFIELD",
        "LATDD": 33.036376,
        "LONGDD": -94.717505,
        "gridlyProductionCertified": true,
        "gridlyClassification": "PUBLIC_ROADWAY",
        "gridlyDisplayName": "NICHOLS Streeet",
        "gridlyId": "FRA-331494K"
      }
    },
    {
      "type": "Feature",
      "id": 205437,
      "geometry": {
        "type": "Point",
        "coordinates": [
          -94.6770830004267,
          33.0139390000362
        ]
      },
      "properties": {
        "OBJECTID": 205437,
        "CROSSING": "331492W",
        "EFFDATE": 1772064000000,
        "REASON": "14",
        "StateCode": "48",
        "CountyCode": "48343",
        "STCYFIPS": "48343",
        "CITYCD": "480673310",
        "RAILROAD": "KCS",
        "RRDIV": "Speedway",
        "RRSUBDIV": "Greenville",
        "HIGHWAY": "SH 0011",
        "STREET": "SH 0011",
        "TTSTN": "661615",
        "MILEPOST": "0078.710",
        "TYPEXING": "Public",
        "POSXING": "RR Under",
        "PRVCAT": "14",
        "INIT": "1",
        "LATITUDE": 33.013939,
        "LONGITUD": -94.677083,
        "LLSOURCE": "1",
        "WHISTBAN": "0",
        "RRCONT": "3186766269",
        "POLCONT": "8775279464",
        "INV_LINK": "https://safetydata.fra.dot.gov/OfficeofSafety/PublicSite/Crossing/Crossing.aspx?phasetype=C&rpttype=I&txtcrossingnum=331492W",
        "ACC_LINK": "https://safetydata.fra.dot.gov/OfficeofSafety/PublicSite/Crossing/Crossing.aspx?phasetype=C&rpttype=A&txtcrossingnum=331492W",
        "TTSTNNAM": "661615",
        "XPURPOSE": "1",
        "OPERATINGR": "CPKC",
        "OPERATIN_1": "Primary",
        "DAYTHRU": 4,
        "NGHTTHRU": 3,
        "MAINTRK": 1,
        "SIDINGTRK": 0,
        "YARDTRK": 0,
        "TRANSITTRK": 0,
        "INDUSTRYTR": 0,
        "OTHRTRK": 0,
        "WDCODE": "",
        "REVISIONDA": "1975/01/01 00:00:00",
        "LASTUPDATE": "2/26/2026",
        "AADT": "6400",
        "AADTYEAR": "2010",
        "STATENAME": "TEXAS",
        "STATEAB": "TX",
        "COUNTYNAME": "MORRIS",
        "CITYNAME": "HUGHES SPRINGS",
        "LATDD": 33.013939,
        "LONGDD": -94.677083,
        "gridlyProductionCertified": true,
        "gridlyClassification": "PUBLIC_ROADWAY",
        "gridlyDisplayName": "SH 0011",
        "gridlyId": "FRA-331492W"
      }
    },
    {
      "type": "Feature",
      "id": 205776,
      "geometry": {
        "type": "Point",
        "coordinates": [
          -94.7956869996538,
          33.0370659996341
        ]
      },
      "properties": {
        "OBJECTID": 205776,
        "CROSSING": "331504N",
        "EFFDATE": 1772409600000,
        "REASON": "14",
        "StateCode": "48",
        "CountyCode": "48343",
        "STCYFIPS": "48343",
        "CITYCD": "483431700",
        "RAILROAD": "KCS",
        "RRDIV": "Speedway",
        "RRSUBDIV": "Greenville",
        "HIGHWAY": "NA",
        "STREET": "PRIVATE ROAD",
        "TTSTN": "661660",
        "MILEPOST": "0087.400",
        "TYPEXING": "Private",
        "POSXING": "At Grade",
        "PRVCAT": "14",
        "INIT": "1",
        "LATITUDE": 33.037066,
        "LONGITUD": -94.795687,
        "LLSOURCE": "1",
        "WHISTBAN": "0",
        "RRCONT": "3186766269",
        "POLCONT": "8775279464",
        "INV_LINK": "https://safetydata.fra.dot.gov/OfficeofSafety/PublicSite/Crossing/Crossing.aspx?phasetype=C&rpttype=I&txtcrossingnum=331504N",
        "ACC_LINK": "https://safetydata.fra.dot.gov/OfficeofSafety/PublicSite/Crossing/Crossing.aspx?phasetype=C&rpttype=A&txtcrossingnum=331504N",
        "TTSTNNAM": "661660",
        "XPURPOSE": "1",
        "OPERATINGR": "CPKC",
        "OPERATIN_1": "Primary",
        "DAYTHRU": 4,
        "NGHTTHRU": 3,
        "MAINTRK": 1,
        "SIDINGTRK": 0,
        "YARDTRK": 0,
        "TRANSITTRK": 0,
        "INDUSTRYTR": 0,
        "OTHRTRK": 0,
        "WDCODE": "",
        "REVISIONDA": "1975/01/01 00:00:00",
        "LASTUPDATE": "3/2/2026",
        "AADT": "1",
        "AADTYEAR": "1970",
        "STATENAME": "TEXAS",
        "STATEAB": "TX",
        "COUNTYNAME": "MORRIS",
        "CITYNAME": "DAINGERFIELD",
        "LATDD": 33.037066,
        "LONGDD": -94.795687,
        "gridlyProductionCertified": true,
        "gridlyClassification": "PUBLIC_ROADWAY",
        "gridlyDisplayName": "PRIVATE ROAD",
        "gridlyId": "FRA-331504N"
      }
    },
    {
      "type": "Feature",
      "id": 206238,
      "geometry": {
        "type": "Point",
        "coordinates": [
          -94.707771999951,
          33.0388410003269
        ]
      },
      "properties": {
        "OBJECTID": 206238,
        "CROSSING": "927229V",
        "EFFDATE": 1772064000000,
        "REASON": "14",
        "StateCode": "48",
        "CountyCode": "48343",
        "STCYFIPS": "48343",
        "CITYCD": "483431700",
        "RAILROAD": "KCS",
        "RRDIV": "Speedway",
        "RRSUBDIV": "Greenville",
        "HIGHWAY": "NA",
        "STREET": "Private",
        "TTSTN": "",
        "MILEPOST": "0081.544",
        "TYPEXING": "Private",
        "POSXING": "At Grade",
        "PRVCAT": "14",
        "INIT": "1",
        "LATITUDE": 33.038841,
        "LONGITUD": -94.707772,
        "LLSOURCE": "1",
        "WHISTBAN": "",
        "RRCONT": "3186766269",
        "POLCONT": "8775279464",
        "INV_LINK": "https://safetydata.fra.dot.gov/OfficeofSafety/PublicSite/Crossing/Crossing.aspx?phasetype=C&rpttype=I&txtcrossingnum=927229V",
        "ACC_LINK": "https://safetydata.fra.dot.gov/OfficeofSafety/PublicSite/Crossing/Crossing.aspx?phasetype=C&rpttype=A&txtcrossingnum=927229V",
        "TTSTNNAM": "",
        "XPURPOSE": "1",
        "OPERATINGR": "CPKC",
        "OPERATIN_1": "Primary",
        "DAYTHRU": 4,
        "NGHTTHRU": 3,
        "MAINTRK": 1,
        "SIDINGTRK": 0,
        "YARDTRK": 0,
        "TRANSITTRK": 0,
        "INDUSTRYTR": 1,
        "OTHRTRK": 0,
        "WDCODE": "",
        "REVISIONDA": "1975/01/01 00:00:00",
        "LASTUPDATE": "2/26/2026",
        "AADT": "",
        "AADTYEAR": "",
        "STATENAME": "TEXAS",
        "STATEAB": "TX",
        "COUNTYNAME": "MORRIS",
        "CITYNAME": "DAINGERFIELD",
        "LATDD": 33.038841,
        "LONGDD": -94.707772,
        "gridlyProductionCertified": true,
        "gridlyClassification": "PUBLIC_ROADWAY",
        "gridlyDisplayName": "Private",
        "gridlyId": "FRA-927229V"
      }
    },
    {
      "type": "Feature",
      "id": 206440,
      "geometry": {
        "type": "Point",
        "coordinates": [
          -94.8170280000758,
          33.0371940002683
        ]
      },
      "properties": {
        "OBJECTID": 206440,
        "CROSSING": "331507J",
        "EFFDATE": 1772064000000,
        "REASON": "14",
        "StateCode": "48",
        "CountyCode": "48343",
        "STCYFIPS": "48343",
        "CITYCD": "483431208",
        "RAILROAD": "KCS",
        "RRDIV": "Speedway",
        "RRSUBDIV": "Greenville",
        "HIGHWAY": "FM 0144",
        "STREET": "FM 144",
        "TTSTN": "661660",
        "MILEPOST": "0088.660",
        "TYPEXING": "Public",
        "POSXING": "At Grade",
        "PRVCAT": "14",
        "INIT": "1",
        "LATITUDE": 33.037194,
        "LONGITUD": -94.817028,
        "LLSOURCE": "1",
        "WHISTBAN": "0",
        "RRCONT": "3186766269",
        "POLCONT": "8775279464",
        "INV_LINK": "https://safetydata.fra.dot.gov/OfficeofSafety/PublicSite/Crossing/Crossing.aspx?phasetype=C&rpttype=I&txtcrossingnum=331507J",
        "ACC_LINK": "https://safetydata.fra.dot.gov/OfficeofSafety/PublicSite/Crossing/Crossing.aspx?phasetype=C&rpttype=A&txtcrossingnum=331507J",
        "TTSTNNAM": "CASON",
        "XPURPOSE": "1",
        "OPERATINGR": "CPKC",
        "OPERATIN_1": "Primary",
        "DAYTHRU": 4,
        "NGHTTHRU": 3,
        "MAINTRK": 1,
        "SIDINGTRK": 1,
        "YARDTRK": 0,
        "TRANSITTRK": 0,
        "INDUSTRYTR": 0,
        "OTHRTRK": 1,
        "WDCODE": "All other Gates",
        "REVISIONDA": "1975/01/01 00:00:00",
        "LASTUPDATE": "2/26/2026",
        "AADT": "876",
        "AADTYEAR": "2019",
        "STATENAME": "TEXAS",
        "STATEAB": "TX",
        "COUNTYNAME": "MORRIS",
        "CITYNAME": "CASON",
        "LATDD": 33.037194,
        "LONGDD": -94.817028,
        "gridlyProductionCertified": true,
        "gridlyClassification": "PUBLIC_ROADWAY",
        "gridlyDisplayName": "FM 144",
        "gridlyId": "FRA-331507J"
      }
    },
    {
      "type": "Feature",
      "id": 206492,
      "geometry": {
        "type": "Point",
        "coordinates": [
          -94.7121818000363,
          33.1828465998145
        ]
      },
      "properties": {
        "OBJECTID": 206492,
        "CROSSING": "787647X",
        "EFFDATE": 1756684800000,
        "REASON": "14",
        "StateCode": "48",
        "CountyCode": "48343",
        "STCYFIPS": "48343",
        "CITYCD": "483435090",
        "RAILROAD": "UP",
        "RRDIV": "MID AMERICA",
        "RRSUBDIV": "PINE BLUFF SUB",
        "HIGHWAY": "PRIVATE",
        "STREET": "PRIVATE",
        "TTSTN": "661620",
        "MILEPOST": "0463.940",
        "TYPEXING": "Private",
        "POSXING": "At Grade",
        "PRVCAT": "14",
        "INIT": "1",
        "LATITUDE": 33.1828466,
        "LONGITUD": -94.7121818,
        "LLSOURCE": "1",
        "WHISTBAN": "0",
        "RRCONT": "4025443721",
        "POLCONT": "8008488715",
        "INV_LINK": "https://safetydata.fra.dot.gov/OfficeofSafety/PublicSite/Crossing/Crossing.aspx?phasetype=C&rpttype=I&txtcrossingnum=787647X",
        "ACC_LINK": "https://safetydata.fra.dot.gov/OfficeofSafety/PublicSite/Crossing/Crossing.aspx?phasetype=C&rpttype=A&txtcrossingnum=787647X",
        "TTSTNNAM": "",
        "XPURPOSE": "1",
        "OPERATINGR": "UP",
        "OPERATIN_1": "Primary",
        "DAYTHRU": 7,
        "NGHTTHRU": 7,
        "MAINTRK": 1,
        "SIDINGTRK": 0,
        "YARDTRK": 0,
        "TRANSITTRK": 0,
        "INDUSTRYTR": 0,
        "OTHRTRK": 0,
        "WDCODE": "",
        "REVISIONDA": "1975/01/01 00:00:00",
        "LASTUPDATE": "9/1/2025",
        "AADT": "1",
        "AADTYEAR": "1970",
        "STATENAME": "TEXAS",
        "STATEAB": "TX",
        "COUNTYNAME": "MORRIS",
        "CITYNAME": "OMAHA",
        "LATDD": 33.1828466,
        "LONGDD": -94.7121818,
        "gridlyProductionCertified": true,
        "gridlyClassification": "PUBLIC_ROADWAY",
        "gridlyDisplayName": "PRIVATE",
        "gridlyId": "FRA-787647X"
      }
    },
    {
      "type": "Feature",
      "id": 206877,
      "geometry": {
        "type": "Point",
        "coordinates": [
          -94.8140849997291,
          33.0380649999927
        ]
      },
      "properties": {
        "OBJECTID": 206877,
        "CROSSING": "331505V",
        "EFFDATE": 1772064000000,
        "REASON": "14",
        "StateCode": "48",
        "CountyCode": "48343",
        "STCYFIPS": "48343",
        "CITYCD": "483431208",
        "RAILROAD": "KCS",
        "RRDIV": "Speedway",
        "RRSUBDIV": "Greenville",
        "HIGHWAY": "CR 1203",
        "STREET": "CR 1203",
        "TTSTN": "661660",
        "MILEPOST": "0088.460",
        "TYPEXING": "Public",
        "POSXING": "At Grade",
        "PRVCAT": "14",
        "INIT": "1",
        "LATITUDE": 33.038065,
        "LONGITUD": -94.814085,
        "LLSOURCE": "1",
        "WHISTBAN": "0",
        "RRCONT": "3186766269",
        "POLCONT": "8775279464",
        "INV_LINK": "https://safetydata.fra.dot.gov/OfficeofSafety/PublicSite/Crossing/Crossing.aspx?phasetype=C&rpttype=I&txtcrossingnum=331505V",
        "ACC_LINK": "https://safetydata.fra.dot.gov/OfficeofSafety/PublicSite/Crossing/Crossing.aspx?phasetype=C&rpttype=A&txtcrossingnum=331505V",
        "TTSTNNAM": "661660",
        "XPURPOSE": "1",
        "OPERATINGR": "CPKC",
        "OPERATIN_1": "Primary",
        "DAYTHRU": 4,
        "NGHTTHRU": 3,
        "MAINTRK": 1,
        "SIDINGTRK": 1,
        "YARDTRK": 0,
        "TRANSITTRK": 0,
        "INDUSTRYTR": 0,
        "OTHRTRK": 1,
        "WDCODE": "All other Gates",
        "REVISIONDA": "1975/01/01 00:00:00",
        "LASTUPDATE": "2/26/2026",
        "AADT": "366",
        "AADTYEAR": "2019",
        "STATENAME": "TEXAS",
        "STATEAB": "TX",
        "COUNTYNAME": "MORRIS",
        "CITYNAME": "CASON",
        "LATDD": 33.038065,
        "LONGDD": -94.814085,
        "gridlyProductionCertified": true,
        "gridlyClassification": "PUBLIC_ROADWAY",
        "gridlyDisplayName": "CR 1203",
        "gridlyId": "FRA-331505V"
      }
    },
    {
      "type": "Feature",
      "id": 208486,
      "geometry": {
        "type": "Point",
        "coordinates": [
          -94.756450000195,
          33.1837020000244
        ]
      },
      "properties": {
        "OBJECTID": 208486,
        "CROSSING": "748419E",
        "EFFDATE": 1756339200000,
        "REASON": "14",
        "StateCode": "48",
        "CountyCode": "48343",
        "STCYFIPS": "48343",
        "CITYCD": "483435090",
        "RAILROAD": "UP",
        "RRDIV": "MID AMERICA",
        "RRSUBDIV": "PINE BLUFF SUB",
        "HIGHWAY": "FARM",
        "STREET": "PRIVATE",
        "TTSTN": "661198",
        "MILEPOST": "0466.580",
        "TYPEXING": "Private",
        "POSXING": "At Grade",
        "PRVCAT": "14",
        "INIT": "1",
        "LATITUDE": 33.183702,
        "LONGITUD": -94.75645,
        "LLSOURCE": "1",
        "WHISTBAN": "0",
        "RRCONT": "4025443721",
        "POLCONT": "8008488715",
        "INV_LINK": "https://safetydata.fra.dot.gov/OfficeofSafety/PublicSite/Crossing/Crossing.aspx?phasetype=C&rpttype=I&txtcrossingnum=748419E",
        "ACC_LINK": "https://safetydata.fra.dot.gov/OfficeofSafety/PublicSite/Crossing/Crossing.aspx?phasetype=C&rpttype=A&txtcrossingnum=748419E",
        "TTSTNNAM": "",
        "XPURPOSE": "1",
        "OPERATINGR": "UP",
        "OPERATIN_1": "Primary",
        "DAYTHRU": 7,
        "NGHTTHRU": 7,
        "MAINTRK": 1,
        "SIDINGTRK": 0,
        "YARDTRK": 0,
        "TRANSITTRK": 0,
        "INDUSTRYTR": 0,
        "OTHRTRK": 0,
        "WDCODE": "",
        "REVISIONDA": "1975/01/01 00:00:00",
        "LASTUPDATE": "8/28/2025",
        "AADT": "1",
        "AADTYEAR": "",
        "STATENAME": "TEXAS",
        "STATEAB": "TX",
        "COUNTYNAME": "MORRIS",
        "CITYNAME": "OMAHA",
        "LATDD": 33.183702,
        "LONGDD": -94.75645,
        "gridlyProductionCertified": true,
        "gridlyClassification": "PUBLIC_ROADWAY",
        "gridlyDisplayName": "PRIVATE",
        "gridlyId": "FRA-748419E"
      }
    },
    {
      "type": "Feature",
      "id": 208487,
      "geometry": {
        "type": "Point",
        "coordinates": [
          -94.6741146999284,
          33.2074550003082
        ]
      },
      "properties": {
        "OBJECTID": 208487,
        "CROSSING": "787629A",
        "EFFDATE": 1756339200000,
        "REASON": "14",
        "StateCode": "48",
        "CountyCode": "48343",
        "STCYFIPS": "48343",
        "CITYCD": "483434820",
        "RAILROAD": "UP",
        "RRDIV": "MID AMERICA",
        "RRSUBDIV": "PINE BLUFF SUB",
        "HIGHWAY": "ST 0000",
        "STREET": "JOHNSON STREET",
        "TTSTN": "661620",
        "MILEPOST": "0461.090",
        "TYPEXING": "Public",
        "POSXING": "At Grade",
        "PRVCAT": "14",
        "INIT": "1",
        "LATITUDE": 33.207455,
        "LONGITUD": -94.6741147,
        "LLSOURCE": "1",
        "WHISTBAN": "0",
        "RRCONT": "4025443721",
        "POLCONT": "8008488715",
        "INV_LINK": "https://safetydata.fra.dot.gov/OfficeofSafety/PublicSite/Crossing/Crossing.aspx?phasetype=C&rpttype=I&txtcrossingnum=787629A",
        "ACC_LINK": "https://safetydata.fra.dot.gov/OfficeofSafety/PublicSite/Crossing/Crossing.aspx?phasetype=C&rpttype=A&txtcrossingnum=787629A",
        "TTSTNNAM": "",
        "XPURPOSE": "1",
        "OPERATINGR": "UP",
        "OPERATIN_1": "Primary",
        "DAYTHRU": 7,
        "NGHTTHRU": 7,
        "MAINTRK": 1,
        "SIDINGTRK": 0,
        "YARDTRK": 0,
        "TRANSITTRK": 0,
        "INDUSTRYTR": 0,
        "OTHRTRK": 0,
        "WDCODE": "All other Gates",
        "REVISIONDA": "1975/01/01 00:00:00",
        "LASTUPDATE": "8/28/2025",
        "AADT": "398",
        "AADTYEAR": "2019",
        "STATENAME": "TEXAS",
        "STATEAB": "TX",
        "COUNTYNAME": "MORRIS",
        "CITYNAME": "NAPLES",
        "LATDD": 33.207455,
        "LONGDD": -94.6741147,
        "gridlyProductionCertified": true,
        "gridlyClassification": "PUBLIC_ROADWAY",
        "gridlyDisplayName": "JOHNSON STREET",
        "gridlyId": "FRA-787629A"
      }
    },
    {
      "type": "Feature",
      "id": 208488,
      "geometry": {
        "type": "Point",
        "coordinates": [
          -94.6762445003641,
          33.20550729981
        ]
      },
      "properties": {
        "OBJECTID": 208488,
        "CROSSING": "787630U",
        "EFFDATE": 1756339200000,
        "REASON": "14",
        "StateCode": "48",
        "CountyCode": "48343",
        "STCYFIPS": "48343",
        "CITYCD": "483434820",
        "RAILROAD": "UP",
        "RRDIV": "MID AMERICA",
        "RRSUBDIV": "PINE BLUFF SUB",
        "HIGHWAY": "ST 0000",
        "STREET": "HICKORY STREET",
        "TTSTN": "661610",
        "MILEPOST": "0461.270",
        "TYPEXING": "Public",
        "POSXING": "At Grade",
        "PRVCAT": "14",
        "INIT": "1",
        "LATITUDE": 33.2055073,
        "LONGITUD": -94.6762445,
        "LLSOURCE": "1",
        "WHISTBAN": "0",
        "RRCONT": "4025443721",
        "POLCONT": "8008488715",
        "INV_LINK": "https://safetydata.fra.dot.gov/OfficeofSafety/PublicSite/Crossing/Crossing.aspx?phasetype=C&rpttype=I&txtcrossingnum=787630U",
        "ACC_LINK": "https://safetydata.fra.dot.gov/OfficeofSafety/PublicSite/Crossing/Crossing.aspx?phasetype=C&rpttype=A&txtcrossingnum=787630U",
        "TTSTNNAM": "",
        "XPURPOSE": "1",
        "OPERATINGR": "UP",
        "OPERATIN_1": "Primary",
        "DAYTHRU": 7,
        "NGHTTHRU": 7,
        "MAINTRK": 1,
        "SIDINGTRK": 0,
        "YARDTRK": 0,
        "TRANSITTRK": 0,
        "INDUSTRYTR": 0,
        "OTHRTRK": 0,
        "WDCODE": "All other Gates",
        "REVISIONDA": "1975/01/01 00:00:00",
        "LASTUPDATE": "8/28/2025",
        "AADT": "80",
        "AADTYEAR": "2019",
        "STATENAME": "TEXAS",
        "STATEAB": "TX",
        "COUNTYNAME": "MORRIS",
        "CITYNAME": "NAPLES",
        "LATDD": 33.2055073,
        "LONGDD": -94.6762445,
        "gridlyProductionCertified": true,
        "gridlyClassification": "PUBLIC_ROADWAY",
        "gridlyDisplayName": "HICKORY STREET",
        "gridlyId": "FRA-787630U"
      }
    },
    {
      "type": "Feature",
      "id": 208492,
      "geometry": {
        "type": "Point",
        "coordinates": [
          -94.716169400023,
          33.1811502998893
        ]
      },
      "properties": {
        "OBJECTID": 208492,
        "CROSSING": "787648E",
        "EFFDATE": 1756339200000,
        "REASON": "14",
        "StateCode": "48",
        "CountyCode": "48343",
        "STCYFIPS": "48343",
        "CITYCD": "483435090",
        "RAILROAD": "UP",
        "RRDIV": "MID AMERICA",
        "RRSUBDIV": "PINE BLUFF SUB",
        "HIGHWAY": "CO 4319",
        "STREET": "CR 4318",
        "TTSTN": "661620",
        "MILEPOST": "0464.190",
        "TYPEXING": "Public",
        "POSXING": "At Grade",
        "PRVCAT": "14",
        "INIT": "1",
        "LATITUDE": 33.1811503,
        "LONGITUD": -94.7161694,
        "LLSOURCE": "1",
        "WHISTBAN": "0",
        "RRCONT": "4025443721",
        "POLCONT": "8008488715",
        "INV_LINK": "https://safetydata.fra.dot.gov/OfficeofSafety/PublicSite/Crossing/Crossing.aspx?phasetype=C&rpttype=I&txtcrossingnum=787648E",
        "ACC_LINK": "https://safetydata.fra.dot.gov/OfficeofSafety/PublicSite/Crossing/Crossing.aspx?phasetype=C&rpttype=A&txtcrossingnum=787648E",
        "TTSTNNAM": "",
        "XPURPOSE": "1",
        "OPERATINGR": "UP",
        "OPERATIN_1": "Primary",
        "DAYTHRU": 7,
        "NGHTTHRU": 7,
        "MAINTRK": 1,
        "SIDINGTRK": 1,
        "YARDTRK": 0,
        "TRANSITTRK": 0,
        "INDUSTRYTR": 0,
        "OTHRTRK": 0,
        "WDCODE": "All other Gates",
        "REVISIONDA": "1975/01/01 00:00:00",
        "LASTUPDATE": "8/28/2025",
        "AADT": "550",
        "AADTYEAR": "2019",
        "STATENAME": "TEXAS",
        "STATEAB": "TX",
        "COUNTYNAME": "MORRIS",
        "CITYNAME": "OMAHA",
        "LATDD": 33.1811503,
        "LONGDD": -94.7161694,
        "gridlyProductionCertified": true,
        "gridlyClassification": "PUBLIC_ROADWAY",
        "gridlyDisplayName": "CR 4318",
        "gridlyId": "FRA-787648E"
      }
    },
    {
      "type": "Feature",
      "id": 208494,
      "geometry": {
        "type": "Point",
        "coordinates": [
          -94.7438100995813,
          33.180511399754
        ]
      },
      "properties": {
        "OBJECTID": 208494,
        "CROSSING": "787667J",
        "EFFDATE": 1756339200000,
        "REASON": "14",
        "StateCode": "48",
        "CountyCode": "48343",
        "STCYFIPS": "48343",
        "CITYCD": "483435090",
        "RAILROAD": "UP",
        "RRDIV": "MID AMERICA",
        "RRSUBDIV": "PINE BLUFF SUB",
        "HIGHWAY": "FM 0144",
        "STREET": "HUBBARD AVENUE",
        "TTSTN": "661620",
        "MILEPOST": "0465.760",
        "TYPEXING": "Public",
        "POSXING": "At Grade",
        "PRVCAT": "14",
        "INIT": "1",
        "LATITUDE": 33.1805114,
        "LONGITUD": -94.7438101,
        "LLSOURCE": "1",
        "WHISTBAN": "0",
        "RRCONT": "4025443721",
        "POLCONT": "8008488715",
        "INV_LINK": "https://safetydata.fra.dot.gov/OfficeofSafety/PublicSite/Crossing/Crossing.aspx?phasetype=C&rpttype=I&txtcrossingnum=787667J",
        "ACC_LINK": "https://safetydata.fra.dot.gov/OfficeofSafety/PublicSite/Crossing/Crossing.aspx?phasetype=C&rpttype=A&txtcrossingnum=787667J",
        "TTSTNNAM": "",
        "XPURPOSE": "1",
        "OPERATINGR": "UP",
        "OPERATIN_1": "Primary",
        "DAYTHRU": 7,
        "NGHTTHRU": 7,
        "MAINTRK": 1,
        "SIDINGTRK": 1,
        "YARDTRK": 0,
        "TRANSITTRK": 0,
        "INDUSTRYTR": 0,
        "OTHRTRK": 1,
        "WDCODE": "All other Gates",
        "REVISIONDA": "1975/01/01 00:00:00",
        "LASTUPDATE": "8/28/2025",
        "AADT": "683",
        "AADTYEAR": "2019",
        "STATENAME": "TEXAS",
        "STATEAB": "TX",
        "COUNTYNAME": "MORRIS",
        "CITYNAME": "OMAHA",
        "LATDD": 33.1805114,
        "LONGDD": -94.7438101,
        "gridlyProductionCertified": true,
        "gridlyClassification": "PUBLIC_ROADWAY",
        "gridlyDisplayName": "HUBBARD AVENUE",
        "gridlyId": "FRA-787667J"
      }
    },
    {
      "type": "Feature",
      "id": 208495,
      "geometry": {
        "type": "Point",
        "coordinates": [
          -94.7461260004012,
          33.1803224998877
        ]
      },
      "properties": {
        "OBJECTID": 208495,
        "CROSSING": "787668R",
        "EFFDATE": 1756339200000,
        "REASON": "14",
        "StateCode": "48",
        "CountyCode": "48343",
        "STCYFIPS": "48343",
        "CITYCD": "483435090",
        "RAILROAD": "UP",
        "RRDIV": "MID AMERICA",
        "RRSUBDIV": "PINE BLUFF SUB",
        "HIGHWAY": "ST 0000",
        "STREET": "SLOSS AVENUE",
        "TTSTN": "661620",
        "MILEPOST": "0465.890",
        "TYPEXING": "Public",
        "POSXING": "At Grade",
        "PRVCAT": "14",
        "INIT": "1",
        "LATITUDE": 33.1803225,
        "LONGITUD": -94.746126,
        "LLSOURCE": "1",
        "WHISTBAN": "0",
        "RRCONT": "4025443721",
        "POLCONT": "8008488715",
        "INV_LINK": "https://safetydata.fra.dot.gov/OfficeofSafety/PublicSite/Crossing/Crossing.aspx?phasetype=C&rpttype=I&txtcrossingnum=787668R",
        "ACC_LINK": "https://safetydata.fra.dot.gov/OfficeofSafety/PublicSite/Crossing/Crossing.aspx?phasetype=C&rpttype=A&txtcrossingnum=787668R",
        "TTSTNNAM": "",
        "XPURPOSE": "1",
        "OPERATINGR": "UP",
        "OPERATIN_1": "Primary",
        "DAYTHRU": 7,
        "NGHTTHRU": 7,
        "MAINTRK": 1,
        "SIDINGTRK": 1,
        "YARDTRK": 0,
        "TRANSITTRK": 0,
        "INDUSTRYTR": 0,
        "OTHRTRK": 1,
        "WDCODE": "All other Gates",
        "REVISIONDA": "1975/01/01 00:00:00",
        "LASTUPDATE": "8/28/2025",
        "AADT": "334",
        "AADTYEAR": "2019",
        "STATENAME": "TEXAS",
        "STATEAB": "TX",
        "COUNTYNAME": "MORRIS",
        "CITYNAME": "OMAHA",
        "LATDD": 33.1803225,
        "LONGDD": -94.746126,
        "gridlyProductionCertified": true,
        "gridlyClassification": "PUBLIC_ROADWAY",
        "gridlyDisplayName": "SLOSS AVENUE",
        "gridlyId": "FRA-787668R"
      }
    },
    {
      "type": "Feature",
      "id": 208531,
      "geometry": {
        "type": "Point",
        "coordinates": [
          -94.794919199699,
          33.1838506997368
        ]
      },
      "properties": {
        "OBJECTID": 208531,
        "CROSSING": "789520R",
        "EFFDATE": 1756339200000,
        "REASON": "14",
        "StateCode": "48",
        "CountyCode": "48343",
        "STCYFIPS": "48343",
        "CITYCD": "483435090",
        "RAILROAD": "UP",
        "RRDIV": "MID AMERICA",
        "RRSUBDIV": "PINE BLUFF SUB",
        "HIGHWAY": "CO 3323",
        "STREET": "CR 3323",
        "TTSTN": "661620",
        "MILEPOST": "0468.930",
        "TYPEXING": "Public",
        "POSXING": "At Grade",
        "PRVCAT": "14",
        "INIT": "1",
        "LATITUDE": 33.1838507,
        "LONGITUD": -94.7949192,
        "LLSOURCE": "1",
        "WHISTBAN": "0",
        "RRCONT": "4025443721",
        "POLCONT": "8008488715",
        "INV_LINK": "https://safetydata.fra.dot.gov/OfficeofSafety/PublicSite/Crossing/Crossing.aspx?phasetype=C&rpttype=I&txtcrossingnum=789520R",
        "ACC_LINK": "https://safetydata.fra.dot.gov/OfficeofSafety/PublicSite/Crossing/Crossing.aspx?phasetype=C&rpttype=A&txtcrossingnum=789520R",
        "TTSTNNAM": "",
        "XPURPOSE": "1",
        "OPERATINGR": "UP",
        "OPERATIN_1": "Primary",
        "DAYTHRU": 7,
        "NGHTTHRU": 7,
        "MAINTRK": 1,
        "SIDINGTRK": 0,
        "YARDTRK": 0,
        "TRANSITTRK": 0,
        "INDUSTRYTR": 0,
        "OTHRTRK": 0,
        "WDCODE": "Crossbucks",
        "REVISIONDA": "1975/01/01 00:00:00",
        "LASTUPDATE": "8/28/2025",
        "AADT": "30",
        "AADTYEAR": "2013",
        "STATENAME": "TEXAS",
        "STATEAB": "TX",
        "COUNTYNAME": "MORRIS",
        "CITYNAME": "OMAHA",
        "LATDD": 33.1838507,
        "LONGDD": -94.7949192,
        "gridlyProductionCertified": true,
        "gridlyClassification": "PUBLIC_ROADWAY",
        "gridlyDisplayName": "CR 3323",
        "gridlyId": "FRA-789520R"
      }
    },
    {
      "type": "Feature",
      "id": 208536,
      "geometry": {
        "type": "Point",
        "coordinates": [
          -94.8068599999176,
          33.1836540001872
        ]
      },
      "properties": {
        "OBJECTID": 208536,
        "CROSSING": "789522E",
        "EFFDATE": 1756339200000,
        "REASON": "14",
        "StateCode": "48",
        "CountyCode": "48343",
        "STCYFIPS": "48343",
        "CITYCD": "483435090",
        "RAILROAD": "UP",
        "RRDIV": "MID AMERICA",
        "RRSUBDIV": "PINE BLUFF SUB",
        "HIGHWAY": "CO 3321",
        "STREET": "CR 3321",
        "TTSTN": "661620",
        "MILEPOST": "0469.630",
        "TYPEXING": "Public",
        "POSXING": "At Grade",
        "PRVCAT": "14",
        "INIT": "1",
        "LATITUDE": 33.183654,
        "LONGITUD": -94.80686,
        "LLSOURCE": "1",
        "WHISTBAN": "0",
        "RRCONT": "4025443721",
        "POLCONT": "8008488715",
        "INV_LINK": "https://safetydata.fra.dot.gov/OfficeofSafety/PublicSite/Crossing/Crossing.aspx?phasetype=C&rpttype=I&txtcrossingnum=789522E",
        "ACC_LINK": "https://safetydata.fra.dot.gov/OfficeofSafety/PublicSite/Crossing/Crossing.aspx?phasetype=C&rpttype=A&txtcrossingnum=789522E",
        "TTSTNNAM": "",
        "XPURPOSE": "1",
        "OPERATINGR": "UP",
        "OPERATIN_1": "Primary",
        "DAYTHRU": 7,
        "NGHTTHRU": 7,
        "MAINTRK": 1,
        "SIDINGTRK": 0,
        "YARDTRK": 0,
        "TRANSITTRK": 0,
        "INDUSTRYTR": 0,
        "OTHRTRK": 0,
        "WDCODE": "All other Gates",
        "REVISIONDA": "1975/01/01 00:00:00",
        "LASTUPDATE": "8/28/2025",
        "AADT": "212",
        "AADTYEAR": "2019",
        "STATENAME": "TEXAS",
        "STATEAB": "TX",
        "COUNTYNAME": "MORRIS",
        "CITYNAME": "OMAHA",
        "LATDD": 33.183654,
        "LONGDD": -94.80686,
        "gridlyProductionCertified": true,
        "gridlyClassification": "PUBLIC_ROADWAY",
        "gridlyDisplayName": "CR 3321",
        "gridlyId": "FRA-789522E"
      }
    },
    {
      "type": "Feature",
      "id": 208591,
      "geometry": {
        "type": "Point",
        "coordinates": [
          -94.6653059999153,
          33.217699000296
        ]
      },
      "properties": {
        "OBJECTID": 208591,
        "CROSSING": "789608N",
        "EFFDATE": 1756339200000,
        "REASON": "14",
        "StateCode": "48",
        "CountyCode": "48343",
        "STCYFIPS": "48343",
        "CITYCD": "483434820",
        "RAILROAD": "UP",
        "RRDIV": "MID AMERICA",
        "RRSUBDIV": "PINE BLUFF SUB",
        "HIGHWAY": "ST 0000",
        "STREET": "CR 4323",
        "TTSTN": "661198",
        "MILEPOST": "0460.230",
        "TYPEXING": "Public",
        "POSXING": "At Grade",
        "PRVCAT": "14",
        "INIT": "1",
        "LATITUDE": 33.217699,
        "LONGITUD": -94.665306,
        "LLSOURCE": "1",
        "WHISTBAN": "0",
        "RRCONT": "4025443721",
        "POLCONT": "8008488715",
        "INV_LINK": "https://safetydata.fra.dot.gov/OfficeofSafety/PublicSite/Crossing/Crossing.aspx?phasetype=C&rpttype=I&txtcrossingnum=789608N",
        "ACC_LINK": "https://safetydata.fra.dot.gov/OfficeofSafety/PublicSite/Crossing/Crossing.aspx?phasetype=C&rpttype=A&txtcrossingnum=789608N",
        "TTSTNNAM": "",
        "XPURPOSE": "1",
        "OPERATINGR": "UP",
        "OPERATIN_1": "Primary",
        "DAYTHRU": 7,
        "NGHTTHRU": 7,
        "MAINTRK": 1,
        "SIDINGTRK": 0,
        "YARDTRK": 0,
        "TRANSITTRK": 0,
        "INDUSTRYTR": 0,
        "OTHRTRK": 0,
        "WDCODE": "Stop signs",
        "REVISIONDA": "1975/01/01 00:00:00",
        "LASTUPDATE": "8/28/2025",
        "AADT": "19",
        "AADTYEAR": "2019",
        "STATENAME": "TEXAS",
        "STATEAB": "TX",
        "COUNTYNAME": "MORRIS",
        "CITYNAME": "NAPLES",
        "LATDD": 33.217699,
        "LONGDD": -94.665306,
        "gridlyProductionCertified": true,
        "gridlyClassification": "PUBLIC_ROADWAY",
        "gridlyDisplayName": "CR 4323",
        "gridlyId": "FRA-789608N"
      }
    },
    {
      "type": "Feature",
      "id": 208609,
      "geometry": {
        "type": "Point",
        "coordinates": [
          -94.6813252997459,
          33.2022151998473
        ]
      },
      "properties": {
        "OBJECTID": 208609,
        "CROSSING": "789672M",
        "EFFDATE": 1756339200000,
        "REASON": "14",
        "StateCode": "48",
        "CountyCode": "48343",
        "STCYFIPS": "48343",
        "CITYCD": "483434820",
        "RAILROAD": "UP",
        "RRDIV": "MID AMERICA",
        "RRSUBDIV": "PINE BLUFF SUB",
        "HIGHWAY": "FM 0161",
        "STREET": "FM 161",
        "TTSTN": "661620",
        "MILEPOST": "0461.640",
        "TYPEXING": "Public",
        "POSXING": "At Grade",
        "PRVCAT": "14",
        "INIT": "1",
        "LATITUDE": 33.2022152,
        "LONGITUD": -94.6813253,
        "LLSOURCE": "1",
        "WHISTBAN": "0",
        "RRCONT": "4025443721",
        "POLCONT": "8008488715",
        "INV_LINK": "https://safetydata.fra.dot.gov/OfficeofSafety/PublicSite/Crossing/Crossing.aspx?phasetype=C&rpttype=I&txtcrossingnum=789672M",
        "ACC_LINK": "https://safetydata.fra.dot.gov/OfficeofSafety/PublicSite/Crossing/Crossing.aspx?phasetype=C&rpttype=A&txtcrossingnum=789672M",
        "TTSTNNAM": "",
        "XPURPOSE": "1",
        "OPERATINGR": "UP",
        "OPERATIN_1": "Primary",
        "DAYTHRU": 7,
        "NGHTTHRU": 7,
        "MAINTRK": 1,
        "SIDINGTRK": 0,
        "YARDTRK": 0,
        "TRANSITTRK": 0,
        "INDUSTRYTR": 0,
        "OTHRTRK": 0,
        "WDCODE": "All other Gates",
        "REVISIONDA": "1975/01/01 00:00:00",
        "LASTUPDATE": "8/28/2025",
        "AADT": "1548",
        "AADTYEAR": "2019",
        "STATENAME": "TEXAS",
        "STATEAB": "TX",
        "COUNTYNAME": "MORRIS",
        "CITYNAME": "NAPLES",
        "LATDD": 33.2022152,
        "LONGDD": -94.6813253,
        "gridlyProductionCertified": true,
        "gridlyClassification": "PUBLIC_ROADWAY",
        "gridlyDisplayName": "FM 161",
        "gridlyId": "FRA-789672M"
      }
    },
    {
      "type": "Feature",
      "id": 208618,
      "geometry": {
        "type": "Point",
        "coordinates": [
          -94.6828282000808,
          33.2006409002381
        ]
      },
      "properties": {
        "OBJECTID": 208618,
        "CROSSING": "789690K",
        "EFFDATE": 1756339200000,
        "REASON": "14",
        "StateCode": "48",
        "CountyCode": "48343",
        "STCYFIPS": "48343",
        "CITYCD": "483434820",
        "RAILROAD": "UP",
        "RRDIV": "MID AMERICA",
        "RRSUBDIV": "PINE BLUFF SUB",
        "HIGHWAY": "ST 0000",
        "STREET": "FIRST STREET",
        "TTSTN": "393317",
        "MILEPOST": "0461.780",
        "TYPEXING": "Public",
        "POSXING": "At Grade",
        "PRVCAT": "14",
        "INIT": "1",
        "LATITUDE": 33.2006409,
        "LONGITUD": -94.6828282,
        "LLSOURCE": "1",
        "WHISTBAN": "0",
        "RRCONT": "4025443721",
        "POLCONT": "8008488715",
        "INV_LINK": "https://safetydata.fra.dot.gov/OfficeofSafety/PublicSite/Crossing/Crossing.aspx?phasetype=C&rpttype=I&txtcrossingnum=789690K",
        "ACC_LINK": "https://safetydata.fra.dot.gov/OfficeofSafety/PublicSite/Crossing/Crossing.aspx?phasetype=C&rpttype=A&txtcrossingnum=789690K",
        "TTSTNNAM": "",
        "XPURPOSE": "1",
        "OPERATINGR": "UP",
        "OPERATIN_1": "Primary",
        "DAYTHRU": 7,
        "NGHTTHRU": 7,
        "MAINTRK": 1,
        "SIDINGTRK": 0,
        "YARDTRK": 0,
        "TRANSITTRK": 0,
        "INDUSTRYTR": 0,
        "OTHRTRK": 0,
        "WDCODE": "All other Gates",
        "REVISIONDA": "1975/01/01 00:00:00",
        "LASTUPDATE": "8/28/2025",
        "AADT": "511",
        "AADTYEAR": "2019",
        "STATENAME": "TEXAS",
        "STATEAB": "TX",
        "COUNTYNAME": "MORRIS",
        "CITYNAME": "NAPLES",
        "LATDD": 33.2006409,
        "LONGDD": -94.6828282,
        "gridlyProductionCertified": true,
        "gridlyClassification": "PUBLIC_ROADWAY",
        "gridlyDisplayName": "FIRST STREET",
        "gridlyId": "FRA-789690K"
      }
    },
    {
      "type": "Feature",
      "id": 208620,
      "geometry": {
        "type": "Point",
        "coordinates": [
          -94.7065399003517,
          33.1851570002291
        ]
      },
      "properties": {
        "OBJECTID": 208620,
        "CROSSING": "787653B",
        "EFFDATE": 1756339200000,
        "REASON": "14",
        "StateCode": "48",
        "CountyCode": "48343",
        "STCYFIPS": "48343",
        "CITYCD": "483434820",
        "RAILROAD": "UP",
        "RRDIV": "MID AMERICA",
        "RRSUBDIV": "PINE BLUFF SUB",
        "HIGHWAY": "CO 4301",
        "STREET": "CR 4301",
        "TTSTN": "661610",
        "MILEPOST": "0463.570",
        "TYPEXING": "Public",
        "POSXING": "RR Over",
        "PRVCAT": "14",
        "INIT": "1",
        "LATITUDE": 33.185157,
        "LONGITUD": -94.7065399,
        "LLSOURCE": "1",
        "WHISTBAN": "0",
        "RRCONT": "4025443721",
        "POLCONT": "8008488715",
        "INV_LINK": "https://safetydata.fra.dot.gov/OfficeofSafety/PublicSite/Crossing/Crossing.aspx?phasetype=C&rpttype=I&txtcrossingnum=787653B",
        "ACC_LINK": "https://safetydata.fra.dot.gov/OfficeofSafety/PublicSite/Crossing/Crossing.aspx?phasetype=C&rpttype=A&txtcrossingnum=787653B",
        "TTSTNNAM": "",
        "XPURPOSE": "1",
        "OPERATINGR": "UP",
        "OPERATIN_1": "Primary",
        "DAYTHRU": 6,
        "NGHTTHRU": 5,
        "MAINTRK": 1,
        "SIDINGTRK": 0,
        "YARDTRK": 0,
        "TRANSITTRK": 0,
        "INDUSTRYTR": 0,
        "OTHRTRK": 0,
        "WDCODE": "",
        "REVISIONDA": "1975/01/01 00:00:00",
        "LASTUPDATE": "8/28/2025",
        "AADT": "500",
        "AADTYEAR": "2013",
        "STATENAME": "TEXAS",
        "STATEAB": "TX",
        "COUNTYNAME": "MORRIS",
        "CITYNAME": "NAPLES",
        "LATDD": 33.185157,
        "LONGDD": -94.7065399,
        "gridlyProductionCertified": true,
        "gridlyClassification": "PUBLIC_ROADWAY",
        "gridlyDisplayName": "CR 4301",
        "gridlyId": "FRA-787653B"
      }
    },
    {
      "type": "Feature",
      "id": 208701,
      "geometry": {
        "type": "Point",
        "coordinates": [
          -94.7324768003449,
          33.1796720001495
        ]
      },
      "properties": {
        "OBJECTID": 208701,
        "CROSSING": "787649L",
        "EFFDATE": 1756339200000,
        "REASON": "14",
        "StateCode": "48",
        "CountyCode": "48343",
        "STCYFIPS": "48343",
        "CITYCD": "483435090",
        "RAILROAD": "UP",
        "RRDIV": "MID AMERICA",
        "RRSUBDIV": "PINE BLUFF SUB",
        "HIGHWAY": "US 0259",
        "STREET": "US 259",
        "TTSTN": "661620",
        "MILEPOST": "0465.130",
        "TYPEXING": "Public",
        "POSXING": "RR Over",
        "PRVCAT": "14",
        "INIT": "1",
        "LATITUDE": 33.179672,
        "LONGITUD": -94.7324768,
        "LLSOURCE": "1",
        "WHISTBAN": "0",
        "RRCONT": "4025443721",
        "POLCONT": "8008488715",
        "INV_LINK": "https://safetydata.fra.dot.gov/OfficeofSafety/PublicSite/Crossing/Crossing.aspx?phasetype=C&rpttype=I&txtcrossingnum=787649L",
        "ACC_LINK": "https://safetydata.fra.dot.gov/OfficeofSafety/PublicSite/Crossing/Crossing.aspx?phasetype=C&rpttype=A&txtcrossingnum=787649L",
        "TTSTNNAM": "",
        "XPURPOSE": "1",
        "OPERATINGR": "UP",
        "OPERATIN_1": "Primary",
        "DAYTHRU": 6,
        "NGHTTHRU": 5,
        "MAINTRK": 1,
        "SIDINGTRK": 1,
        "YARDTRK": 0,
        "TRANSITTRK": 0,
        "INDUSTRYTR": 0,
        "OTHRTRK": 0,
        "WDCODE": "",
        "REVISIONDA": "1975/01/01 00:00:00",
        "LASTUPDATE": "8/28/2025",
        "AADT": "1850",
        "AADTYEAR": "2011",
        "STATENAME": "TEXAS",
        "STATEAB": "TX",
        "COUNTYNAME": "MORRIS",
        "CITYNAME": "OMAHA",
        "LATDD": 33.179672,
        "LONGDD": -94.7324768,
        "gridlyProductionCertified": true,
        "gridlyClassification": "PUBLIC_ROADWAY",
        "gridlyDisplayName": "US 259",
        "gridlyId": "FRA-787649L"
      }
    },
    {
      "type": "Feature",
      "id": 208707,
      "geometry": {
        "type": "Point",
        "coordinates": [
          -94.6726391002932,
          33.2092709000833
        ]
      },
      "properties": {
        "OBJECTID": 208707,
        "CROSSING": "789609V",
        "EFFDATE": 1756339200000,
        "REASON": "14",
        "StateCode": "48",
        "CountyCode": "48343",
        "STCYFIPS": "48343",
        "CITYCD": "483434820",
        "RAILROAD": "UP",
        "RRDIV": "MID AMERICA",
        "RRSUBDIV": "PINE BLUFF SUB",
        "HIGHWAY": "SH 0077",
        "STREET": "TX 77",
        "TTSTN": "661610",
        "MILEPOST": "0460.940",
        "TYPEXING": "Public",
        "POSXING": "RR Under",
        "PRVCAT": "14",
        "INIT": "1",
        "LATITUDE": 33.2092709,
        "LONGITUD": -94.6726391,
        "LLSOURCE": "1",
        "WHISTBAN": "0",
        "RRCONT": "4025443721",
        "POLCONT": "8008488715",
        "INV_LINK": "https://safetydata.fra.dot.gov/OfficeofSafety/PublicSite/Crossing/Crossing.aspx?phasetype=C&rpttype=I&txtcrossingnum=789609V",
        "ACC_LINK": "https://safetydata.fra.dot.gov/OfficeofSafety/PublicSite/Crossing/Crossing.aspx?phasetype=C&rpttype=A&txtcrossingnum=789609V",
        "TTSTNNAM": "",
        "XPURPOSE": "1",
        "OPERATINGR": "UP",
        "OPERATIN_1": "Primary",
        "DAYTHRU": 6,
        "NGHTTHRU": 5,
        "MAINTRK": 1,
        "SIDINGTRK": 0,
        "YARDTRK": 0,
        "TRANSITTRK": 0,
        "INDUSTRYTR": 0,
        "OTHRTRK": 0,
        "WDCODE": "",
        "REVISIONDA": "1975/01/01 00:00:00",
        "LASTUPDATE": "8/28/2025",
        "AADT": "1500",
        "AADTYEAR": "2011",
        "STATENAME": "TEXAS",
        "STATEAB": "TX",
        "COUNTYNAME": "MORRIS",
        "CITYNAME": "NAPLES",
        "LATDD": 33.2092709,
        "LONGDD": -94.6726391,
        "gridlyProductionCertified": true,
        "gridlyClassification": "PUBLIC_ROADWAY",
        "gridlyDisplayName": "TX 77",
        "gridlyId": "FRA-789609V"
      }
    },
    {
      "type": "Feature",
      "id": 211287,
      "geometry": {
        "type": "Point",
        "coordinates": [
          -94.7340660000326,
          33.0231919996324
        ]
      },
      "properties": {
        "OBJECTID": 211287,
        "CROSSING": "927230P",
        "EFFDATE": 1772064000000,
        "REASON": "14",
        "StateCode": "48",
        "CountyCode": "48343",
        "STCYFIPS": "48343",
        "CITYCD": "483431700",
        "RAILROAD": "KCS",
        "RRDIV": "Speedway",
        "RRSUBDIV": "Greenville",
        "HIGHWAY": "PVT",
        "STREET": "Moore Cemetery Road",
        "TTSTN": "",
        "MILEPOST": "0083.540",
        "TYPEXING": "Private",
        "POSXING": "At Grade",
        "PRVCAT": "14",
        "INIT": "1",
        "LATITUDE": 33.023192,
        "LONGITUD": -94.734066,
        "LLSOURCE": "1",
        "WHISTBAN": "",
        "RRCONT": "3186766269",
        "POLCONT": "8775279464",
        "INV_LINK": "https://safetydata.fra.dot.gov/OfficeofSafety/PublicSite/Crossing/Crossing.aspx?phasetype=C&rpttype=I&txtcrossingnum=927230P",
        "ACC_LINK": "https://safetydata.fra.dot.gov/OfficeofSafety/PublicSite/Crossing/Crossing.aspx?phasetype=C&rpttype=A&txtcrossingnum=927230P",
        "TTSTNNAM": "",
        "XPURPOSE": "1",
        "OPERATINGR": "CPKC",
        "OPERATIN_1": "Primary",
        "DAYTHRU": 4,
        "NGHTTHRU": 3,
        "MAINTRK": 1,
        "SIDINGTRK": 0,
        "YARDTRK": 0,
        "TRANSITTRK": 0,
        "INDUSTRYTR": 0,
        "OTHRTRK": 0,
        "WDCODE": "",
        "REVISIONDA": "1975/01/01 00:00:00",
        "LASTUPDATE": "2/26/2026",
        "AADT": "",
        "AADTYEAR": "",
        "STATENAME": "TEXAS",
        "STATEAB": "TX",
        "COUNTYNAME": "MORRIS",
        "CITYNAME": "DAINGERFIELD",
        "LATDD": 33.023192,
        "LONGDD": -94.734066,
        "gridlyProductionCertified": true,
        "gridlyClassification": "PUBLIC_ROADWAY",
        "gridlyDisplayName": "Moore Cemetery Road",
        "gridlyId": "FRA-927230P"
      }
    },
    {
      "type": "Feature",
      "id": 211688,
      "geometry": {
        "type": "Point",
        "coordinates": [
          -94.764060999796,
          33.0263920003411
        ]
      },
      "properties": {
        "OBJECTID": 211688,
        "CROSSING": "331501T",
        "EFFDATE": 1772064000000,
        "REASON": "14",
        "StateCode": "48",
        "CountyCode": "48343",
        "STCYFIPS": "48343",
        "CITYCD": "483431700",
        "RAILROAD": "KCS",
        "RRDIV": "Speedway",
        "RRSUBDIV": "Greenville",
        "HIGHWAY": "CO 1125",
        "STREET": "CR 1125",
        "TTSTN": "661650",
        "MILEPOST": "0085.430",
        "TYPEXING": "Public",
        "POSXING": "At Grade",
        "PRVCAT": "14",
        "INIT": "1",
        "LATITUDE": 33.026392,
        "LONGITUD": -94.764061,
        "LLSOURCE": "1",
        "WHISTBAN": "0",
        "RRCONT": "3186766269",
        "POLCONT": "8775279464",
        "INV_LINK": "https://safetydata.fra.dot.gov/OfficeofSafety/PublicSite/Crossing/Crossing.aspx?phasetype=C&rpttype=I&txtcrossingnum=331501T",
        "ACC_LINK": "https://safetydata.fra.dot.gov/OfficeofSafety/PublicSite/Crossing/Crossing.aspx?phasetype=C&rpttype=A&txtcrossingnum=331501T",
        "TTSTNNAM": "661650",
        "XPURPOSE": "1",
        "OPERATINGR": "CPKC",
        "OPERATIN_1": "Primary",
        "DAYTHRU": 4,
        "NGHTTHRU": 3,
        "MAINTRK": 1,
        "SIDINGTRK": 0,
        "YARDTRK": 0,
        "TRANSITTRK": 0,
        "INDUSTRYTR": 0,
        "OTHRTRK": 0,
        "WDCODE": "Crossbucks",
        "REVISIONDA": "1975/01/01 00:00:00",
        "LASTUPDATE": "2/26/2026",
        "AADT": "122",
        "AADTYEAR": "2019",
        "STATENAME": "TEXAS",
        "STATEAB": "TX",
        "COUNTYNAME": "MORRIS",
        "CITYNAME": "DAINGERFIELD",
        "LATDD": 33.026392,
        "LONGDD": -94.764061,
        "gridlyProductionCertified": true,
        "gridlyClassification": "PUBLIC_ROADWAY",
        "gridlyDisplayName": "CR 1125",
        "gridlyId": "FRA-331501T"
      }
    },
    {
      "type": "Feature",
      "id": 212028,
      "geometry": {
        "type": "Point",
        "coordinates": [
          -94.8014789997375,
          33.0387330003405
        ]
      },
      "properties": {
        "OBJECTID": 212028,
        "CROSSING": "330916X",
        "EFFDATE": 1772064000000,
        "REASON": "14",
        "StateCode": "48",
        "CountyCode": "48343",
        "STCYFIPS": "48343",
        "CITYCD": "483431700",
        "RAILROAD": "KCS",
        "RRDIV": "Speedway",
        "RRSUBDIV": "Greenville",
        "HIGHWAY": "PRIVATE",
        "STREET": "PRIVATE ROAD",
        "TTSTN": "661660",
        "MILEPOST": "0087.730",
        "TYPEXING": "Private",
        "POSXING": "At Grade",
        "PRVCAT": "14",
        "INIT": "1",
        "LATITUDE": 33.038733,
        "LONGITUD": -94.801479,
        "LLSOURCE": "1",
        "WHISTBAN": "0",
        "RRCONT": "3186766269",
        "POLCONT": "8775279464",
        "INV_LINK": "https://safetydata.fra.dot.gov/OfficeofSafety/PublicSite/Crossing/Crossing.aspx?phasetype=C&rpttype=I&txtcrossingnum=330916X",
        "ACC_LINK": "https://safetydata.fra.dot.gov/OfficeofSafety/PublicSite/Crossing/Crossing.aspx?phasetype=C&rpttype=A&txtcrossingnum=330916X",
        "TTSTNNAM": "661660",
        "XPURPOSE": "1",
        "OPERATINGR": "CPKC",
        "OPERATIN_1": "Primary",
        "DAYTHRU": 4,
        "NGHTTHRU": 3,
        "MAINTRK": 1,
        "SIDINGTRK": 0,
        "YARDTRK": 0,
        "TRANSITTRK": 0,
        "INDUSTRYTR": 0,
        "OTHRTRK": 0,
        "WDCODE": "",
        "REVISIONDA": "1975/01/01 00:00:00",
        "LASTUPDATE": "2/26/2026",
        "AADT": "1",
        "AADTYEAR": "1991",
        "STATENAME": "TEXAS",
        "STATEAB": "TX",
        "COUNTYNAME": "MORRIS",
        "CITYNAME": "DAINGERFIELD",
        "LATDD": 33.038733,
        "LONGDD": -94.801479,
        "gridlyProductionCertified": true,
        "gridlyClassification": "PUBLIC_ROADWAY",
        "gridlyDisplayName": "PRIVATE ROAD",
        "gridlyId": "FRA-330916X"
      }
    },
    {
      "type": "Feature",
      "id": 215928,
      "geometry": {
        "type": "Point",
        "coordinates": [
          -94.7219189996253,
          33.0318089997696
        ]
      },
      "properties": {
        "OBJECTID": 215928,
        "CROSSING": "331496Y",
        "EFFDATE": 1772064000000,
        "REASON": "14",
        "StateCode": "48",
        "CountyCode": "48343",
        "STCYFIPS": "48343",
        "CITYCD": "483431700",
        "RAILROAD": "KCS",
        "RRDIV": "Speedway",
        "RRSUBDIV": "Greenville",
        "HIGHWAY": "ST 0000",
        "STREET": "WEBB ST",
        "TTSTN": "661650",
        "MILEPOST": "0082.580",
        "TYPEXING": "Public",
        "POSXING": "At Grade",
        "PRVCAT": "14",
        "INIT": "1",
        "LATITUDE": 33.031809,
        "LONGITUD": -94.721919,
        "LLSOURCE": "1",
        "WHISTBAN": "1",
        "RRCONT": "3186766269",
        "POLCONT": "8775279464",
        "INV_LINK": "https://safetydata.fra.dot.gov/OfficeofSafety/PublicSite/Crossing/Crossing.aspx?phasetype=C&rpttype=I&txtcrossingnum=331496Y",
        "ACC_LINK": "https://safetydata.fra.dot.gov/OfficeofSafety/PublicSite/Crossing/Crossing.aspx?phasetype=C&rpttype=A&txtcrossingnum=331496Y",
        "TTSTNNAM": "661650",
        "XPURPOSE": "1",
        "OPERATINGR": "CPKC",
        "OPERATIN_1": "Primary",
        "DAYTHRU": 4,
        "NGHTTHRU": 3,
        "MAINTRK": 1,
        "SIDINGTRK": 0,
        "YARDTRK": 0,
        "TRANSITTRK": 0,
        "INDUSTRYTR": 0,
        "OTHRTRK": 0,
        "WDCODE": "All other Gates",
        "REVISIONDA": "1975/01/01 00:00:00",
        "LASTUPDATE": "2/26/2026",
        "AADT": "000561",
        "AADTYEAR": "2023",
        "STATENAME": "TEXAS",
        "STATEAB": "TX",
        "COUNTYNAME": "MORRIS",
        "CITYNAME": "DAINGERFIELD",
        "LATDD": 33.031809,
        "LONGDD": -94.721919,
        "gridlyProductionCertified": true,
        "gridlyClassification": "PUBLIC_ROADWAY",
        "gridlyDisplayName": "WEBB ST",
        "gridlyId": "FRA-331496Y"
      }
    },
    {
      "type": "Feature",
      "id": 215999,
      "geometry": {
        "type": "Point",
        "coordinates": [
          -94.7283669998352,
          33.0257680000571
        ]
      },
      "properties": {
        "OBJECTID": 215999,
        "CROSSING": "331499U",
        "EFFDATE": 1772064000000,
        "REASON": "14",
        "StateCode": "48",
        "CountyCode": "48343",
        "STCYFIPS": "48343",
        "CITYCD": "483431700",
        "RAILROAD": "KCS",
        "RRDIV": "Speedway",
        "RRSUBDIV": "Greenville",
        "HIGHWAY": "CO 1101",
        "STREET": "CR 1101",
        "TTSTN": "661650",
        "MILEPOST": "0083.140",
        "TYPEXING": "Public",
        "POSXING": "At Grade",
        "PRVCAT": "14",
        "INIT": "1",
        "LATITUDE": 33.025768,
        "LONGITUD": -94.728367,
        "LLSOURCE": "1",
        "WHISTBAN": "0",
        "RRCONT": "3186766269",
        "POLCONT": "8775279464",
        "INV_LINK": "https://safetydata.fra.dot.gov/OfficeofSafety/PublicSite/Crossing/Crossing.aspx?phasetype=C&rpttype=I&txtcrossingnum=331499U",
        "ACC_LINK": "https://safetydata.fra.dot.gov/OfficeofSafety/PublicSite/Crossing/Crossing.aspx?phasetype=C&rpttype=A&txtcrossingnum=331499U",
        "TTSTNNAM": "661650",
        "XPURPOSE": "1",
        "OPERATINGR": "CPKC",
        "OPERATIN_1": "Primary",
        "DAYTHRU": 4,
        "NGHTTHRU": 3,
        "MAINTRK": 1,
        "SIDINGTRK": 0,
        "YARDTRK": 0,
        "TRANSITTRK": 0,
        "INDUSTRYTR": 0,
        "OTHRTRK": 0,
        "WDCODE": "All other Gates",
        "REVISIONDA": "1975/01/01 00:00:00",
        "LASTUPDATE": "2/26/2026",
        "AADT": "588",
        "AADTYEAR": "2019",
        "STATENAME": "TEXAS",
        "STATEAB": "TX",
        "COUNTYNAME": "MORRIS",
        "CITYNAME": "DAINGERFIELD",
        "LATDD": 33.025768,
        "LONGDD": -94.728367,
        "gridlyProductionCertified": true,
        "gridlyClassification": "PUBLIC_ROADWAY",
        "gridlyDisplayName": "CR 1101",
        "gridlyId": "FRA-331499U"
      }
    }
  ]
}
