{
  "type": "FeatureCollection",
  "features": [
    {
      "type": "Feature",
      "id": 202564,
      "geometry": {
        "type": "Point",
        "coordinates": [
          -100.599821999695,
          32.5673011002054
        ]
      },
      "properties": {
        "OBJECTID": 202564,
        "CROSSING": "015119R",
        "EFFDATE": 1702339200000,
        "REASON": "20",
        "StateCode": "48",
        "CountyCode": "48151",
        "STCYFIPS": "48151",
        "CITYCD": "483536720",
        "RAILROAD": "BNSF",
        "RRDIV": "RED RIVER",
        "RRSUBDIV": "SLATON",
        "HIGHWAY": "Not Yet Reported by State",
        "STREET": "PRIVATE",
        "TTSTN": "679175",
        "MILEPOST": "0779.280",
        "TYPEXING": "Private",
        "POSXING": "At Grade",
        "PRVCAT": "20",
        "INIT": "1",
        "LATITUDE": 32.5673011,
        "LONGITUD": -100.599822,
        "LLSOURCE": "1",
        "WHISTBAN": "0",
        "RRCONT": "8173521549",
        "POLCONT": "8008325452",
        "INV_LINK": "https://safetydata.fra.dot.gov/OfficeofSafety/PublicSite/Crossing/Crossing.aspx?phasetype=C&rpttype=I&txtcrossingnum=015119R",
        "ACC_LINK": "https://safetydata.fra.dot.gov/OfficeofSafety/PublicSite/Crossing/Crossing.aspx?phasetype=C&rpttype=A&txtcrossingnum=015119R",
        "TTSTNNAM": "PYRON",
        "XPURPOSE": "1",
        "OPERATINGR": "BNSF",
        "OPERATIN_1": "Primary",
        "DAYTHRU": 5,
        "NGHTTHRU": 5,
        "MAINTRK": 1,
        "SIDINGTRK": 0,
        "YARDTRK": 0,
        "TRANSITTRK": 0,
        "INDUSTRYTR": 0,
        "OTHRTRK": 0,
        "WDCODE": "",
        "REVISIONDA": "1996/01/01 00:00:00",
        "LASTUPDATE": "12/12/2023",
        "AADT": "",
        "AADTYEAR": "1970",
        "STATENAME": "TEXAS",
        "STATEAB": "TX",
        "COUNTYNAME": "FISHER",
        "CITYNAME": "SWEETWATER",
        "LATDD": 32.5673011,
        "LONGDD": -100.599822,
        "gridlyProductionCertified": true,
        "gridlyClassification": "PUBLIC_ROADWAY",
        "gridlyDisplayName": "PRIVATE",
        "gridlyId": "FRA-015119R"
      }
    },
    {
      "type": "Feature",
      "id": 202565,
      "geometry": {
        "type": "Point",
        "coordinates": [
          -100.587079000334,
          32.5595364003203
        ]
      },
      "properties": {
        "OBJECTID": 202565,
        "CROSSING": "015121S",
        "EFFDATE": 1702339200000,
        "REASON": "20",
        "StateCode": "48",
        "CountyCode": "48151",
        "STCYFIPS": "48151",
        "CITYCD": "483536720",
        "RAILROAD": "BNSF",
        "RRDIV": "RED RIVER",
        "RRSUBDIV": "SLATON",
        "HIGHWAY": "CO 0452",
        "STREET": "CO RD",
        "TTSTN": "679175",
        "MILEPOST": "0780.210",
        "TYPEXING": "Public",
        "POSXING": "At Grade",
        "PRVCAT": "20",
        "INIT": "1",
        "LATITUDE": 32.5595364,
        "LONGITUD": -100.587079,
        "LLSOURCE": "1",
        "WHISTBAN": "0",
        "RRCONT": "8173521549",
        "POLCONT": "8008325452",
        "INV_LINK": "https://safetydata.fra.dot.gov/OfficeofSafety/PublicSite/Crossing/Crossing.aspx?phasetype=C&rpttype=I&txtcrossingnum=015121S",
        "ACC_LINK": "https://safetydata.fra.dot.gov/OfficeofSafety/PublicSite/Crossing/Crossing.aspx?phasetype=C&rpttype=A&txtcrossingnum=015121S",
        "TTSTNNAM": "PYRON",
        "XPURPOSE": "1",
        "OPERATINGR": "BNSF",
        "OPERATIN_1": "Primary",
        "DAYTHRU": 5,
        "NGHTTHRU": 5,
        "MAINTRK": 1,
        "SIDINGTRK": 0,
        "YARDTRK": 0,
        "TRANSITTRK": 0,
        "INDUSTRYTR": 0,
        "OTHRTRK": 0,
        "WDCODE": "Crossbucks",
        "REVISIONDA": "1996/01/01 00:00:00",
        "LASTUPDATE": "12/12/2023",
        "AADT": "11",
        "AADTYEAR": "2019",
        "STATENAME": "TEXAS",
        "STATEAB": "TX",
        "COUNTYNAME": "FISHER",
        "CITYNAME": "SWEETWATER",
        "LATDD": 32.5595364,
        "LONGDD": -100.587079,
        "gridlyProductionCertified": true,
        "gridlyClassification": "PUBLIC_ROADWAY",
        "gridlyDisplayName": "CO RD",
        "gridlyId": "FRA-015121S"
      }
    },
    {
      "type": "Feature",
      "id": 202574,
      "geometry": {
        "type": "Point",
        "coordinates": [
          -100.567348999915,
          32.5582090001876
        ]
      },
      "properties": {
        "OBJECTID": 202574,
        "CROSSING": "015122Y",
        "EFFDATE": 1702339200000,
        "REASON": "20",
        "StateCode": "48",
        "CountyCode": "48151",
        "STCYFIPS": "48151",
        "CITYCD": "483536720",
        "RAILROAD": "BNSF",
        "RRDIV": "RED RIVER",
        "RRSUBDIV": "SLATON",
        "HIGHWAY": "CO 0452",
        "STREET": "CO RD",
        "TTSTN": "679175",
        "MILEPOST": "0781.500",
        "TYPEXING": "Public",
        "POSXING": "RR Over",
        "PRVCAT": "20",
        "INIT": "1",
        "LATITUDE": 32.558209,
        "LONGITUD": -100.567349,
        "LLSOURCE": "1",
        "WHISTBAN": "0",
        "RRCONT": "8173521549",
        "POLCONT": "8008325452",
        "INV_LINK": "https://safetydata.fra.dot.gov/OfficeofSafety/PublicSite/Crossing/Crossing.aspx?phasetype=C&rpttype=I&txtcrossingnum=015122Y",
        "ACC_LINK": "https://safetydata.fra.dot.gov/OfficeofSafety/PublicSite/Crossing/Crossing.aspx?phasetype=C&rpttype=A&txtcrossingnum=015122Y",
        "TTSTNNAM": "PYRON",
        "XPURPOSE": "1",
        "OPERATINGR": "BNSF",
        "OPERATIN_1": "Primary",
        "DAYTHRU": 5,
        "NGHTTHRU": 5,
        "MAINTRK": 1,
        "SIDINGTRK": 0,
        "YARDTRK": 0,
        "TRANSITTRK": 0,
        "INDUSTRYTR": 0,
        "OTHRTRK": 0,
        "WDCODE": "",
        "REVISIONDA": "1996/01/01 00:00:00",
        "LASTUPDATE": "12/12/2023",
        "AADT": "000030",
        "AADTYEAR": "2010",
        "STATENAME": "TEXAS",
        "STATEAB": "TX",
        "COUNTYNAME": "FISHER",
        "CITYNAME": "SWEETWATER",
        "LATDD": 32.558209,
        "LONGDD": -100.567349,
        "gridlyProductionCertified": true,
        "gridlyClassification": "PUBLIC_ROADWAY",
        "gridlyDisplayName": "CO RD",
        "gridlyId": "FRA-015122Y"
      }
    },
    {
      "type": "Feature",
      "id": 202575,
      "geometry": {
        "type": "Point",
        "coordinates": [
          -100.557419000307,
          32.5657386996504
        ]
      },
      "properties": {
        "OBJECTID": 202575,
        "CROSSING": "015124M",
        "EFFDATE": 1702339200000,
        "REASON": "20",
        "StateCode": "48",
        "CountyCode": "48151",
        "STCYFIPS": "48151",
        "CITYCD": "483536720",
        "RAILROAD": "BNSF",
        "RRDIV": "RED RIVER",
        "RRSUBDIV": "SLATON",
        "HIGHWAY": "FM 0608",
        "STREET": "FM RD 608",
        "TTSTN": "679175",
        "MILEPOST": "0782.275",
        "TYPEXING": "Public",
        "POSXING": "At Grade",
        "PRVCAT": "20",
        "INIT": "1",
        "LATITUDE": 32.5657387,
        "LONGITUD": -100.557419,
        "LLSOURCE": "1",
        "WHISTBAN": "0",
        "RRCONT": "8173521549",
        "POLCONT": "8008325452",
        "INV_LINK": "https://safetydata.fra.dot.gov/OfficeofSafety/PublicSite/Crossing/Crossing.aspx?phasetype=C&rpttype=I&txtcrossingnum=015124M",
        "ACC_LINK": "https://safetydata.fra.dot.gov/OfficeofSafety/PublicSite/Crossing/Crossing.aspx?phasetype=C&rpttype=A&txtcrossingnum=015124M",
        "TTSTNNAM": "PYRON",
        "XPURPOSE": "1",
        "OPERATINGR": "BNSF",
        "OPERATIN_1": "Primary",
        "DAYTHRU": 5,
        "NGHTTHRU": 5,
        "MAINTRK": 1,
        "SIDINGTRK": 0,
        "YARDTRK": 0,
        "TRANSITTRK": 0,
        "INDUSTRYTR": 0,
        "OTHRTRK": 0,
        "WDCODE": "All other Gates",
        "REVISIONDA": "1996/01/01 00:00:00",
        "LASTUPDATE": "12/12/2023",
        "AADT": "1109",
        "AADTYEAR": "2019",
        "STATENAME": "TEXAS",
        "STATEAB": "TX",
        "COUNTYNAME": "FISHER",
        "CITYNAME": "SWEETWATER",
        "LATDD": 32.5657387,
        "LONGDD": -100.557419,
        "gridlyProductionCertified": true,
        "gridlyClassification": "PUBLIC_ROADWAY",
        "gridlyDisplayName": "FM RD 608",
        "gridlyId": "FRA-015124M"
      }
    },
    {
      "type": "Feature",
      "id": 202576,
      "geometry": {
        "type": "Point",
        "coordinates": [
          -100.498900999968,
          32.5624743000339
        ]
      },
      "properties": {
        "OBJECTID": 202576,
        "CROSSING": "015128P",
        "EFFDATE": 1702339200000,
        "REASON": "20",
        "StateCode": "48",
        "CountyCode": "48151",
        "STCYFIPS": "48151",
        "CITYCD": "483536720",
        "RAILROAD": "BNSF",
        "RRDIV": "RED RIVER",
        "RRSUBDIV": "SLATON",
        "HIGHWAY": "CO 0443",
        "STREET": "CR-443",
        "TTSTN": "678920",
        "MILEPOST": "0785.885",
        "TYPEXING": "Public",
        "POSXING": "At Grade",
        "PRVCAT": "20",
        "INIT": "1",
        "LATITUDE": 32.5624743,
        "LONGITUD": -100.498901,
        "LLSOURCE": "1",
        "WHISTBAN": "0",
        "RRCONT": "8173521549",
        "POLCONT": "8008325452",
        "INV_LINK": "https://safetydata.fra.dot.gov/OfficeofSafety/PublicSite/Crossing/Crossing.aspx?phasetype=C&rpttype=I&txtcrossingnum=015128P",
        "ACC_LINK": "https://safetydata.fra.dot.gov/OfficeofSafety/PublicSite/Crossing/Crossing.aspx?phasetype=C&rpttype=A&txtcrossingnum=015128P",
        "TTSTNNAM": "SWEETWATER YARD",
        "XPURPOSE": "1",
        "OPERATINGR": "BNSF",
        "OPERATIN_1": "Primary",
        "DAYTHRU": 5,
        "NGHTTHRU": 5,
        "MAINTRK": 1,
        "SIDINGTRK": 0,
        "YARDTRK": 0,
        "TRANSITTRK": 0,
        "INDUSTRYTR": 0,
        "OTHRTRK": 0,
        "WDCODE": "Crossbucks",
        "REVISIONDA": "1996/01/01 00:00:00",
        "LASTUPDATE": "12/12/2023",
        "AADT": "4",
        "AADTYEAR": "2019",
        "STATENAME": "TEXAS",
        "STATEAB": "TX",
        "COUNTYNAME": "FISHER",
        "CITYNAME": "SWEETWATER",
        "LATDD": 32.5624743,
        "LONGDD": -100.498901,
        "gridlyProductionCertified": true,
        "gridlyClassification": "PUBLIC_ROADWAY",
        "gridlyDisplayName": "CR-443",
        "gridlyId": "FRA-015128P"
      }
    },
    {
      "type": "Feature",
      "id": 202674,
      "geometry": {
        "type": "Point",
        "coordinates": [
          -100.474879000038,
          32.5547348996978
        ]
      },
      "properties": {
        "OBJECTID": 202674,
        "CROSSING": "015130R",
        "EFFDATE": 1702339200000,
        "REASON": "20",
        "StateCode": "48",
        "CountyCode": "48151",
        "STCYFIPS": "48151",
        "CITYCD": "483536720",
        "RAILROAD": "BNSF",
        "RRDIV": "RED RIVER",
        "RRSUBDIV": "SLATON",
        "HIGHWAY": "Not Yet Reported by State",
        "STREET": "CO RD 441",
        "TTSTN": "678920",
        "MILEPOST": "0787.390",
        "TYPEXING": "Private",
        "POSXING": "At Grade",
        "PRVCAT": "20",
        "INIT": "1",
        "LATITUDE": 32.5547349,
        "LONGITUD": -100.474879,
        "LLSOURCE": "1",
        "WHISTBAN": "0",
        "RRCONT": "8173521549",
        "POLCONT": "8008325452",
        "INV_LINK": "https://safetydata.fra.dot.gov/OfficeofSafety/PublicSite/Crossing/Crossing.aspx?phasetype=C&rpttype=I&txtcrossingnum=015130R",
        "ACC_LINK": "https://safetydata.fra.dot.gov/OfficeofSafety/PublicSite/Crossing/Crossing.aspx?phasetype=C&rpttype=A&txtcrossingnum=015130R",
        "TTSTNNAM": "SWEETWATER YARD",
        "XPURPOSE": "1",
        "OPERATINGR": "BNSF",
        "OPERATIN_1": "Primary",
        "DAYTHRU": 5,
        "NGHTTHRU": 5,
        "MAINTRK": 1,
        "SIDINGTRK": 1,
        "YARDTRK": 0,
        "TRANSITTRK": 0,
        "INDUSTRYTR": 0,
        "OTHRTRK": 1,
        "WDCODE": "",
        "REVISIONDA": "1996/01/01 00:00:00",
        "LASTUPDATE": "12/12/2023",
        "AADT": "",
        "AADTYEAR": "1970",
        "STATENAME": "TEXAS",
        "STATEAB": "TX",
        "COUNTYNAME": "FISHER",
        "CITYNAME": "SWEETWATER",
        "LATDD": 32.5547349,
        "LONGDD": -100.474879,
        "gridlyProductionCertified": true,
        "gridlyClassification": "PUBLIC_ROADWAY",
        "gridlyDisplayName": "CO RD 441",
        "gridlyId": "FRA-015130R"
      }
    },
    {
      "type": "Feature",
      "id": 202675,
      "geometry": {
        "type": "Point",
        "coordinates": [
          -100.466552999861,
          32.5525906996654
        ]
      },
      "properties": {
        "OBJECTID": 202675,
        "CROSSING": "015131X",
        "EFFDATE": 1702339200000,
        "REASON": "20",
        "StateCode": "48",
        "CountyCode": "48151",
        "STCYFIPS": "48151",
        "CITYCD": "483536720",
        "RAILROAD": "BNSF",
        "RRDIV": "RED RIVER",
        "RRSUBDIV": "SLATON",
        "HIGHWAY": "CO 0438",
        "STREET": "CO RD",
        "TTSTN": "678920",
        "MILEPOST": "0787.895",
        "TYPEXING": "Public",
        "POSXING": "At Grade",
        "PRVCAT": "20",
        "INIT": "1",
        "LATITUDE": 32.5525907,
        "LONGITUD": -100.466553,
        "LLSOURCE": "1",
        "WHISTBAN": "0",
        "RRCONT": "8173521549",
        "POLCONT": "8008325452",
        "INV_LINK": "https://safetydata.fra.dot.gov/OfficeofSafety/PublicSite/Crossing/Crossing.aspx?phasetype=C&rpttype=I&txtcrossingnum=015131X",
        "ACC_LINK": "https://safetydata.fra.dot.gov/OfficeofSafety/PublicSite/Crossing/Crossing.aspx?phasetype=C&rpttype=A&txtcrossingnum=015131X",
        "TTSTNNAM": "SWEETWATER YARD",
        "XPURPOSE": "1",
        "OPERATINGR": "BNSF",
        "OPERATIN_1": "Primary",
        "DAYTHRU": 5,
        "NGHTTHRU": 5,
        "MAINTRK": 1,
        "SIDINGTRK": 1,
        "YARDTRK": 0,
        "TRANSITTRK": 0,
        "INDUSTRYTR": 0,
        "OTHRTRK": 1,
        "WDCODE": "Crossbucks",
        "REVISIONDA": "1996/01/01 00:00:00",
        "LASTUPDATE": "12/12/2023",
        "AADT": "40",
        "AADTYEAR": "2019",
        "STATENAME": "TEXAS",
        "STATEAB": "TX",
        "COUNTYNAME": "FISHER",
        "CITYNAME": "SWEETWATER",
        "LATDD": 32.5525907,
        "LONGDD": -100.466553,
        "gridlyProductionCertified": true,
        "gridlyClassification": "PUBLIC_ROADWAY",
        "gridlyDisplayName": "CO RD",
        "gridlyId": "FRA-015131X"
      }
    },
    {
      "type": "Feature",
      "id": 203635,
      "geometry": {
        "type": "Point",
        "coordinates": [
          -100.431221000299,
          32.5278624998921
        ]
      },
      "properties": {
        "OBJECTID": 203635,
        "CROSSING": "015133L",
        "EFFDATE": 1734393600000,
        "REASON": "14",
        "StateCode": "48",
        "CountyCode": "48151",
        "STCYFIPS": "48151",
        "CITYCD": "483536720",
        "RAILROAD": "BNSF",
        "RRDIV": "RED RIVER",
        "RRSUBDIV": "SLATON",
        "HIGHWAY": "Not Yet Reported by State",
        "STREET": "PRIVATE",
        "TTSTN": "678920",
        "MILEPOST": "0790.600",
        "TYPEXING": "Private",
        "POSXING": "RR Over",
        "PRVCAT": "14",
        "INIT": "1",
        "LATITUDE": 32.5278625,
        "LONGITUD": -100.431221,
        "LLSOURCE": "1",
        "WHISTBAN": "0",
        "RRCONT": "8173521549",
        "POLCONT": "8008325452",
        "INV_LINK": "https://safetydata.fra.dot.gov/OfficeofSafety/PublicSite/Crossing/Crossing.aspx?phasetype=C&rpttype=I&txtcrossingnum=015133L",
        "ACC_LINK": "https://safetydata.fra.dot.gov/OfficeofSafety/PublicSite/Crossing/Crossing.aspx?phasetype=C&rpttype=A&txtcrossingnum=015133L",
        "TTSTNNAM": "SWEETWATER YARD",
        "XPURPOSE": "1",
        "OPERATINGR": "BNSF",
        "OPERATIN_1": "Primary",
        "DAYTHRU": 3,
        "NGHTTHRU": 2,
        "MAINTRK": 1,
        "SIDINGTRK": 0,
        "YARDTRK": 0,
        "TRANSITTRK": 0,
        "INDUSTRYTR": 0,
        "OTHRTRK": 0,
        "WDCODE": "",
        "REVISIONDA": "1996/01/01 00:00:00",
        "LASTUPDATE": "12/17/2024",
        "AADT": "",
        "AADTYEAR": "1970",
        "STATENAME": "TEXAS",
        "STATEAB": "TX",
        "COUNTYNAME": "FISHER",
        "CITYNAME": "SWEETWATER",
        "LATDD": 32.5278625,
        "LONGDD": -100.431221,
        "gridlyProductionCertified": true,
        "gridlyClassification": "PUBLIC_ROADWAY",
        "gridlyDisplayName": "PRIVATE",
        "gridlyId": "FRA-015133L"
      }
    },
    {
      "type": "Feature",
      "id": 211985,
      "geometry": {
        "type": "Point",
        "coordinates": [
          -100.255759199667,
          32.5266705996458
        ]
      },
      "properties": {
        "OBJECTID": 211985,
        "CROSSING": "796098E",
        "EFFDATE": 1758499200000,
        "REASON": "14",
        "StateCode": "48",
        "CountyCode": "48353",
        "STCYFIPS": "48353",
        "CITYCD": "483536720",
        "RAILROAD": "UP",
        "RRDIV": "TEXOMA",
        "RRSUBDIV": "BAIRD SUB",
        "HIGHWAY": "PRIVATE",
        "STREET": "PRIVATE",
        "TTSTN": "678837",
        "MILEPOST": "0437.680",
        "TYPEXING": "Private",
        "POSXING": "At Grade",
        "PRVCAT": "14",
        "INIT": "1",
        "LATITUDE": 32.5266706,
        "LONGITUD": -100.2557592,
        "LLSOURCE": "1",
        "WHISTBAN": "0",
        "RRCONT": "4025443721",
        "POLCONT": "8008488715",
        "INV_LINK": "https://safetydata.fra.dot.gov/OfficeofSafety/PublicSite/Crossing/Crossing.aspx?phasetype=C&rpttype=I&txtcrossingnum=796098E",
        "ACC_LINK": "https://safetydata.fra.dot.gov/OfficeofSafety/PublicSite/Crossing/Crossing.aspx?phasetype=C&rpttype=A&txtcrossingnum=796098E",
        "TTSTNNAM": "",
        "XPURPOSE": "1",
        "OPERATINGR": "UP",
        "OPERATIN_1": "Primary",
        "DAYTHRU": 11,
        "NGHTTHRU": 10,
        "MAINTRK": 1,
        "SIDINGTRK": 1,
        "YARDTRK": 0,
        "TRANSITTRK": 0,
        "INDUSTRYTR": 0,
        "OTHRTRK": 1,
        "WDCODE": "",
        "REVISIONDA": "1975/01/01 00:00:00",
        "LASTUPDATE": "9/22/2025",
        "AADT": "62",
        "AADTYEAR": "1994",
        "STATENAME": "TEXAS",
        "STATEAB": "TX",
        "COUNTYNAME": "NOLAN",
        "CITYNAME": "SWEETWATER",
        "LATDD": 32.5266706,
        "LONGDD": -100.2557592,
        "gridlyProductionCertified": true,
        "gridlyClassification": "PUBLIC_ROADWAY",
        "gridlyDisplayName": "PRIVATE",
        "gridlyId": "FRA-796098E"
      }
    },
    {
      "type": "Feature",
      "id": 211986,
      "geometry": {
        "type": "Point",
        "coordinates": [
          -100.275979600281,
          32.5258433002251
        ]
      },
      "properties": {
        "OBJECTID": 211986,
        "CROSSING": "796099L",
        "EFFDATE": 1758499200000,
        "REASON": "14",
        "StateCode": "48",
        "CountyCode": "48353",
        "STCYFIPS": "48353",
        "CITYCD": "483536720",
        "RAILROAD": "UP",
        "RRDIV": "TEXOMA",
        "RRSUBDIV": "BAIRD SUB",
        "HIGHWAY": "CO 0741",
        "STREET": "CR 170",
        "TTSTN": "678837",
        "MILEPOST": "0438.990",
        "TYPEXING": "Public",
        "POSXING": "At Grade",
        "PRVCAT": "14",
        "INIT": "1",
        "LATITUDE": 32.5258433,
        "LONGITUD": -100.2759796,
        "LLSOURCE": "1",
        "WHISTBAN": "0",
        "RRCONT": "4025443721",
        "POLCONT": "8008488715",
        "INV_LINK": "https://safetydata.fra.dot.gov/OfficeofSafety/PublicSite/Crossing/Crossing.aspx?phasetype=C&rpttype=I&txtcrossingnum=796099L",
        "ACC_LINK": "https://safetydata.fra.dot.gov/OfficeofSafety/PublicSite/Crossing/Crossing.aspx?phasetype=C&rpttype=A&txtcrossingnum=796099L",
        "TTSTNNAM": "",
        "XPURPOSE": "1",
        "OPERATINGR": "UP",
        "OPERATIN_1": "Primary",
        "DAYTHRU": 11,
        "NGHTTHRU": 10,
        "MAINTRK": 1,
        "SIDINGTRK": 0,
        "YARDTRK": 0,
        "TRANSITTRK": 0,
        "INDUSTRYTR": 0,
        "OTHRTRK": 0,
        "WDCODE": "Crossbucks",
        "REVISIONDA": "1975/01/01 00:00:00",
        "LASTUPDATE": "9/22/2025",
        "AADT": "55",
        "AADTYEAR": "2019",
        "STATENAME": "TEXAS",
        "STATEAB": "TX",
        "COUNTYNAME": "NOLAN",
        "CITYNAME": "SWEETWATER",
        "LATDD": 32.5258433,
        "LONGDD": -100.2759796,
        "gridlyProductionCertified": true,
        "gridlyClassification": "PUBLIC_ROADWAY",
        "gridlyDisplayName": "CR 170",
        "gridlyId": "FRA-796099L"
      }
    }
  ]
}
