{
  "type": "FeatureCollection",
  "features": [
    {
      "type": "Feature",
      "id": 201362,
      "geometry": {
        "type": "Point",
        "coordinates": [
          -102.309100999662,
          35.5456459997325
        ]
      },
      "properties": {
        "OBJECTID": 201362,
        "CROSSING": "967563A",
        "EFFDATE": 1631750400000,
        "REASON": "14",
        "StateCode": "48",
        "CountyCode": "48359",
        "STCYFIPS": "48359",
        "CITYCD": "483590814",
        "RAILROAD": "BNSF",
        "RRDIV": "KANSAS",
        "RRSUBDIV": "DALHART",
        "HIGHWAY": "PRIVATE",
        "STREET": "PRIVATE",
        "TTSTN": "",
        "MILEPOST": "0376.763",
        "TYPEXING": "Private",
        "POSXING": "RR Over",
        "PRVCAT": "14",
        "INIT": "1",
        "LATITUDE": 35.545646,
        "LONGITUD": -102.309101,
        "LLSOURCE": "1",
        "WHISTBAN": "",
        "RRCONT": "8173521549",
        "POLCONT": "8008325452",
        "INV_LINK": "https://safetydata.fra.dot.gov/OfficeofSafety/PublicSite/Crossing/Crossing.aspx?phasetype=C&rpttype=I&txtcrossingnum=967563A",
        "ACC_LINK": "https://safetydata.fra.dot.gov/OfficeofSafety/PublicSite/Crossing/Crossing.aspx?phasetype=C&rpttype=A&txtcrossingnum=967563A",
        "TTSTNNAM": "",
        "XPURPOSE": "1",
        "OPERATINGR": "BNSF",
        "OPERATIN_1": "Primary",
        "DAYTHRU": 6,
        "NGHTTHRU": 6,
        "MAINTRK": 1,
        "SIDINGTRK": 0,
        "YARDTRK": 0,
        "TRANSITTRK": 0,
        "INDUSTRYTR": 0,
        "OTHRTRK": 0,
        "WDCODE": "",
        "REVISIONDA": "1996/01/01 00:00:00",
        "LASTUPDATE": "9/16/2021",
        "AADT": "",
        "AADTYEAR": "",
        "STATENAME": "TEXAS",
        "STATEAB": "TX",
        "COUNTYNAME": "OLDHAM",
        "CITYNAME": "BOYS RANCH",
        "LATDD": 35.545646,
        "LONGDD": -102.309101,
        "gridlyProductionCertified": true,
        "gridlyClassification": "PUBLIC_ROADWAY",
        "gridlyDisplayName": "PRIVATE",
        "gridlyId": "FRA-967563A"
      }
    },
    {
      "type": "Feature",
      "id": 201381,
      "geometry": {
        "type": "Point",
        "coordinates": [
          -102.294867999774,
          35.5240159998444
        ]
      },
      "properties": {
        "OBJECTID": 201381,
        "CROSSING": "967565N",
        "EFFDATE": 1631750400000,
        "REASON": "14",
        "StateCode": "48",
        "CountyCode": "48359",
        "STCYFIPS": "48359",
        "CITYCD": "483590814",
        "RAILROAD": "BNSF",
        "RRDIV": "KANSAS",
        "RRSUBDIV": "DALHART",
        "HIGHWAY": "PRIVATE",
        "STREET": "PRIVATE",
        "TTSTN": "",
        "MILEPOST": "0375.159",
        "TYPEXING": "Private",
        "POSXING": "RR Over",
        "PRVCAT": "14",
        "INIT": "1",
        "LATITUDE": 35.524016,
        "LONGITUD": -102.294868,
        "LLSOURCE": "1",
        "WHISTBAN": "",
        "RRCONT": "8173521549",
        "POLCONT": "8008325452",
        "INV_LINK": "https://safetydata.fra.dot.gov/OfficeofSafety/PublicSite/Crossing/Crossing.aspx?phasetype=C&rpttype=I&txtcrossingnum=967565N",
        "ACC_LINK": "https://safetydata.fra.dot.gov/OfficeofSafety/PublicSite/Crossing/Crossing.aspx?phasetype=C&rpttype=A&txtcrossingnum=967565N",
        "TTSTNNAM": "",
        "XPURPOSE": "1",
        "OPERATINGR": "BNSF",
        "OPERATIN_1": "Primary",
        "DAYTHRU": 6,
        "NGHTTHRU": 6,
        "MAINTRK": 1,
        "SIDINGTRK": 0,
        "YARDTRK": 0,
        "TRANSITTRK": 0,
        "INDUSTRYTR": 0,
        "OTHRTRK": 0,
        "WDCODE": "",
        "REVISIONDA": "1996/01/01 00:00:00",
        "LASTUPDATE": "9/16/2021",
        "AADT": "",
        "AADTYEAR": "",
        "STATENAME": "TEXAS",
        "STATEAB": "TX",
        "COUNTYNAME": "OLDHAM",
        "CITYNAME": "BOYS RANCH",
        "LATDD": 35.524016,
        "LONGDD": -102.294868,
        "gridlyProductionCertified": true,
        "gridlyClassification": "PUBLIC_ROADWAY",
        "gridlyDisplayName": "PRIVATE",
        "gridlyId": "FRA-967565N"
      }
    },
    {
      "type": "Feature",
      "id": 214955,
      "geometry": {
        "type": "Point",
        "coordinates": [
          -102.259539899798,
          35.5142096001416
        ]
      },
      "properties": {
        "OBJECTID": 214955,
        "CROSSING": "276514U",
        "EFFDATE": 1768867200000,
        "REASON": "14",
        "StateCode": "48",
        "CountyCode": "48359",
        "STCYFIPS": "48359",
        "CITYCD": "483590814",
        "RAILROAD": "BNSF",
        "RRDIV": "KANSAS",
        "RRSUBDIV": "DALHART",
        "HIGHWAY": "US0385",
        "STREET": "US0385 / TEXAS PLAINS TRAIL",
        "TTSTN": "672817",
        "MILEPOST": "0372.815",
        "TYPEXING": "Public",
        "POSXING": "RR Under",
        "PRVCAT": "14",
        "INIT": "2",
        "LATITUDE": 35.5142096,
        "LONGITUD": -102.2595399,
        "LLSOURCE": "1",
        "WHISTBAN": "0",
        "RRCONT": "8173521549",
        "POLCONT": "8008325452",
        "INV_LINK": "https://safetydata.fra.dot.gov/OfficeofSafety/PublicSite/Crossing/Crossing.aspx?phasetype=C&rpttype=I&txtcrossingnum=276514U",
        "ACC_LINK": "https://safetydata.fra.dot.gov/OfficeofSafety/PublicSite/Crossing/Crossing.aspx?phasetype=C&rpttype=A&txtcrossingnum=276514U",
        "TTSTNNAM": "TASCOSA",
        "XPURPOSE": "1",
        "OPERATINGR": "BNSF",
        "OPERATIN_1": "Primary",
        "DAYTHRU": 4,
        "NGHTTHRU": 3,
        "MAINTRK": 1,
        "SIDINGTRK": 0,
        "YARDTRK": 0,
        "TRANSITTRK": 0,
        "INDUSTRYTR": 0,
        "OTHRTRK": 0,
        "WDCODE": "",
        "REVISIONDA": "1996/01/01 00:00:00",
        "LASTUPDATE": "1/20/2026",
        "AADT": "3838",
        "AADTYEAR": "2024",
        "STATENAME": "TEXAS",
        "STATEAB": "TX",
        "COUNTYNAME": "OLDHAM",
        "CITYNAME": "BOYS RANCH",
        "LATDD": 35.5142096,
        "LONGDD": -102.2595399,
        "gridlyProductionCertified": true,
        "gridlyClassification": "PUBLIC_ROADWAY",
        "gridlyDisplayName": "US0385 / TEXAS PLAINS TRAIL",
        "gridlyId": "FRA-276514U"
      }
    },
    {
      "type": "Feature",
      "id": 214956,
      "geometry": {
        "type": "Point",
        "coordinates": [
          -102.216680399939,
          35.499032099862
        ]
      },
      "properties": {
        "OBJECTID": 214956,
        "CROSSING": "675286K",
        "EFFDATE": 1768867200000,
        "REASON": "14",
        "StateCode": "48",
        "CountyCode": "48359",
        "STCYFIPS": "48359",
        "CITYCD": "483590814",
        "RAILROAD": "BNSF",
        "RRDIV": "KANSAS",
        "RRSUBDIV": "DALHART",
        "HIGHWAY": "CR000W",
        "STREET": "COUNTY ROAD W",
        "TTSTN": "",
        "MILEPOST": "0370.201",
        "TYPEXING": "Public",
        "POSXING": "At Grade",
        "PRVCAT": "14",
        "INIT": "2",
        "LATITUDE": 35.4990321,
        "LONGITUD": -102.2166804,
        "LLSOURCE": "1",
        "WHISTBAN": "",
        "RRCONT": "8173521549",
        "POLCONT": "8008325452",
        "INV_LINK": "https://safetydata.fra.dot.gov/OfficeofSafety/PublicSite/Crossing/Crossing.aspx?phasetype=C&rpttype=I&txtcrossingnum=675286K",
        "ACC_LINK": "https://safetydata.fra.dot.gov/OfficeofSafety/PublicSite/Crossing/Crossing.aspx?phasetype=C&rpttype=A&txtcrossingnum=675286K",
        "TTSTNNAM": "",
        "XPURPOSE": "1",
        "OPERATINGR": "BNSF",
        "OPERATIN_1": "Primary",
        "DAYTHRU": 4,
        "NGHTTHRU": 3,
        "MAINTRK": 1,
        "SIDINGTRK": 0,
        "YARDTRK": 0,
        "TRANSITTRK": 0,
        "INDUSTRYTR": 0,
        "OTHRTRK": 0,
        "WDCODE": "All other Gates",
        "REVISIONDA": "1996/01/01 00:00:00",
        "LASTUPDATE": "1/20/2026",
        "AADT": "19",
        "AADTYEAR": "2020",
        "STATENAME": "TEXAS",
        "STATEAB": "TX",
        "COUNTYNAME": "OLDHAM",
        "CITYNAME": "BOYS RANCH",
        "LATDD": 35.4990321,
        "LONGDD": -102.2166804,
        "gridlyProductionCertified": true,
        "gridlyClassification": "PUBLIC_ROADWAY",
        "gridlyDisplayName": "COUNTY ROAD W",
        "gridlyId": "FRA-675286K"
      }
    },
    {
      "type": "Feature",
      "id": 215560,
      "geometry": {
        "type": "Point",
        "coordinates": [
          -102.35423929992,
          35.6026977000566
        ]
      },
      "properties": {
        "OBJECTID": 215560,
        "CROSSING": "276482R",
        "EFFDATE": 1768867200000,
        "REASON": "14",
        "StateCode": "48",
        "CountyCode": "48205",
        "STCYFIPS": "48205",
        "CITYCD": "482051286",
        "RAILROAD": "BNSF",
        "RRDIV": "KANSAS",
        "RRSUBDIV": "DALHART",
        "HIGHWAY": "CR0000",
        "STREET": "QUIEN SABE RANCH",
        "TTSTN": "672470",
        "MILEPOST": "0382.264",
        "TYPEXING": "Public",
        "POSXING": "At Grade",
        "PRVCAT": "14",
        "INIT": "2",
        "LATITUDE": 35.6026977,
        "LONGITUD": -102.3542393,
        "LLSOURCE": "1",
        "WHISTBAN": "0",
        "RRCONT": "8173521549",
        "POLCONT": "8008325452",
        "INV_LINK": "https://safetydata.fra.dot.gov/OfficeofSafety/PublicSite/Crossing/Crossing.aspx?phasetype=C&rpttype=I&txtcrossingnum=276482R",
        "ACC_LINK": "https://safetydata.fra.dot.gov/OfficeofSafety/PublicSite/Crossing/Crossing.aspx?phasetype=C&rpttype=A&txtcrossingnum=276482R",
        "TTSTNNAM": "CHANNING",
        "XPURPOSE": "1",
        "OPERATINGR": "BNSF",
        "OPERATIN_1": "Primary",
        "DAYTHRU": 4,
        "NGHTTHRU": 3,
        "MAINTRK": 1,
        "SIDINGTRK": 0,
        "YARDTRK": 0,
        "TRANSITTRK": 0,
        "INDUSTRYTR": 0,
        "OTHRTRK": 0,
        "WDCODE": "Crossbucks",
        "REVISIONDA": "1996/01/01 00:00:00",
        "LASTUPDATE": "1/20/2026",
        "AADT": "000080",
        "AADTYEAR": "2020",
        "STATENAME": "TEXAS",
        "STATEAB": "TX",
        "COUNTYNAME": "HARTLEY",
        "CITYNAME": "CHANNING",
        "LATDD": 35.6026977,
        "LONGDD": -102.3542393,
        "gridlyProductionCertified": true,
        "gridlyClassification": "PUBLIC_ROADWAY",
        "gridlyDisplayName": "QUIEN SABE RANCH",
        "gridlyId": "FRA-276482R"
      }
    }
  ]
}
