{
  "type": "FeatureCollection",
  "features": [
    {
      "type": "Feature",
      "id": 206466,
      "geometry": {
        "type": "Point",
        "coordinates": [
          -95.0010656996198,
          32.5547820002018
        ]
      },
      "properties": {
        "OBJECTID": 206466,
        "CROSSING": "450481L",
        "EFFDATE": 1756512000000,
        "REASON": "14",
        "StateCode": "48",
        "CountyCode": "48459",
        "STCYFIPS": "48459",
        "CITYCD": "484592670",
        "RAILROAD": "UP",
        "RRDIV": "MID AMERICA",
        "RRSUBDIV": "MINEOLA SUB",
        "HIGHWAY": "NA",
        "STREET": "PRIVATE",
        "TTSTN": "665430",
        "MILEPOST": "0106.340",
        "TYPEXING": "Private",
        "POSXING": "At Grade",
        "PRVCAT": "14",
        "INIT": "1",
        "LATITUDE": 32.554782,
        "LONGITUD": -95.0010657,
        "LLSOURCE": "1",
        "WHISTBAN": "0",
        "RRCONT": "4025443721",
        "POLCONT": "8008488715",
        "INV_LINK": "https://safetydata.fra.dot.gov/OfficeofSafety/PublicSite/Crossing/Crossing.aspx?phasetype=C&rpttype=I&txtcrossingnum=450481L",
        "ACC_LINK": "https://safetydata.fra.dot.gov/OfficeofSafety/PublicSite/Crossing/Crossing.aspx?phasetype=C&rpttype=A&txtcrossingnum=450481L",
        "TTSTNNAM": "",
        "XPURPOSE": "1",
        "OPERATINGR": "UP",
        "OPERATIN_1": "Primary",
        "DAYTHRU": 8,
        "NGHTTHRU": 7,
        "MAINTRK": 1,
        "SIDINGTRK": 0,
        "YARDTRK": 0,
        "TRANSITTRK": 0,
        "INDUSTRYTR": 0,
        "OTHRTRK": 0,
        "WDCODE": "",
        "REVISIONDA": "1975/01/01 00:00:00",
        "LASTUPDATE": "8/30/2025",
        "AADT": "1",
        "AADTYEAR": "",
        "STATENAME": "TEXAS",
        "STATEAB": "TX",
        "COUNTYNAME": "UPSHUR",
        "CITYNAME": "GLADEWATER",
        "LATDD": 32.554782,
        "LONGDD": -95.0010657,
        "gridlyProductionCertified": true,
        "gridlyClassification": "PUBLIC_ROADWAY",
        "gridlyDisplayName": "PRIVATE",
        "gridlyId": "FRA-450481L"
      }
    },
    {
      "type": "Feature",
      "id": 206467,
      "geometry": {
        "type": "Point",
        "coordinates": [
          -94.9701160000169,
          32.5453414002401
        ]
      },
      "properties": {
        "OBJECTID": 206467,
        "CROSSING": "794662S",
        "EFFDATE": 1756512000000,
        "REASON": "14",
        "StateCode": "48",
        "CountyCode": "48459",
        "STCYFIPS": "48459",
        "CITYCD": "484592670",
        "RAILROAD": "UP",
        "RRDIV": "MID AMERICA",
        "RRSUBDIV": "MINEOLA SUB",
        "HIGHWAY": "ST 0000",
        "STREET": "RODEO STREET",
        "TTSTN": "665430",
        "MILEPOST": "0104.470",
        "TYPEXING": "Public",
        "POSXING": "At Grade",
        "PRVCAT": "14",
        "INIT": "1",
        "LATITUDE": 32.5453414,
        "LONGITUD": -94.970116,
        "LLSOURCE": "1",
        "WHISTBAN": "0",
        "RRCONT": "4025443721",
        "POLCONT": "8008488715",
        "INV_LINK": "https://safetydata.fra.dot.gov/OfficeofSafety/PublicSite/Crossing/Crossing.aspx?phasetype=C&rpttype=I&txtcrossingnum=794662S",
        "ACC_LINK": "https://safetydata.fra.dot.gov/OfficeofSafety/PublicSite/Crossing/Crossing.aspx?phasetype=C&rpttype=A&txtcrossingnum=794662S",
        "TTSTNNAM": "",
        "XPURPOSE": "1",
        "OPERATINGR": "UP",
        "OPERATIN_1": "Primary",
        "DAYTHRU": 8,
        "NGHTTHRU": 7,
        "MAINTRK": 1,
        "SIDINGTRK": 1,
        "YARDTRK": 0,
        "TRANSITTRK": 0,
        "INDUSTRYTR": 0,
        "OTHRTRK": 1,
        "WDCODE": "All other Gates",
        "REVISIONDA": "1975/01/01 00:00:00",
        "LASTUPDATE": "8/30/2025",
        "AADT": "1010",
        "AADTYEAR": "1991",
        "STATENAME": "TEXAS",
        "STATEAB": "TX",
        "COUNTYNAME": "UPSHUR",
        "CITYNAME": "GLADEWATER",
        "LATDD": 32.5453414,
        "LONGDD": -94.970116,
        "gridlyProductionCertified": true,
        "gridlyClassification": "PUBLIC_ROADWAY",
        "gridlyDisplayName": "RODEO STREET",
        "gridlyId": "FRA-794662S"
      }
    },
    {
      "type": "Feature",
      "id": 206468,
      "geometry": {
        "type": "Point",
        "coordinates": [
          -94.9904699998767,
          32.5515377000435
        ]
      },
      "properties": {
        "OBJECTID": 206468,
        "CROSSING": "794663Y",
        "EFFDATE": 1756512000000,
        "REASON": "14",
        "StateCode": "48",
        "CountyCode": "48459",
        "STCYFIPS": "48459",
        "CITYCD": "484592670",
        "RAILROAD": "UP",
        "RRDIV": "MID AMERICA",
        "RRSUBDIV": "MINEOLA SUB",
        "HIGHWAY": "CO 0606",
        "STREET": "MESQUITE ROAD",
        "TTSTN": "665430",
        "MILEPOST": "0105.670",
        "TYPEXING": "Public",
        "POSXING": "At Grade",
        "PRVCAT": "14",
        "INIT": "1",
        "LATITUDE": 32.5515377,
        "LONGITUD": -94.99047,
        "LLSOURCE": "1",
        "WHISTBAN": "0",
        "RRCONT": "4025443721",
        "POLCONT": "8008488715",
        "INV_LINK": "https://safetydata.fra.dot.gov/OfficeofSafety/PublicSite/Crossing/Crossing.aspx?phasetype=C&rpttype=I&txtcrossingnum=794663Y",
        "ACC_LINK": "https://safetydata.fra.dot.gov/OfficeofSafety/PublicSite/Crossing/Crossing.aspx?phasetype=C&rpttype=A&txtcrossingnum=794663Y",
        "TTSTNNAM": "",
        "XPURPOSE": "1",
        "OPERATINGR": "UP",
        "OPERATIN_1": "Primary",
        "DAYTHRU": 8,
        "NGHTTHRU": 7,
        "MAINTRK": 1,
        "SIDINGTRK": 0,
        "YARDTRK": 0,
        "TRANSITTRK": 0,
        "INDUSTRYTR": 0,
        "OTHRTRK": 0,
        "WDCODE": "All other Gates",
        "REVISIONDA": "1975/01/01 00:00:00",
        "LASTUPDATE": "8/30/2025",
        "AADT": "205",
        "AADTYEAR": "2019",
        "STATENAME": "TEXAS",
        "STATEAB": "TX",
        "COUNTYNAME": "UPSHUR",
        "CITYNAME": "GLADEWATER",
        "LATDD": 32.5515377,
        "LONGDD": -94.99047,
        "gridlyProductionCertified": true,
        "gridlyClassification": "PUBLIC_ROADWAY",
        "gridlyDisplayName": "MESQUITE ROAD",
        "gridlyId": "FRA-794663Y"
      }
    },
    {
      "type": "Feature",
      "id": 206469,
      "geometry": {
        "type": "Point",
        "coordinates": [
          -95.0367774996978,
          32.565707499739
        ]
      },
      "properties": {
        "OBJECTID": 206469,
        "CROSSING": "794668H",
        "EFFDATE": 1756512000000,
        "REASON": "14",
        "StateCode": "48",
        "CountyCode": "48459",
        "STCYFIPS": "48459",
        "CITYCD": "484590630",
        "RAILROAD": "UP",
        "RRDIV": "MID AMERICA",
        "RRSUBDIV": "MINEOLA SUB",
        "HIGHWAY": "NA",
        "STREET": "PRIVATE",
        "TTSTN": "665298",
        "MILEPOST": "0108.590",
        "TYPEXING": "Private",
        "POSXING": "At Grade",
        "PRVCAT": "14",
        "INIT": "1",
        "LATITUDE": 32.5657075,
        "LONGITUD": -95.0367775,
        "LLSOURCE": "1",
        "WHISTBAN": "0",
        "RRCONT": "4025443721",
        "POLCONT": "8008488715",
        "INV_LINK": "https://safetydata.fra.dot.gov/OfficeofSafety/PublicSite/Crossing/Crossing.aspx?phasetype=C&rpttype=I&txtcrossingnum=794668H",
        "ACC_LINK": "https://safetydata.fra.dot.gov/OfficeofSafety/PublicSite/Crossing/Crossing.aspx?phasetype=C&rpttype=A&txtcrossingnum=794668H",
        "TTSTNNAM": "",
        "XPURPOSE": "1",
        "OPERATINGR": "UP",
        "OPERATIN_1": "Primary",
        "DAYTHRU": 8,
        "NGHTTHRU": 7,
        "MAINTRK": 1,
        "SIDINGTRK": 0,
        "YARDTRK": 0,
        "TRANSITTRK": 0,
        "INDUSTRYTR": 0,
        "OTHRTRK": 0,
        "WDCODE": "",
        "REVISIONDA": "1975/01/01 00:00:00",
        "LASTUPDATE": "8/30/2025",
        "AADT": "1",
        "AADTYEAR": "1970",
        "STATENAME": "TEXAS",
        "STATEAB": "TX",
        "COUNTYNAME": "UPSHUR",
        "CITYNAME": "BIG SANDY",
        "LATDD": 32.5657075,
        "LONGDD": -95.0367775,
        "gridlyProductionCertified": true,
        "gridlyClassification": "PUBLIC_ROADWAY",
        "gridlyDisplayName": "PRIVATE",
        "gridlyId": "FRA-794668H"
      }
    },
    {
      "type": "Feature",
      "id": 206470,
      "geometry": {
        "type": "Point",
        "coordinates": [
          -95.0521640999041,
          32.5704087000281
        ]
      },
      "properties": {
        "OBJECTID": 206470,
        "CROSSING": "794670J",
        "EFFDATE": 1756512000000,
        "REASON": "14",
        "StateCode": "48",
        "CountyCode": "48459",
        "STCYFIPS": "48459",
        "CITYCD": "484590630",
        "RAILROAD": "UP",
        "RRDIV": "MID AMERICA",
        "RRSUBDIV": "MINEOLA SUB",
        "HIGHWAY": "NA",
        "STREET": "PRIVATE",
        "TTSTN": "665298",
        "MILEPOST": "0109.530",
        "TYPEXING": "Private",
        "POSXING": "At Grade",
        "PRVCAT": "14",
        "INIT": "1",
        "LATITUDE": 32.5704087,
        "LONGITUD": -95.0521641,
        "LLSOURCE": "1",
        "WHISTBAN": "0",
        "RRCONT": "4025443721",
        "POLCONT": "8008488715",
        "INV_LINK": "https://safetydata.fra.dot.gov/OfficeofSafety/PublicSite/Crossing/Crossing.aspx?phasetype=C&rpttype=I&txtcrossingnum=794670J",
        "ACC_LINK": "https://safetydata.fra.dot.gov/OfficeofSafety/PublicSite/Crossing/Crossing.aspx?phasetype=C&rpttype=A&txtcrossingnum=794670J",
        "TTSTNNAM": "",
        "XPURPOSE": "1",
        "OPERATINGR": "UP",
        "OPERATIN_1": "Primary",
        "DAYTHRU": 8,
        "NGHTTHRU": 7,
        "MAINTRK": 1,
        "SIDINGTRK": 0,
        "YARDTRK": 0,
        "TRANSITTRK": 0,
        "INDUSTRYTR": 0,
        "OTHRTRK": 0,
        "WDCODE": "",
        "REVISIONDA": "1975/01/01 00:00:00",
        "LASTUPDATE": "8/30/2025",
        "AADT": "1",
        "AADTYEAR": "1970",
        "STATENAME": "TEXAS",
        "STATEAB": "TX",
        "COUNTYNAME": "UPSHUR",
        "CITYNAME": "BIG SANDY",
        "LATDD": 32.5704087,
        "LONGDD": -95.0521641,
        "gridlyProductionCertified": true,
        "gridlyClassification": "PUBLIC_ROADWAY",
        "gridlyDisplayName": "PRIVATE",
        "gridlyId": "FRA-794670J"
      }
    },
    {
      "type": "Feature",
      "id": 206472,
      "geometry": {
        "type": "Point",
        "coordinates": [
          -94.9970094000735,
          32.5535398003736
        ]
      },
      "properties": {
        "OBJECTID": 206472,
        "CROSSING": "794664F",
        "EFFDATE": 1756512000000,
        "REASON": "14",
        "StateCode": "48",
        "CountyCode": "48459",
        "STCYFIPS": "48459",
        "CITYCD": "484592670",
        "RAILROAD": "UP",
        "RRDIV": "MID AMERICA",
        "RRSUBDIV": "MINEOLA SUB",
        "HIGHWAY": "NA",
        "STREET": "PRIVATE",
        "TTSTN": "665430",
        "MILEPOST": "0106.070",
        "TYPEXING": "Private",
        "POSXING": "At Grade",
        "PRVCAT": "14",
        "INIT": "1",
        "LATITUDE": 32.5535398,
        "LONGITUD": -94.9970094,
        "LLSOURCE": "1",
        "WHISTBAN": "0",
        "RRCONT": "4025443721",
        "POLCONT": "8008488715",
        "INV_LINK": "https://safetydata.fra.dot.gov/OfficeofSafety/PublicSite/Crossing/Crossing.aspx?phasetype=C&rpttype=I&txtcrossingnum=794664F",
        "ACC_LINK": "https://safetydata.fra.dot.gov/OfficeofSafety/PublicSite/Crossing/Crossing.aspx?phasetype=C&rpttype=A&txtcrossingnum=794664F",
        "TTSTNNAM": "",
        "XPURPOSE": "1",
        "OPERATINGR": "UP",
        "OPERATIN_1": "Primary",
        "DAYTHRU": 8,
        "NGHTTHRU": 7,
        "MAINTRK": 1,
        "SIDINGTRK": 0,
        "YARDTRK": 0,
        "TRANSITTRK": 0,
        "INDUSTRYTR": 0,
        "OTHRTRK": 0,
        "WDCODE": "",
        "REVISIONDA": "1975/01/01 00:00:00",
        "LASTUPDATE": "8/30/2025",
        "AADT": "1",
        "AADTYEAR": "1970",
        "STATENAME": "TEXAS",
        "STATEAB": "TX",
        "COUNTYNAME": "UPSHUR",
        "CITYNAME": "GLADEWATER",
        "LATDD": 32.5535398,
        "LONGDD": -94.9970094,
        "gridlyProductionCertified": true,
        "gridlyClassification": "PUBLIC_ROADWAY",
        "gridlyDisplayName": "PRIVATE",
        "gridlyId": "FRA-794664F"
      }
    },
    {
      "type": "Feature",
      "id": 206475,
      "geometry": {
        "type": "Point",
        "coordinates": [
          -95.0587808001311,
          32.5724254001168
        ]
      },
      "properties": {
        "OBJECTID": 206475,
        "CROSSING": "794672X",
        "EFFDATE": 1756512000000,
        "REASON": "14",
        "StateCode": "48",
        "CountyCode": "48459",
        "STCYFIPS": "48459",
        "CITYCD": "484590630",
        "RAILROAD": "UP",
        "RRDIV": "MID AMERICA",
        "RRSUBDIV": "MINEOLA SUB",
        "HIGHWAY": "NA",
        "STREET": "PRIVATE",
        "TTSTN": "665298",
        "MILEPOST": "0109.930",
        "TYPEXING": "Private",
        "POSXING": "At Grade",
        "PRVCAT": "14",
        "INIT": "1",
        "LATITUDE": 32.5724254,
        "LONGITUD": -95.0587808,
        "LLSOURCE": "1",
        "WHISTBAN": "0",
        "RRCONT": "4025443721",
        "POLCONT": "8008488715",
        "INV_LINK": "https://safetydata.fra.dot.gov/OfficeofSafety/PublicSite/Crossing/Crossing.aspx?phasetype=C&rpttype=I&txtcrossingnum=794672X",
        "ACC_LINK": "https://safetydata.fra.dot.gov/OfficeofSafety/PublicSite/Crossing/Crossing.aspx?phasetype=C&rpttype=A&txtcrossingnum=794672X",
        "TTSTNNAM": "",
        "XPURPOSE": "1",
        "OPERATINGR": "UP",
        "OPERATIN_1": "Primary",
        "DAYTHRU": 8,
        "NGHTTHRU": 7,
        "MAINTRK": 1,
        "SIDINGTRK": 0,
        "YARDTRK": 0,
        "TRANSITTRK": 0,
        "INDUSTRYTR": 0,
        "OTHRTRK": 0,
        "WDCODE": "",
        "REVISIONDA": "1975/01/01 00:00:00",
        "LASTUPDATE": "8/30/2025",
        "AADT": "1",
        "AADTYEAR": "1970",
        "STATENAME": "TEXAS",
        "STATEAB": "TX",
        "COUNTYNAME": "UPSHUR",
        "CITYNAME": "BIG SANDY",
        "LATDD": 32.5724254,
        "LONGDD": -95.0587808,
        "gridlyProductionCertified": true,
        "gridlyClassification": "PUBLIC_ROADWAY",
        "gridlyDisplayName": "PRIVATE",
        "gridlyId": "FRA-794672X"
      }
    },
    {
      "type": "Feature",
      "id": 206476,
      "geometry": {
        "type": "Point",
        "coordinates": [
          -95.0840791003652,
          32.5782067996483
        ]
      },
      "properties": {
        "OBJECTID": 206476,
        "CROSSING": "794673E",
        "EFFDATE": 1756512000000,
        "REASON": "14",
        "StateCode": "48",
        "CountyCode": "48459",
        "STCYFIPS": "48459",
        "CITYCD": "484590630",
        "RAILROAD": "UP",
        "RRDIV": "MID AMERICA",
        "RRSUBDIV": "MINEOLA SUB",
        "HIGHWAY": "NA",
        "STREET": "PRIVATE",
        "TTSTN": "665298",
        "MILEPOST": "0111.480",
        "TYPEXING": "Private",
        "POSXING": "At Grade",
        "PRVCAT": "14",
        "INIT": "1",
        "LATITUDE": 32.5782068,
        "LONGITUD": -95.0840791,
        "LLSOURCE": "1",
        "WHISTBAN": "0",
        "RRCONT": "4025443721",
        "POLCONT": "8008488715",
        "INV_LINK": "https://safetydata.fra.dot.gov/OfficeofSafety/PublicSite/Crossing/Crossing.aspx?phasetype=C&rpttype=I&txtcrossingnum=794673E",
        "ACC_LINK": "https://safetydata.fra.dot.gov/OfficeofSafety/PublicSite/Crossing/Crossing.aspx?phasetype=C&rpttype=A&txtcrossingnum=794673E",
        "TTSTNNAM": "",
        "XPURPOSE": "1",
        "OPERATINGR": "UP",
        "OPERATIN_1": "Primary",
        "DAYTHRU": 8,
        "NGHTTHRU": 7,
        "MAINTRK": 1,
        "SIDINGTRK": 0,
        "YARDTRK": 0,
        "TRANSITTRK": 0,
        "INDUSTRYTR": 0,
        "OTHRTRK": 0,
        "WDCODE": "",
        "REVISIONDA": "1975/01/01 00:00:00",
        "LASTUPDATE": "8/30/2025",
        "AADT": "1",
        "AADTYEAR": "1970",
        "STATENAME": "TEXAS",
        "STATEAB": "TX",
        "COUNTYNAME": "UPSHUR",
        "CITYNAME": "BIG SANDY",
        "LATDD": 32.5782068,
        "LONGDD": -95.0840791,
        "gridlyProductionCertified": true,
        "gridlyClassification": "PUBLIC_ROADWAY",
        "gridlyDisplayName": "PRIVATE",
        "gridlyId": "FRA-794673E"
      }
    },
    {
      "type": "Feature",
      "id": 206489,
      "geometry": {
        "type": "Point",
        "coordinates": [
          -95.0617352000987,
          32.5733248997183
        ]
      },
      "properties": {
        "OBJECTID": 206489,
        "CROSSING": "794674L",
        "EFFDATE": 1756512000000,
        "REASON": "14",
        "StateCode": "48",
        "CountyCode": "48459",
        "STCYFIPS": "48459",
        "CITYCD": "484590630",
        "RAILROAD": "UP",
        "RRDIV": "MID AMERICA",
        "RRSUBDIV": "MINEOLA SUB",
        "HIGHWAY": "CO 9019",
        "STREET": "WATER TOWER ROAD",
        "TTSTN": "665298",
        "MILEPOST": "0110.110",
        "TYPEXING": "Public",
        "POSXING": "At Grade",
        "PRVCAT": "14",
        "INIT": "1",
        "LATITUDE": 32.5733249,
        "LONGITUD": -95.0617352,
        "LLSOURCE": "1",
        "WHISTBAN": "0",
        "RRCONT": "4025443721",
        "POLCONT": "8008488715",
        "INV_LINK": "https://safetydata.fra.dot.gov/OfficeofSafety/PublicSite/Crossing/Crossing.aspx?phasetype=C&rpttype=I&txtcrossingnum=794674L",
        "ACC_LINK": "https://safetydata.fra.dot.gov/OfficeofSafety/PublicSite/Crossing/Crossing.aspx?phasetype=C&rpttype=A&txtcrossingnum=794674L",
        "TTSTNNAM": "",
        "XPURPOSE": "1",
        "OPERATINGR": "UP",
        "OPERATIN_1": "Primary",
        "DAYTHRU": 8,
        "NGHTTHRU": 7,
        "MAINTRK": 1,
        "SIDINGTRK": 0,
        "YARDTRK": 0,
        "TRANSITTRK": 0,
        "INDUSTRYTR": 0,
        "OTHRTRK": 0,
        "WDCODE": "All other Gates",
        "REVISIONDA": "1975/01/01 00:00:00",
        "LASTUPDATE": "8/30/2025",
        "AADT": "137",
        "AADTYEAR": "2019",
        "STATENAME": "TEXAS",
        "STATEAB": "TX",
        "COUNTYNAME": "UPSHUR",
        "CITYNAME": "BIG SANDY",
        "LATDD": 32.5733249,
        "LONGDD": -95.0617352,
        "gridlyProductionCertified": true,
        "gridlyClassification": "PUBLIC_ROADWAY",
        "gridlyDisplayName": "WATER TOWER ROAD",
        "gridlyId": "FRA-794674L"
      }
    },
    {
      "type": "Feature",
      "id": 206493,
      "geometry": {
        "type": "Point",
        "coordinates": [
          -95.0620329997003,
          32.6253608000817
        ]
      },
      "properties": {
        "OBJECTID": 206493,
        "CROSSING": "789453Y",
        "EFFDATE": 1756684800000,
        "REASON": "14",
        "StateCode": "48",
        "CountyCode": "48459",
        "STCYFIPS": "48459",
        "CITYCD": "484590630",
        "RAILROAD": "UP",
        "RRDIV": "MID AMERICA",
        "RRSUBDIV": "PINE BLUFF SUB",
        "HIGHWAY": "SH 0155",
        "STREET": "TX 155",
        "TTSTN": "665298",
        "MILEPOST": "0520.730",
        "TYPEXING": "Public",
        "POSXING": "RR Under",
        "PRVCAT": "14",
        "INIT": "1",
        "LATITUDE": 32.6253608,
        "LONGITUD": -95.062033,
        "LLSOURCE": "1",
        "WHISTBAN": "0",
        "RRCONT": "4025443721",
        "POLCONT": "8008488715",
        "INV_LINK": "https://safetydata.fra.dot.gov/OfficeofSafety/PublicSite/Crossing/Crossing.aspx?phasetype=C&rpttype=I&txtcrossingnum=789453Y",
        "ACC_LINK": "https://safetydata.fra.dot.gov/OfficeofSafety/PublicSite/Crossing/Crossing.aspx?phasetype=C&rpttype=A&txtcrossingnum=789453Y",
        "TTSTNNAM": "",
        "XPURPOSE": "1",
        "OPERATINGR": "UP",
        "OPERATIN_1": "Primary",
        "DAYTHRU": 6,
        "NGHTTHRU": 5,
        "MAINTRK": 1,
        "SIDINGTRK": 0,
        "YARDTRK": 0,
        "TRANSITTRK": 0,
        "INDUSTRYTR": 0,
        "OTHRTRK": 0,
        "WDCODE": "",
        "REVISIONDA": "1975/01/01 00:00:00",
        "LASTUPDATE": "9/1/2025",
        "AADT": "3900",
        "AADTYEAR": "2011",
        "STATENAME": "TEXAS",
        "STATEAB": "TX",
        "COUNTYNAME": "UPSHUR",
        "CITYNAME": "BIG SANDY",
        "LATDD": 32.6253608,
        "LONGDD": -95.062033,
        "gridlyProductionCertified": true,
        "gridlyClassification": "PUBLIC_ROADWAY",
        "gridlyDisplayName": "TX 155",
        "gridlyId": "FRA-789453Y"
      }
    },
    {
      "type": "Feature",
      "id": 206496,
      "geometry": {
        "type": "Point",
        "coordinates": [
          -95.0077149997084,
          32.5568230003162
        ]
      },
      "properties": {
        "OBJECTID": 206496,
        "CROSSING": "794665M",
        "EFFDATE": 1756512000000,
        "REASON": "14",
        "StateCode": "48",
        "CountyCode": "48459",
        "STCYFIPS": "48459",
        "CITYCD": "484592670",
        "RAILROAD": "UP",
        "RRDIV": "MID AMERICA",
        "RRSUBDIV": "MINEOLA SUB",
        "HIGHWAY": "CO 0426",
        "STREET": "JUNIPER ROAD",
        "TTSTN": "665430",
        "MILEPOST": "0106.790",
        "TYPEXING": "Public",
        "POSXING": "At Grade",
        "PRVCAT": "14",
        "INIT": "1",
        "LATITUDE": 32.556823,
        "LONGITUD": -95.007715,
        "LLSOURCE": "1",
        "WHISTBAN": "0",
        "RRCONT": "4025443721",
        "POLCONT": "8008488715",
        "INV_LINK": "https://safetydata.fra.dot.gov/OfficeofSafety/PublicSite/Crossing/Crossing.aspx?phasetype=C&rpttype=I&txtcrossingnum=794665M",
        "ACC_LINK": "https://safetydata.fra.dot.gov/OfficeofSafety/PublicSite/Crossing/Crossing.aspx?phasetype=C&rpttype=A&txtcrossingnum=794665M",
        "TTSTNNAM": "",
        "XPURPOSE": "1",
        "OPERATINGR": "UP",
        "OPERATIN_1": "Primary",
        "DAYTHRU": 8,
        "NGHTTHRU": 7,
        "MAINTRK": 1,
        "SIDINGTRK": 0,
        "YARDTRK": 0,
        "TRANSITTRK": 0,
        "INDUSTRYTR": 0,
        "OTHRTRK": 0,
        "WDCODE": "All other Gates",
        "REVISIONDA": "1975/01/01 00:00:00",
        "LASTUPDATE": "8/30/2025",
        "AADT": "85",
        "AADTYEAR": "2002",
        "STATENAME": "TEXAS",
        "STATEAB": "TX",
        "COUNTYNAME": "UPSHUR",
        "CITYNAME": "GLADEWATER",
        "LATDD": 32.556823,
        "LONGDD": -95.007715,
        "gridlyProductionCertified": true,
        "gridlyClassification": "PUBLIC_ROADWAY",
        "gridlyDisplayName": "JUNIPER ROAD",
        "gridlyId": "FRA-794665M"
      }
    },
    {
      "type": "Feature",
      "id": 206525,
      "geometry": {
        "type": "Point",
        "coordinates": [
          -94.9476108997676,
          32.7297928997993
        ]
      },
      "properties": {
        "OBJECTID": 206525,
        "CROSSING": "789415P",
        "EFFDATE": 1756684800000,
        "REASON": "14",
        "StateCode": "48",
        "CountyCode": "48459",
        "STCYFIPS": "48459",
        "CITYCD": "484592650",
        "RAILROAD": "UP",
        "RRDIV": "MID AMERICA",
        "RRSUBDIV": "PINE BLUFF SUB",
        "HIGHWAY": "ST 0000",
        "STREET": "BUFFALO STREET",
        "TTSTN": "665260",
        "MILEPOST": "0510.230",
        "TYPEXING": "Public",
        "POSXING": "At Grade",
        "PRVCAT": "14",
        "INIT": "1",
        "LATITUDE": 32.7297929,
        "LONGITUD": -94.9476109,
        "LLSOURCE": "1",
        "WHISTBAN": "0",
        "RRCONT": "4025443721",
        "POLCONT": "8008488715",
        "INV_LINK": "https://safetydata.fra.dot.gov/OfficeofSafety/PublicSite/Crossing/Crossing.aspx?phasetype=C&rpttype=I&txtcrossingnum=789415P",
        "ACC_LINK": "https://safetydata.fra.dot.gov/OfficeofSafety/PublicSite/Crossing/Crossing.aspx?phasetype=C&rpttype=A&txtcrossingnum=789415P",
        "TTSTNNAM": "",
        "XPURPOSE": "1",
        "OPERATINGR": "UP",
        "OPERATIN_1": "Primary",
        "DAYTHRU": 7,
        "NGHTTHRU": 6,
        "MAINTRK": 1,
        "SIDINGTRK": 0,
        "YARDTRK": 0,
        "TRANSITTRK": 0,
        "INDUSTRYTR": 0,
        "OTHRTRK": 1,
        "WDCODE": "All other Gates",
        "REVISIONDA": "1975/01/01 00:00:00",
        "LASTUPDATE": "9/1/2025",
        "AADT": "1599",
        "AADTYEAR": "2019",
        "STATENAME": "TEXAS",
        "STATEAB": "TX",
        "COUNTYNAME": "UPSHUR",
        "CITYNAME": "GILMER",
        "LATDD": 32.7297929,
        "LONGDD": -94.9476109,
        "gridlyProductionCertified": true,
        "gridlyClassification": "PUBLIC_ROADWAY",
        "gridlyDisplayName": "BUFFALO STREET",
        "gridlyId": "FRA-789415P"
      }
    },
    {
      "type": "Feature",
      "id": 206652,
      "geometry": {
        "type": "Point",
        "coordinates": [
          -95.089325499678,
          32.5789073002223
        ]
      },
      "properties": {
        "OBJECTID": 206652,
        "CROSSING": "794675T",
        "EFFDATE": 1756512000000,
        "REASON": "14",
        "StateCode": "48",
        "CountyCode": "48459",
        "STCYFIPS": "48459",
        "CITYCD": "484590630",
        "RAILROAD": "UP",
        "RRDIV": "MID AMERICA",
        "RRSUBDIV": "MINEOLA SUB",
        "HIGHWAY": "NA",
        "STREET": "PRIVATE",
        "TTSTN": "665298",
        "MILEPOST": "0111.800",
        "TYPEXING": "Private",
        "POSXING": "At Grade",
        "PRVCAT": "14",
        "INIT": "1",
        "LATITUDE": 32.5789073,
        "LONGITUD": -95.0893255,
        "LLSOURCE": "1",
        "WHISTBAN": "0",
        "RRCONT": "4025443721",
        "POLCONT": "8008488715",
        "INV_LINK": "https://safetydata.fra.dot.gov/OfficeofSafety/PublicSite/Crossing/Crossing.aspx?phasetype=C&rpttype=I&txtcrossingnum=794675T",
        "ACC_LINK": "https://safetydata.fra.dot.gov/OfficeofSafety/PublicSite/Crossing/Crossing.aspx?phasetype=C&rpttype=A&txtcrossingnum=794675T",
        "TTSTNNAM": "",
        "XPURPOSE": "1",
        "OPERATINGR": "UP",
        "OPERATIN_1": "Primary",
        "DAYTHRU": 8,
        "NGHTTHRU": 7,
        "MAINTRK": 1,
        "SIDINGTRK": 0,
        "YARDTRK": 0,
        "TRANSITTRK": 0,
        "INDUSTRYTR": 0,
        "OTHRTRK": 3,
        "WDCODE": "",
        "REVISIONDA": "1975/01/01 00:00:00",
        "LASTUPDATE": "8/30/2025",
        "AADT": "937",
        "AADTYEAR": "1970",
        "STATENAME": "TEXAS",
        "STATEAB": "TX",
        "COUNTYNAME": "UPSHUR",
        "CITYNAME": "BIG SANDY",
        "LATDD": 32.5789073,
        "LONGDD": -95.0893255,
        "gridlyProductionCertified": true,
        "gridlyClassification": "PUBLIC_ROADWAY",
        "gridlyDisplayName": "PRIVATE",
        "gridlyId": "FRA-794675T"
      }
    },
    {
      "type": "Feature",
      "id": 206653,
      "geometry": {
        "type": "Point",
        "coordinates": [
          -95.1092258997267,
          32.5815754997661
        ]
      },
      "properties": {
        "OBJECTID": 206653,
        "CROSSING": "794678N",
        "EFFDATE": 1756512000000,
        "REASON": "14",
        "StateCode": "48",
        "CountyCode": "48459",
        "STCYFIPS": "48459",
        "CITYCD": "484590630",
        "RAILROAD": "UP",
        "RRDIV": "TEXOMA",
        "RRSUBDIV": "Mineola Sub",
        "HIGHWAY": "ST 0000",
        "STREET": "South TYLER STREET",
        "TTSTN": "665298",
        "MILEPOST": "0112.910",
        "TYPEXING": "Public",
        "POSXING": "At Grade",
        "PRVCAT": "14",
        "INIT": "1",
        "LATITUDE": 32.5815755,
        "LONGITUD": -95.1092259,
        "LLSOURCE": "1",
        "WHISTBAN": "0",
        "RRCONT": "4025443721",
        "POLCONT": "8008488715",
        "INV_LINK": "https://safetydata.fra.dot.gov/OfficeofSafety/PublicSite/Crossing/Crossing.aspx?phasetype=C&rpttype=I&txtcrossingnum=794678N",
        "ACC_LINK": "https://safetydata.fra.dot.gov/OfficeofSafety/PublicSite/Crossing/Crossing.aspx?phasetype=C&rpttype=A&txtcrossingnum=794678N",
        "TTSTNNAM": "",
        "XPURPOSE": "1",
        "OPERATINGR": "UP",
        "OPERATIN_1": "Primary",
        "DAYTHRU": 8,
        "NGHTTHRU": 7,
        "MAINTRK": 3,
        "SIDINGTRK": 0,
        "YARDTRK": 0,
        "TRANSITTRK": 0,
        "INDUSTRYTR": 0,
        "OTHRTRK": 1,
        "WDCODE": "All other Gates",
        "REVISIONDA": "1975/01/01 00:00:00",
        "LASTUPDATE": "8/30/2025",
        "AADT": "554",
        "AADTYEAR": "2019",
        "STATENAME": "TEXAS",
        "STATEAB": "TX",
        "COUNTYNAME": "UPSHUR",
        "CITYNAME": "BIG SANDY",
        "LATDD": 32.5815755,
        "LONGDD": -95.1092259,
        "gridlyProductionCertified": true,
        "gridlyClassification": "PUBLIC_ROADWAY",
        "gridlyDisplayName": "South TYLER STREET",
        "gridlyId": "FRA-794678N"
      }
    },
    {
      "type": "Feature",
      "id": 206773,
      "geometry": {
        "type": "Point",
        "coordinates": [
          -95.1215955996794,
          32.5764679002455
        ]
      },
      "properties": {
        "OBJECTID": 206773,
        "CROSSING": "789458H",
        "EFFDATE": 1756684800000,
        "REASON": "14",
        "StateCode": "48",
        "CountyCode": "48459",
        "STCYFIPS": "48459",
        "CITYCD": "484590630",
        "RAILROAD": "UP",
        "RRDIV": "TEXOMA",
        "RRSUBDIV": "CORSICANA SUB",
        "HIGHWAY": "ST 0000",
        "STREET": "NORTH MURE STREET",
        "TTSTN": "665298",
        "MILEPOST": "0526.040",
        "TYPEXING": "Public",
        "POSXING": "At Grade",
        "PRVCAT": "14",
        "INIT": "1",
        "LATITUDE": 32.5764679,
        "LONGITUD": -95.1215956,
        "LLSOURCE": "1",
        "WHISTBAN": "0",
        "RRCONT": "4025443721",
        "POLCONT": "8008488715",
        "INV_LINK": "https://safetydata.fra.dot.gov/OfficeofSafety/PublicSite/Crossing/Crossing.aspx?phasetype=C&rpttype=I&txtcrossingnum=789458H",
        "ACC_LINK": "https://safetydata.fra.dot.gov/OfficeofSafety/PublicSite/Crossing/Crossing.aspx?phasetype=C&rpttype=A&txtcrossingnum=789458H",
        "TTSTNNAM": "",
        "XPURPOSE": "1",
        "OPERATINGR": "UP",
        "OPERATIN_1": "Primary",
        "DAYTHRU": 4,
        "NGHTTHRU": 4,
        "MAINTRK": 1,
        "SIDINGTRK": 0,
        "YARDTRK": 0,
        "TRANSITTRK": 0,
        "INDUSTRYTR": 0,
        "OTHRTRK": 1,
        "WDCODE": "Crossbucks",
        "REVISIONDA": "1975/01/01 00:00:00",
        "LASTUPDATE": "9/1/2025",
        "AADT": "98",
        "AADTYEAR": "2019",
        "STATENAME": "TEXAS",
        "STATEAB": "TX",
        "COUNTYNAME": "UPSHUR",
        "CITYNAME": "BIG SANDY",
        "LATDD": 32.5764679,
        "LONGDD": -95.1215956,
        "gridlyProductionCertified": true,
        "gridlyClassification": "PUBLIC_ROADWAY",
        "gridlyDisplayName": "NORTH MURE STREET",
        "gridlyId": "FRA-789458H"
      }
    },
    {
      "type": "Feature",
      "id": 207015,
      "geometry": {
        "type": "Point",
        "coordinates": [
          -95.1231322003122,
          32.5822794998362
        ]
      },
      "properties": {
        "OBJECTID": 207015,
        "CROSSING": "794679V",
        "EFFDATE": 1756425600000,
        "REASON": "14",
        "StateCode": "48",
        "CountyCode": "48459",
        "STCYFIPS": "48459",
        "CITYCD": "484590630",
        "RAILROAD": "UP",
        "RRDIV": "TEXOMA",
        "RRSUBDIV": "MINEOLA SUB",
        "HIGHWAY": "SH 0155",
        "STREET": "FM 155",
        "TTSTN": "665298",
        "MILEPOST": "0113.760",
        "TYPEXING": "Public",
        "POSXING": "RR Under",
        "PRVCAT": "14",
        "INIT": "1",
        "LATITUDE": 32.5822795,
        "LONGITUD": -95.1231322,
        "LLSOURCE": "1",
        "WHISTBAN": "0",
        "RRCONT": "4025443721",
        "POLCONT": "8008488715",
        "INV_LINK": "https://safetydata.fra.dot.gov/OfficeofSafety/PublicSite/Crossing/Crossing.aspx?phasetype=C&rpttype=I&txtcrossingnum=794679V",
        "ACC_LINK": "https://safetydata.fra.dot.gov/OfficeofSafety/PublicSite/Crossing/Crossing.aspx?phasetype=C&rpttype=A&txtcrossingnum=794679V",
        "TTSTNNAM": "",
        "XPURPOSE": "1",
        "OPERATINGR": "UP",
        "OPERATIN_1": "Primary",
        "DAYTHRU": 10,
        "NGHTTHRU": 10,
        "MAINTRK": 1,
        "SIDINGTRK": 1,
        "YARDTRK": 0,
        "TRANSITTRK": 0,
        "INDUSTRYTR": 0,
        "OTHRTRK": 0,
        "WDCODE": "",
        "REVISIONDA": "1975/01/01 00:00:00",
        "LASTUPDATE": "8/29/2025",
        "AADT": "5700",
        "AADTYEAR": "2013",
        "STATENAME": "TEXAS",
        "STATEAB": "TX",
        "COUNTYNAME": "UPSHUR",
        "CITYNAME": "BIG SANDY",
        "LATDD": 32.5822795,
        "LONGDD": -95.1231322,
        "gridlyProductionCertified": true,
        "gridlyClassification": "PUBLIC_ROADWAY",
        "gridlyDisplayName": "FM 155",
        "gridlyId": "FRA-794679V"
      }
    },
    {
      "type": "Feature",
      "id": 208250,
      "geometry": {
        "type": "Point",
        "coordinates": [
          -94.9553772001148,
          32.7849388003089
        ]
      },
      "properties": {
        "OBJECTID": 208250,
        "CROSSING": "789408E",
        "EFFDATE": 1756339200000,
        "REASON": "14",
        "StateCode": "48",
        "CountyCode": "48459",
        "STCYFIPS": "48459",
        "CITYCD": "484592650",
        "RAILROAD": "UP",
        "RRDIV": "MID AMERICA",
        "RRSUBDIV": "PINE BLUFF SUB",
        "HIGHWAY": "CO 0219",
        "STREET": "ANTELOPE ROAD",
        "TTSTN": "665260",
        "MILEPOST": "0506.240",
        "TYPEXING": "Public",
        "POSXING": "At Grade",
        "PRVCAT": "14",
        "INIT": "1",
        "LATITUDE": 32.7849388,
        "LONGITUD": -94.9553772,
        "LLSOURCE": "1",
        "WHISTBAN": "0",
        "RRCONT": "4025443721",
        "POLCONT": "8008488715",
        "INV_LINK": "https://safetydata.fra.dot.gov/OfficeofSafety/PublicSite/Crossing/Crossing.aspx?phasetype=C&rpttype=I&txtcrossingnum=789408E",
        "ACC_LINK": "https://safetydata.fra.dot.gov/OfficeofSafety/PublicSite/Crossing/Crossing.aspx?phasetype=C&rpttype=A&txtcrossingnum=789408E",
        "TTSTNNAM": "",
        "XPURPOSE": "1",
        "OPERATINGR": "UP",
        "OPERATIN_1": "Primary",
        "DAYTHRU": 7,
        "NGHTTHRU": 6,
        "MAINTRK": 1,
        "SIDINGTRK": 0,
        "YARDTRK": 0,
        "TRANSITTRK": 0,
        "INDUSTRYTR": 0,
        "OTHRTRK": 0,
        "WDCODE": "Stop signs",
        "REVISIONDA": "1975/01/01 00:00:00",
        "LASTUPDATE": "8/28/2025",
        "AADT": "56",
        "AADTYEAR": "2019",
        "STATENAME": "TEXAS",
        "STATEAB": "TX",
        "COUNTYNAME": "UPSHUR",
        "CITYNAME": "GILMER",
        "LATDD": 32.7849388,
        "LONGDD": -94.9553772,
        "gridlyProductionCertified": true,
        "gridlyClassification": "PUBLIC_ROADWAY",
        "gridlyDisplayName": "ANTELOPE ROAD",
        "gridlyId": "FRA-789408E"
      }
    },
    {
      "type": "Feature",
      "id": 208252,
      "geometry": {
        "type": "Point",
        "coordinates": [
          -94.9461741001662,
          32.7392383999668
        ]
      },
      "properties": {
        "OBJECTID": 208252,
        "CROSSING": "789410F",
        "EFFDATE": 1756339200000,
        "REASON": "14",
        "StateCode": "48",
        "CountyCode": "48459",
        "STCYFIPS": "48459",
        "CITYCD": "484592650",
        "RAILROAD": "UP",
        "RRDIV": "MID AMERICA",
        "RRSUBDIV": "PINE BLUFF SUB",
        "HIGHWAY": "ST 0000",
        "STREET": "REDBUD STREET",
        "TTSTN": "665260",
        "MILEPOST": "0509.520",
        "TYPEXING": "Public",
        "POSXING": "At Grade",
        "PRVCAT": "14",
        "INIT": "1",
        "LATITUDE": 32.7392384,
        "LONGITUD": -94.9461741,
        "LLSOURCE": "1",
        "WHISTBAN": "0",
        "RRCONT": "4025443721",
        "POLCONT": "8008488715",
        "INV_LINK": "https://safetydata.fra.dot.gov/OfficeofSafety/PublicSite/Crossing/Crossing.aspx?phasetype=C&rpttype=I&txtcrossingnum=789410F",
        "ACC_LINK": "https://safetydata.fra.dot.gov/OfficeofSafety/PublicSite/Crossing/Crossing.aspx?phasetype=C&rpttype=A&txtcrossingnum=789410F",
        "TTSTNNAM": "",
        "XPURPOSE": "1",
        "OPERATINGR": "UP",
        "OPERATIN_1": "Primary",
        "DAYTHRU": 7,
        "NGHTTHRU": 6,
        "MAINTRK": 1,
        "SIDINGTRK": 0,
        "YARDTRK": 0,
        "TRANSITTRK": 0,
        "INDUSTRYTR": 0,
        "OTHRTRK": 0,
        "WDCODE": "All other Gates",
        "REVISIONDA": "1975/01/01 00:00:00",
        "LASTUPDATE": "8/28/2025",
        "AADT": "3397",
        "AADTYEAR": "2019",
        "STATENAME": "TEXAS",
        "STATEAB": "TX",
        "COUNTYNAME": "UPSHUR",
        "CITYNAME": "GILMER",
        "LATDD": 32.7392384,
        "LONGDD": -94.9461741,
        "gridlyProductionCertified": true,
        "gridlyClassification": "PUBLIC_ROADWAY",
        "gridlyDisplayName": "REDBUD STREET",
        "gridlyId": "FRA-789410F"
      }
    },
    {
      "type": "Feature",
      "id": 208253,
      "geometry": {
        "type": "Point",
        "coordinates": [
          -94.947353100349,
          32.7347387000219
        ]
      },
      "properties": {
        "OBJECTID": 208253,
        "CROSSING": "789411M",
        "EFFDATE": 1756339200000,
        "REASON": "14",
        "StateCode": "48",
        "CountyCode": "48459",
        "STCYFIPS": "48459",
        "CITYCD": "484592650",
        "RAILROAD": "UP",
        "RRDIV": "MID AMERICA",
        "RRSUBDIV": "PINE BLUFF SUB",
        "HIGHWAY": "ST 0000",
        "STREET": "WALNUT STREET",
        "TTSTN": "665260",
        "MILEPOST": "0509.870",
        "TYPEXING": "Public",
        "POSXING": "At Grade",
        "PRVCAT": "14",
        "INIT": "1",
        "LATITUDE": 32.7347387,
        "LONGITUD": -94.9473531,
        "LLSOURCE": "1",
        "WHISTBAN": "0",
        "RRCONT": "4025443721",
        "POLCONT": "8008488715",
        "INV_LINK": "https://safetydata.fra.dot.gov/OfficeofSafety/PublicSite/Crossing/Crossing.aspx?phasetype=C&rpttype=I&txtcrossingnum=789411M",
        "ACC_LINK": "https://safetydata.fra.dot.gov/OfficeofSafety/PublicSite/Crossing/Crossing.aspx?phasetype=C&rpttype=A&txtcrossingnum=789411M",
        "TTSTNNAM": "",
        "XPURPOSE": "1",
        "OPERATINGR": "UP",
        "OPERATIN_1": "Primary",
        "DAYTHRU": 7,
        "NGHTTHRU": 6,
        "MAINTRK": 1,
        "SIDINGTRK": 0,
        "YARDTRK": 0,
        "TRANSITTRK": 0,
        "INDUSTRYTR": 0,
        "OTHRTRK": 0,
        "WDCODE": "All other Gates",
        "REVISIONDA": "1975/01/01 00:00:00",
        "LASTUPDATE": "8/28/2025",
        "AADT": "382",
        "AADTYEAR": "2019",
        "STATENAME": "TEXAS",
        "STATEAB": "TX",
        "COUNTYNAME": "UPSHUR",
        "CITYNAME": "GILMER",
        "LATDD": 32.7347387,
        "LONGDD": -94.9473531,
        "gridlyProductionCertified": true,
        "gridlyClassification": "PUBLIC_ROADWAY",
        "gridlyDisplayName": "WALNUT STREET",
        "gridlyId": "FRA-789411M"
      }
    },
    {
      "type": "Feature",
      "id": 208254,
      "geometry": {
        "type": "Point",
        "coordinates": [
          -94.9475785002303,
          32.7328185001613
        ]
      },
      "properties": {
        "OBJECTID": 208254,
        "CROSSING": "789412U",
        "EFFDATE": 1756339200000,
        "REASON": "14",
        "StateCode": "48",
        "CountyCode": "48459",
        "STCYFIPS": "48459",
        "CITYCD": "484592650",
        "RAILROAD": "UP",
        "RRDIV": "MID AMERICA",
        "RRSUBDIV": "PINE BLUFF SUB",
        "HIGHWAY": "ST 0000",
        "STREET": "SCOTT STREET",
        "TTSTN": "665260",
        "MILEPOST": "0510.020",
        "TYPEXING": "Public",
        "POSXING": "At Grade",
        "PRVCAT": "14",
        "INIT": "1",
        "LATITUDE": 32.7328185,
        "LONGITUD": -94.9475785,
        "LLSOURCE": "1",
        "WHISTBAN": "0",
        "RRCONT": "4025443721",
        "POLCONT": "8008488715",
        "INV_LINK": "https://safetydata.fra.dot.gov/OfficeofSafety/PublicSite/Crossing/Crossing.aspx?phasetype=C&rpttype=I&txtcrossingnum=789412U",
        "ACC_LINK": "https://safetydata.fra.dot.gov/OfficeofSafety/PublicSite/Crossing/Crossing.aspx?phasetype=C&rpttype=A&txtcrossingnum=789412U",
        "TTSTNNAM": "",
        "XPURPOSE": "1",
        "OPERATINGR": "UP",
        "OPERATIN_1": "Primary",
        "DAYTHRU": 7,
        "NGHTTHRU": 6,
        "MAINTRK": 1,
        "SIDINGTRK": 0,
        "YARDTRK": 0,
        "TRANSITTRK": 0,
        "INDUSTRYTR": 0,
        "OTHRTRK": 0,
        "WDCODE": "All other Gates",
        "REVISIONDA": "1975/01/01 00:00:00",
        "LASTUPDATE": "8/28/2025",
        "AADT": "690",
        "AADTYEAR": "2019",
        "STATENAME": "TEXAS",
        "STATEAB": "TX",
        "COUNTYNAME": "UPSHUR",
        "CITYNAME": "GILMER",
        "LATDD": 32.7328185,
        "LONGDD": -94.9475785,
        "gridlyProductionCertified": true,
        "gridlyClassification": "PUBLIC_ROADWAY",
        "gridlyDisplayName": "SCOTT STREET",
        "gridlyId": "FRA-789412U"
      }
    },
    {
      "type": "Feature",
      "id": 208264,
      "geometry": {
        "type": "Point",
        "coordinates": [
          -94.9476011997591,
          32.7307991997875
        ]
      },
      "properties": {
        "OBJECTID": 208264,
        "CROSSING": "789414H",
        "EFFDATE": 1756339200000,
        "REASON": "14",
        "StateCode": "48",
        "CountyCode": "48459",
        "STCYFIPS": "48459",
        "CITYCD": "484592650",
        "RAILROAD": "UP",
        "RRDIV": "MID AMERICA",
        "RRSUBDIV": "PINE BLUFF SUB",
        "HIGHWAY": "ST 0000",
        "STREET": "CASS STREET",
        "TTSTN": "665260",
        "MILEPOST": "0510.150",
        "TYPEXING": "Public",
        "POSXING": "At Grade",
        "PRVCAT": "14",
        "INIT": "1",
        "LATITUDE": 32.7307992,
        "LONGITUD": -94.9476012,
        "LLSOURCE": "1",
        "WHISTBAN": "0",
        "RRCONT": "4025443721",
        "POLCONT": "8008488715",
        "INV_LINK": "https://safetydata.fra.dot.gov/OfficeofSafety/PublicSite/Crossing/Crossing.aspx?phasetype=C&rpttype=I&txtcrossingnum=789414H",
        "ACC_LINK": "https://safetydata.fra.dot.gov/OfficeofSafety/PublicSite/Crossing/Crossing.aspx?phasetype=C&rpttype=A&txtcrossingnum=789414H",
        "TTSTNNAM": "",
        "XPURPOSE": "1",
        "OPERATINGR": "UP",
        "OPERATIN_1": "Primary",
        "DAYTHRU": 7,
        "NGHTTHRU": 6,
        "MAINTRK": 1,
        "SIDINGTRK": 0,
        "YARDTRK": 0,
        "TRANSITTRK": 0,
        "INDUSTRYTR": 0,
        "OTHRTRK": 0,
        "WDCODE": "All other Gates",
        "REVISIONDA": "1975/01/01 00:00:00",
        "LASTUPDATE": "8/28/2025",
        "AADT": "465",
        "AADTYEAR": "2019",
        "STATENAME": "TEXAS",
        "STATEAB": "TX",
        "COUNTYNAME": "UPSHUR",
        "CITYNAME": "GILMER",
        "LATDD": 32.7307992,
        "LONGDD": -94.9476012,
        "gridlyProductionCertified": true,
        "gridlyClassification": "PUBLIC_ROADWAY",
        "gridlyDisplayName": "CASS STREET",
        "gridlyId": "FRA-789414H"
      }
    },
    {
      "type": "Feature",
      "id": 208268,
      "geometry": {
        "type": "Point",
        "coordinates": [
          -94.9476207003873,
          32.7287648001621
        ]
      },
      "properties": {
        "OBJECTID": 208268,
        "CROSSING": "789416W",
        "EFFDATE": 1756339200000,
        "REASON": "14",
        "StateCode": "48",
        "CountyCode": "48459",
        "STCYFIPS": "48459",
        "CITYCD": "484592650",
        "RAILROAD": "UP",
        "RRDIV": "MID AMERICA",
        "RRSUBDIV": "PINE BLUFF SUB",
        "HIGHWAY": "SH 0154",
        "STREET": "TX 154",
        "TTSTN": "665260",
        "MILEPOST": "0510.290",
        "TYPEXING": "Public",
        "POSXING": "At Grade",
        "PRVCAT": "14",
        "INIT": "1",
        "LATITUDE": 32.7287648,
        "LONGITUD": -94.9476207,
        "LLSOURCE": "1",
        "WHISTBAN": "0",
        "RRCONT": "4025443721",
        "POLCONT": "8008488715",
        "INV_LINK": "https://safetydata.fra.dot.gov/OfficeofSafety/PublicSite/Crossing/Crossing.aspx?phasetype=C&rpttype=I&txtcrossingnum=789416W",
        "ACC_LINK": "https://safetydata.fra.dot.gov/OfficeofSafety/PublicSite/Crossing/Crossing.aspx?phasetype=C&rpttype=A&txtcrossingnum=789416W",
        "TTSTNNAM": "",
        "XPURPOSE": "1",
        "OPERATINGR": "UP",
        "OPERATIN_1": "Primary",
        "DAYTHRU": 7,
        "NGHTTHRU": 6,
        "MAINTRK": 1,
        "SIDINGTRK": 0,
        "YARDTRK": 0,
        "TRANSITTRK": 0,
        "INDUSTRYTR": 0,
        "OTHRTRK": 0,
        "WDCODE": "All other Gates",
        "REVISIONDA": "1975/01/01 00:00:00",
        "LASTUPDATE": "8/28/2025",
        "AADT": "7722",
        "AADTYEAR": "2019",
        "STATENAME": "TEXAS",
        "STATEAB": "TX",
        "COUNTYNAME": "UPSHUR",
        "CITYNAME": "GILMER",
        "LATDD": 32.7287648,
        "LONGDD": -94.9476207,
        "gridlyProductionCertified": true,
        "gridlyClassification": "PUBLIC_ROADWAY",
        "gridlyDisplayName": "TX 154",
        "gridlyId": "FRA-789416W"
      }
    },
    {
      "type": "Feature",
      "id": 208269,
      "geometry": {
        "type": "Point",
        "coordinates": [
          -94.9476049996328,
          32.7277532001084
        ]
      },
      "properties": {
        "OBJECTID": 208269,
        "CROSSING": "789417D",
        "EFFDATE": 1756339200000,
        "REASON": "14",
        "StateCode": "48",
        "CountyCode": "48459",
        "STCYFIPS": "48459",
        "CITYCD": "484592650",
        "RAILROAD": "UP",
        "RRDIV": "MID AMERICA",
        "RRSUBDIV": "PINE BLUFF SUB",
        "HIGHWAY": "ST 0000",
        "STREET": "HARRISON STREET",
        "TTSTN": "665260",
        "MILEPOST": "0510.358",
        "TYPEXING": "Public",
        "POSXING": "At Grade",
        "PRVCAT": "14",
        "INIT": "1",
        "LATITUDE": 32.7277532,
        "LONGITUD": -94.947605,
        "LLSOURCE": "1",
        "WHISTBAN": "0",
        "RRCONT": "4025443721",
        "POLCONT": "8008488715",
        "INV_LINK": "https://safetydata.fra.dot.gov/OfficeofSafety/PublicSite/Crossing/Crossing.aspx?phasetype=C&rpttype=I&txtcrossingnum=789417D",
        "ACC_LINK": "https://safetydata.fra.dot.gov/OfficeofSafety/PublicSite/Crossing/Crossing.aspx?phasetype=C&rpttype=A&txtcrossingnum=789417D",
        "TTSTNNAM": "",
        "XPURPOSE": "1",
        "OPERATINGR": "UP",
        "OPERATIN_1": "Primary",
        "DAYTHRU": 7,
        "NGHTTHRU": 6,
        "MAINTRK": 1,
        "SIDINGTRK": 0,
        "YARDTRK": 0,
        "TRANSITTRK": 0,
        "INDUSTRYTR": 0,
        "OTHRTRK": 0,
        "WDCODE": "All other Gates",
        "REVISIONDA": "1975/01/01 00:00:00",
        "LASTUPDATE": "8/28/2025",
        "AADT": "1019",
        "AADTYEAR": "2019",
        "STATENAME": "TEXAS",
        "STATEAB": "TX",
        "COUNTYNAME": "UPSHUR",
        "CITYNAME": "GILMER",
        "LATDD": 32.7277532,
        "LONGDD": -94.947605,
        "gridlyProductionCertified": true,
        "gridlyClassification": "PUBLIC_ROADWAY",
        "gridlyDisplayName": "HARRISON STREET",
        "gridlyId": "FRA-789417D"
      }
    },
    {
      "type": "Feature",
      "id": 208270,
      "geometry": {
        "type": "Point",
        "coordinates": [
          -94.9463804000678,
          32.725662400037
        ]
      },
      "properties": {
        "OBJECTID": 208270,
        "CROSSING": "789442L",
        "EFFDATE": 1756339200000,
        "REASON": "14",
        "StateCode": "48",
        "CountyCode": "48459",
        "STCYFIPS": "48459",
        "CITYCD": "484592650",
        "RAILROAD": "UP",
        "RRDIV": "MID AMERICA",
        "RRSUBDIV": "PINE BLUFF SUB",
        "HIGHWAY": "ST 0000",
        "STREET": "TRINITY STREET",
        "TTSTN": "665260",
        "MILEPOST": "0510.514",
        "TYPEXING": "Public",
        "POSXING": "At Grade",
        "PRVCAT": "14",
        "INIT": "1",
        "LATITUDE": 32.7256624,
        "LONGITUD": -94.9463804,
        "LLSOURCE": "1",
        "WHISTBAN": "0",
        "RRCONT": "4025443721",
        "POLCONT": "8008488715",
        "INV_LINK": "https://safetydata.fra.dot.gov/OfficeofSafety/PublicSite/Crossing/Crossing.aspx?phasetype=C&rpttype=I&txtcrossingnum=789442L",
        "ACC_LINK": "https://safetydata.fra.dot.gov/OfficeofSafety/PublicSite/Crossing/Crossing.aspx?phasetype=C&rpttype=A&txtcrossingnum=789442L",
        "TTSTNNAM": "",
        "XPURPOSE": "1",
        "OPERATINGR": "UP",
        "OPERATIN_1": "Primary",
        "DAYTHRU": 7,
        "NGHTTHRU": 6,
        "MAINTRK": 1,
        "SIDINGTRK": 0,
        "YARDTRK": 0,
        "TRANSITTRK": 0,
        "INDUSTRYTR": 0,
        "OTHRTRK": 0,
        "WDCODE": "All other Gates",
        "REVISIONDA": "1975/01/01 00:00:00",
        "LASTUPDATE": "8/28/2025",
        "AADT": "215",
        "AADTYEAR": "2019",
        "STATENAME": "TEXAS",
        "STATEAB": "TX",
        "COUNTYNAME": "UPSHUR",
        "CITYNAME": "GILMER",
        "LATDD": 32.7256624,
        "LONGDD": -94.9463804,
        "gridlyProductionCertified": true,
        "gridlyClassification": "PUBLIC_ROADWAY",
        "gridlyDisplayName": "TRINITY STREET",
        "gridlyId": "FRA-789442L"
      }
    },
    {
      "type": "Feature",
      "id": 208271,
      "geometry": {
        "type": "Point",
        "coordinates": [
          -94.9452633000963,
          32.7238565000824
        ]
      },
      "properties": {
        "OBJECTID": 208271,
        "CROSSING": "789443T",
        "EFFDATE": 1756339200000,
        "REASON": "14",
        "StateCode": "48",
        "CountyCode": "48459",
        "STCYFIPS": "48459",
        "CITYCD": "484592650",
        "RAILROAD": "UP",
        "RRDIV": "MID AMERICA",
        "RRSUBDIV": "PINE BLUFF SUB",
        "HIGHWAY": "ST 0000",
        "STREET": "WARREN STREET",
        "TTSTN": "665260",
        "MILEPOST": "0510.650",
        "TYPEXING": "Public",
        "POSXING": "At Grade",
        "PRVCAT": "14",
        "INIT": "1",
        "LATITUDE": 32.7238565,
        "LONGITUD": -94.9452633,
        "LLSOURCE": "1",
        "WHISTBAN": "0",
        "RRCONT": "4025443721",
        "POLCONT": "8008488715",
        "INV_LINK": "https://safetydata.fra.dot.gov/OfficeofSafety/PublicSite/Crossing/Crossing.aspx?phasetype=C&rpttype=I&txtcrossingnum=789443T",
        "ACC_LINK": "https://safetydata.fra.dot.gov/OfficeofSafety/PublicSite/Crossing/Crossing.aspx?phasetype=C&rpttype=A&txtcrossingnum=789443T",
        "TTSTNNAM": "",
        "XPURPOSE": "1",
        "OPERATINGR": "UP",
        "OPERATIN_1": "Primary",
        "DAYTHRU": 7,
        "NGHTTHRU": 6,
        "MAINTRK": 1,
        "SIDINGTRK": 0,
        "YARDTRK": 0,
        "TRANSITTRK": 0,
        "INDUSTRYTR": 0,
        "OTHRTRK": 0,
        "WDCODE": "All other Gates",
        "REVISIONDA": "1975/01/01 00:00:00",
        "LASTUPDATE": "8/28/2025",
        "AADT": "1473",
        "AADTYEAR": "2019",
        "STATENAME": "TEXAS",
        "STATEAB": "TX",
        "COUNTYNAME": "UPSHUR",
        "CITYNAME": "GILMER",
        "LATDD": 32.7238565,
        "LONGDD": -94.9452633,
        "gridlyProductionCertified": true,
        "gridlyClassification": "PUBLIC_ROADWAY",
        "gridlyDisplayName": "WARREN STREET",
        "gridlyId": "FRA-789443T"
      }
    },
    {
      "type": "Feature",
      "id": 208272,
      "geometry": {
        "type": "Point",
        "coordinates": [
          -94.9463628999878,
          32.7155282002585
        ]
      },
      "properties": {
        "OBJECTID": 208272,
        "CROSSING": "789445G",
        "EFFDATE": 1756339200000,
        "REASON": "14",
        "StateCode": "48",
        "CountyCode": "48459",
        "STCYFIPS": "48459",
        "CITYCD": "484592650",
        "RAILROAD": "UP",
        "RRDIV": "MID AMERICA",
        "RRSUBDIV": "PINE BLUFF SUB",
        "HIGHWAY": "PRIVATE",
        "STREET": "DEAN STREET",
        "TTSTN": "665260",
        "MILEPOST": "0511.220",
        "TYPEXING": "Public",
        "POSXING": "At Grade",
        "PRVCAT": "14",
        "INIT": "1",
        "LATITUDE": 32.7155282,
        "LONGITUD": -94.9463629,
        "LLSOURCE": "1",
        "WHISTBAN": "0",
        "RRCONT": "4025443721",
        "POLCONT": "8008488715",
        "INV_LINK": "https://safetydata.fra.dot.gov/OfficeofSafety/PublicSite/Crossing/Crossing.aspx?phasetype=C&rpttype=I&txtcrossingnum=789445G",
        "ACC_LINK": "https://safetydata.fra.dot.gov/OfficeofSafety/PublicSite/Crossing/Crossing.aspx?phasetype=C&rpttype=A&txtcrossingnum=789445G",
        "TTSTNNAM": "",
        "XPURPOSE": "1",
        "OPERATINGR": "UP",
        "OPERATIN_1": "Primary",
        "DAYTHRU": 7,
        "NGHTTHRU": 6,
        "MAINTRK": 1,
        "SIDINGTRK": 0,
        "YARDTRK": 0,
        "TRANSITTRK": 0,
        "INDUSTRYTR": 0,
        "OTHRTRK": 0,
        "WDCODE": "All other Gates",
        "REVISIONDA": "1975/01/01 00:00:00",
        "LASTUPDATE": "8/28/2025",
        "AADT": "1100",
        "AADTYEAR": "2019",
        "STATENAME": "TEXAS",
        "STATEAB": "TX",
        "COUNTYNAME": "UPSHUR",
        "CITYNAME": "GILMER",
        "LATDD": 32.7155282,
        "LONGDD": -94.9463629,
        "gridlyProductionCertified": true,
        "gridlyClassification": "PUBLIC_ROADWAY",
        "gridlyDisplayName": "DEAN STREET",
        "gridlyId": "FRA-789445G"
      }
    },
    {
      "type": "Feature",
      "id": 208273,
      "geometry": {
        "type": "Point",
        "coordinates": [
          -94.9843777001799,
          32.6840887999172
        ]
      },
      "properties": {
        "OBJECTID": 208273,
        "CROSSING": "789447V",
        "EFFDATE": 1756339200000,
        "REASON": "14",
        "StateCode": "48",
        "CountyCode": "48459",
        "STCYFIPS": "48459",
        "CITYCD": "484592650",
        "RAILROAD": "UP",
        "RRDIV": "MID AMERICA",
        "RRSUBDIV": "PINE BLUFF SUB",
        "HIGHWAY": "CO 0199",
        "STREET": "CHINABERRY ROAD",
        "TTSTN": "665260",
        "MILEPOST": "0514.450",
        "TYPEXING": "Public",
        "POSXING": "At Grade",
        "PRVCAT": "14",
        "INIT": "1",
        "LATITUDE": 32.6840888,
        "LONGITUD": -94.9843777,
        "LLSOURCE": "1",
        "WHISTBAN": "0",
        "RRCONT": "4025443721",
        "POLCONT": "8008488715",
        "INV_LINK": "https://safetydata.fra.dot.gov/OfficeofSafety/PublicSite/Crossing/Crossing.aspx?phasetype=C&rpttype=I&txtcrossingnum=789447V",
        "ACC_LINK": "https://safetydata.fra.dot.gov/OfficeofSafety/PublicSite/Crossing/Crossing.aspx?phasetype=C&rpttype=A&txtcrossingnum=789447V",
        "TTSTNNAM": "",
        "XPURPOSE": "1",
        "OPERATINGR": "UP",
        "OPERATIN_1": "Primary",
        "DAYTHRU": 7,
        "NGHTTHRU": 6,
        "MAINTRK": 1,
        "SIDINGTRK": 0,
        "YARDTRK": 0,
        "TRANSITTRK": 0,
        "INDUSTRYTR": 0,
        "OTHRTRK": 0,
        "WDCODE": "All other Gates",
        "REVISIONDA": "1975/01/01 00:00:00",
        "LASTUPDATE": "8/28/2025",
        "AADT": "117",
        "AADTYEAR": "2019",
        "STATENAME": "TEXAS",
        "STATEAB": "TX",
        "COUNTYNAME": "UPSHUR",
        "CITYNAME": "GILMER",
        "LATDD": 32.6840888,
        "LONGDD": -94.9843777,
        "gridlyProductionCertified": true,
        "gridlyClassification": "PUBLIC_ROADWAY",
        "gridlyDisplayName": "CHINABERRY ROAD",
        "gridlyId": "FRA-789447V"
      }
    },
    {
      "type": "Feature",
      "id": 208309,
      "geometry": {
        "type": "Point",
        "coordinates": [
          -94.9815028999296,
          32.6884882998131
        ]
      },
      "properties": {
        "OBJECTID": 208309,
        "CROSSING": "789448C",
        "EFFDATE": 1756339200000,
        "REASON": "14",
        "StateCode": "48",
        "CountyCode": "48459",
        "STCYFIPS": "48459",
        "CITYCD": "484592650",
        "RAILROAD": "UP",
        "RRDIV": "MID AMERICA",
        "RRSUBDIV": "PINE BLUFF SUB",
        "HIGHWAY": "TBD",
        "STREET": "ASPEN TRAIL",
        "TTSTN": "382192",
        "MILEPOST": "0514.110",
        "TYPEXING": "Public",
        "POSXING": "At Grade",
        "PRVCAT": "14",
        "INIT": "1",
        "LATITUDE": 32.6884883,
        "LONGITUD": -94.9815029,
        "LLSOURCE": "1",
        "WHISTBAN": "0",
        "RRCONT": "4025443721",
        "POLCONT": "8008488715",
        "INV_LINK": "https://safetydata.fra.dot.gov/OfficeofSafety/PublicSite/Crossing/Crossing.aspx?phasetype=C&rpttype=I&txtcrossingnum=789448C",
        "ACC_LINK": "https://safetydata.fra.dot.gov/OfficeofSafety/PublicSite/Crossing/Crossing.aspx?phasetype=C&rpttype=A&txtcrossingnum=789448C",
        "TTSTNNAM": "",
        "XPURPOSE": "1",
        "OPERATINGR": "UP",
        "OPERATIN_1": "Primary",
        "DAYTHRU": 7,
        "NGHTTHRU": 6,
        "MAINTRK": 1,
        "SIDINGTRK": 0,
        "YARDTRK": 0,
        "TRANSITTRK": 0,
        "INDUSTRYTR": 0,
        "OTHRTRK": 0,
        "WDCODE": "All other Gates",
        "REVISIONDA": "1975/01/01 00:00:00",
        "LASTUPDATE": "8/28/2025",
        "AADT": "453",
        "AADTYEAR": "2019",
        "STATENAME": "TEXAS",
        "STATEAB": "TX",
        "COUNTYNAME": "UPSHUR",
        "CITYNAME": "GILMER",
        "LATDD": 32.6884883,
        "LONGDD": -94.9815029,
        "gridlyProductionCertified": true,
        "gridlyClassification": "PUBLIC_ROADWAY",
        "gridlyDisplayName": "ASPEN TRAIL",
        "gridlyId": "FRA-789448C"
      }
    },
    {
      "type": "Feature",
      "id": 208310,
      "geometry": {
        "type": "Point",
        "coordinates": [
          -95.0171468996616,
          32.6627486003292
        ]
      },
      "properties": {
        "OBJECTID": 208310,
        "CROSSING": "789450D",
        "EFFDATE": 1756339200000,
        "REASON": "14",
        "StateCode": "48",
        "CountyCode": "48459",
        "STCYFIPS": "48459",
        "CITYCD": "484592650",
        "RAILROAD": "UP",
        "RRDIV": "MID AMERICA",
        "RRSUBDIV": "PINE BLUFF SUB",
        "HIGHWAY": "CO 0191",
        "STREET": "WESTOOD STREET",
        "TTSTN": "665298",
        "MILEPOST": "0517.000",
        "TYPEXING": "Public",
        "POSXING": "At Grade",
        "PRVCAT": "14",
        "INIT": "1",
        "LATITUDE": 32.6627486,
        "LONGITUD": -95.0171469,
        "LLSOURCE": "1",
        "WHISTBAN": "0",
        "RRCONT": "4025443721",
        "POLCONT": "8008488715",
        "INV_LINK": "https://safetydata.fra.dot.gov/OfficeofSafety/PublicSite/Crossing/Crossing.aspx?phasetype=C&rpttype=I&txtcrossingnum=789450D",
        "ACC_LINK": "https://safetydata.fra.dot.gov/OfficeofSafety/PublicSite/Crossing/Crossing.aspx?phasetype=C&rpttype=A&txtcrossingnum=789450D",
        "TTSTNNAM": "",
        "XPURPOSE": "1",
        "OPERATINGR": "UP",
        "OPERATIN_1": "Primary",
        "DAYTHRU": 7,
        "NGHTTHRU": 6,
        "MAINTRK": 1,
        "SIDINGTRK": 0,
        "YARDTRK": 0,
        "TRANSITTRK": 0,
        "INDUSTRYTR": 0,
        "OTHRTRK": 0,
        "WDCODE": "Stop signs",
        "REVISIONDA": "1975/01/01 00:00:00",
        "LASTUPDATE": "8/28/2025",
        "AADT": "30",
        "AADTYEAR": "2019",
        "STATENAME": "TEXAS",
        "STATEAB": "TX",
        "COUNTYNAME": "UPSHUR",
        "CITYNAME": "GILMER",
        "LATDD": 32.6627486,
        "LONGDD": -95.0171469,
        "gridlyProductionCertified": true,
        "gridlyClassification": "PUBLIC_ROADWAY",
        "gridlyDisplayName": "WESTOOD STREET",
        "gridlyId": "FRA-789450D"
      }
    },
    {
      "type": "Feature",
      "id": 208321,
      "geometry": {
        "type": "Point",
        "coordinates": [
          -95.0184388001094,
          32.6619746999118
        ]
      },
      "properties": {
        "OBJECTID": 208321,
        "CROSSING": "789451K",
        "EFFDATE": 1756339200000,
        "REASON": "14",
        "StateCode": "48",
        "CountyCode": "48459",
        "STCYFIPS": "48459",
        "CITYCD": "484592650",
        "RAILROAD": "UP",
        "RRDIV": "MID AMERICA",
        "RRSUBDIV": "PINE BLUFF SUB",
        "HIGHWAY": "CO 0191",
        "STREET": "HOLLY ROAD",
        "TTSTN": "665298",
        "MILEPOST": "0517.090",
        "TYPEXING": "Public",
        "POSXING": "At Grade",
        "PRVCAT": "14",
        "INIT": "1",
        "LATITUDE": 32.6619747,
        "LONGITUD": -95.0184388,
        "LLSOURCE": "1",
        "WHISTBAN": "0",
        "RRCONT": "4025443721",
        "POLCONT": "8008488715",
        "INV_LINK": "https://safetydata.fra.dot.gov/OfficeofSafety/PublicSite/Crossing/Crossing.aspx?phasetype=C&rpttype=I&txtcrossingnum=789451K",
        "ACC_LINK": "https://safetydata.fra.dot.gov/OfficeofSafety/PublicSite/Crossing/Crossing.aspx?phasetype=C&rpttype=A&txtcrossingnum=789451K",
        "TTSTNNAM": "",
        "XPURPOSE": "1",
        "OPERATINGR": "UP",
        "OPERATIN_1": "Primary",
        "DAYTHRU": 7,
        "NGHTTHRU": 6,
        "MAINTRK": 1,
        "SIDINGTRK": 0,
        "YARDTRK": 0,
        "TRANSITTRK": 0,
        "INDUSTRYTR": 0,
        "OTHRTRK": 0,
        "WDCODE": "All other Gates",
        "REVISIONDA": "1975/01/01 00:00:00",
        "LASTUPDATE": "8/28/2025",
        "AADT": "667",
        "AADTYEAR": "2019",
        "STATENAME": "TEXAS",
        "STATEAB": "TX",
        "COUNTYNAME": "UPSHUR",
        "CITYNAME": "GILMER",
        "LATDD": 32.6619747,
        "LONGDD": -95.0184388,
        "gridlyProductionCertified": true,
        "gridlyClassification": "PUBLIC_ROADWAY",
        "gridlyDisplayName": "HOLLY ROAD",
        "gridlyId": "FRA-789451K"
      }
    },
    {
      "type": "Feature",
      "id": 208326,
      "geometry": {
        "type": "Point",
        "coordinates": [
          -94.9595821995867,
          32.8086237001041
        ]
      },
      "properties": {
        "OBJECTID": 208326,
        "CROSSING": "789797M",
        "EFFDATE": 1756339200000,
        "REASON": "14",
        "StateCode": "48",
        "CountyCode": "48459",
        "STCYFIPS": "48459",
        "CITYCD": "484590608",
        "RAILROAD": "UP",
        "RRDIV": "MID AMERICA",
        "RRSUBDIV": "PINE BLUFF SUB",
        "HIGHWAY": "FM 2088",
        "STREET": "FM 2088",
        "TTSTN": "683252",
        "MILEPOST": "0504.550",
        "TYPEXING": "Public",
        "POSXING": "At Grade",
        "PRVCAT": "14",
        "INIT": "1",
        "LATITUDE": 32.8086237,
        "LONGITUD": -94.9595822,
        "LLSOURCE": "1",
        "WHISTBAN": "0",
        "RRCONT": "4025443721",
        "POLCONT": "8008488715",
        "INV_LINK": "https://safetydata.fra.dot.gov/OfficeofSafety/PublicSite/Crossing/Crossing.aspx?phasetype=C&rpttype=I&txtcrossingnum=789797M",
        "ACC_LINK": "https://safetydata.fra.dot.gov/OfficeofSafety/PublicSite/Crossing/Crossing.aspx?phasetype=C&rpttype=A&txtcrossingnum=789797M",
        "TTSTNNAM": "",
        "XPURPOSE": "1",
        "OPERATINGR": "UP",
        "OPERATIN_1": "Primary",
        "DAYTHRU": 7,
        "NGHTTHRU": 6,
        "MAINTRK": 1,
        "SIDINGTRK": 0,
        "YARDTRK": 0,
        "TRANSITTRK": 0,
        "INDUSTRYTR": 0,
        "OTHRTRK": 0,
        "WDCODE": "All other Gates",
        "REVISIONDA": "1975/01/01 00:00:00",
        "LASTUPDATE": "8/28/2025",
        "AADT": "1851",
        "AADTYEAR": "2019",
        "STATENAME": "TEXAS",
        "STATEAB": "TX",
        "COUNTYNAME": "UPSHUR",
        "CITYNAME": "BETTIE",
        "LATDD": 32.8086237,
        "LONGDD": -94.9595822,
        "gridlyProductionCertified": true,
        "gridlyClassification": "PUBLIC_ROADWAY",
        "gridlyDisplayName": "FM 2088",
        "gridlyId": "FRA-789797M"
      }
    },
    {
      "type": "Feature",
      "id": 208327,
      "geometry": {
        "type": "Point",
        "coordinates": [
          -94.9601942002302,
          32.8061712997934
        ]
      },
      "properties": {
        "OBJECTID": 208327,
        "CROSSING": "789798U",
        "EFFDATE": 1756339200000,
        "REASON": "14",
        "StateCode": "48",
        "CountyCode": "48459",
        "STCYFIPS": "48459",
        "CITYCD": "484590608",
        "RAILROAD": "UP",
        "RRDIV": "MID AMERICA",
        "RRSUBDIV": "PINE BLUFF SUB",
        "HIGHWAY": "PRIVATE",
        "STREET": "PRIVATE",
        "TTSTN": "683252",
        "MILEPOST": "0504.720",
        "TYPEXING": "Private",
        "POSXING": "At Grade",
        "PRVCAT": "14",
        "INIT": "1",
        "LATITUDE": 32.8061713,
        "LONGITUD": -94.9601942,
        "LLSOURCE": "1",
        "WHISTBAN": "0",
        "RRCONT": "4025443721",
        "POLCONT": "8008488715",
        "INV_LINK": "https://safetydata.fra.dot.gov/OfficeofSafety/PublicSite/Crossing/Crossing.aspx?phasetype=C&rpttype=I&txtcrossingnum=789798U",
        "ACC_LINK": "https://safetydata.fra.dot.gov/OfficeofSafety/PublicSite/Crossing/Crossing.aspx?phasetype=C&rpttype=A&txtcrossingnum=789798U",
        "TTSTNNAM": "",
        "XPURPOSE": "1",
        "OPERATINGR": "UP",
        "OPERATIN_1": "Primary",
        "DAYTHRU": 7,
        "NGHTTHRU": 6,
        "MAINTRK": 1,
        "SIDINGTRK": 0,
        "YARDTRK": 0,
        "TRANSITTRK": 0,
        "INDUSTRYTR": 0,
        "OTHRTRK": 0,
        "WDCODE": "",
        "REVISIONDA": "1975/01/01 00:00:00",
        "LASTUPDATE": "8/28/2025",
        "AADT": "1",
        "AADTYEAR": "1970",
        "STATENAME": "TEXAS",
        "STATEAB": "TX",
        "COUNTYNAME": "UPSHUR",
        "CITYNAME": "BETTIE",
        "LATDD": 32.8061713,
        "LONGDD": -94.9601942,
        "gridlyProductionCertified": true,
        "gridlyClassification": "PUBLIC_ROADWAY",
        "gridlyDisplayName": "PRIVATE",
        "gridlyId": "FRA-789798U"
      }
    },
    {
      "type": "Feature",
      "id": 208337,
      "geometry": {
        "type": "Point",
        "coordinates": [
          -95.0363864998856,
          32.6486299996662
        ]
      },
      "properties": {
        "OBJECTID": 208337,
        "CROSSING": "789452S",
        "EFFDATE": 1756339200000,
        "REASON": "14",
        "StateCode": "48",
        "CountyCode": "48459",
        "STCYFIPS": "48459",
        "CITYCD": "484592650",
        "RAILROAD": "UP",
        "RRDIV": "MID AMERICA",
        "RRSUBDIV": "PINE BLUFF SUB",
        "HIGHWAY": "CO 0131",
        "STREET": "LEMON ROAD",
        "TTSTN": "665298",
        "MILEPOST": "0518.510",
        "TYPEXING": "Public",
        "POSXING": "At Grade",
        "PRVCAT": "14",
        "INIT": "1",
        "LATITUDE": 32.64863,
        "LONGITUD": -95.0363865,
        "LLSOURCE": "1",
        "WHISTBAN": "0",
        "RRCONT": "4025443721",
        "POLCONT": "8008488715",
        "INV_LINK": "https://safetydata.fra.dot.gov/OfficeofSafety/PublicSite/Crossing/Crossing.aspx?phasetype=C&rpttype=I&txtcrossingnum=789452S",
        "ACC_LINK": "https://safetydata.fra.dot.gov/OfficeofSafety/PublicSite/Crossing/Crossing.aspx?phasetype=C&rpttype=A&txtcrossingnum=789452S",
        "TTSTNNAM": "",
        "XPURPOSE": "1",
        "OPERATINGR": "UP",
        "OPERATIN_1": "Primary",
        "DAYTHRU": 7,
        "NGHTTHRU": 6,
        "MAINTRK": 1,
        "SIDINGTRK": 0,
        "YARDTRK": 0,
        "TRANSITTRK": 0,
        "INDUSTRYTR": 0,
        "OTHRTRK": 0,
        "WDCODE": "All other Gates",
        "REVISIONDA": "1975/01/01 00:00:00",
        "LASTUPDATE": "8/28/2025",
        "AADT": "290",
        "AADTYEAR": "2019",
        "STATENAME": "TEXAS",
        "STATEAB": "TX",
        "COUNTYNAME": "UPSHUR",
        "CITYNAME": "GILMER",
        "LATDD": 32.64863,
        "LONGDD": -95.0363865,
        "gridlyProductionCertified": true,
        "gridlyClassification": "PUBLIC_ROADWAY",
        "gridlyDisplayName": "LEMON ROAD",
        "gridlyId": "FRA-789452S"
      }
    },
    {
      "type": "Feature",
      "id": 208338,
      "geometry": {
        "type": "Point",
        "coordinates": [
          -94.9572437995622,
          32.7897265996767
        ]
      },
      "properties": {
        "OBJECTID": 208338,
        "CROSSING": "789796F",
        "EFFDATE": 1756339200000,
        "REASON": "14",
        "StateCode": "48",
        "CountyCode": "48459",
        "STCYFIPS": "48459",
        "CITYCD": "484592650",
        "RAILROAD": "UP",
        "RRDIV": "MID AMERICA",
        "RRSUBDIV": "PINE BLUFF SUB",
        "HIGHWAY": "CO 0218",
        "STREET": "BEAR ROAD",
        "TTSTN": "665260",
        "MILEPOST": "0505.900",
        "TYPEXING": "Public",
        "POSXING": "At Grade",
        "PRVCAT": "14",
        "INIT": "1",
        "LATITUDE": 32.7897266,
        "LONGITUD": -94.9572438,
        "LLSOURCE": "1",
        "WHISTBAN": "0",
        "RRCONT": "4025443721",
        "POLCONT": "8008488715",
        "INV_LINK": "https://safetydata.fra.dot.gov/OfficeofSafety/PublicSite/Crossing/Crossing.aspx?phasetype=C&rpttype=I&txtcrossingnum=789796F",
        "ACC_LINK": "https://safetydata.fra.dot.gov/OfficeofSafety/PublicSite/Crossing/Crossing.aspx?phasetype=C&rpttype=A&txtcrossingnum=789796F",
        "TTSTNNAM": "",
        "XPURPOSE": "1",
        "OPERATINGR": "UP",
        "OPERATIN_1": "Primary",
        "DAYTHRU": 7,
        "NGHTTHRU": 6,
        "MAINTRK": 1,
        "SIDINGTRK": 0,
        "YARDTRK": 0,
        "TRANSITTRK": 0,
        "INDUSTRYTR": 0,
        "OTHRTRK": 0,
        "WDCODE": "All other Gates",
        "REVISIONDA": "1975/01/01 00:00:00",
        "LASTUPDATE": "8/28/2025",
        "AADT": "234",
        "AADTYEAR": "2019",
        "STATENAME": "TEXAS",
        "STATEAB": "TX",
        "COUNTYNAME": "UPSHUR",
        "CITYNAME": "GILMER",
        "LATDD": 32.7897266,
        "LONGDD": -94.9572438,
        "gridlyProductionCertified": true,
        "gridlyClassification": "PUBLIC_ROADWAY",
        "gridlyDisplayName": "BEAR ROAD",
        "gridlyId": "FRA-789796F"
      }
    },
    {
      "type": "Feature",
      "id": 208339,
      "geometry": {
        "type": "Point",
        "coordinates": [
          -94.9493270996769,
          32.7587934999736
        ]
      },
      "properties": {
        "OBJECTID": 208339,
        "CROSSING": "920073A",
        "EFFDATE": 1756339200000,
        "REASON": "14",
        "StateCode": "48",
        "CountyCode": "48459",
        "STCYFIPS": "48459",
        "CITYCD": "484592650",
        "RAILROAD": "UP",
        "RRDIV": "MID AMERICA",
        "RRSUBDIV": "PINE BLUFF SUB",
        "HIGHWAY": "PRIVATE",
        "STREET": "PRIVATE",
        "TTSTN": "665260",
        "MILEPOST": "0508.100",
        "TYPEXING": "Private",
        "POSXING": "At Grade",
        "PRVCAT": "14",
        "INIT": "1",
        "LATITUDE": 32.7587935,
        "LONGITUD": -94.9493271,
        "LLSOURCE": "1",
        "WHISTBAN": "0",
        "RRCONT": "4025443721",
        "POLCONT": "8008488715",
        "INV_LINK": "https://safetydata.fra.dot.gov/OfficeofSafety/PublicSite/Crossing/Crossing.aspx?phasetype=C&rpttype=I&txtcrossingnum=920073A",
        "ACC_LINK": "https://safetydata.fra.dot.gov/OfficeofSafety/PublicSite/Crossing/Crossing.aspx?phasetype=C&rpttype=A&txtcrossingnum=920073A",
        "TTSTNNAM": "",
        "XPURPOSE": "1",
        "OPERATINGR": "UP",
        "OPERATIN_1": "Primary",
        "DAYTHRU": 7,
        "NGHTTHRU": 6,
        "MAINTRK": 1,
        "SIDINGTRK": 0,
        "YARDTRK": 0,
        "TRANSITTRK": 0,
        "INDUSTRYTR": 0,
        "OTHRTRK": 0,
        "WDCODE": "",
        "REVISIONDA": "1975/01/01 00:00:00",
        "LASTUPDATE": "8/28/2025",
        "AADT": "1",
        "AADTYEAR": "",
        "STATENAME": "TEXAS",
        "STATEAB": "TX",
        "COUNTYNAME": "UPSHUR",
        "CITYNAME": "GILMER",
        "LATDD": 32.7587935,
        "LONGDD": -94.9493271,
        "gridlyProductionCertified": true,
        "gridlyClassification": "PUBLIC_ROADWAY",
        "gridlyDisplayName": "PRIVATE",
        "gridlyId": "FRA-920073A"
      }
    },
    {
      "type": "Feature",
      "id": 208351,
      "geometry": {
        "type": "Point",
        "coordinates": [
          -95.1047120001713,
          32.5832910003297
        ]
      },
      "properties": {
        "OBJECTID": 208351,
        "CROSSING": "789454F",
        "EFFDATE": 1756339200000,
        "REASON": "14",
        "StateCode": "48",
        "CountyCode": "48459",
        "STCYFIPS": "48459",
        "CITYCD": "484590630",
        "RAILROAD": "UP",
        "RRDIV": "MID AMERICA",
        "RRSUBDIV": "PINE BLUFF SUB",
        "HIGHWAY": "US 0080",
        "STREET": "US 80",
        "TTSTN": "665298",
        "MILEPOST": "0524.880",
        "TYPEXING": "Public",
        "POSXING": "RR Over",
        "PRVCAT": "14",
        "INIT": "1",
        "LATITUDE": 32.583291,
        "LONGITUD": -95.104712,
        "LLSOURCE": "1",
        "WHISTBAN": "0",
        "RRCONT": "4025443721",
        "POLCONT": "8008488715",
        "INV_LINK": "https://safetydata.fra.dot.gov/OfficeofSafety/PublicSite/Crossing/Crossing.aspx?phasetype=C&rpttype=I&txtcrossingnum=789454F",
        "ACC_LINK": "https://safetydata.fra.dot.gov/OfficeofSafety/PublicSite/Crossing/Crossing.aspx?phasetype=C&rpttype=A&txtcrossingnum=789454F",
        "TTSTNNAM": "",
        "XPURPOSE": "1",
        "OPERATINGR": "UP",
        "OPERATIN_1": "Primary",
        "DAYTHRU": 6,
        "NGHTTHRU": 5,
        "MAINTRK": 1,
        "SIDINGTRK": 0,
        "YARDTRK": 0,
        "TRANSITTRK": 0,
        "INDUSTRYTR": 0,
        "OTHRTRK": 0,
        "WDCODE": "",
        "REVISIONDA": "1975/01/01 00:00:00",
        "LASTUPDATE": "8/28/2025",
        "AADT": "8500",
        "AADTYEAR": "2011",
        "STATENAME": "TEXAS",
        "STATEAB": "TX",
        "COUNTYNAME": "UPSHUR",
        "CITYNAME": "BIG SANDY",
        "LATDD": 32.583291,
        "LONGDD": -95.104712,
        "gridlyProductionCertified": true,
        "gridlyClassification": "PUBLIC_ROADWAY",
        "gridlyDisplayName": "US 80",
        "gridlyId": "FRA-789454F"
      }
    },
    {
      "type": "Feature",
      "id": 208354,
      "geometry": {
        "type": "Point",
        "coordinates": [
          -94.9710809002265,
          32.8601208003523
        ]
      },
      "properties": {
        "OBJECTID": 208354,
        "CROSSING": "789799B",
        "EFFDATE": 1756339200000,
        "REASON": "14",
        "StateCode": "48",
        "CountyCode": "48459",
        "STCYFIPS": "48459",
        "CITYCD": "484590608",
        "RAILROAD": "UP",
        "RRDIV": "MID AMERICA",
        "RRSUBDIV": "PINE BLUFF SUB",
        "HIGHWAY": "CO 0212",
        "STREET": "MULE DEER ROAD",
        "TTSTN": "683252",
        "MILEPOST": "0500.860",
        "TYPEXING": "Public",
        "POSXING": "At Grade",
        "PRVCAT": "14",
        "INIT": "1",
        "LATITUDE": 32.8601208,
        "LONGITUD": -94.9710809,
        "LLSOURCE": "1",
        "WHISTBAN": "0",
        "RRCONT": "4025443721",
        "POLCONT": "8008488715",
        "INV_LINK": "https://safetydata.fra.dot.gov/OfficeofSafety/PublicSite/Crossing/Crossing.aspx?phasetype=C&rpttype=I&txtcrossingnum=789799B",
        "ACC_LINK": "https://safetydata.fra.dot.gov/OfficeofSafety/PublicSite/Crossing/Crossing.aspx?phasetype=C&rpttype=A&txtcrossingnum=789799B",
        "TTSTNNAM": "",
        "XPURPOSE": "1",
        "OPERATINGR": "UP",
        "OPERATIN_1": "Primary",
        "DAYTHRU": 7,
        "NGHTTHRU": 6,
        "MAINTRK": 1,
        "SIDINGTRK": 1,
        "YARDTRK": 0,
        "TRANSITTRK": 0,
        "INDUSTRYTR": 0,
        "OTHRTRK": 1,
        "WDCODE": "All other Gates",
        "REVISIONDA": "1975/01/01 00:00:00",
        "LASTUPDATE": "8/28/2025",
        "AADT": "98",
        "AADTYEAR": "2019",
        "STATENAME": "TEXAS",
        "STATEAB": "TX",
        "COUNTYNAME": "UPSHUR",
        "CITYNAME": "BETTIE",
        "LATDD": 32.8601208,
        "LONGDD": -94.9710809,
        "gridlyProductionCertified": true,
        "gridlyClassification": "PUBLIC_ROADWAY",
        "gridlyDisplayName": "MULE DEER ROAD",
        "gridlyId": "FRA-789799B"
      }
    },
    {
      "type": "Feature",
      "id": 208355,
      "geometry": {
        "type": "Point",
        "coordinates": [
          -94.9676370001756,
          32.8978079997317
        ]
      },
      "properties": {
        "OBJECTID": 208355,
        "CROSSING": "789801A",
        "EFFDATE": 1756339200000,
        "REASON": "14",
        "StateCode": "48",
        "CountyCode": "48459",
        "STCYFIPS": "48459",
        "CITYCD": "484590608",
        "RAILROAD": "UP",
        "RRDIV": "MID AMERICA",
        "RRSUBDIV": "PINE BLUFF SUB",
        "HIGHWAY": "CO 0263",
        "STREET": "MILFOIL ROAD",
        "TTSTN": "683252",
        "MILEPOST": "0498.240",
        "TYPEXING": "Public",
        "POSXING": "At Grade",
        "PRVCAT": "14",
        "INIT": "1",
        "LATITUDE": 32.897808,
        "LONGITUD": -94.967637,
        "LLSOURCE": "1",
        "WHISTBAN": "0",
        "RRCONT": "4025443721",
        "POLCONT": "8008488715",
        "INV_LINK": "https://safetydata.fra.dot.gov/OfficeofSafety/PublicSite/Crossing/Crossing.aspx?phasetype=C&rpttype=I&txtcrossingnum=789801A",
        "ACC_LINK": "https://safetydata.fra.dot.gov/OfficeofSafety/PublicSite/Crossing/Crossing.aspx?phasetype=C&rpttype=A&txtcrossingnum=789801A",
        "TTSTNNAM": "",
        "XPURPOSE": "1",
        "OPERATINGR": "UP",
        "OPERATIN_1": "Primary",
        "DAYTHRU": 7,
        "NGHTTHRU": 6,
        "MAINTRK": 1,
        "SIDINGTRK": 0,
        "YARDTRK": 0,
        "TRANSITTRK": 0,
        "INDUSTRYTR": 0,
        "OTHRTRK": 0,
        "WDCODE": "Stop signs",
        "REVISIONDA": "1975/01/01 00:00:00",
        "LASTUPDATE": "8/28/2025",
        "AADT": "57",
        "AADTYEAR": "2019",
        "STATENAME": "TEXAS",
        "STATEAB": "TX",
        "COUNTYNAME": "UPSHUR",
        "CITYNAME": "BETTIE",
        "LATDD": 32.897808,
        "LONGDD": -94.967637,
        "gridlyProductionCertified": true,
        "gridlyClassification": "PUBLIC_ROADWAY",
        "gridlyDisplayName": "MILFOIL ROAD",
        "gridlyId": "FRA-789801A"
      }
    },
    {
      "type": "Feature",
      "id": 208402,
      "geometry": {
        "type": "Point",
        "coordinates": [
          -94.9458890000478,
          32.7404269997278
        ]
      },
      "properties": {
        "OBJECTID": 208402,
        "CROSSING": "789409L",
        "EFFDATE": 1756339200000,
        "REASON": "14",
        "StateCode": "48",
        "CountyCode": "48459",
        "STCYFIPS": "48459",
        "CITYCD": "484592650",
        "RAILROAD": "UP",
        "RRDIV": "MID AMERICA",
        "RRSUBDIV": "PINE BLUFF SUB",
        "HIGHWAY": "TOWN",
        "STREET": "SMITH AVENUE",
        "TTSTN": "665260",
        "MILEPOST": "0509.420",
        "TYPEXING": "Public",
        "POSXING": "RR Over",
        "PRVCAT": "14",
        "INIT": "1",
        "LATITUDE": 32.740427,
        "LONGITUD": -94.945889,
        "LLSOURCE": "1",
        "WHISTBAN": "0",
        "RRCONT": "4025443721",
        "POLCONT": "8008488715",
        "INV_LINK": "https://safetydata.fra.dot.gov/OfficeofSafety/PublicSite/Crossing/Crossing.aspx?phasetype=C&rpttype=I&txtcrossingnum=789409L",
        "ACC_LINK": "https://safetydata.fra.dot.gov/OfficeofSafety/PublicSite/Crossing/Crossing.aspx?phasetype=C&rpttype=A&txtcrossingnum=789409L",
        "TTSTNNAM": "",
        "XPURPOSE": "1",
        "OPERATINGR": "UP",
        "OPERATIN_1": "Primary",
        "DAYTHRU": 6,
        "NGHTTHRU": 5,
        "MAINTRK": 1,
        "SIDINGTRK": 0,
        "YARDTRK": 0,
        "TRANSITTRK": 0,
        "INDUSTRYTR": 0,
        "OTHRTRK": 0,
        "WDCODE": "",
        "REVISIONDA": "1975/01/01 00:00:00",
        "LASTUPDATE": "8/28/2025",
        "AADT": "1",
        "AADTYEAR": "1970",
        "STATENAME": "TEXAS",
        "STATEAB": "TX",
        "COUNTYNAME": "UPSHUR",
        "CITYNAME": "GILMER",
        "LATDD": 32.740427,
        "LONGDD": -94.945889,
        "gridlyProductionCertified": true,
        "gridlyClassification": "PUBLIC_ROADWAY",
        "gridlyDisplayName": "SMITH AVENUE",
        "gridlyId": "FRA-789409L"
      }
    },
    {
      "type": "Feature",
      "id": 208403,
      "geometry": {
        "type": "Point",
        "coordinates": [
          -94.9556089995941,
          32.7080619998155
        ]
      },
      "properties": {
        "OBJECTID": 208403,
        "CROSSING": "789449J",
        "EFFDATE": 1756339200000,
        "REASON": "14",
        "StateCode": "48",
        "CountyCode": "48459",
        "STCYFIPS": "48459",
        "CITYCD": "484592650",
        "RAILROAD": "UP",
        "RRDIV": "MID AMERICA",
        "RRSUBDIV": "PINE BLUFF SUB",
        "HIGHWAY": "CO 0524",
        "STREET": "SOUTH MONTGOMERY STREET",
        "TTSTN": "665260",
        "MILEPOST": "0512.000",
        "TYPEXING": "Public",
        "POSXING": "RR Over",
        "PRVCAT": "14",
        "INIT": "1",
        "LATITUDE": 32.708062,
        "LONGITUD": -94.955609,
        "LLSOURCE": "1",
        "WHISTBAN": "0",
        "RRCONT": "4025443721",
        "POLCONT": "8008488715",
        "INV_LINK": "https://safetydata.fra.dot.gov/OfficeofSafety/PublicSite/Crossing/Crossing.aspx?phasetype=C&rpttype=I&txtcrossingnum=789449J",
        "ACC_LINK": "https://safetydata.fra.dot.gov/OfficeofSafety/PublicSite/Crossing/Crossing.aspx?phasetype=C&rpttype=A&txtcrossingnum=789449J",
        "TTSTNNAM": "",
        "XPURPOSE": "1",
        "OPERATINGR": "UP",
        "OPERATIN_1": "Primary",
        "DAYTHRU": 6,
        "NGHTTHRU": 5,
        "MAINTRK": 1,
        "SIDINGTRK": 0,
        "YARDTRK": 0,
        "TRANSITTRK": 0,
        "INDUSTRYTR": 0,
        "OTHRTRK": 0,
        "WDCODE": "",
        "REVISIONDA": "1975/01/01 00:00:00",
        "LASTUPDATE": "8/28/2025",
        "AADT": "1080",
        "AADTYEAR": "2013",
        "STATENAME": "TEXAS",
        "STATEAB": "TX",
        "COUNTYNAME": "UPSHUR",
        "CITYNAME": "GILMER",
        "LATDD": 32.708062,
        "LONGDD": -94.955609,
        "gridlyProductionCertified": true,
        "gridlyClassification": "PUBLIC_ROADWAY",
        "gridlyDisplayName": "SOUTH MONTGOMERY STREET",
        "gridlyId": "FRA-789449J"
      }
    },
    {
      "type": "Feature",
      "id": 210742,
      "geometry": {
        "type": "Point",
        "coordinates": [
          -95.1175818003275,
          32.5798853002415
        ]
      },
      "properties": {
        "OBJECTID": 210742,
        "CROSSING": "789457B",
        "EFFDATE": 1756425600000,
        "REASON": "14",
        "StateCode": "48",
        "CountyCode": "48459",
        "STCYFIPS": "48459",
        "CITYCD": "484590630",
        "RAILROAD": "UP",
        "RRDIV": "TEXOMA",
        "RRSUBDIV": "CORSICANA SUB",
        "HIGHWAY": "ST 0000",
        "STREET": "COTTON STREET",
        "TTSTN": "665298",
        "MILEPOST": "0525.700",
        "TYPEXING": "Public",
        "POSXING": "At Grade",
        "PRVCAT": "14",
        "INIT": "1",
        "LATITUDE": 32.5798853,
        "LONGITUD": -95.1175818,
        "LLSOURCE": "1",
        "WHISTBAN": "0",
        "RRCONT": "4025443721",
        "POLCONT": "8008488715",
        "INV_LINK": "https://safetydata.fra.dot.gov/OfficeofSafety/PublicSite/Crossing/Crossing.aspx?phasetype=C&rpttype=I&txtcrossingnum=789457B",
        "ACC_LINK": "https://safetydata.fra.dot.gov/OfficeofSafety/PublicSite/Crossing/Crossing.aspx?phasetype=C&rpttype=A&txtcrossingnum=789457B",
        "TTSTNNAM": "",
        "XPURPOSE": "1",
        "OPERATINGR": "UP",
        "OPERATIN_1": "Primary",
        "DAYTHRU": 4,
        "NGHTTHRU": 4,
        "MAINTRK": 1,
        "SIDINGTRK": 0,
        "YARDTRK": 0,
        "TRANSITTRK": 0,
        "INDUSTRYTR": 0,
        "OTHRTRK": 1,
        "WDCODE": "All other Gates",
        "REVISIONDA": "1975/01/01 00:00:00",
        "LASTUPDATE": "8/29/2025",
        "AADT": "145",
        "AADTYEAR": "2019",
        "STATENAME": "TEXAS",
        "STATEAB": "TX",
        "COUNTYNAME": "UPSHUR",
        "CITYNAME": "BIG SANDY",
        "LATDD": 32.5798853,
        "LONGDD": -95.1175818,
        "gridlyProductionCertified": true,
        "gridlyClassification": "PUBLIC_ROADWAY",
        "gridlyDisplayName": "COTTON STREET",
        "gridlyId": "FRA-789457B"
      }
    },
    {
      "type": "Feature",
      "id": 210743,
      "geometry": {
        "type": "Point",
        "coordinates": [
          -95.137375299959,
          32.565072800139
        ]
      },
      "properties": {
        "OBJECTID": 210743,
        "CROSSING": "789461R",
        "EFFDATE": 1756425600000,
        "REASON": "14",
        "StateCode": "48",
        "CountyCode": "48459",
        "STCYFIPS": "48459",
        "CITYCD": "484590630",
        "RAILROAD": "UP",
        "RRDIV": "TEXOMA",
        "RRSUBDIV": "CORSICANA SUB",
        "HIGHWAY": "CO 1356",
        "STREET": "RIVER ROAD",
        "TTSTN": "665298",
        "MILEPOST": "0527.320",
        "TYPEXING": "Public",
        "POSXING": "At Grade",
        "PRVCAT": "14",
        "INIT": "1",
        "LATITUDE": 32.5650728,
        "LONGITUD": -95.1373753,
        "LLSOURCE": "1",
        "WHISTBAN": "0",
        "RRCONT": "4025443721",
        "POLCONT": "8008488715",
        "INV_LINK": "https://safetydata.fra.dot.gov/OfficeofSafety/PublicSite/Crossing/Crossing.aspx?phasetype=C&rpttype=I&txtcrossingnum=789461R",
        "ACC_LINK": "https://safetydata.fra.dot.gov/OfficeofSafety/PublicSite/Crossing/Crossing.aspx?phasetype=C&rpttype=A&txtcrossingnum=789461R",
        "TTSTNNAM": "",
        "XPURPOSE": "1",
        "OPERATINGR": "UP",
        "OPERATIN_1": "Primary",
        "DAYTHRU": 4,
        "NGHTTHRU": 4,
        "MAINTRK": 1,
        "SIDINGTRK": 0,
        "YARDTRK": 0,
        "TRANSITTRK": 0,
        "INDUSTRYTR": 0,
        "OTHRTRK": 0,
        "WDCODE": "All other Gates",
        "REVISIONDA": "1975/01/01 00:00:00",
        "LASTUPDATE": "8/29/2025",
        "AADT": "172",
        "AADTYEAR": "2019",
        "STATENAME": "TEXAS",
        "STATEAB": "TX",
        "COUNTYNAME": "UPSHUR",
        "CITYNAME": "BIG SANDY",
        "LATDD": 32.5650728,
        "LONGDD": -95.1373753,
        "gridlyProductionCertified": true,
        "gridlyClassification": "PUBLIC_ROADWAY",
        "gridlyDisplayName": "RIVER ROAD",
        "gridlyId": "FRA-789461R"
      }
    },
    {
      "type": "Feature",
      "id": 210752,
      "geometry": {
        "type": "Point",
        "coordinates": [
          -95.1067296001297,
          32.582139199844
        ]
      },
      "properties": {
        "OBJECTID": 210752,
        "CROSSING": "789455M",
        "EFFDATE": 1756425600000,
        "REASON": "14",
        "StateCode": "48",
        "CountyCode": "48459",
        "STCYFIPS": "48459",
        "CITYCD": "484590630",
        "RAILROAD": "UP",
        "RRDIV": "TEXOMA",
        "RRSUBDIV": "PINE BLUFF SUB",
        "HIGHWAY": "ST 0000",
        "STREET": "PEARL STREET",
        "TTSTN": "665298",
        "MILEPOST": "0525.030",
        "TYPEXING": "Public",
        "POSXING": "At Grade",
        "PRVCAT": "14",
        "INIT": "1",
        "LATITUDE": 32.5821392,
        "LONGITUD": -95.1067296,
        "LLSOURCE": "1",
        "WHISTBAN": "0",
        "RRCONT": "4025443721",
        "POLCONT": "8008488715",
        "INV_LINK": "https://safetydata.fra.dot.gov/OfficeofSafety/PublicSite/Crossing/Crossing.aspx?phasetype=C&rpttype=I&txtcrossingnum=789455M",
        "ACC_LINK": "https://safetydata.fra.dot.gov/OfficeofSafety/PublicSite/Crossing/Crossing.aspx?phasetype=C&rpttype=A&txtcrossingnum=789455M",
        "TTSTNNAM": "",
        "XPURPOSE": "1",
        "OPERATINGR": "UP",
        "OPERATIN_1": "Primary",
        "DAYTHRU": 9,
        "NGHTTHRU": 9,
        "MAINTRK": 2,
        "SIDINGTRK": 0,
        "YARDTRK": 0,
        "TRANSITTRK": 0,
        "INDUSTRYTR": 0,
        "OTHRTRK": 0,
        "WDCODE": "All other Gates",
        "REVISIONDA": "1975/01/01 00:00:00",
        "LASTUPDATE": "8/29/2025",
        "AADT": "23",
        "AADTYEAR": "2019",
        "STATENAME": "TEXAS",
        "STATEAB": "TX",
        "COUNTYNAME": "UPSHUR",
        "CITYNAME": "BIG SANDY",
        "LATDD": 32.5821392,
        "LONGDD": -95.1067296,
        "gridlyProductionCertified": true,
        "gridlyClassification": "PUBLIC_ROADWAY",
        "gridlyDisplayName": "PEARL STREET",
        "gridlyId": "FRA-789455M"
      }
    }
  ]
}
