{
  "type": "FeatureCollection",
  "features": [
    {
      "type": "Feature",
      "id": 202155,
      "geometry": {
        "type": "Point",
        "coordinates": [
          -97.8684961003999,
          27.5145712001169
        ]
      },
      "properties": {
        "OBJECTID": 202155,
        "CROSSING": "427647F",
        "EFFDATE": 1772150400000,
        "REASON": "14",
        "StateCode": "48",
        "CountyCode": "48273",
        "STCYFIPS": "48273",
        "CITYCD": "482733700",
        "RAILROAD": "UP",
        "RRDIV": "GULF COAST",
        "RRSUBDIV": "BROWNSVILLE SUB",
        "HIGHWAY": "LS0000",
        "STREET": "WEST KENEDY AVENUE",
        "TTSTN": "689430",
        "MILEPOST": "0118.580",
        "TYPEXING": "Public",
        "POSXING": "At Grade",
        "PRVCAT": "14",
        "INIT": "2",
        "LATITUDE": 27.5145712,
        "LONGITUD": -97.8684961,
        "LLSOURCE": "1",
        "WHISTBAN": "0",
        "RRCONT": "4025443721",
        "POLCONT": "8008488715",
        "INV_LINK": "https://safetydata.fra.dot.gov/OfficeofSafety/PublicSite/Crossing/Crossing.aspx?phasetype=C&rpttype=I&txtcrossingnum=427647F",
        "ACC_LINK": "https://safetydata.fra.dot.gov/OfficeofSafety/PublicSite/Crossing/Crossing.aspx?phasetype=C&rpttype=A&txtcrossingnum=427647F",
        "TTSTNNAM": "",
        "XPURPOSE": "1",
        "OPERATINGR": "UP",
        "OPERATIN_1": "Primary",
        "DAYTHRU": 3,
        "NGHTTHRU": 2,
        "MAINTRK": 1,
        "SIDINGTRK": 0,
        "YARDTRK": 0,
        "TRANSITTRK": 0,
        "INDUSTRYTR": 0,
        "OTHRTRK": 0,
        "WDCODE": "All other Gates",
        "REVISIONDA": "1975/01/01 00:00:00",
        "LASTUPDATE": "2/27/2026",
        "AADT": "563",
        "AADTYEAR": "2021",
        "STATENAME": "TEXAS",
        "STATEAB": "TX",
        "COUNTYNAME": "KLEBERG",
        "CITYNAME": "KINGSVILLE",
        "LATDD": 27.5145712,
        "LONGDD": -97.8684961,
        "gridlyProductionCertified": true,
        "gridlyClassification": "PUBLIC_ROADWAY",
        "gridlyDisplayName": "WEST KENEDY AVENUE",
        "gridlyId": "FRA-427647F"
      }
    },
    {
      "type": "Feature",
      "id": 202182,
      "geometry": {
        "type": "Point",
        "coordinates": [
          -97.8459487999936,
          27.546105400247
        ]
      },
      "properties": {
        "OBJECTID": 202182,
        "CROSSING": "427637A",
        "EFFDATE": 1772150400000,
        "REASON": "14",
        "StateCode": "48",
        "CountyCode": "48273",
        "STCYFIPS": "48273",
        "CITYCD": "482733700",
        "RAILROAD": "UP",
        "RRDIV": "GULF COAST",
        "RRSUBDIV": "BROWNSVILLE SUB",
        "HIGHWAY": "FM1355",
        "STREET": "FM 1355",
        "TTSTN": "689430",
        "MILEPOST": "0121.190",
        "TYPEXING": "Public",
        "POSXING": "At Grade",
        "PRVCAT": "14",
        "INIT": "2",
        "LATITUDE": 27.5461054,
        "LONGITUD": -97.8459488,
        "LLSOURCE": "1",
        "WHISTBAN": "0",
        "RRCONT": "4025443721",
        "POLCONT": "8008488715",
        "INV_LINK": "https://safetydata.fra.dot.gov/OfficeofSafety/PublicSite/Crossing/Crossing.aspx?phasetype=C&rpttype=I&txtcrossingnum=427637A",
        "ACC_LINK": "https://safetydata.fra.dot.gov/OfficeofSafety/PublicSite/Crossing/Crossing.aspx?phasetype=C&rpttype=A&txtcrossingnum=427637A",
        "TTSTNNAM": "",
        "XPURPOSE": "1",
        "OPERATINGR": "UP",
        "OPERATIN_1": "Primary",
        "DAYTHRU": 3,
        "NGHTTHRU": 2,
        "MAINTRK": 1,
        "SIDINGTRK": 0,
        "YARDTRK": 0,
        "TRANSITTRK": 0,
        "INDUSTRYTR": 0,
        "OTHRTRK": 0,
        "WDCODE": "All other Gates",
        "REVISIONDA": "1975/01/01 00:00:00",
        "LASTUPDATE": "2/27/2026",
        "AADT": "2095",
        "AADTYEAR": "2024",
        "STATENAME": "TEXAS",
        "STATEAB": "TX",
        "COUNTYNAME": "KLEBERG",
        "CITYNAME": "KINGSVILLE",
        "LATDD": 27.5461054,
        "LONGDD": -97.8459488,
        "gridlyProductionCertified": true,
        "gridlyClassification": "PUBLIC_ROADWAY",
        "gridlyDisplayName": "FM 1355",
        "gridlyId": "FRA-427637A"
      }
    },
    {
      "type": "Feature",
      "id": 202321,
      "geometry": {
        "type": "Point",
        "coordinates": [
          -97.8685196003278,
          27.5166252001757
        ]
      },
      "properties": {
        "OBJECTID": 202321,
        "CROSSING": "427645S",
        "EFFDATE": 1772150400000,
        "REASON": "14",
        "StateCode": "48",
        "CountyCode": "48273",
        "STCYFIPS": "48273",
        "CITYCD": "482733700",
        "RAILROAD": "UP",
        "RRDIV": "GULF COAST",
        "RRSUBDIV": "BROWNSVILLE SUB",
        "HIGHWAY": "LS0000",
        "STREET": "EAST KLEBERG AVENUE",
        "TTSTN": "689430",
        "MILEPOST": "0118.700",
        "TYPEXING": "Public",
        "POSXING": "At Grade",
        "PRVCAT": "14",
        "INIT": "2",
        "LATITUDE": 27.5166252,
        "LONGITUD": -97.8685196,
        "LLSOURCE": "1",
        "WHISTBAN": "0",
        "RRCONT": "4025443721",
        "POLCONT": "8008488715",
        "INV_LINK": "https://safetydata.fra.dot.gov/OfficeofSafety/PublicSite/Crossing/Crossing.aspx?phasetype=C&rpttype=I&txtcrossingnum=427645S",
        "ACC_LINK": "https://safetydata.fra.dot.gov/OfficeofSafety/PublicSite/Crossing/Crossing.aspx?phasetype=C&rpttype=A&txtcrossingnum=427645S",
        "TTSTNNAM": "",
        "XPURPOSE": "1",
        "OPERATINGR": "UP",
        "OPERATIN_1": "Primary",
        "DAYTHRU": 3,
        "NGHTTHRU": 2,
        "MAINTRK": 1,
        "SIDINGTRK": 0,
        "YARDTRK": 0,
        "TRANSITTRK": 0,
        "INDUSTRYTR": 0,
        "OTHRTRK": 0,
        "WDCODE": "All other Gates",
        "REVISIONDA": "1975/01/01 00:00:00",
        "LASTUPDATE": "2/27/2026",
        "AADT": "300",
        "AADTYEAR": "2019",
        "STATENAME": "TEXAS",
        "STATEAB": "TX",
        "COUNTYNAME": "KLEBERG",
        "CITYNAME": "KINGSVILLE",
        "LATDD": 27.5166252,
        "LONGDD": -97.8685196,
        "gridlyProductionCertified": true,
        "gridlyClassification": "PUBLIC_ROADWAY",
        "gridlyDisplayName": "EAST KLEBERG AVENUE",
        "gridlyId": "FRA-427645S"
      }
    },
    {
      "type": "Feature",
      "id": 202785,
      "geometry": {
        "type": "Point",
        "coordinates": [
          -97.8680455997765,
          27.4833754000021
        ]
      },
      "properties": {
        "OBJECTID": 202785,
        "CROSSING": "427651V",
        "EFFDATE": 1772409600000,
        "REASON": "14",
        "StateCode": "48",
        "CountyCode": "48273",
        "STCYFIPS": "48273",
        "CITYCD": "482733700",
        "RAILROAD": "UP",
        "RRDIV": "GULF COAST",
        "RRSUBDIV": "BROWNSVILLE SUB",
        "HIGHWAY": "LS0000",
        "STREET": "WEST TRANT ROAD",
        "TTSTN": "689430",
        "MILEPOST": "0116.370",
        "TYPEXING": "Public",
        "POSXING": "At Grade",
        "PRVCAT": "14",
        "INIT": "2",
        "LATITUDE": 27.4833754,
        "LONGITUD": -97.8680456,
        "LLSOURCE": "1",
        "WHISTBAN": "0",
        "RRCONT": "4025443721",
        "POLCONT": "8008488715",
        "INV_LINK": "https://safetydata.fra.dot.gov/OfficeofSafety/PublicSite/Crossing/Crossing.aspx?phasetype=C&rpttype=I&txtcrossingnum=427651V",
        "ACC_LINK": "https://safetydata.fra.dot.gov/OfficeofSafety/PublicSite/Crossing/Crossing.aspx?phasetype=C&rpttype=A&txtcrossingnum=427651V",
        "TTSTNNAM": "",
        "XPURPOSE": "1",
        "OPERATINGR": "UP",
        "OPERATIN_1": "Primary",
        "DAYTHRU": 3,
        "NGHTTHRU": 2,
        "MAINTRK": 1,
        "SIDINGTRK": 0,
        "YARDTRK": 0,
        "TRANSITTRK": 0,
        "INDUSTRYTR": 0,
        "OTHRTRK": 0,
        "WDCODE": "All other Gates",
        "REVISIONDA": "1975/01/01 00:00:00",
        "LASTUPDATE": "3/2/2026",
        "AADT": "287",
        "AADTYEAR": "2021",
        "STATENAME": "TEXAS",
        "STATEAB": "TX",
        "COUNTYNAME": "KLEBERG",
        "CITYNAME": "KINGSVILLE",
        "LATDD": 27.4833754,
        "LONGDD": -97.8680456,
        "gridlyProductionCertified": true,
        "gridlyClassification": "PUBLIC_ROADWAY",
        "gridlyDisplayName": "WEST TRANT ROAD",
        "gridlyId": "FRA-427651V"
      }
    },
    {
      "type": "Feature",
      "id": 202851,
      "geometry": {
        "type": "Point",
        "coordinates": [
          -97.8607348997886,
          27.4523861999636
        ]
      },
      "properties": {
        "OBJECTID": 202851,
        "CROSSING": "427653J",
        "EFFDATE": 1772409600000,
        "REASON": "14",
        "StateCode": "48",
        "CountyCode": "48273",
        "STCYFIPS": "48273",
        "CITYCD": "482733700",
        "RAILROAD": "UP",
        "RRDIV": "GULF COAST",
        "RRSUBDIV": "BROWNSVILLE SUB",
        "HIGHWAY": "FM 0772",
        "STREET": "FM 772",
        "TTSTN": "689430",
        "MILEPOST": "0114.100",
        "TYPEXING": "Public",
        "POSXING": "At Grade",
        "PRVCAT": "14",
        "INIT": "1",
        "LATITUDE": 27.4523862,
        "LONGITUD": -97.8607349,
        "LLSOURCE": "1",
        "WHISTBAN": "0",
        "RRCONT": "4025443721",
        "POLCONT": "8008488715",
        "INV_LINK": "https://safetydata.fra.dot.gov/OfficeofSafety/PublicSite/Crossing/Crossing.aspx?phasetype=C&rpttype=I&txtcrossingnum=427653J",
        "ACC_LINK": "https://safetydata.fra.dot.gov/OfficeofSafety/PublicSite/Crossing/Crossing.aspx?phasetype=C&rpttype=A&txtcrossingnum=427653J",
        "TTSTNNAM": "",
        "XPURPOSE": "1",
        "OPERATINGR": "UP",
        "OPERATIN_1": "Primary",
        "DAYTHRU": 3,
        "NGHTTHRU": 2,
        "MAINTRK": 1,
        "SIDINGTRK": 0,
        "YARDTRK": 0,
        "TRANSITTRK": 0,
        "INDUSTRYTR": 0,
        "OTHRTRK": 0,
        "WDCODE": "All other Gates",
        "REVISIONDA": "1975/01/01 00:00:00",
        "LASTUPDATE": "3/2/2026",
        "AADT": "1012",
        "AADTYEAR": "2024",
        "STATENAME": "TEXAS",
        "STATEAB": "TX",
        "COUNTYNAME": "KLEBERG",
        "CITYNAME": "KINGSVILLE",
        "LATDD": 27.4523862,
        "LONGDD": -97.8607349,
        "gridlyProductionCertified": true,
        "gridlyClassification": "PUBLIC_ROADWAY",
        "gridlyDisplayName": "FM 772",
        "gridlyId": "FRA-427653J"
      }
    },
    {
      "type": "Feature",
      "id": 202903,
      "geometry": {
        "type": "Point",
        "coordinates": [
          -97.8681597999036,
          27.4911144002752
        ]
      },
      "properties": {
        "OBJECTID": 202903,
        "CROSSING": "427650N",
        "EFFDATE": 1772409600000,
        "REASON": "14",
        "StateCode": "48",
        "CountyCode": "48273",
        "STCYFIPS": "48273",
        "CITYCD": "482733700",
        "RAILROAD": "UP",
        "RRDIV": "GULF COAST",
        "RRSUBDIV": "BROWNSVILLE SUB",
        "HIGHWAY": "FM1356",
        "STREET": "FM 1356 / west general cavazos boulevard",
        "TTSTN": "689430",
        "MILEPOST": "0116.980",
        "TYPEXING": "Public",
        "POSXING": "At Grade",
        "PRVCAT": "14",
        "INIT": "2",
        "LATITUDE": 27.4911144,
        "LONGITUD": -97.8681598,
        "LLSOURCE": "1",
        "WHISTBAN": "0",
        "RRCONT": "4025443721",
        "POLCONT": "8008488715",
        "INV_LINK": "https://safetydata.fra.dot.gov/OfficeofSafety/PublicSite/Crossing/Crossing.aspx?phasetype=C&rpttype=I&txtcrossingnum=427650N",
        "ACC_LINK": "https://safetydata.fra.dot.gov/OfficeofSafety/PublicSite/Crossing/Crossing.aspx?phasetype=C&rpttype=A&txtcrossingnum=427650N",
        "TTSTNNAM": "",
        "XPURPOSE": "1",
        "OPERATINGR": "UP",
        "OPERATIN_1": "Primary",
        "DAYTHRU": 3,
        "NGHTTHRU": 2,
        "MAINTRK": 1,
        "SIDINGTRK": 0,
        "YARDTRK": 0,
        "TRANSITTRK": 0,
        "INDUSTRYTR": 0,
        "OTHRTRK": 0,
        "WDCODE": "All other Gates",
        "REVISIONDA": "1975/01/01 00:00:00",
        "LASTUPDATE": "3/2/2026",
        "AADT": "4752",
        "AADTYEAR": "2024",
        "STATENAME": "TEXAS",
        "STATEAB": "TX",
        "COUNTYNAME": "KLEBERG",
        "CITYNAME": "KINGSVILLE",
        "LATDD": 27.4911144,
        "LONGDD": -97.8681598,
        "gridlyProductionCertified": true,
        "gridlyClassification": "PUBLIC_ROADWAY",
        "gridlyDisplayName": "FM 1356 / west general cavazos boulevard",
        "gridlyId": "FRA-427650N"
      }
    },
    {
      "type": "Feature",
      "id": 202980,
      "geometry": {
        "type": "Point",
        "coordinates": [
          -97.8659292004082,
          27.5286916000312
        ]
      },
      "properties": {
        "OBJECTID": 202980,
        "CROSSING": "427639N",
        "EFFDATE": 1772150400000,
        "REASON": "14",
        "StateCode": "48",
        "CountyCode": "48273",
        "STCYFIPS": "48273",
        "CITYCD": "482733700",
        "RAILROAD": "UP",
        "RRDIV": "GULF COAST",
        "RRSUBDIV": "BROWNSVILLE SUB",
        "HIGHWAY": "LS0000",
        "STREET": "WEST Avenue D",
        "TTSTN": "689430",
        "MILEPOST": "0119.480",
        "TYPEXING": "Public",
        "POSXING": "At Grade",
        "PRVCAT": "14",
        "INIT": "2",
        "LATITUDE": 27.5286916,
        "LONGITUD": -97.8659292,
        "LLSOURCE": "1",
        "WHISTBAN": "0",
        "RRCONT": "4025443721",
        "POLCONT": "8008488715",
        "INV_LINK": "https://safetydata.fra.dot.gov/OfficeofSafety/PublicSite/Crossing/Crossing.aspx?phasetype=C&rpttype=I&txtcrossingnum=427639N",
        "ACC_LINK": "https://safetydata.fra.dot.gov/OfficeofSafety/PublicSite/Crossing/Crossing.aspx?phasetype=C&rpttype=A&txtcrossingnum=427639N",
        "TTSTNNAM": "",
        "XPURPOSE": "1",
        "OPERATINGR": "UP",
        "OPERATIN_1": "Primary",
        "DAYTHRU": 3,
        "NGHTTHRU": 2,
        "MAINTRK": 1,
        "SIDINGTRK": 0,
        "YARDTRK": 0,
        "TRANSITTRK": 0,
        "INDUSTRYTR": 0,
        "OTHRTRK": 0,
        "WDCODE": "All other Gates",
        "REVISIONDA": "1975/01/01 00:00:00",
        "LASTUPDATE": "2/27/2026",
        "AADT": "1800",
        "AADTYEAR": "2019",
        "STATENAME": "TEXAS",
        "STATEAB": "TX",
        "COUNTYNAME": "KLEBERG",
        "CITYNAME": "KINGSVILLE",
        "LATDD": 27.5286916,
        "LONGDD": -97.8659292,
        "gridlyProductionCertified": true,
        "gridlyClassification": "PUBLIC_ROADWAY",
        "gridlyDisplayName": "WEST Avenue D",
        "gridlyId": "FRA-427639N"
      }
    },
    {
      "type": "Feature",
      "id": 203007,
      "geometry": {
        "type": "Point",
        "coordinates": [
          -97.8684802999324,
          27.515569799707
        ]
      },
      "properties": {
        "OBJECTID": 203007,
        "CROSSING": "427646Y",
        "EFFDATE": 1772236800000,
        "REASON": "14",
        "StateCode": "48",
        "CountyCode": "48273",
        "STCYFIPS": "48273",
        "CITYCD": "482733700",
        "RAILROAD": "UP",
        "RRDIV": "GULF COAST",
        "RRSUBDIV": "BROWNSVILLE SUB",
        "HIGHWAY": "SH0141",
        "STREET": "WEST KING AVENUE/TX 141",
        "TTSTN": "689430",
        "MILEPOST": "0118.640",
        "TYPEXING": "Public",
        "POSXING": "At Grade",
        "PRVCAT": "14",
        "INIT": "2",
        "LATITUDE": 27.5155698,
        "LONGITUD": -97.8684803,
        "LLSOURCE": "1",
        "WHISTBAN": "0",
        "RRCONT": "4025443721",
        "POLCONT": "8008488715",
        "INV_LINK": "https://safetydata.fra.dot.gov/OfficeofSafety/PublicSite/Crossing/Crossing.aspx?phasetype=C&rpttype=I&txtcrossingnum=427646Y",
        "ACC_LINK": "https://safetydata.fra.dot.gov/OfficeofSafety/PublicSite/Crossing/Crossing.aspx?phasetype=C&rpttype=A&txtcrossingnum=427646Y",
        "TTSTNNAM": "",
        "XPURPOSE": "1",
        "OPERATINGR": "UP",
        "OPERATIN_1": "Primary",
        "DAYTHRU": 3,
        "NGHTTHRU": 2,
        "MAINTRK": 1,
        "SIDINGTRK": 0,
        "YARDTRK": 0,
        "TRANSITTRK": 0,
        "INDUSTRYTR": 0,
        "OTHRTRK": 0,
        "WDCODE": "All other Gates",
        "REVISIONDA": "1975/01/01 00:00:00",
        "LASTUPDATE": "2/28/2026",
        "AADT": "17666",
        "AADTYEAR": "2024",
        "STATENAME": "TEXAS",
        "STATEAB": "TX",
        "COUNTYNAME": "KLEBERG",
        "CITYNAME": "KINGSVILLE",
        "LATDD": 27.5155698,
        "LONGDD": -97.8684803,
        "gridlyProductionCertified": true,
        "gridlyClassification": "PUBLIC_ROADWAY",
        "gridlyDisplayName": "WEST KING AVENUE/TX 141",
        "gridlyId": "FRA-427646Y"
      }
    },
    {
      "type": "Feature",
      "id": 203017,
      "geometry": {
        "type": "Point",
        "coordinates": [
          -97.8682198998911,
          27.4988843000915
        ]
      },
      "properties": {
        "OBJECTID": 203017,
        "CROSSING": "427649U",
        "EFFDATE": 1772409600000,
        "REASON": "14",
        "StateCode": "48",
        "CountyCode": "48273",
        "STCYFIPS": "48273",
        "CITYCD": "482733700",
        "RAILROAD": "UP",
        "RRDIV": "GULF COAST",
        "RRSUBDIV": "BROWNSVILLE SUB",
        "HIGHWAY": "ST 0000",
        "STREET": "WEST AILSIE AVENUE",
        "TTSTN": "689430",
        "MILEPOST": "0117.590",
        "TYPEXING": "Public",
        "POSXING": "At Grade",
        "PRVCAT": "14",
        "INIT": "2",
        "LATITUDE": 27.4988843,
        "LONGITUD": -97.8682199,
        "LLSOURCE": "1",
        "WHISTBAN": "0",
        "RRCONT": "4025443721",
        "POLCONT": "8008488715",
        "INV_LINK": "https://safetydata.fra.dot.gov/OfficeofSafety/PublicSite/Crossing/Crossing.aspx?phasetype=C&rpttype=I&txtcrossingnum=427649U",
        "ACC_LINK": "https://safetydata.fra.dot.gov/OfficeofSafety/PublicSite/Crossing/Crossing.aspx?phasetype=C&rpttype=A&txtcrossingnum=427649U",
        "TTSTNNAM": "",
        "XPURPOSE": "1",
        "OPERATINGR": "UP",
        "OPERATIN_1": "Primary",
        "DAYTHRU": 3,
        "NGHTTHRU": 2,
        "MAINTRK": 1,
        "SIDINGTRK": 1,
        "YARDTRK": 0,
        "TRANSITTRK": 0,
        "INDUSTRYTR": 0,
        "OTHRTRK": 1,
        "WDCODE": "All other Gates",
        "REVISIONDA": "1975/01/01 00:00:00",
        "LASTUPDATE": "3/2/2026",
        "AADT": "2497",
        "AADTYEAR": "2021",
        "STATENAME": "TEXAS",
        "STATEAB": "TX",
        "COUNTYNAME": "KLEBERG",
        "CITYNAME": "KINGSVILLE",
        "LATDD": 27.4988843,
        "LONGDD": -97.8682199,
        "gridlyProductionCertified": true,
        "gridlyClassification": "PUBLIC_ROADWAY",
        "gridlyDisplayName": "WEST AILSIE AVENUE",
        "gridlyId": "FRA-427649U"
      }
    },
    {
      "type": "Feature",
      "id": 203018,
      "geometry": {
        "type": "Point",
        "coordinates": [
          -97.842556500071,
          27.3905189001991
        ]
      },
      "properties": {
        "OBJECTID": 203018,
        "CROSSING": "427661B",
        "EFFDATE": 1772409600000,
        "REASON": "14",
        "StateCode": "48",
        "CountyCode": "48273",
        "STCYFIPS": "48273",
        "CITYCD": "482733700",
        "RAILROAD": "UP",
        "RRDIV": "GULF COAST",
        "RRSUBDIV": "BROWNSVILLE SUB",
        "HIGHWAY": "FM0772",
        "STREET": "FM 772",
        "TTSTN": "689450",
        "MILEPOST": "0109.720",
        "TYPEXING": "Public",
        "POSXING": "At Grade",
        "PRVCAT": "14",
        "INIT": "1",
        "LATITUDE": 27.3905189,
        "LONGITUD": -97.8425565,
        "LLSOURCE": "1",
        "WHISTBAN": "0",
        "RRCONT": "4025443721",
        "POLCONT": "8008488715",
        "INV_LINK": "https://safetydata.fra.dot.gov/OfficeofSafety/PublicSite/Crossing/Crossing.aspx?phasetype=C&rpttype=I&txtcrossingnum=427661B",
        "ACC_LINK": "https://safetydata.fra.dot.gov/OfficeofSafety/PublicSite/Crossing/Crossing.aspx?phasetype=C&rpttype=A&txtcrossingnum=427661B",
        "TTSTNNAM": "",
        "XPURPOSE": "1",
        "OPERATINGR": "UP",
        "OPERATIN_1": "Primary",
        "DAYTHRU": 3,
        "NGHTTHRU": 2,
        "MAINTRK": 1,
        "SIDINGTRK": 0,
        "YARDTRK": 0,
        "TRANSITTRK": 0,
        "INDUSTRYTR": 0,
        "OTHRTRK": 0,
        "WDCODE": "All other Gates",
        "REVISIONDA": "1975/01/01 00:00:00",
        "LASTUPDATE": "3/2/2026",
        "AADT": "330",
        "AADTYEAR": "2024",
        "STATENAME": "TEXAS",
        "STATEAB": "TX",
        "COUNTYNAME": "KLEBERG",
        "CITYNAME": "KINGSVILLE",
        "LATDD": 27.3905189,
        "LONGDD": -97.8425565,
        "gridlyProductionCertified": true,
        "gridlyClassification": "PUBLIC_ROADWAY",
        "gridlyDisplayName": "FM 772",
        "gridlyId": "FRA-427661B"
      }
    },
    {
      "type": "Feature",
      "id": 203104,
      "geometry": {
        "type": "Point",
        "coordinates": [
          -97.8516543004003,
          27.4215064996718
        ]
      },
      "properties": {
        "OBJECTID": 203104,
        "CROSSING": "427658T",
        "EFFDATE": 1772409600000,
        "REASON": "14",
        "StateCode": "48",
        "CountyCode": "48273",
        "STCYFIPS": "48273",
        "CITYCD": "482735726",
        "RAILROAD": "UP",
        "RRDIV": "GULF COAST",
        "RRSUBDIV": "BROWNSVILLE SUB",
        "HIGHWAY": "CR2160",
        "STREET": "COUNTY ROAD 2160",
        "TTSTN": "689480",
        "MILEPOST": "0111.960",
        "TYPEXING": "Public",
        "POSXING": "At Grade",
        "PRVCAT": "14",
        "INIT": "2",
        "LATITUDE": 27.4215065,
        "LONGITUD": -97.8516543,
        "LLSOURCE": "1",
        "WHISTBAN": "0",
        "RRCONT": "4025443721",
        "POLCONT": "8008488715",
        "INV_LINK": "https://safetydata.fra.dot.gov/OfficeofSafety/PublicSite/Crossing/Crossing.aspx?phasetype=C&rpttype=I&txtcrossingnum=427658T",
        "ACC_LINK": "https://safetydata.fra.dot.gov/OfficeofSafety/PublicSite/Crossing/Crossing.aspx?phasetype=C&rpttype=A&txtcrossingnum=427658T",
        "TTSTNNAM": "",
        "XPURPOSE": "1",
        "OPERATINGR": "UP",
        "OPERATIN_1": "Primary",
        "DAYTHRU": 3,
        "NGHTTHRU": 2,
        "MAINTRK": 1,
        "SIDINGTRK": 0,
        "YARDTRK": 0,
        "TRANSITTRK": 0,
        "INDUSTRYTR": 0,
        "OTHRTRK": 0,
        "WDCODE": "All other Gates",
        "REVISIONDA": "1975/01/01 00:00:00",
        "LASTUPDATE": "3/2/2026",
        "AADT": "1236",
        "AADTYEAR": "2019",
        "STATENAME": "TEXAS",
        "STATEAB": "TX",
        "COUNTYNAME": "KLEBERG",
        "CITYNAME": "RICARDO",
        "LATDD": 27.4215065,
        "LONGDD": -97.8516543,
        "gridlyProductionCertified": true,
        "gridlyClassification": "PUBLIC_ROADWAY",
        "gridlyDisplayName": "COUNTY ROAD 2160",
        "gridlyId": "FRA-427658T"
      }
    },
    {
      "type": "Feature",
      "id": 203632,
      "geometry": {
        "type": "Point",
        "coordinates": [
          -97.853933300225,
          27.4292555001713
        ]
      },
      "properties": {
        "OBJECTID": 203632,
        "CROSSING": "427656E",
        "EFFDATE": 1772409600000,
        "REASON": "14",
        "StateCode": "48",
        "CountyCode": "48273",
        "STCYFIPS": "48273",
        "CITYCD": "482735726",
        "RAILROAD": "UP",
        "RRDIV": "GULF COAST",
        "RRSUBDIV": "BROWNSVILLE SUB",
        "HIGHWAY": "CO 3056",
        "STREET": "West CR 2150",
        "TTSTN": "689430",
        "MILEPOST": "0112.510",
        "TYPEXING": "Public",
        "POSXING": "At Grade",
        "PRVCAT": "14",
        "INIT": "2",
        "LATITUDE": 27.4292555,
        "LONGITUD": -97.8539333,
        "LLSOURCE": "1",
        "WHISTBAN": "0",
        "RRCONT": "4025443721",
        "POLCONT": "8008488715",
        "INV_LINK": "https://safetydata.fra.dot.gov/OfficeofSafety/PublicSite/Crossing/Crossing.aspx?phasetype=C&rpttype=I&txtcrossingnum=427656E",
        "ACC_LINK": "https://safetydata.fra.dot.gov/OfficeofSafety/PublicSite/Crossing/Crossing.aspx?phasetype=C&rpttype=A&txtcrossingnum=427656E",
        "TTSTNNAM": "",
        "XPURPOSE": "1",
        "OPERATINGR": "UP",
        "OPERATIN_1": "Primary",
        "DAYTHRU": 3,
        "NGHTTHRU": 2,
        "MAINTRK": 1,
        "SIDINGTRK": 0,
        "YARDTRK": 0,
        "TRANSITTRK": 0,
        "INDUSTRYTR": 0,
        "OTHRTRK": 0,
        "WDCODE": "Stop signs",
        "REVISIONDA": "1975/01/01 00:00:00",
        "LASTUPDATE": "3/2/2026",
        "AADT": "10",
        "AADTYEAR": "2019",
        "STATENAME": "TEXAS",
        "STATEAB": "TX",
        "COUNTYNAME": "KLEBERG",
        "CITYNAME": "RICARDO",
        "LATDD": 27.4292555,
        "LONGDD": -97.8539333,
        "gridlyProductionCertified": true,
        "gridlyClassification": "PUBLIC_ROADWAY",
        "gridlyDisplayName": "West CR 2150",
        "gridlyId": "FRA-427656E"
      }
    },
    {
      "type": "Feature",
      "id": 204045,
      "geometry": {
        "type": "Point",
        "coordinates": [
          -97.8562001000298,
          27.4369600997015
        ]
      },
      "properties": {
        "OBJECTID": 204045,
        "CROSSING": "427655X",
        "EFFDATE": 1771891200000,
        "REASON": "14",
        "StateCode": "48",
        "CountyCode": "48273",
        "STCYFIPS": "48273",
        "CITYCD": "482735726",
        "RAILROAD": "UP",
        "RRDIV": "GULF COAST",
        "RRSUBDIV": "BROWNSVILLE SUB",
        "HIGHWAY": "TBD",
        "STREET": "CR 2140",
        "TTSTN": "689430",
        "MILEPOST": "0113.040",
        "TYPEXING": "Public",
        "POSXING": "At Grade",
        "PRVCAT": "14",
        "INIT": "2",
        "LATITUDE": 27.4369601,
        "LONGITUD": -97.8562001,
        "LLSOURCE": "1",
        "WHISTBAN": "0",
        "RRCONT": "4025443721",
        "POLCONT": "8008488715",
        "INV_LINK": "https://safetydata.fra.dot.gov/OfficeofSafety/PublicSite/Crossing/Crossing.aspx?phasetype=C&rpttype=I&txtcrossingnum=427655X",
        "ACC_LINK": "https://safetydata.fra.dot.gov/OfficeofSafety/PublicSite/Crossing/Crossing.aspx?phasetype=C&rpttype=A&txtcrossingnum=427655X",
        "TTSTNNAM": "",
        "XPURPOSE": "1",
        "OPERATINGR": "UP",
        "OPERATIN_1": "Primary",
        "DAYTHRU": 3,
        "NGHTTHRU": 2,
        "MAINTRK": 1,
        "SIDINGTRK": 0,
        "YARDTRK": 0,
        "TRANSITTRK": 0,
        "INDUSTRYTR": 0,
        "OTHRTRK": 0,
        "WDCODE": "Stop signs",
        "REVISIONDA": "1975/01/01 00:00:00",
        "LASTUPDATE": "2/24/2026",
        "AADT": "116",
        "AADTYEAR": "2019",
        "STATENAME": "TEXAS",
        "STATEAB": "TX",
        "COUNTYNAME": "KLEBERG",
        "CITYNAME": "RICARDO",
        "LATDD": 27.4369601,
        "LONGDD": -97.8562001,
        "gridlyProductionCertified": true,
        "gridlyClassification": "PUBLIC_ROADWAY",
        "gridlyDisplayName": "CR 2140",
        "gridlyId": "FRA-427655X"
      }
    },
    {
      "type": "Feature",
      "id": 205381,
      "geometry": {
        "type": "Point",
        "coordinates": [
          -97.8522469998416,
          27.4235270000147
        ]
      },
      "properties": {
        "OBJECTID": 205381,
        "CROSSING": "427657L",
        "EFFDATE": 1772409600000,
        "REASON": "14",
        "StateCode": "48",
        "CountyCode": "48273",
        "STCYFIPS": "48273",
        "CITYCD": "482735726",
        "RAILROAD": "UP",
        "RRDIV": "GULF COAST",
        "RRSUBDIV": "BROWNSVILLE SUB",
        "HIGHWAY": "Cr 3040",
        "STREET": "WAGNER STREET",
        "TTSTN": "689480",
        "MILEPOST": "0112.100",
        "TYPEXING": "Public",
        "POSXING": "At Grade",
        "PRVCAT": "14",
        "INIT": "2",
        "LATITUDE": 27.423527,
        "LONGITUD": -97.852247,
        "LLSOURCE": "1",
        "WHISTBAN": "0",
        "RRCONT": "4025443721",
        "POLCONT": "8008488715",
        "INV_LINK": "https://safetydata.fra.dot.gov/OfficeofSafety/PublicSite/Crossing/Crossing.aspx?phasetype=C&rpttype=I&txtcrossingnum=427657L",
        "ACC_LINK": "https://safetydata.fra.dot.gov/OfficeofSafety/PublicSite/Crossing/Crossing.aspx?phasetype=C&rpttype=A&txtcrossingnum=427657L",
        "TTSTNNAM": "",
        "XPURPOSE": "1",
        "OPERATINGR": "UP",
        "OPERATIN_1": "Primary",
        "DAYTHRU": 3,
        "NGHTTHRU": 2,
        "MAINTRK": 1,
        "SIDINGTRK": 0,
        "YARDTRK": 0,
        "TRANSITTRK": 0,
        "INDUSTRYTR": 0,
        "OTHRTRK": 1,
        "WDCODE": "All other Gates",
        "REVISIONDA": "1975/01/01 00:00:00",
        "LASTUPDATE": "3/2/2026",
        "AADT": "58",
        "AADTYEAR": "2019",
        "STATENAME": "TEXAS",
        "STATEAB": "TX",
        "COUNTYNAME": "KLEBERG",
        "CITYNAME": "RICARDO",
        "LATDD": 27.423527,
        "LONGDD": -97.852247,
        "gridlyProductionCertified": true,
        "gridlyClassification": "PUBLIC_ROADWAY",
        "gridlyDisplayName": "WAGNER STREET",
        "gridlyId": "FRA-427657L"
      }
    },
    {
      "type": "Feature",
      "id": 206752,
      "geometry": {
        "type": "Point",
        "coordinates": [
          -97.8493804003115,
          27.4137664999391
        ]
      },
      "properties": {
        "OBJECTID": 206752,
        "CROSSING": "427659A",
        "EFFDATE": 1772409600000,
        "REASON": "14",
        "StateCode": "48",
        "CountyCode": "48273",
        "STCYFIPS": "48273",
        "CITYCD": "482735726",
        "RAILROAD": "UP",
        "RRDIV": "GULF COAST",
        "RRSUBDIV": "BROWNSVILLE SUB",
        "HIGHWAY": "CR2170",
        "STREET": "COUNTY ROAD 2170",
        "TTSTN": "689480",
        "MILEPOST": "0111.380",
        "TYPEXING": "Public",
        "POSXING": "At Grade",
        "PRVCAT": "14",
        "INIT": "2",
        "LATITUDE": 27.4137665,
        "LONGITUD": -97.8493804,
        "LLSOURCE": "1",
        "WHISTBAN": "0",
        "RRCONT": "4025443721",
        "POLCONT": "8008488715",
        "INV_LINK": "https://safetydata.fra.dot.gov/OfficeofSafety/PublicSite/Crossing/Crossing.aspx?phasetype=C&rpttype=I&txtcrossingnum=427659A",
        "ACC_LINK": "https://safetydata.fra.dot.gov/OfficeofSafety/PublicSite/Crossing/Crossing.aspx?phasetype=C&rpttype=A&txtcrossingnum=427659A",
        "TTSTNNAM": "",
        "XPURPOSE": "1",
        "OPERATINGR": "UP",
        "OPERATIN_1": "Primary",
        "DAYTHRU": 3,
        "NGHTTHRU": 2,
        "MAINTRK": 1,
        "SIDINGTRK": 0,
        "YARDTRK": 0,
        "TRANSITTRK": 0,
        "INDUSTRYTR": 0,
        "OTHRTRK": 0,
        "WDCODE": "All other Gates",
        "REVISIONDA": "1975/01/01 00:00:00",
        "LASTUPDATE": "3/2/2026",
        "AADT": "559",
        "AADTYEAR": "2021",
        "STATENAME": "TEXAS",
        "STATEAB": "TX",
        "COUNTYNAME": "KLEBERG",
        "CITYNAME": "RICARDO",
        "LATDD": 27.4137665,
        "LONGDD": -97.8493804,
        "gridlyProductionCertified": true,
        "gridlyClassification": "PUBLIC_ROADWAY",
        "gridlyDisplayName": "COUNTY ROAD 2170",
        "gridlyId": "FRA-427659A"
      }
    },
    {
      "type": "Feature",
      "id": 206759,
      "geometry": {
        "type": "Point",
        "coordinates": [
          -97.815764500047,
          27.2991720003771
        ]
      },
      "properties": {
        "OBJECTID": 206759,
        "CROSSING": "427665D",
        "EFFDATE": 1772409600000,
        "REASON": "14",
        "StateCode": "48",
        "CountyCode": "48273",
        "STCYFIPS": "48273",
        "CITYCD": "482735815",
        "RAILROAD": "UP",
        "RRDIV": "GULF COAST",
        "RRSUBDIV": "BROWNSVILLE SUB",
        "HIGHWAY": "SH0285",
        "STREET": "TX 285",
        "TTSTN": "689510",
        "MILEPOST": "0103.200",
        "TYPEXING": "Public",
        "POSXING": "At Grade",
        "PRVCAT": "14",
        "INIT": "2",
        "LATITUDE": 27.299172,
        "LONGITUD": -97.8157645,
        "LLSOURCE": "1",
        "WHISTBAN": "0",
        "RRCONT": "4025443721",
        "POLCONT": "8008488715",
        "INV_LINK": "https://safetydata.fra.dot.gov/OfficeofSafety/PublicSite/Crossing/Crossing.aspx?phasetype=C&rpttype=I&txtcrossingnum=427665D",
        "ACC_LINK": "https://safetydata.fra.dot.gov/OfficeofSafety/PublicSite/Crossing/Crossing.aspx?phasetype=C&rpttype=A&txtcrossingnum=427665D",
        "TTSTNNAM": "",
        "XPURPOSE": "1",
        "OPERATINGR": "UP",
        "OPERATIN_1": "Primary",
        "DAYTHRU": 3,
        "NGHTTHRU": 2,
        "MAINTRK": 1,
        "SIDINGTRK": 0,
        "YARDTRK": 0,
        "TRANSITTRK": 0,
        "INDUSTRYTR": 0,
        "OTHRTRK": 0,
        "WDCODE": "All other Gates",
        "REVISIONDA": "1975/01/01 00:00:00",
        "LASTUPDATE": "3/2/2026",
        "AADT": "7500",
        "AADTYEAR": "2024",
        "STATENAME": "TEXAS",
        "STATEAB": "TX",
        "COUNTYNAME": "KLEBERG",
        "CITYNAME": "RIVIERA",
        "LATDD": 27.299172,
        "LONGDD": -97.8157645,
        "gridlyProductionCertified": true,
        "gridlyClassification": "PUBLIC_ROADWAY",
        "gridlyDisplayName": "TX 285",
        "gridlyId": "FRA-427665D"
      }
    },
    {
      "type": "Feature",
      "id": 208431,
      "geometry": {
        "type": "Point",
        "coordinates": [
          -97.8584718001444,
          27.4446870996704
        ]
      },
      "properties": {
        "OBJECTID": 208431,
        "CROSSING": "427654R",
        "EFFDATE": 1756252800000,
        "REASON": "14",
        "StateCode": "48",
        "CountyCode": "48273",
        "STCYFIPS": "48273",
        "CITYCD": "482735726",
        "RAILROAD": "UP",
        "RRDIV": "GULF COAST",
        "RRSUBDIV": "BROWNSVILLE SUB",
        "HIGHWAY": "NA",
        "STREET": "PRIVATE",
        "TTSTN": "689430",
        "MILEPOST": "0113.570",
        "TYPEXING": "Private",
        "POSXING": "At Grade",
        "PRVCAT": "14",
        "INIT": "1",
        "LATITUDE": 27.4446871,
        "LONGITUD": -97.8584718,
        "LLSOURCE": "1",
        "WHISTBAN": "0",
        "RRCONT": "4025443721",
        "POLCONT": "8008488715",
        "INV_LINK": "https://safetydata.fra.dot.gov/OfficeofSafety/PublicSite/Crossing/Crossing.aspx?phasetype=C&rpttype=I&txtcrossingnum=427654R",
        "ACC_LINK": "https://safetydata.fra.dot.gov/OfficeofSafety/PublicSite/Crossing/Crossing.aspx?phasetype=C&rpttype=A&txtcrossingnum=427654R",
        "TTSTNNAM": "",
        "XPURPOSE": "1",
        "OPERATINGR": "UP",
        "OPERATIN_1": "Primary",
        "DAYTHRU": 3,
        "NGHTTHRU": 2,
        "MAINTRK": 1,
        "SIDINGTRK": 0,
        "YARDTRK": 0,
        "TRANSITTRK": 0,
        "INDUSTRYTR": 0,
        "OTHRTRK": 0,
        "WDCODE": "",
        "REVISIONDA": "1975/01/01 00:00:00",
        "LASTUPDATE": "8/27/2025",
        "AADT": "1",
        "AADTYEAR": "1990",
        "STATENAME": "TEXAS",
        "STATEAB": "TX",
        "COUNTYNAME": "KLEBERG",
        "CITYNAME": "RICARDO",
        "LATDD": 27.4446871,
        "LONGDD": -97.8584718,
        "gridlyProductionCertified": true,
        "gridlyClassification": "PUBLIC_ROADWAY",
        "gridlyDisplayName": "PRIVATE",
        "gridlyId": "FRA-427654R"
      }
    },
    {
      "type": "Feature",
      "id": 208439,
      "geometry": {
        "type": "Point",
        "coordinates": [
          -97.8375426000251,
          27.3734595000997
        ]
      },
      "properties": {
        "OBJECTID": 208439,
        "CROSSING": "427662H",
        "EFFDATE": 1756252800000,
        "REASON": "14",
        "StateCode": "48",
        "CountyCode": "48273",
        "STCYFIPS": "48273",
        "CITYCD": "482735815",
        "RAILROAD": "UP",
        "RRDIV": "GULF COAST",
        "RRSUBDIV": "BROWNSVILLE SUB",
        "HIGHWAY": "NA",
        "STREET": "Private",
        "TTSTN": "689430",
        "MILEPOST": "0108.520",
        "TYPEXING": "Private",
        "POSXING": "At Grade",
        "PRVCAT": "14",
        "INIT": "1",
        "LATITUDE": 27.3734595,
        "LONGITUD": -97.8375426,
        "LLSOURCE": "1",
        "WHISTBAN": "0",
        "RRCONT": "4025443721",
        "POLCONT": "8008488715",
        "INV_LINK": "https://safetydata.fra.dot.gov/OfficeofSafety/PublicSite/Crossing/Crossing.aspx?phasetype=C&rpttype=I&txtcrossingnum=427662H",
        "ACC_LINK": "https://safetydata.fra.dot.gov/OfficeofSafety/PublicSite/Crossing/Crossing.aspx?phasetype=C&rpttype=A&txtcrossingnum=427662H",
        "TTSTNNAM": "",
        "XPURPOSE": "1",
        "OPERATINGR": "UP",
        "OPERATIN_1": "Primary",
        "DAYTHRU": 3,
        "NGHTTHRU": 2,
        "MAINTRK": 1,
        "SIDINGTRK": 0,
        "YARDTRK": 0,
        "TRANSITTRK": 0,
        "INDUSTRYTR": 0,
        "OTHRTRK": 0,
        "WDCODE": "",
        "REVISIONDA": "1975/01/01 00:00:00",
        "LASTUPDATE": "8/27/2025",
        "AADT": "1",
        "AADTYEAR": "1990",
        "STATENAME": "TEXAS",
        "STATEAB": "TX",
        "COUNTYNAME": "KLEBERG",
        "CITYNAME": "RIVIERA",
        "LATDD": 27.3734595,
        "LONGDD": -97.8375426,
        "gridlyProductionCertified": true,
        "gridlyClassification": "PUBLIC_ROADWAY",
        "gridlyDisplayName": "Private",
        "gridlyId": "FRA-427662H"
      }
    },
    {
      "type": "Feature",
      "id": 208478,
      "geometry": {
        "type": "Point",
        "coordinates": [
          -97.8685329995985,
          27.5172960001795
        ]
      },
      "properties": {
        "OBJECTID": 208478,
        "CROSSING": "848246T",
        "EFFDATE": 1756252800000,
        "REASON": "14",
        "StateCode": "48",
        "CountyCode": "48273",
        "STCYFIPS": "48273",
        "CITYCD": "482733700",
        "RAILROAD": "UP",
        "RRDIV": "GULF COAST",
        "RRSUBDIV": "BROWNSVILLE SUB",
        "HIGHWAY": "TBD",
        "STREET": "Pedestrian",
        "TTSTN": "",
        "MILEPOST": "0118.730",
        "TYPEXING": "Public",
        "POSXING": "At Grade",
        "PRVCAT": "14",
        "INIT": "1",
        "LATITUDE": 27.517296,
        "LONGITUD": -97.868533,
        "LLSOURCE": "1",
        "WHISTBAN": "",
        "RRCONT": "4025443721",
        "POLCONT": "8008488715",
        "INV_LINK": "https://safetydata.fra.dot.gov/OfficeofSafety/PublicSite/Crossing/Crossing.aspx?phasetype=C&rpttype=I&txtcrossingnum=848246T",
        "ACC_LINK": "https://safetydata.fra.dot.gov/OfficeofSafety/PublicSite/Crossing/Crossing.aspx?phasetype=C&rpttype=A&txtcrossingnum=848246T",
        "TTSTNNAM": "",
        "XPURPOSE": "2",
        "OPERATINGR": "UP",
        "OPERATIN_1": "Primary",
        "DAYTHRU": 3,
        "NGHTTHRU": 2,
        "MAINTRK": 1,
        "SIDINGTRK": 0,
        "YARDTRK": 0,
        "TRANSITTRK": 0,
        "INDUSTRYTR": 0,
        "OTHRTRK": 0,
        "WDCODE": "Stop signs",
        "REVISIONDA": "1975/01/01 00:00:00",
        "LASTUPDATE": "8/27/2025",
        "AADT": "",
        "AADTYEAR": "",
        "STATENAME": "TEXAS",
        "STATEAB": "TX",
        "COUNTYNAME": "KLEBERG",
        "CITYNAME": "KINGSVILLE",
        "LATDD": 27.517296,
        "LONGDD": -97.868533,
        "gridlyProductionCertified": true,
        "gridlyClassification": "PUBLIC_ROADWAY",
        "gridlyDisplayName": "Pedestrian",
        "gridlyId": "FRA-848246T"
      }
    },
    {
      "type": "Feature",
      "id": 208480,
      "geometry": {
        "type": "Point",
        "coordinates": [
          -97.8337666997132,
          27.3605981002221
        ]
      },
      "properties": {
        "OBJECTID": 208480,
        "CROSSING": "427663P",
        "EFFDATE": 1756252800000,
        "REASON": "14",
        "StateCode": "48",
        "CountyCode": "48273",
        "STCYFIPS": "48273",
        "CITYCD": "482735815",
        "RAILROAD": "UP",
        "RRDIV": "GULF COAST",
        "RRSUBDIV": "BROWNSVILLE SUB",
        "HIGHWAY": "NA",
        "STREET": "PRIVATE",
        "TTSTN": "689510",
        "MILEPOST": "0107.610",
        "TYPEXING": "Private",
        "POSXING": "At Grade",
        "PRVCAT": "14",
        "INIT": "1",
        "LATITUDE": 27.3605981,
        "LONGITUD": -97.8337667,
        "LLSOURCE": "1",
        "WHISTBAN": "0",
        "RRCONT": "4025443721",
        "POLCONT": "8008488715",
        "INV_LINK": "https://safetydata.fra.dot.gov/OfficeofSafety/PublicSite/Crossing/Crossing.aspx?phasetype=C&rpttype=I&txtcrossingnum=427663P",
        "ACC_LINK": "https://safetydata.fra.dot.gov/OfficeofSafety/PublicSite/Crossing/Crossing.aspx?phasetype=C&rpttype=A&txtcrossingnum=427663P",
        "TTSTNNAM": "",
        "XPURPOSE": "1",
        "OPERATINGR": "UP",
        "OPERATIN_1": "Primary",
        "DAYTHRU": 3,
        "NGHTTHRU": 2,
        "MAINTRK": 1,
        "SIDINGTRK": 0,
        "YARDTRK": 0,
        "TRANSITTRK": 0,
        "INDUSTRYTR": 0,
        "OTHRTRK": 0,
        "WDCODE": "",
        "REVISIONDA": "1975/01/01 00:00:00",
        "LASTUPDATE": "8/27/2025",
        "AADT": "1",
        "AADTYEAR": "1990",
        "STATENAME": "TEXAS",
        "STATEAB": "TX",
        "COUNTYNAME": "KLEBERG",
        "CITYNAME": "RIVIERA",
        "LATDD": 27.3605981,
        "LONGDD": -97.8337667,
        "gridlyProductionCertified": true,
        "gridlyClassification": "PUBLIC_ROADWAY",
        "gridlyDisplayName": "PRIVATE",
        "gridlyId": "FRA-427663P"
      }
    },
    {
      "type": "Feature",
      "id": 208481,
      "geometry": {
        "type": "Point",
        "coordinates": [
          -97.8188525998717,
          27.3097089997495
        ]
      },
      "properties": {
        "OBJECTID": 208481,
        "CROSSING": "427664W",
        "EFFDATE": 1756252800000,
        "REASON": "14",
        "StateCode": "48",
        "CountyCode": "48273",
        "STCYFIPS": "48273",
        "CITYCD": "482735815",
        "RAILROAD": "UP",
        "RRDIV": "GULF COAST",
        "RRSUBDIV": "BROWNSVILLE SUB",
        "HIGHWAY": "NA",
        "STREET": "Private",
        "TTSTN": "689510",
        "MILEPOST": "0103.950",
        "TYPEXING": "Private",
        "POSXING": "At Grade",
        "PRVCAT": "14",
        "INIT": "1",
        "LATITUDE": 27.309709,
        "LONGITUD": -97.8188526,
        "LLSOURCE": "1",
        "WHISTBAN": "0",
        "RRCONT": "4025443721",
        "POLCONT": "8008488715",
        "INV_LINK": "https://safetydata.fra.dot.gov/OfficeofSafety/PublicSite/Crossing/Crossing.aspx?phasetype=C&rpttype=I&txtcrossingnum=427664W",
        "ACC_LINK": "https://safetydata.fra.dot.gov/OfficeofSafety/PublicSite/Crossing/Crossing.aspx?phasetype=C&rpttype=A&txtcrossingnum=427664W",
        "TTSTNNAM": "",
        "XPURPOSE": "1",
        "OPERATINGR": "UP",
        "OPERATIN_1": "Primary",
        "DAYTHRU": 3,
        "NGHTTHRU": 2,
        "MAINTRK": 1,
        "SIDINGTRK": 0,
        "YARDTRK": 0,
        "TRANSITTRK": 0,
        "INDUSTRYTR": 0,
        "OTHRTRK": 0,
        "WDCODE": "",
        "REVISIONDA": "1975/01/01 00:00:00",
        "LASTUPDATE": "8/27/2025",
        "AADT": "1",
        "AADTYEAR": "1990",
        "STATENAME": "TEXAS",
        "STATEAB": "TX",
        "COUNTYNAME": "KLEBERG",
        "CITYNAME": "RIVIERA",
        "LATDD": 27.309709,
        "LONGDD": -97.8188526,
        "gridlyProductionCertified": true,
        "gridlyClassification": "PUBLIC_ROADWAY",
        "gridlyDisplayName": "Private",
        "gridlyId": "FRA-427664W"
      }
    },
    {
      "type": "Feature",
      "id": 208814,
      "geometry": {
        "type": "Point",
        "coordinates": [
          -97.8686069004037,
          27.522707000015
        ]
      },
      "properties": {
        "OBJECTID": 208814,
        "CROSSING": "427640H",
        "EFFDATE": 1772150400000,
        "REASON": "14",
        "StateCode": "48",
        "CountyCode": "48273",
        "STCYFIPS": "48273",
        "CITYCD": "482733700",
        "RAILROAD": "UP",
        "RRDIV": "GULF COAST",
        "RRSUBDIV": "BROWNSVILLE SUB",
        "HIGHWAY": "LS0000",
        "STREET": "WEST SANTA GERTRUDIS STREET",
        "TTSTN": "689430",
        "MILEPOST": "0119.040",
        "TYPEXING": "Public",
        "POSXING": "At Grade",
        "PRVCAT": "14",
        "INIT": "2",
        "LATITUDE": 27.522707,
        "LONGITUD": -97.8686069,
        "LLSOURCE": "1",
        "WHISTBAN": "0",
        "RRCONT": "4025443721",
        "POLCONT": "8008488715",
        "INV_LINK": "https://safetydata.fra.dot.gov/OfficeofSafety/PublicSite/Crossing/Crossing.aspx?phasetype=C&rpttype=I&txtcrossingnum=427640H",
        "ACC_LINK": "https://safetydata.fra.dot.gov/OfficeofSafety/PublicSite/Crossing/Crossing.aspx?phasetype=C&rpttype=A&txtcrossingnum=427640H",
        "TTSTNNAM": "",
        "XPURPOSE": "1",
        "OPERATINGR": "UP",
        "OPERATIN_1": "Primary",
        "DAYTHRU": 3,
        "NGHTTHRU": 2,
        "MAINTRK": 1,
        "SIDINGTRK": 0,
        "YARDTRK": 0,
        "TRANSITTRK": 0,
        "INDUSTRYTR": 0,
        "OTHRTRK": 0,
        "WDCODE": "All other Gates",
        "REVISIONDA": "1975/01/01 00:00:00",
        "LASTUPDATE": "2/27/2026",
        "AADT": "7758",
        "AADTYEAR": "2019",
        "STATENAME": "TEXAS",
        "STATEAB": "TX",
        "COUNTYNAME": "KLEBERG",
        "CITYNAME": "KINGSVILLE",
        "LATDD": 27.522707,
        "LONGDD": -97.8686069,
        "gridlyProductionCertified": true,
        "gridlyClassification": "PUBLIC_ROADWAY",
        "gridlyDisplayName": "WEST SANTA GERTRUDIS STREET",
        "gridlyId": "FRA-427640H"
      }
    },
    {
      "type": "Feature",
      "id": 208943,
      "geometry": {
        "type": "Point",
        "coordinates": [
          -97.868578599879,
          27.520723299778
        ]
      },
      "properties": {
        "OBJECTID": 208943,
        "CROSSING": "427642W",
        "EFFDATE": 1772150400000,
        "REASON": "14",
        "StateCode": "48",
        "CountyCode": "48273",
        "STCYFIPS": "48273",
        "CITYCD": "482733700",
        "RAILROAD": "UP",
        "RRDIV": "GULF COAST",
        "RRSUBDIV": "BROWNSVILLE SUB",
        "HIGHWAY": "LS0000",
        "STREET": "WEST ALICE STREET",
        "TTSTN": "689430",
        "MILEPOST": "0118.920",
        "TYPEXING": "Public",
        "POSXING": "At Grade",
        "PRVCAT": "14",
        "INIT": "2",
        "LATITUDE": 27.5207233,
        "LONGITUD": -97.8685786,
        "LLSOURCE": "1",
        "WHISTBAN": "0",
        "RRCONT": "4025443721",
        "POLCONT": "8008488715",
        "INV_LINK": "https://safetydata.fra.dot.gov/OfficeofSafety/PublicSite/Crossing/Crossing.aspx?phasetype=C&rpttype=I&txtcrossingnum=427642W",
        "ACC_LINK": "https://safetydata.fra.dot.gov/OfficeofSafety/PublicSite/Crossing/Crossing.aspx?phasetype=C&rpttype=A&txtcrossingnum=427642W",
        "TTSTNNAM": "",
        "XPURPOSE": "1",
        "OPERATINGR": "UP",
        "OPERATIN_1": "Primary",
        "DAYTHRU": 3,
        "NGHTTHRU": 2,
        "MAINTRK": 1,
        "SIDINGTRK": 0,
        "YARDTRK": 0,
        "TRANSITTRK": 0,
        "INDUSTRYTR": 0,
        "OTHRTRK": 0,
        "WDCODE": "All other Gates",
        "REVISIONDA": "1975/01/01 00:00:00",
        "LASTUPDATE": "2/27/2026",
        "AADT": "300",
        "AADTYEAR": "2019",
        "STATENAME": "TEXAS",
        "STATEAB": "TX",
        "COUNTYNAME": "KLEBERG",
        "CITYNAME": "KINGSVILLE",
        "LATDD": 27.5207233,
        "LONGDD": -97.8685786,
        "gridlyProductionCertified": true,
        "gridlyClassification": "PUBLIC_ROADWAY",
        "gridlyDisplayName": "WEST ALICE STREET",
        "gridlyId": "FRA-427642W"
      }
    },
    {
      "type": "Feature",
      "id": 211035,
      "geometry": {
        "type": "Point",
        "coordinates": [
          -97.8149977996301,
          27.2965472999646
        ]
      },
      "properties": {
        "OBJECTID": 211035,
        "CROSSING": "427667S",
        "EFFDATE": 1772496000000,
        "REASON": "14",
        "StateCode": "48",
        "CountyCode": "48273",
        "STCYFIPS": "48273",
        "CITYCD": "482733700",
        "RAILROAD": "UP",
        "RRDIV": "GULF COAST",
        "RRSUBDIV": "BROWNSVILLE SUB",
        "HIGHWAY": "Cr3083",
        "STREET": "WEST WILLOW STREET",
        "TTSTN": "689480",
        "MILEPOST": "0103.010",
        "TYPEXING": "Public",
        "POSXING": "At Grade",
        "PRVCAT": "14",
        "INIT": "2",
        "LATITUDE": 27.2965473,
        "LONGITUD": -97.8149978,
        "LLSOURCE": "1",
        "WHISTBAN": "0",
        "RRCONT": "4025443721",
        "POLCONT": "8008488715",
        "INV_LINK": "https://safetydata.fra.dot.gov/OfficeofSafety/PublicSite/Crossing/Crossing.aspx?phasetype=C&rpttype=I&txtcrossingnum=427667S",
        "ACC_LINK": "https://safetydata.fra.dot.gov/OfficeofSafety/PublicSite/Crossing/Crossing.aspx?phasetype=C&rpttype=A&txtcrossingnum=427667S",
        "TTSTNNAM": "",
        "XPURPOSE": "1",
        "OPERATINGR": "UP",
        "OPERATIN_1": "Primary",
        "DAYTHRU": 3,
        "NGHTTHRU": 2,
        "MAINTRK": 1,
        "SIDINGTRK": 0,
        "YARDTRK": 0,
        "TRANSITTRK": 0,
        "INDUSTRYTR": 0,
        "OTHRTRK": 0,
        "WDCODE": "All other Gates",
        "REVISIONDA": "1975/01/01 00:00:00",
        "LASTUPDATE": "3/3/2026",
        "AADT": "369",
        "AADTYEAR": "2019",
        "STATENAME": "TEXAS",
        "STATEAB": "TX",
        "COUNTYNAME": "KLEBERG",
        "CITYNAME": "KINGSVILLE",
        "LATDD": 27.2965473,
        "LONGDD": -97.8149978,
        "gridlyProductionCertified": true,
        "gridlyClassification": "PUBLIC_ROADWAY",
        "gridlyDisplayName": "WEST WILLOW STREET",
        "gridlyId": "FRA-427667S"
      }
    },
    {
      "type": "Feature",
      "id": 211622,
      "geometry": {
        "type": "Point",
        "coordinates": [
          -97.8468088003342,
          27.4050138998318
        ]
      },
      "properties": {
        "OBJECTID": 211622,
        "CROSSING": "427660U",
        "EFFDATE": 1772409600000,
        "REASON": "14",
        "StateCode": "48",
        "CountyCode": "48273",
        "STCYFIPS": "48273",
        "CITYCD": "482735726",
        "RAILROAD": "UP",
        "RRDIV": "GULF COAST",
        "RRSUBDIV": "BROWNSVILLE SUB",
        "HIGHWAY": "CO 2180",
        "STREET": "CR 2180 WEST",
        "TTSTN": "689480",
        "MILEPOST": "0110.750",
        "TYPEXING": "Public",
        "POSXING": "At Grade",
        "PRVCAT": "14",
        "INIT": "2",
        "LATITUDE": 27.4050139,
        "LONGITUD": -97.8468088,
        "LLSOURCE": "1",
        "WHISTBAN": "0",
        "RRCONT": "4025443721",
        "POLCONT": "8008488715",
        "INV_LINK": "https://safetydata.fra.dot.gov/OfficeofSafety/PublicSite/Crossing/Crossing.aspx?phasetype=C&rpttype=I&txtcrossingnum=427660U",
        "ACC_LINK": "https://safetydata.fra.dot.gov/OfficeofSafety/PublicSite/Crossing/Crossing.aspx?phasetype=C&rpttype=A&txtcrossingnum=427660U",
        "TTSTNNAM": "",
        "XPURPOSE": "1",
        "OPERATINGR": "UP",
        "OPERATIN_1": "Primary",
        "DAYTHRU": 3,
        "NGHTTHRU": 2,
        "MAINTRK": 1,
        "SIDINGTRK": 0,
        "YARDTRK": 0,
        "TRANSITTRK": 0,
        "INDUSTRYTR": 0,
        "OTHRTRK": 0,
        "WDCODE": "All other Gates",
        "REVISIONDA": "1975/01/01 00:00:00",
        "LASTUPDATE": "3/2/2026",
        "AADT": "245",
        "AADTYEAR": "2019",
        "STATENAME": "TEXAS",
        "STATEAB": "TX",
        "COUNTYNAME": "KLEBERG",
        "CITYNAME": "RICARDO",
        "LATDD": 27.4050139,
        "LONGDD": -97.8468088,
        "gridlyProductionCertified": true,
        "gridlyClassification": "PUBLIC_ROADWAY",
        "gridlyDisplayName": "CR 2180 WEST",
        "gridlyId": "FRA-427660U"
      }
    },
    {
      "type": "Feature",
      "id": 211997,
      "geometry": {
        "type": "Point",
        "coordinates": [
          -97.8687679997752,
          27.5125870001816
        ]
      },
      "properties": {
        "OBJECTID": 211997,
        "CROSSING": "973921V",
        "EFFDATE": 1759104000000,
        "REASON": "24",
        "StateCode": "48",
        "CountyCode": "48273",
        "STCYFIPS": "48273",
        "CITYCD": "482733700",
        "RAILROAD": "UP",
        "RRDIV": "Gulf Coast",
        "RRSUBDIV": "Brownsville Sub",
        "HIGHWAY": "TBD",
        "STREET": "West Huisache Avenue",
        "TTSTN": "",
        "MILEPOST": "0118.450",
        "TYPEXING": "Public",
        "POSXING": "At Grade",
        "PRVCAT": "24",
        "INIT": "1",
        "LATITUDE": 27.512587,
        "LONGITUD": -97.868768,
        "LLSOURCE": "1",
        "WHISTBAN": "",
        "RRCONT": "4025443721",
        "POLCONT": "8008488715",
        "INV_LINK": "https://safetydata.fra.dot.gov/OfficeofSafety/PublicSite/Crossing/Crossing.aspx?phasetype=C&rpttype=I&txtcrossingnum=973921V",
        "ACC_LINK": "https://safetydata.fra.dot.gov/OfficeofSafety/PublicSite/Crossing/Crossing.aspx?phasetype=C&rpttype=A&txtcrossingnum=973921V",
        "TTSTNNAM": "",
        "XPURPOSE": "1",
        "OPERATINGR": "UP",
        "OPERATIN_1": "Primary",
        "DAYTHRU": 0,
        "NGHTTHRU": 0,
        "MAINTRK": 0,
        "SIDINGTRK": 0,
        "YARDTRK": 1,
        "TRANSITTRK": 0,
        "INDUSTRYTR": 0,
        "OTHRTRK": 0,
        "WDCODE": "Crossbucks",
        "REVISIONDA": "1975/01/01 00:00:00",
        "LASTUPDATE": "9/29/2025",
        "AADT": "100",
        "AADTYEAR": "2018",
        "STATENAME": "TEXAS",
        "STATEAB": "TX",
        "COUNTYNAME": "KLEBERG",
        "CITYNAME": "KINGSVILLE",
        "LATDD": 27.512587,
        "LONGDD": -97.868768,
        "gridlyProductionCertified": true,
        "gridlyClassification": "PUBLIC_ROADWAY",
        "gridlyDisplayName": "West Huisache Avenue",
        "gridlyId": "FRA-973921V"
      }
    },
    {
      "type": "Feature",
      "id": 214184,
      "geometry": {
        "type": "Point",
        "coordinates": [
          -97.8638726000917,
          27.5304631000029
        ]
      },
      "properties": {
        "OBJECTID": 214184,
        "CROSSING": "427638G",
        "EFFDATE": 1772150400000,
        "REASON": "14",
        "StateCode": "48",
        "CountyCode": "48273",
        "STCYFIPS": "48273",
        "CITYCD": "482733700",
        "RAILROAD": "UP",
        "RRDIV": "GULF COAST",
        "RRSUBDIV": "BROWNSVILLE SUB",
        "HIGHWAY": "fm1898",
        "STREET": "FM 1898 / e corral avenue",
        "TTSTN": "689430",
        "MILEPOST": "0119.660",
        "TYPEXING": "Public",
        "POSXING": "At Grade",
        "PRVCAT": "14",
        "INIT": "2",
        "LATITUDE": 27.5304631,
        "LONGITUD": -97.8638726,
        "LLSOURCE": "1",
        "WHISTBAN": "0",
        "RRCONT": "4025443721",
        "POLCONT": "8008488715",
        "INV_LINK": "https://safetydata.fra.dot.gov/OfficeofSafety/PublicSite/Crossing/Crossing.aspx?phasetype=C&rpttype=I&txtcrossingnum=427638G",
        "ACC_LINK": "https://safetydata.fra.dot.gov/OfficeofSafety/PublicSite/Crossing/Crossing.aspx?phasetype=C&rpttype=A&txtcrossingnum=427638G",
        "TTSTNNAM": "",
        "XPURPOSE": "1",
        "OPERATINGR": "UP",
        "OPERATIN_1": "Primary",
        "DAYTHRU": 3,
        "NGHTTHRU": 2,
        "MAINTRK": 1,
        "SIDINGTRK": 0,
        "YARDTRK": 0,
        "TRANSITTRK": 0,
        "INDUSTRYTR": 0,
        "OTHRTRK": 0,
        "WDCODE": "All other Gates",
        "REVISIONDA": "1975/01/01 00:00:00",
        "LASTUPDATE": "2/27/2026",
        "AADT": "8501",
        "AADTYEAR": "2024",
        "STATENAME": "TEXAS",
        "STATEAB": "TX",
        "COUNTYNAME": "KLEBERG",
        "CITYNAME": "KINGSVILLE",
        "LATDD": 27.5304631,
        "LONGDD": -97.8638726,
        "gridlyProductionCertified": true,
        "gridlyClassification": "PUBLIC_ROADWAY",
        "gridlyDisplayName": "FM 1898 / e corral avenue",
        "gridlyId": "FRA-427638G"
      }
    },
    {
      "type": "Feature",
      "id": 215023,
      "geometry": {
        "type": "Point",
        "coordinates": [
          -97.8684530001309,
          27.512584999607
        ]
      },
      "properties": {
        "OBJECTID": 215023,
        "CROSSING": "427648M",
        "EFFDATE": 1772236800000,
        "REASON": "14",
        "StateCode": "48",
        "CountyCode": "48273",
        "STCYFIPS": "48273",
        "CITYCD": "482733700",
        "RAILROAD": "UP",
        "RRDIV": "GULF COAST",
        "RRSUBDIV": "BROWNSVILLE SUB",
        "HIGHWAY": "LS0000",
        "STREET": "WEST HUISACHE AVENUE",
        "TTSTN": "689430",
        "MILEPOST": "0118.470",
        "TYPEXING": "Public",
        "POSXING": "At Grade",
        "PRVCAT": "14",
        "INIT": "2",
        "LATITUDE": 27.512585,
        "LONGITUD": -97.868453,
        "LLSOURCE": "1",
        "WHISTBAN": "0",
        "RRCONT": "4025443721",
        "POLCONT": "8008488715",
        "INV_LINK": "https://safetydata.fra.dot.gov/OfficeofSafety/PublicSite/Crossing/Crossing.aspx?phasetype=C&rpttype=I&txtcrossingnum=427648M",
        "ACC_LINK": "https://safetydata.fra.dot.gov/OfficeofSafety/PublicSite/Crossing/Crossing.aspx?phasetype=C&rpttype=A&txtcrossingnum=427648M",
        "TTSTNNAM": "",
        "XPURPOSE": "1",
        "OPERATINGR": "UP",
        "OPERATIN_1": "Primary",
        "DAYTHRU": 3,
        "NGHTTHRU": 2,
        "MAINTRK": 1,
        "SIDINGTRK": 0,
        "YARDTRK": 0,
        "TRANSITTRK": 0,
        "INDUSTRYTR": 0,
        "OTHRTRK": 1,
        "WDCODE": "All other Gates",
        "REVISIONDA": "1975/01/01 00:00:00",
        "LASTUPDATE": "2/28/2026",
        "AADT": "337",
        "AADTYEAR": "2021",
        "STATENAME": "TEXAS",
        "STATEAB": "TX",
        "COUNTYNAME": "KLEBERG",
        "CITYNAME": "KINGSVILLE",
        "LATDD": 27.512585,
        "LONGDD": -97.868453,
        "gridlyProductionCertified": true,
        "gridlyClassification": "PUBLIC_ROADWAY",
        "gridlyDisplayName": "WEST HUISACHE AVENUE",
        "gridlyId": "FRA-427648M"
      }
    },
    {
      "type": "Feature",
      "id": 215736,
      "geometry": {
        "type": "Point",
        "coordinates": [
          -97.8685638998477,
          27.5197289000333
        ]
      },
      "properties": {
        "OBJECTID": 215736,
        "CROSSING": "427643D",
        "EFFDATE": 1772150400000,
        "REASON": "14",
        "StateCode": "48",
        "CountyCode": "48273",
        "STCYFIPS": "48273",
        "CITYCD": "482733700",
        "RAILROAD": "UP",
        "RRDIV": "GULF COAST",
        "RRSUBDIV": "BROWNSVILLE SUB",
        "HIGHWAY": "ST 0000",
        "STREET": "WEST LEE AVENUE",
        "TTSTN": "689430",
        "MILEPOST": "0118.870",
        "TYPEXING": "Public",
        "POSXING": "At Grade",
        "PRVCAT": "14",
        "INIT": "2",
        "LATITUDE": 27.5197289,
        "LONGITUD": -97.8685639,
        "LLSOURCE": "1",
        "WHISTBAN": "0",
        "RRCONT": "4025443721",
        "POLCONT": "8008488715",
        "INV_LINK": "https://safetydata.fra.dot.gov/OfficeofSafety/PublicSite/Crossing/Crossing.aspx?phasetype=C&rpttype=I&txtcrossingnum=427643D",
        "ACC_LINK": "https://safetydata.fra.dot.gov/OfficeofSafety/PublicSite/Crossing/Crossing.aspx?phasetype=C&rpttype=A&txtcrossingnum=427643D",
        "TTSTNNAM": "",
        "XPURPOSE": "1",
        "OPERATINGR": "UP",
        "OPERATIN_1": "Primary",
        "DAYTHRU": 3,
        "NGHTTHRU": 2,
        "MAINTRK": 1,
        "SIDINGTRK": 0,
        "YARDTRK": 0,
        "TRANSITTRK": 0,
        "INDUSTRYTR": 0,
        "OTHRTRK": 1,
        "WDCODE": "All other Gates",
        "REVISIONDA": "1975/01/01 00:00:00",
        "LASTUPDATE": "2/27/2026",
        "AADT": "1000",
        "AADTYEAR": "2019",
        "STATENAME": "TEXAS",
        "STATEAB": "TX",
        "COUNTYNAME": "KLEBERG",
        "CITYNAME": "KINGSVILLE",
        "LATDD": 27.5197289,
        "LONGDD": -97.8685639,
        "gridlyProductionCertified": true,
        "gridlyClassification": "PUBLIC_ROADWAY",
        "gridlyDisplayName": "WEST LEE AVENUE",
        "gridlyId": "FRA-427643D"
      }
    },
    {
      "type": "Feature",
      "id": 215737,
      "geometry": {
        "type": "Point",
        "coordinates": [
          -97.8685344000721,
          27.5176708000258
        ]
      },
      "properties": {
        "OBJECTID": 215737,
        "CROSSING": "427644K",
        "EFFDATE": 1772150400000,
        "REASON": "14",
        "StateCode": "48",
        "CountyCode": "48273",
        "STCYFIPS": "48273",
        "CITYCD": "482733700",
        "RAILROAD": "UP",
        "RRDIV": "GULF COAST",
        "RRSUBDIV": "BROWNSVILLE SUB",
        "HIGHWAY": "LS0000",
        "STREET": "WEST YOAKUM AVENUE",
        "TTSTN": "689430",
        "MILEPOST": "0118.750",
        "TYPEXING": "Public",
        "POSXING": "At Grade",
        "PRVCAT": "14",
        "INIT": "2",
        "LATITUDE": 27.5176708,
        "LONGITUD": -97.8685344,
        "LLSOURCE": "1",
        "WHISTBAN": "0",
        "RRCONT": "4025443721",
        "POLCONT": "8008488715",
        "INV_LINK": "https://safetydata.fra.dot.gov/OfficeofSafety/PublicSite/Crossing/Crossing.aspx?phasetype=C&rpttype=I&txtcrossingnum=427644K",
        "ACC_LINK": "https://safetydata.fra.dot.gov/OfficeofSafety/PublicSite/Crossing/Crossing.aspx?phasetype=C&rpttype=A&txtcrossingnum=427644K",
        "TTSTNNAM": "",
        "XPURPOSE": "1",
        "OPERATINGR": "UP",
        "OPERATIN_1": "Primary",
        "DAYTHRU": 3,
        "NGHTTHRU": 2,
        "MAINTRK": 1,
        "SIDINGTRK": 0,
        "YARDTRK": 0,
        "TRANSITTRK": 0,
        "INDUSTRYTR": 0,
        "OTHRTRK": 0,
        "WDCODE": "All other Gates",
        "REVISIONDA": "1975/01/01 00:00:00",
        "LASTUPDATE": "2/27/2026",
        "AADT": "766",
        "AADTYEAR": "2019",
        "STATENAME": "TEXAS",
        "STATEAB": "TX",
        "COUNTYNAME": "KLEBERG",
        "CITYNAME": "KINGSVILLE",
        "LATDD": 27.5176708,
        "LONGDD": -97.8685344,
        "gridlyProductionCertified": true,
        "gridlyClassification": "PUBLIC_ROADWAY",
        "gridlyDisplayName": "WEST YOAKUM AVENUE",
        "gridlyId": "FRA-427644K"
      }
    }
  ]
}
