{
  "type": "FeatureCollection",
  "features": [
    {
      "type": "Feature",
      "id": 200891,
      "geometry": {
        "type": "Point",
        "coordinates": [
          -101.516819800103,
          32.245030200266
        ]
      },
      "properties": {
        "OBJECTID": 200891,
        "CROSSING": "796376T",
        "EFFDATE": 1328140800000,
        "REASON": "14",
        "StateCode": "48",
        "CountyCode": "48227",
        "STCYFIPS": "48227",
        "CITYCD": "482270640",
        "RAILROAD": "BSR",
        "RRDIV": "RIOGRANDE",
        "RRSUBDIV": "BAIRD",
        "HIGHWAY": "IH 0020",
        "STREET": "IH 0020",
        "TTSTN": "679680",
        "MILEPOST": "0516.20",
        "TYPEXING": "Public",
        "POSXING": "RR Under",
        "PRVCAT": "14",
        "INIT": "2",
        "LATITUDE": 32.2450302,
        "LONGITUD": -101.5168198,
        "LLSOURCE": "",
        "WHISTBAN": "0",
        "RRCONT": "",
        "POLCONT": "8008488715",
        "INV_LINK": "https://safetydata.fra.dot.gov/OfficeofSafety/PublicSite/Crossing/Crossing.aspx?phasetype=C&rpttype=I&txtcrossingnum=796376T",
        "ACC_LINK": "https://safetydata.fra.dot.gov/OfficeofSafety/PublicSite/Crossing/Crossing.aspx?phasetype=C&rpttype=A&txtcrossingnum=796376T",
        "TTSTNNAM": "BIG SPRING",
        "XPURPOSE": "1",
        "OPERATINGR": "BSR",
        "OPERATIN_1": "Primary",
        "DAYTHRU": 0,
        "NGHTTHRU": 0,
        "MAINTRK": 0,
        "SIDINGTRK": 0,
        "YARDTRK": 0,
        "TRANSITTRK": 0,
        "INDUSTRYTR": 0,
        "OTHRTRK": 0,
        "WDCODE": "No signs or signals",
        "REVISIONDA": "2012/01/01 00:00:00",
        "LASTUPDATE": "2/2/2012",
        "AADT": "013580",
        "AADTYEAR": "2011",
        "STATENAME": "TEXAS",
        "STATEAB": "TX",
        "COUNTYNAME": "HOWARD",
        "CITYNAME": "BIG SPRING",
        "LATDD": 32.2450302,
        "LONGDD": -101.5168198,
        "gridlyProductionCertified": true,
        "gridlyClassification": "PUBLIC_ROADWAY",
        "gridlyDisplayName": "IH 0020",
        "gridlyId": "FRA-796376T"
      }
    },
    {
      "type": "Feature",
      "id": 201122,
      "geometry": {
        "type": "Point",
        "coordinates": [
          -101.514089999618,
          32.2288199997087
        ]
      },
      "properties": {
        "OBJECTID": 201122,
        "CROSSING": "967940L",
        "EFFDATE": 1568764800000,
        "REASON": "14",
        "StateCode": "48",
        "CountyCode": "48227",
        "STCYFIPS": "48227",
        "CITYCD": "482270640",
        "RAILROAD": "BSR",
        "RRDIV": "AIRPARK LINE",
        "RRSUBDIV": "#N\\A",
        "HIGHWAY": "LR",
        "STREET": "BELL DR",
        "TTSTN": "679680",
        "MILEPOST": "0002.13",
        "TYPEXING": "Public",
        "POSXING": "At Grade",
        "PRVCAT": "14",
        "INIT": "1",
        "LATITUDE": 32.22882,
        "LONGITUD": -101.51409,
        "LLSOURCE": "2",
        "WHISTBAN": "0",
        "RRCONT": "4322647766",
        "POLCONT": "4328160212",
        "INV_LINK": "https://safetydata.fra.dot.gov/OfficeofSafety/PublicSite/Crossing/Crossing.aspx?phasetype=C&rpttype=I&txtcrossingnum=967940L",
        "ACC_LINK": "https://safetydata.fra.dot.gov/OfficeofSafety/PublicSite/Crossing/Crossing.aspx?phasetype=C&rpttype=A&txtcrossingnum=967940L",
        "TTSTNNAM": "3801 BETHEL AVE BIG SPRING",
        "XPURPOSE": "1",
        "OPERATINGR": "BSR",
        "OPERATIN_1": "Primary",
        "DAYTHRU": 10,
        "NGHTTHRU": 3,
        "MAINTRK": 0,
        "SIDINGTRK": 0,
        "YARDTRK": 1,
        "TRANSITTRK": 0,
        "INDUSTRYTR": 1,
        "OTHRTRK": 0,
        "WDCODE": "Stop signs",
        "REVISIONDA": "2012/01/01 00:00:00",
        "LASTUPDATE": "9/18/2019",
        "AADT": "000085",
        "AADTYEAR": "1978",
        "STATENAME": "TEXAS",
        "STATEAB": "TX",
        "COUNTYNAME": "HOWARD",
        "CITYNAME": "BIG SPRING",
        "LATDD": 32.22882,
        "LONGDD": -101.51409,
        "gridlyProductionCertified": true,
        "gridlyClassification": "PUBLIC_ROADWAY",
        "gridlyDisplayName": "BELL DR",
        "gridlyId": "FRA-967940L"
      }
    },
    {
      "type": "Feature",
      "id": 201123,
      "geometry": {
        "type": "Point",
        "coordinates": [
          -101.509680000106,
          32.2291900001361
        ]
      },
      "properties": {
        "OBJECTID": 201123,
        "CROSSING": "967939S",
        "EFFDATE": 1568764800000,
        "REASON": "14",
        "StateCode": "48",
        "CountyCode": "48227",
        "STCYFIPS": "48227",
        "CITYCD": "482270640",
        "RAILROAD": "BSR",
        "RRDIV": "AIRPARK LINE",
        "RRSUBDIV": "#N\\A",
        "HIGHWAY": "LR",
        "STREET": "BETHEL DR",
        "TTSTN": "679680",
        "MILEPOST": "0002.00",
        "TYPEXING": "Public",
        "POSXING": "At Grade",
        "PRVCAT": "14",
        "INIT": "1",
        "LATITUDE": 32.22919,
        "LONGITUD": -101.50968,
        "LLSOURCE": "1",
        "WHISTBAN": "0",
        "RRCONT": "4322647766",
        "POLCONT": "4328160212",
        "INV_LINK": "https://safetydata.fra.dot.gov/OfficeofSafety/PublicSite/Crossing/Crossing.aspx?phasetype=C&rpttype=I&txtcrossingnum=967939S",
        "ACC_LINK": "https://safetydata.fra.dot.gov/OfficeofSafety/PublicSite/Crossing/Crossing.aspx?phasetype=C&rpttype=A&txtcrossingnum=967939S",
        "TTSTNNAM": "BIG SPRING",
        "XPURPOSE": "1",
        "OPERATINGR": "BSR",
        "OPERATIN_1": "Primary",
        "DAYTHRU": 10,
        "NGHTTHRU": 3,
        "MAINTRK": 1,
        "SIDINGTRK": 0,
        "YARDTRK": 0,
        "TRANSITTRK": 0,
        "INDUSTRYTR": 2,
        "OTHRTRK": 0,
        "WDCODE": "Crossbucks",
        "REVISIONDA": "2012/01/01 00:00:00",
        "LASTUPDATE": "9/18/2019",
        "AADT": "000085",
        "AADTYEAR": "1978",
        "STATENAME": "TEXAS",
        "STATEAB": "TX",
        "COUNTYNAME": "HOWARD",
        "CITYNAME": "BIG SPRING",
        "LATDD": 32.22919,
        "LONGDD": -101.50968,
        "gridlyProductionCertified": true,
        "gridlyClassification": "PUBLIC_ROADWAY",
        "gridlyDisplayName": "BETHEL DR",
        "gridlyId": "FRA-967939S"
      }
    },
    {
      "type": "Feature",
      "id": 201493,
      "geometry": {
        "type": "Point",
        "coordinates": [
          -101.510675000166,
          32.2342026996577
        ]
      },
      "properties": {
        "OBJECTID": 201493,
        "CROSSING": "945808C",
        "EFFDATE": 1665705600000,
        "REASON": "14",
        "StateCode": "48",
        "CountyCode": "48227",
        "STCYFIPS": "48227",
        "CITYCD": "482270640",
        "RAILROAD": "BSR",
        "RRDIV": "#N\\A",
        "RRSUBDIV": "#N\\A",
        "HIGHWAY": "LS",
        "STREET": "AIRPORT ST",
        "TTSTN": "679680",
        "MILEPOST": "0001.44",
        "TYPEXING": "Public",
        "POSXING": "At Grade",
        "PRVCAT": "14",
        "INIT": "2",
        "LATITUDE": 32.2342027,
        "LONGITUD": -101.510675,
        "LLSOURCE": "1",
        "WHISTBAN": "0",
        "RRCONT": "4322647766",
        "POLCONT": "4328160212",
        "INV_LINK": "https://safetydata.fra.dot.gov/OfficeofSafety/PublicSite/Crossing/Crossing.aspx?phasetype=C&rpttype=I&txtcrossingnum=945808C",
        "ACC_LINK": "https://safetydata.fra.dot.gov/OfficeofSafety/PublicSite/Crossing/Crossing.aspx?phasetype=C&rpttype=A&txtcrossingnum=945808C",
        "TTSTNNAM": "3801 BETHEL BIG SPRING",
        "XPURPOSE": "1",
        "OPERATINGR": "BSR",
        "OPERATIN_1": "Primary",
        "DAYTHRU": 10,
        "NGHTTHRU": 3,
        "MAINTRK": 1,
        "SIDINGTRK": 1,
        "YARDTRK": 0,
        "TRANSITTRK": 0,
        "INDUSTRYTR": 0,
        "OTHRTRK": 0,
        "WDCODE": "Special Active Warning Devices",
        "REVISIONDA": "2012/01/01 00:00:00",
        "LASTUPDATE": "10/14/2022",
        "AADT": "190",
        "AADTYEAR": "2019",
        "STATENAME": "TEXAS",
        "STATEAB": "TX",
        "COUNTYNAME": "HOWARD",
        "CITYNAME": "BIG SPRING",
        "LATDD": 32.2342027,
        "LONGDD": -101.510675,
        "gridlyProductionCertified": true,
        "gridlyClassification": "PUBLIC_ROADWAY",
        "gridlyDisplayName": "AIRPORT ST",
        "gridlyId": "FRA-945808C"
      }
    },
    {
      "type": "Feature",
      "id": 201494,
      "geometry": {
        "type": "Point",
        "coordinates": [
          -101.51016499963,
          32.2295752001192
        ]
      },
      "properties": {
        "OBJECTID": 201494,
        "CROSSING": "945809J",
        "EFFDATE": 1665705600000,
        "REASON": "14",
        "StateCode": "48",
        "CountyCode": "48227",
        "STCYFIPS": "48227",
        "CITYCD": "482270640",
        "RAILROAD": "BSR",
        "RRDIV": "#N\\A",
        "RRSUBDIV": "#N\\A",
        "HIGHWAY": "lr",
        "STREET": "BETHEL DR",
        "TTSTN": "679680",
        "MILEPOST": "0001.76",
        "TYPEXING": "Public",
        "POSXING": "At Grade",
        "PRVCAT": "14",
        "INIT": "2",
        "LATITUDE": 32.2295752,
        "LONGITUD": -101.510165,
        "LLSOURCE": "1",
        "WHISTBAN": "0",
        "RRCONT": "4322647766",
        "POLCONT": "4328160212",
        "INV_LINK": "https://safetydata.fra.dot.gov/OfficeofSafety/PublicSite/Crossing/Crossing.aspx?phasetype=C&rpttype=I&txtcrossingnum=945809J",
        "ACC_LINK": "https://safetydata.fra.dot.gov/OfficeofSafety/PublicSite/Crossing/Crossing.aspx?phasetype=C&rpttype=A&txtcrossingnum=945809J",
        "TTSTNNAM": "3801 BETHEL AVE BIG SPRING",
        "XPURPOSE": "1",
        "OPERATINGR": "BSR",
        "OPERATIN_1": "Primary",
        "DAYTHRU": 10,
        "NGHTTHRU": 3,
        "MAINTRK": 1,
        "SIDINGTRK": 0,
        "YARDTRK": 0,
        "TRANSITTRK": 0,
        "INDUSTRYTR": 1,
        "OTHRTRK": 2,
        "WDCODE": "Highway signals, bells",
        "REVISIONDA": "2012/01/01 00:00:00",
        "LASTUPDATE": "10/14/2022",
        "AADT": "406",
        "AADTYEAR": "2019",
        "STATENAME": "TEXAS",
        "STATEAB": "TX",
        "COUNTYNAME": "HOWARD",
        "CITYNAME": "BIG SPRING",
        "LATDD": 32.2295752,
        "LONGDD": -101.510165,
        "gridlyProductionCertified": true,
        "gridlyClassification": "PUBLIC_ROADWAY",
        "gridlyDisplayName": "BETHEL DR",
        "gridlyId": "FRA-945809J"
      }
    },
    {
      "type": "Feature",
      "id": 201513,
      "geometry": {
        "type": "Point",
        "coordinates": [
          -101.511382000346,
          32.2358850003625
        ]
      },
      "properties": {
        "OBJECTID": 201513,
        "CROSSING": "796375L",
        "EFFDATE": 1665705600000,
        "REASON": "14",
        "StateCode": "48",
        "CountyCode": "48227",
        "STCYFIPS": "48227",
        "CITYCD": "482270640",
        "RAILROAD": "BSR",
        "RRDIV": "#N\\A",
        "RRSUBDIV": "#N\\A",
        "HIGHWAY": "stbus 20",
        "STREET": "BUS 20 hwy 80",
        "TTSTN": "679680",
        "MILEPOST": "0001.30",
        "TYPEXING": "Public",
        "POSXING": "At Grade",
        "PRVCAT": "14",
        "INIT": "2",
        "LATITUDE": 32.235885,
        "LONGITUD": -101.511382,
        "LLSOURCE": "1",
        "WHISTBAN": "0",
        "RRCONT": "4322647766",
        "POLCONT": "4328160212",
        "INV_LINK": "https://safetydata.fra.dot.gov/OfficeofSafety/PublicSite/Crossing/Crossing.aspx?phasetype=C&rpttype=I&txtcrossingnum=796375L",
        "ACC_LINK": "https://safetydata.fra.dot.gov/OfficeofSafety/PublicSite/Crossing/Crossing.aspx?phasetype=C&rpttype=A&txtcrossingnum=796375L",
        "TTSTNNAM": "3801 bethel BIG SPRING",
        "XPURPOSE": "1",
        "OPERATINGR": "BSR",
        "OPERATIN_1": "Primary",
        "DAYTHRU": 25,
        "NGHTTHRU": 3,
        "MAINTRK": 0,
        "SIDINGTRK": 0,
        "YARDTRK": 0,
        "TRANSITTRK": 0,
        "INDUSTRYTR": 1,
        "OTHRTRK": 1,
        "WDCODE": "Flashing lights",
        "REVISIONDA": "2012/01/01 00:00:00",
        "LASTUPDATE": "10/14/2022",
        "AADT": "7441",
        "AADTYEAR": "2019",
        "STATENAME": "TEXAS",
        "STATEAB": "TX",
        "COUNTYNAME": "HOWARD",
        "CITYNAME": "BIG SPRING",
        "LATDD": 32.235885,
        "LONGDD": -101.511382,
        "gridlyProductionCertified": true,
        "gridlyClassification": "PUBLIC_ROADWAY",
        "gridlyDisplayName": "BUS 20 hwy 80",
        "gridlyId": "FRA-796375L"
      }
    },
    {
      "type": "Feature",
      "id": 210043,
      "geometry": {
        "type": "Point",
        "coordinates": [
          -101.454370000428,
          32.2621829996727
        ]
      },
      "properties": {
        "OBJECTID": 210043,
        "CROSSING": "859609P",
        "EFFDATE": 1756425600000,
        "REASON": "14",
        "StateCode": "48",
        "CountyCode": "48227",
        "STCYFIPS": "48227",
        "CITYCD": "482270640",
        "RAILROAD": "UP",
        "RRDIV": "TEXOMA",
        "RRSUBDIV": "TOYAH SUB",
        "HIGHWAY": "TBD",
        "STREET": "I 20",
        "TTSTN": "",
        "MILEPOST": "0511.921",
        "TYPEXING": "Public",
        "POSXING": "RR Under",
        "PRVCAT": "14",
        "INIT": "1",
        "LATITUDE": 32.262183,
        "LONGITUD": -101.45437,
        "LLSOURCE": "1",
        "WHISTBAN": "",
        "RRCONT": "4025443721",
        "POLCONT": "8008488715",
        "INV_LINK": "https://safetydata.fra.dot.gov/OfficeofSafety/PublicSite/Crossing/Crossing.aspx?phasetype=C&rpttype=I&txtcrossingnum=859609P",
        "ACC_LINK": "https://safetydata.fra.dot.gov/OfficeofSafety/PublicSite/Crossing/Crossing.aspx?phasetype=C&rpttype=A&txtcrossingnum=859609P",
        "TTSTNNAM": "",
        "XPURPOSE": "1",
        "OPERATINGR": "UP",
        "OPERATIN_1": "Primary",
        "DAYTHRU": 8,
        "NGHTTHRU": 7,
        "MAINTRK": 2,
        "SIDINGTRK": 0,
        "YARDTRK": 0,
        "TRANSITTRK": 0,
        "INDUSTRYTR": 0,
        "OTHRTRK": 0,
        "WDCODE": "",
        "REVISIONDA": "1975/01/01 00:00:00",
        "LASTUPDATE": "8/29/2025",
        "AADT": "",
        "AADTYEAR": "",
        "STATENAME": "TEXAS",
        "STATEAB": "TX",
        "COUNTYNAME": "HOWARD",
        "CITYNAME": "BIG SPRING",
        "LATDD": 32.262183,
        "LONGDD": -101.45437,
        "gridlyProductionCertified": true,
        "gridlyClassification": "PUBLIC_ROADWAY",
        "gridlyDisplayName": "I 20",
        "gridlyId": "FRA-859609P"
      }
    },
    {
      "type": "Feature",
      "id": 210044,
      "geometry": {
        "type": "Point",
        "coordinates": [
          -101.470436000077,
          32.2580220001132
        ]
      },
      "properties": {
        "OBJECTID": 210044,
        "CROSSING": "972530X",
        "EFFDATE": 1756425600000,
        "REASON": "14",
        "StateCode": "48",
        "CountyCode": "48227",
        "STCYFIPS": "48227",
        "CITYCD": "482270640",
        "RAILROAD": "UP",
        "RRDIV": "TEXOMA",
        "RRSUBDIV": "Toyah Sub",
        "HIGHWAY": "TBD",
        "STREET": "N Owens St/TX 350",
        "TTSTN": "",
        "MILEPOST": "0512.932",
        "TYPEXING": "Public",
        "POSXING": "RR Under",
        "PRVCAT": "14",
        "INIT": "1",
        "LATITUDE": 32.258022,
        "LONGITUD": -101.470436,
        "LLSOURCE": "1",
        "WHISTBAN": "",
        "RRCONT": "4025443721",
        "POLCONT": "8008488715",
        "INV_LINK": "https://safetydata.fra.dot.gov/OfficeofSafety/PublicSite/Crossing/Crossing.aspx?phasetype=C&rpttype=I&txtcrossingnum=972530X",
        "ACC_LINK": "https://safetydata.fra.dot.gov/OfficeofSafety/PublicSite/Crossing/Crossing.aspx?phasetype=C&rpttype=A&txtcrossingnum=972530X",
        "TTSTNNAM": "",
        "XPURPOSE": "1",
        "OPERATINGR": "UP",
        "OPERATIN_1": "Primary",
        "DAYTHRU": 8,
        "NGHTTHRU": 7,
        "MAINTRK": 1,
        "SIDINGTRK": 0,
        "YARDTRK": 2,
        "TRANSITTRK": 0,
        "INDUSTRYTR": 0,
        "OTHRTRK": 0,
        "WDCODE": "",
        "REVISIONDA": "1975/01/01 00:00:00",
        "LASTUPDATE": "8/29/2025",
        "AADT": "",
        "AADTYEAR": "",
        "STATENAME": "TEXAS",
        "STATEAB": "TX",
        "COUNTYNAME": "HOWARD",
        "CITYNAME": "BIG SPRING",
        "LATDD": 32.258022,
        "LONGDD": -101.470436,
        "gridlyProductionCertified": true,
        "gridlyClassification": "PUBLIC_ROADWAY",
        "gridlyDisplayName": "N Owens St/TX 350",
        "gridlyId": "FRA-972530X"
      }
    },
    {
      "type": "Feature",
      "id": 210045,
      "geometry": {
        "type": "Point",
        "coordinates": [
          -101.430038999803,
          32.2693039999841
        ]
      },
      "properties": {
        "OBJECTID": 210045,
        "CROSSING": "796168S",
        "EFFDATE": 1756425600000,
        "REASON": "14",
        "StateCode": "48",
        "CountyCode": "48227",
        "STCYFIPS": "48227",
        "CITYCD": "482270640",
        "RAILROAD": "UP",
        "RRDIV": "TEXOMA",
        "RRSUBDIV": "TOYAH SUB",
        "HIGHWAY": "NA",
        "STREET": "Corbell road",
        "TTSTN": "679680",
        "MILEPOST": "0510.338",
        "TYPEXING": "Private",
        "POSXING": "At Grade",
        "PRVCAT": "14",
        "INIT": "1",
        "LATITUDE": 32.269304,
        "LONGITUD": -101.430039,
        "LLSOURCE": "1",
        "WHISTBAN": "0",
        "RRCONT": "4025443721",
        "POLCONT": "8008488715",
        "INV_LINK": "https://safetydata.fra.dot.gov/OfficeofSafety/PublicSite/Crossing/Crossing.aspx?phasetype=C&rpttype=I&txtcrossingnum=796168S",
        "ACC_LINK": "https://safetydata.fra.dot.gov/OfficeofSafety/PublicSite/Crossing/Crossing.aspx?phasetype=C&rpttype=A&txtcrossingnum=796168S",
        "TTSTNNAM": "",
        "XPURPOSE": "1",
        "OPERATINGR": "UP",
        "OPERATIN_1": "Primary",
        "DAYTHRU": 10,
        "NGHTTHRU": 10,
        "MAINTRK": 1,
        "SIDINGTRK": 0,
        "YARDTRK": 0,
        "TRANSITTRK": 0,
        "INDUSTRYTR": 0,
        "OTHRTRK": 0,
        "WDCODE": "",
        "REVISIONDA": "1975/01/01 00:00:00",
        "LASTUPDATE": "8/29/2025",
        "AADT": "1",
        "AADTYEAR": "1970",
        "STATENAME": "TEXAS",
        "STATEAB": "TX",
        "COUNTYNAME": "HOWARD",
        "CITYNAME": "BIG SPRING",
        "LATDD": 32.269304,
        "LONGDD": -101.430039,
        "gridlyProductionCertified": true,
        "gridlyClassification": "PUBLIC_ROADWAY",
        "gridlyDisplayName": "Corbell road",
        "gridlyId": "FRA-796168S"
      }
    },
    {
      "type": "Feature",
      "id": 210047,
      "geometry": {
        "type": "Point",
        "coordinates": [
          -101.455041599799,
          32.2619867996288
        ]
      },
      "properties": {
        "OBJECTID": 210047,
        "CROSSING": "796170T",
        "EFFDATE": 1756425600000,
        "REASON": "14",
        "StateCode": "48",
        "CountyCode": "48227",
        "STCYFIPS": "48227",
        "CITYCD": "482270640",
        "RAILROAD": "UP",
        "RRDIV": "TEXOMA",
        "RRSUBDIV": "TOYAH SUB",
        "HIGHWAY": "ST 0000",
        "STREET": "BIRDWELL LANE",
        "TTSTN": "679680",
        "MILEPOST": "0511.970",
        "TYPEXING": "Public",
        "POSXING": "At Grade",
        "PRVCAT": "14",
        "INIT": "1",
        "LATITUDE": 32.2619868,
        "LONGITUD": -101.4550416,
        "LLSOURCE": "1",
        "WHISTBAN": "0",
        "RRCONT": "4025443721",
        "POLCONT": "8008488715",
        "INV_LINK": "https://safetydata.fra.dot.gov/OfficeofSafety/PublicSite/Crossing/Crossing.aspx?phasetype=C&rpttype=I&txtcrossingnum=796170T",
        "ACC_LINK": "https://safetydata.fra.dot.gov/OfficeofSafety/PublicSite/Crossing/Crossing.aspx?phasetype=C&rpttype=A&txtcrossingnum=796170T",
        "TTSTNNAM": "",
        "XPURPOSE": "1",
        "OPERATINGR": "UP",
        "OPERATIN_1": "Primary",
        "DAYTHRU": 10,
        "NGHTTHRU": 10,
        "MAINTRK": 1,
        "SIDINGTRK": 0,
        "YARDTRK": 0,
        "TRANSITTRK": 0,
        "INDUSTRYTR": 0,
        "OTHRTRK": 0,
        "WDCODE": "All other Gates",
        "REVISIONDA": "1975/01/01 00:00:00",
        "LASTUPDATE": "8/29/2025",
        "AADT": "2397",
        "AADTYEAR": "2019",
        "STATENAME": "TEXAS",
        "STATEAB": "TX",
        "COUNTYNAME": "HOWARD",
        "CITYNAME": "BIG SPRING",
        "LATDD": 32.2619868,
        "LONGDD": -101.4550416,
        "gridlyProductionCertified": true,
        "gridlyClassification": "PUBLIC_ROADWAY",
        "gridlyDisplayName": "BIRDWELL LANE",
        "gridlyId": "FRA-796170T"
      }
    },
    {
      "type": "Feature",
      "id": 210048,
      "geometry": {
        "type": "Point",
        "coordinates": [
          -101.470123999907,
          32.2581530001231
        ]
      },
      "properties": {
        "OBJECTID": 210048,
        "CROSSING": "978287F",
        "EFFDATE": 1756425600000,
        "REASON": "14",
        "StateCode": "48",
        "CountyCode": "48227",
        "STCYFIPS": "48227",
        "CITYCD": "482270640",
        "RAILROAD": "UP",
        "RRDIV": "TEXOMA",
        "RRSUBDIV": "Toyah Sub",
        "HIGHWAY": "TBD",
        "STREET": "Private UPRR",
        "TTSTN": "",
        "MILEPOST": "0512.905",
        "TYPEXING": "Private",
        "POSXING": "At Grade",
        "PRVCAT": "14",
        "INIT": "1",
        "LATITUDE": 32.258153,
        "LONGITUD": -101.470124,
        "LLSOURCE": "1",
        "WHISTBAN": "",
        "RRCONT": "4025443721",
        "POLCONT": "8008488715",
        "INV_LINK": "https://safetydata.fra.dot.gov/OfficeofSafety/PublicSite/Crossing/Crossing.aspx?phasetype=C&rpttype=I&txtcrossingnum=978287F",
        "ACC_LINK": "https://safetydata.fra.dot.gov/OfficeofSafety/PublicSite/Crossing/Crossing.aspx?phasetype=C&rpttype=A&txtcrossingnum=978287F",
        "TTSTNNAM": "",
        "XPURPOSE": "1",
        "OPERATINGR": "UP",
        "OPERATIN_1": "Primary",
        "DAYTHRU": 10,
        "NGHTTHRU": 10,
        "MAINTRK": 1,
        "SIDINGTRK": 1,
        "YARDTRK": 1,
        "TRANSITTRK": 0,
        "INDUSTRYTR": 0,
        "OTHRTRK": 0,
        "WDCODE": "",
        "REVISIONDA": "1975/01/01 00:00:00",
        "LASTUPDATE": "8/29/2025",
        "AADT": "",
        "AADTYEAR": "",
        "STATENAME": "TEXAS",
        "STATEAB": "TX",
        "COUNTYNAME": "HOWARD",
        "CITYNAME": "BIG SPRING",
        "LATDD": 32.258153,
        "LONGDD": -101.470124,
        "gridlyProductionCertified": true,
        "gridlyClassification": "PUBLIC_ROADWAY",
        "gridlyDisplayName": "Private UPRR",
        "gridlyId": "FRA-978287F"
      }
    },
    {
      "type": "Feature",
      "id": 210049,
      "geometry": {
        "type": "Point",
        "coordinates": [
          -101.421957000024,
          32.270021000364
        ]
      },
      "properties": {
        "OBJECTID": 210049,
        "CROSSING": "796167K",
        "EFFDATE": 1756425600000,
        "REASON": "14",
        "StateCode": "48",
        "CountyCode": "48227",
        "STCYFIPS": "48227",
        "CITYCD": "482270640",
        "RAILROAD": "UP",
        "RRDIV": "TEXOMA",
        "RRSUBDIV": "TOYAH SUB",
        "HIGHWAY": "PRIVATE",
        "STREET": "Refinery Road",
        "TTSTN": "679680",
        "MILEPOST": "0509.828",
        "TYPEXING": "Private",
        "POSXING": "RR Under",
        "PRVCAT": "14",
        "INIT": "1",
        "LATITUDE": 32.270021,
        "LONGITUD": -101.421957,
        "LLSOURCE": "1",
        "WHISTBAN": "0",
        "RRCONT": "4025443721",
        "POLCONT": "8008488715",
        "INV_LINK": "https://safetydata.fra.dot.gov/OfficeofSafety/PublicSite/Crossing/Crossing.aspx?phasetype=C&rpttype=I&txtcrossingnum=796167K",
        "ACC_LINK": "https://safetydata.fra.dot.gov/OfficeofSafety/PublicSite/Crossing/Crossing.aspx?phasetype=C&rpttype=A&txtcrossingnum=796167K",
        "TTSTNNAM": "",
        "XPURPOSE": "1",
        "OPERATINGR": "UP",
        "OPERATIN_1": "Primary",
        "DAYTHRU": 8,
        "NGHTTHRU": 5,
        "MAINTRK": 1,
        "SIDINGTRK": 0,
        "YARDTRK": 0,
        "TRANSITTRK": 0,
        "INDUSTRYTR": 0,
        "OTHRTRK": 0,
        "WDCODE": "",
        "REVISIONDA": "1975/01/01 00:00:00",
        "LASTUPDATE": "8/29/2025",
        "AADT": "1",
        "AADTYEAR": "1970",
        "STATENAME": "TEXAS",
        "STATEAB": "TX",
        "COUNTYNAME": "HOWARD",
        "CITYNAME": "BIG SPRING",
        "LATDD": 32.270021,
        "LONGDD": -101.421957,
        "gridlyProductionCertified": true,
        "gridlyClassification": "PUBLIC_ROADWAY",
        "gridlyDisplayName": "Refinery Road",
        "gridlyId": "FRA-796167K"
      }
    },
    {
      "type": "Feature",
      "id": 210054,
      "geometry": {
        "type": "Point",
        "coordinates": [
          -101.437086000238,
          32.2671060003537
        ]
      },
      "properties": {
        "OBJECTID": 210054,
        "CROSSING": "796169Y",
        "EFFDATE": 1756425600000,
        "REASON": "14",
        "StateCode": "48",
        "CountyCode": "48227",
        "STCYFIPS": "48227",
        "CITYCD": "482270640",
        "RAILROAD": "UP",
        "RRDIV": "TEXOMA",
        "RRSUBDIV": "TOYAH SUB",
        "HIGHWAY": "FM 0700",
        "STREET": "FM 700",
        "TTSTN": "679680",
        "MILEPOST": "0510.850",
        "TYPEXING": "Public",
        "POSXING": "RR Under",
        "PRVCAT": "14",
        "INIT": "1",
        "LATITUDE": 32.267106,
        "LONGITUD": -101.437086,
        "LLSOURCE": "1",
        "WHISTBAN": "0",
        "RRCONT": "4025443721",
        "POLCONT": "8008488715",
        "INV_LINK": "https://safetydata.fra.dot.gov/OfficeofSafety/PublicSite/Crossing/Crossing.aspx?phasetype=C&rpttype=I&txtcrossingnum=796169Y",
        "ACC_LINK": "https://safetydata.fra.dot.gov/OfficeofSafety/PublicSite/Crossing/Crossing.aspx?phasetype=C&rpttype=A&txtcrossingnum=796169Y",
        "TTSTNNAM": "",
        "XPURPOSE": "1",
        "OPERATINGR": "UP",
        "OPERATIN_1": "Primary",
        "DAYTHRU": 8,
        "NGHTTHRU": 5,
        "MAINTRK": 1,
        "SIDINGTRK": 0,
        "YARDTRK": 0,
        "TRANSITTRK": 0,
        "INDUSTRYTR": 0,
        "OTHRTRK": 0,
        "WDCODE": "",
        "REVISIONDA": "1975/01/01 00:00:00",
        "LASTUPDATE": "8/29/2025",
        "AADT": "2400",
        "AADTYEAR": "2011",
        "STATENAME": "TEXAS",
        "STATEAB": "TX",
        "COUNTYNAME": "HOWARD",
        "CITYNAME": "BIG SPRING",
        "LATDD": 32.267106,
        "LONGDD": -101.437086,
        "gridlyProductionCertified": true,
        "gridlyClassification": "PUBLIC_ROADWAY",
        "gridlyDisplayName": "FM 700",
        "gridlyId": "FRA-796169Y"
      }
    },
    {
      "type": "Feature",
      "id": 210055,
      "geometry": {
        "type": "Point",
        "coordinates": [
          -101.471483000015,
          32.2575950000734
        ]
      },
      "properties": {
        "OBJECTID": 210055,
        "CROSSING": "796171A",
        "EFFDATE": 1756425600000,
        "REASON": "14",
        "StateCode": "48",
        "CountyCode": "48227",
        "STCYFIPS": "48227",
        "CITYCD": "482270640",
        "RAILROAD": "UP",
        "RRDIV": "TEXOMA",
        "RRSUBDIV": "TOYAH SUB",
        "HIGHWAY": "SH 0350",
        "STREET": "BENTON STREET",
        "TTSTN": "679680",
        "MILEPOST": "0513.000",
        "TYPEXING": "Public",
        "POSXING": "RR Under",
        "PRVCAT": "14",
        "INIT": "1",
        "LATITUDE": 32.257595,
        "LONGITUD": -101.471483,
        "LLSOURCE": "1",
        "WHISTBAN": "0",
        "RRCONT": "4025443721",
        "POLCONT": "8008488715",
        "INV_LINK": "https://safetydata.fra.dot.gov/OfficeofSafety/PublicSite/Crossing/Crossing.aspx?phasetype=C&rpttype=I&txtcrossingnum=796171A",
        "ACC_LINK": "https://safetydata.fra.dot.gov/OfficeofSafety/PublicSite/Crossing/Crossing.aspx?phasetype=C&rpttype=A&txtcrossingnum=796171A",
        "TTSTNNAM": "",
        "XPURPOSE": "1",
        "OPERATINGR": "UP",
        "OPERATIN_1": "Primary",
        "DAYTHRU": 8,
        "NGHTTHRU": 5,
        "MAINTRK": 1,
        "SIDINGTRK": 1,
        "YARDTRK": 3,
        "TRANSITTRK": 0,
        "INDUSTRYTR": 0,
        "OTHRTRK": 0,
        "WDCODE": "",
        "REVISIONDA": "1975/01/01 00:00:00",
        "LASTUPDATE": "8/29/2025",
        "AADT": "1",
        "AADTYEAR": "1970",
        "STATENAME": "TEXAS",
        "STATEAB": "TX",
        "COUNTYNAME": "HOWARD",
        "CITYNAME": "BIG SPRING",
        "LATDD": 32.257595,
        "LONGDD": -101.471483,
        "gridlyProductionCertified": true,
        "gridlyClassification": "PUBLIC_ROADWAY",
        "gridlyDisplayName": "BENTON STREET",
        "gridlyId": "FRA-796171A"
      }
    },
    {
      "type": "Feature",
      "id": 210056,
      "geometry": {
        "type": "Point",
        "coordinates": [
          -101.480549999808,
          32.2540679997212
        ]
      },
      "properties": {
        "OBJECTID": 210056,
        "CROSSING": "796372R",
        "EFFDATE": 1756425600000,
        "REASON": "14",
        "StateCode": "48",
        "CountyCode": "48227",
        "STCYFIPS": "48227",
        "CITYCD": "482270640",
        "RAILROAD": "UP",
        "RRDIV": "TEXOMA",
        "RRSUBDIV": "TOYAH SUB",
        "HIGHWAY": "US 0087",
        "STREET": "US 87/GREGG STREET",
        "TTSTN": "679680",
        "MILEPOST": "0513.650",
        "TYPEXING": "Public",
        "POSXING": "RR Under",
        "PRVCAT": "14",
        "INIT": "1",
        "LATITUDE": 32.254068,
        "LONGITUD": -101.48055,
        "LLSOURCE": "1",
        "WHISTBAN": "0",
        "RRCONT": "4025443721",
        "POLCONT": "8008488715",
        "INV_LINK": "https://safetydata.fra.dot.gov/OfficeofSafety/PublicSite/Crossing/Crossing.aspx?phasetype=C&rpttype=I&txtcrossingnum=796372R",
        "ACC_LINK": "https://safetydata.fra.dot.gov/OfficeofSafety/PublicSite/Crossing/Crossing.aspx?phasetype=C&rpttype=A&txtcrossingnum=796372R",
        "TTSTNNAM": "",
        "XPURPOSE": "1",
        "OPERATINGR": "UP",
        "OPERATIN_1": "Primary",
        "DAYTHRU": 8,
        "NGHTTHRU": 5,
        "MAINTRK": 1,
        "SIDINGTRK": 0,
        "YARDTRK": 0,
        "TRANSITTRK": 0,
        "INDUSTRYTR": 0,
        "OTHRTRK": 0,
        "WDCODE": "",
        "REVISIONDA": "1975/01/01 00:00:00",
        "LASTUPDATE": "8/29/2025",
        "AADT": "13200",
        "AADTYEAR": "2011",
        "STATENAME": "TEXAS",
        "STATEAB": "TX",
        "COUNTYNAME": "HOWARD",
        "CITYNAME": "BIG SPRING",
        "LATDD": 32.254068,
        "LONGDD": -101.48055,
        "gridlyProductionCertified": true,
        "gridlyClassification": "PUBLIC_ROADWAY",
        "gridlyDisplayName": "US 87/GREGG STREET",
        "gridlyId": "FRA-796372R"
      }
    },
    {
      "type": "Feature",
      "id": 210086,
      "geometry": {
        "type": "Point",
        "coordinates": [
          -101.270833400014,
          32.3029053996825
        ]
      },
      "properties": {
        "OBJECTID": 210086,
        "CROSSING": "796159T",
        "EFFDATE": 1756425600000,
        "REASON": "14",
        "StateCode": "48",
        "CountyCode": "48227",
        "STCYFIPS": "48227",
        "CITYCD": "482271410",
        "RAILROAD": "UP",
        "RRDIV": "TEXOMA",
        "RRSUBDIV": "TOYAH SUB",
        "HIGHWAY": "CO 0049",
        "STREET": "SNYDER FIELD ROAD",
        "TTSTN": "679645",
        "MILEPOST": "0500.800",
        "TYPEXING": "Public",
        "POSXING": "At Grade",
        "PRVCAT": "14",
        "INIT": "1",
        "LATITUDE": 32.3029054,
        "LONGITUD": -101.2708334,
        "LLSOURCE": "1",
        "WHISTBAN": "0",
        "RRCONT": "4025443721",
        "POLCONT": "8008488715",
        "INV_LINK": "https://safetydata.fra.dot.gov/OfficeofSafety/PublicSite/Crossing/Crossing.aspx?phasetype=C&rpttype=I&txtcrossingnum=796159T",
        "ACC_LINK": "https://safetydata.fra.dot.gov/OfficeofSafety/PublicSite/Crossing/Crossing.aspx?phasetype=C&rpttype=A&txtcrossingnum=796159T",
        "TTSTNNAM": "",
        "XPURPOSE": "1",
        "OPERATINGR": "UP",
        "OPERATIN_1": "Primary",
        "DAYTHRU": 10,
        "NGHTTHRU": 10,
        "MAINTRK": 1,
        "SIDINGTRK": 0,
        "YARDTRK": 0,
        "TRANSITTRK": 0,
        "INDUSTRYTR": 0,
        "OTHRTRK": 0,
        "WDCODE": "Crossbucks",
        "REVISIONDA": "1975/01/01 00:00:00",
        "LASTUPDATE": "8/29/2025",
        "AADT": "53",
        "AADTYEAR": "2019",
        "STATENAME": "TEXAS",
        "STATEAB": "TX",
        "COUNTYNAME": "HOWARD",
        "CITYNAME": "COAHOMA",
        "LATDD": 32.3029054,
        "LONGDD": -101.2708334,
        "gridlyProductionCertified": true,
        "gridlyClassification": "PUBLIC_ROADWAY",
        "gridlyDisplayName": "SNYDER FIELD ROAD",
        "gridlyId": "FRA-796159T"
      }
    },
    {
      "type": "Feature",
      "id": 210091,
      "geometry": {
        "type": "Point",
        "coordinates": [
          -101.28941570025,
          32.2987327003502
        ]
      },
      "properties": {
        "OBJECTID": 210091,
        "CROSSING": "796160M",
        "EFFDATE": 1756425600000,
        "REASON": "14",
        "StateCode": "48",
        "CountyCode": "48227",
        "STCYFIPS": "48227",
        "CITYCD": "482271410",
        "RAILROAD": "UP",
        "RRDIV": "TEXOMA",
        "RRSUBDIV": "TOYAH SUB",
        "HIGHWAY": "CO 0047",
        "STREET": "SOUTH MCGREGOR ROAD",
        "TTSTN": "679545",
        "MILEPOST": "0501.900",
        "TYPEXING": "Public",
        "POSXING": "At Grade",
        "PRVCAT": "14",
        "INIT": "1",
        "LATITUDE": 32.2987327,
        "LONGITUD": -101.2894157,
        "LLSOURCE": "1",
        "WHISTBAN": "0",
        "RRCONT": "4025443721",
        "POLCONT": "8008488715",
        "INV_LINK": "https://safetydata.fra.dot.gov/OfficeofSafety/PublicSite/Crossing/Crossing.aspx?phasetype=C&rpttype=I&txtcrossingnum=796160M",
        "ACC_LINK": "https://safetydata.fra.dot.gov/OfficeofSafety/PublicSite/Crossing/Crossing.aspx?phasetype=C&rpttype=A&txtcrossingnum=796160M",
        "TTSTNNAM": "",
        "XPURPOSE": "1",
        "OPERATINGR": "UP",
        "OPERATIN_1": "Primary",
        "DAYTHRU": 10,
        "NGHTTHRU": 10,
        "MAINTRK": 1,
        "SIDINGTRK": 0,
        "YARDTRK": 0,
        "TRANSITTRK": 0,
        "INDUSTRYTR": 0,
        "OTHRTRK": 0,
        "WDCODE": "Crossbucks",
        "REVISIONDA": "1975/01/01 00:00:00",
        "LASTUPDATE": "8/29/2025",
        "AADT": "145",
        "AADTYEAR": "2019",
        "STATENAME": "TEXAS",
        "STATEAB": "TX",
        "COUNTYNAME": "HOWARD",
        "CITYNAME": "COAHOMA",
        "LATDD": 32.2987327,
        "LONGDD": -101.2894157,
        "gridlyProductionCertified": true,
        "gridlyClassification": "PUBLIC_ROADWAY",
        "gridlyDisplayName": "SOUTH MCGREGOR ROAD",
        "gridlyId": "FRA-796160M"
      }
    },
    {
      "type": "Feature",
      "id": 210108,
      "geometry": {
        "type": "Point",
        "coordinates": [
          -101.300908799894,
          32.2963241999519
        ]
      },
      "properties": {
        "OBJECTID": 210108,
        "CROSSING": "796161U",
        "EFFDATE": 1756425600000,
        "REASON": "14",
        "StateCode": "48",
        "CountyCode": "48227",
        "STCYFIPS": "48227",
        "CITYCD": "482271410",
        "RAILROAD": "UP",
        "RRDIV": "TEXOMA",
        "RRSUBDIV": "TOYAH SUB",
        "HIGHWAY": "ST 0000",
        "STREET": "NORTH COLLEGE STREET",
        "TTSTN": "678753",
        "MILEPOST": "0502.610",
        "TYPEXING": "Public",
        "POSXING": "At Grade",
        "PRVCAT": "14",
        "INIT": "1",
        "LATITUDE": 32.2963242,
        "LONGITUD": -101.3009088,
        "LLSOURCE": "1",
        "WHISTBAN": "0",
        "RRCONT": "4025443721",
        "POLCONT": "8008488715",
        "INV_LINK": "https://safetydata.fra.dot.gov/OfficeofSafety/PublicSite/Crossing/Crossing.aspx?phasetype=C&rpttype=I&txtcrossingnum=796161U",
        "ACC_LINK": "https://safetydata.fra.dot.gov/OfficeofSafety/PublicSite/Crossing/Crossing.aspx?phasetype=C&rpttype=A&txtcrossingnum=796161U",
        "TTSTNNAM": "",
        "XPURPOSE": "1",
        "OPERATINGR": "UP",
        "OPERATIN_1": "Primary",
        "DAYTHRU": 10,
        "NGHTTHRU": 10,
        "MAINTRK": 1,
        "SIDINGTRK": 0,
        "YARDTRK": 0,
        "TRANSITTRK": 0,
        "INDUSTRYTR": 0,
        "OTHRTRK": 0,
        "WDCODE": "All other Gates",
        "REVISIONDA": "1975/01/01 00:00:00",
        "LASTUPDATE": "8/29/2025",
        "AADT": "386",
        "AADTYEAR": "2019",
        "STATENAME": "TEXAS",
        "STATEAB": "TX",
        "COUNTYNAME": "HOWARD",
        "CITYNAME": "COAHOMA",
        "LATDD": 32.2963242,
        "LONGDD": -101.3009088,
        "gridlyProductionCertified": true,
        "gridlyClassification": "PUBLIC_ROADWAY",
        "gridlyDisplayName": "NORTH COLLEGE STREET",
        "gridlyId": "FRA-796161U"
      }
    },
    {
      "type": "Feature",
      "id": 210109,
      "geometry": {
        "type": "Point",
        "coordinates": [
          -101.212401000138,
          32.3163209998155
        ]
      },
      "properties": {
        "OBJECTID": 210109,
        "CROSSING": "796158L",
        "EFFDATE": 1756425600000,
        "REASON": "14",
        "StateCode": "48",
        "CountyCode": "48227",
        "STCYFIPS": "48227",
        "CITYCD": "482271410",
        "RAILROAD": "UP",
        "RRDIV": "TEXOMA",
        "RRSUBDIV": "TOYAH SUB",
        "HIGHWAY": "IH 0020",
        "STREET": "I 20",
        "TTSTN": "679645",
        "MILEPOST": "0497.190",
        "TYPEXING": "Public",
        "POSXING": "RR Under",
        "PRVCAT": "14",
        "INIT": "1",
        "LATITUDE": 32.316321,
        "LONGITUD": -101.212401,
        "LLSOURCE": "1",
        "WHISTBAN": "0",
        "RRCONT": "4025443721",
        "POLCONT": "8008488715",
        "INV_LINK": "https://safetydata.fra.dot.gov/OfficeofSafety/PublicSite/Crossing/Crossing.aspx?phasetype=C&rpttype=I&txtcrossingnum=796158L",
        "ACC_LINK": "https://safetydata.fra.dot.gov/OfficeofSafety/PublicSite/Crossing/Crossing.aspx?phasetype=C&rpttype=A&txtcrossingnum=796158L",
        "TTSTNNAM": "",
        "XPURPOSE": "1",
        "OPERATINGR": "UP",
        "OPERATIN_1": "Primary",
        "DAYTHRU": 8,
        "NGHTTHRU": 5,
        "MAINTRK": 1,
        "SIDINGTRK": 0,
        "YARDTRK": 0,
        "TRANSITTRK": 0,
        "INDUSTRYTR": 0,
        "OTHRTRK": 0,
        "WDCODE": "",
        "REVISIONDA": "1975/01/01 00:00:00",
        "LASTUPDATE": "8/29/2025",
        "AADT": "11020",
        "AADTYEAR": "2011",
        "STATENAME": "TEXAS",
        "STATEAB": "TX",
        "COUNTYNAME": "HOWARD",
        "CITYNAME": "COAHOMA",
        "LATDD": 32.316321,
        "LONGDD": -101.212401,
        "gridlyProductionCertified": true,
        "gridlyClassification": "PUBLIC_ROADWAY",
        "gridlyDisplayName": "I 20",
        "gridlyId": "FRA-796158L"
      }
    },
    {
      "type": "Feature",
      "id": 210127,
      "geometry": {
        "type": "Point",
        "coordinates": [
          -101.306039199754,
          32.295332699873
        ]
      },
      "properties": {
        "OBJECTID": 210127,
        "CROSSING": "796162B",
        "EFFDATE": 1756425600000,
        "REASON": "14",
        "StateCode": "48",
        "CountyCode": "48227",
        "STCYFIPS": "48227",
        "CITYCD": "482271410",
        "RAILROAD": "UP",
        "RRDIV": "TEXOMA",
        "RRSUBDIV": "TOYAH SUB",
        "HIGHWAY": "FM 0820",
        "STREET": "SOUTH 1ST STREET",
        "TTSTN": "679545",
        "MILEPOST": "0502.930",
        "TYPEXING": "Public",
        "POSXING": "At Grade",
        "PRVCAT": "14",
        "INIT": "1",
        "LATITUDE": 32.2953327,
        "LONGITUD": -101.3060392,
        "LLSOURCE": "1",
        "WHISTBAN": "0",
        "RRCONT": "4025443721",
        "POLCONT": "8008488715",
        "INV_LINK": "https://safetydata.fra.dot.gov/OfficeofSafety/PublicSite/Crossing/Crossing.aspx?phasetype=C&rpttype=I&txtcrossingnum=796162B",
        "ACC_LINK": "https://safetydata.fra.dot.gov/OfficeofSafety/PublicSite/Crossing/Crossing.aspx?phasetype=C&rpttype=A&txtcrossingnum=796162B",
        "TTSTNNAM": "",
        "XPURPOSE": "1",
        "OPERATINGR": "UP",
        "OPERATIN_1": "Primary",
        "DAYTHRU": 10,
        "NGHTTHRU": 10,
        "MAINTRK": 1,
        "SIDINGTRK": 0,
        "YARDTRK": 0,
        "TRANSITTRK": 0,
        "INDUSTRYTR": 0,
        "OTHRTRK": 1,
        "WDCODE": "All other Gates",
        "REVISIONDA": "1975/01/01 00:00:00",
        "LASTUPDATE": "8/29/2025",
        "AADT": "2620",
        "AADTYEAR": "2019",
        "STATENAME": "TEXAS",
        "STATEAB": "TX",
        "COUNTYNAME": "HOWARD",
        "CITYNAME": "COAHOMA",
        "LATDD": 32.2953327,
        "LONGDD": -101.3060392,
        "gridlyProductionCertified": true,
        "gridlyClassification": "PUBLIC_ROADWAY",
        "gridlyDisplayName": "SOUTH 1ST STREET",
        "gridlyId": "FRA-796162B"
      }
    },
    {
      "type": "Feature",
      "id": 210128,
      "geometry": {
        "type": "Point",
        "coordinates": [
          -101.372789600309,
          32.2821971002015
        ]
      },
      "properties": {
        "OBJECTID": 210128,
        "CROSSING": "796164P",
        "EFFDATE": 1756425600000,
        "REASON": "14",
        "StateCode": "48",
        "CountyCode": "48227",
        "STCYFIPS": "48227",
        "CITYCD": "482270640",
        "RAILROAD": "UP",
        "RRDIV": "TEXOMA",
        "RRSUBDIV": "TOYAH SUB",
        "HIGHWAY": "CO 0037",
        "STREET": "MOSS LAKE ROAD",
        "TTSTN": "679680",
        "MILEPOST": "0506.920",
        "TYPEXING": "Public",
        "POSXING": "At Grade",
        "PRVCAT": "14",
        "INIT": "1",
        "LATITUDE": 32.2821971,
        "LONGITUD": -101.3727896,
        "LLSOURCE": "1",
        "WHISTBAN": "0",
        "RRCONT": "4025443721",
        "POLCONT": "8008488715",
        "INV_LINK": "https://safetydata.fra.dot.gov/OfficeofSafety/PublicSite/Crossing/Crossing.aspx?phasetype=C&rpttype=I&txtcrossingnum=796164P",
        "ACC_LINK": "https://safetydata.fra.dot.gov/OfficeofSafety/PublicSite/Crossing/Crossing.aspx?phasetype=C&rpttype=A&txtcrossingnum=796164P",
        "TTSTNNAM": "",
        "XPURPOSE": "1",
        "OPERATINGR": "UP",
        "OPERATIN_1": "Primary",
        "DAYTHRU": 10,
        "NGHTTHRU": 10,
        "MAINTRK": 1,
        "SIDINGTRK": 0,
        "YARDTRK": 0,
        "TRANSITTRK": 0,
        "INDUSTRYTR": 0,
        "OTHRTRK": 0,
        "WDCODE": "All other Gates",
        "REVISIONDA": "1975/01/01 00:00:00",
        "LASTUPDATE": "8/29/2025",
        "AADT": "858",
        "AADTYEAR": "2019",
        "STATENAME": "TEXAS",
        "STATEAB": "TX",
        "COUNTYNAME": "HOWARD",
        "CITYNAME": "BIG SPRING",
        "LATDD": 32.2821971,
        "LONGDD": -101.3727896,
        "gridlyProductionCertified": true,
        "gridlyClassification": "PUBLIC_ROADWAY",
        "gridlyDisplayName": "MOSS LAKE ROAD",
        "gridlyId": "FRA-796164P"
      }
    },
    {
      "type": "Feature",
      "id": 210284,
      "geometry": {
        "type": "Point",
        "coordinates": [
          -101.550709000216,
          32.2365370002904
        ]
      },
      "properties": {
        "OBJECTID": 210284,
        "CROSSING": "441038N",
        "EFFDATE": 1756425600000,
        "REASON": "14",
        "StateCode": "48",
        "CountyCode": "48227",
        "STCYFIPS": "48227",
        "CITYCD": "482270640",
        "RAILROAD": "UP",
        "RRDIV": "Texoma",
        "RRSUBDIV": "Toyah Sub",
        "HIGHWAY": "TBD",
        "STREET": "US 87",
        "TTSTN": "",
        "MILEPOST": "0518.100",
        "TYPEXING": "Public",
        "POSXING": "RR Under",
        "PRVCAT": "14",
        "INIT": "1",
        "LATITUDE": 32.236537,
        "LONGITUD": -101.550709,
        "LLSOURCE": "1",
        "WHISTBAN": "",
        "RRCONT": "4025443721",
        "POLCONT": "8008488715",
        "INV_LINK": "https://safetydata.fra.dot.gov/OfficeofSafety/PublicSite/Crossing/Crossing.aspx?phasetype=C&rpttype=I&txtcrossingnum=441038N",
        "ACC_LINK": "https://safetydata.fra.dot.gov/OfficeofSafety/PublicSite/Crossing/Crossing.aspx?phasetype=C&rpttype=A&txtcrossingnum=441038N",
        "TTSTNNAM": "",
        "XPURPOSE": "1",
        "OPERATINGR": "UP",
        "OPERATIN_1": "Primary",
        "DAYTHRU": 2,
        "NGHTTHRU": 2,
        "MAINTRK": 1,
        "SIDINGTRK": 0,
        "YARDTRK": 0,
        "TRANSITTRK": 0,
        "INDUSTRYTR": 0,
        "OTHRTRK": 0,
        "WDCODE": "",
        "REVISIONDA": "1975/01/01 00:00:00",
        "LASTUPDATE": "8/29/2025",
        "AADT": "",
        "AADTYEAR": "",
        "STATENAME": "TEXAS",
        "STATEAB": "TX",
        "COUNTYNAME": "HOWARD",
        "CITYNAME": "BIG SPRING",
        "LATDD": 32.236537,
        "LONGDD": -101.550709,
        "gridlyProductionCertified": true,
        "gridlyClassification": "PUBLIC_ROADWAY",
        "gridlyDisplayName": "US 87",
        "gridlyId": "FRA-441038N"
      }
    },
    {
      "type": "Feature",
      "id": 210360,
      "geometry": {
        "type": "Point",
        "coordinates": [
          -101.339334800314,
          32.288897599811
        ]
      },
      "properties": {
        "OBJECTID": 210360,
        "CROSSING": "796163H",
        "EFFDATE": 1756425600000,
        "REASON": "14",
        "StateCode": "48",
        "CountyCode": "48227",
        "STCYFIPS": "48227",
        "CITYCD": "482271410",
        "RAILROAD": "UP",
        "RRDIV": "TEXOMA",
        "RRSUBDIV": "TOYAH SUB",
        "HIGHWAY": "CO 0461",
        "STREET": "Salem Street",
        "TTSTN": "",
        "MILEPOST": "0504.935",
        "TYPEXING": "Public",
        "POSXING": "At Grade",
        "PRVCAT": "14",
        "INIT": "1",
        "LATITUDE": 32.2888976,
        "LONGITUD": -101.3393348,
        "LLSOURCE": "1",
        "WHISTBAN": "0",
        "RRCONT": "4025443721",
        "POLCONT": "8008488715",
        "INV_LINK": "https://safetydata.fra.dot.gov/OfficeofSafety/PublicSite/Crossing/Crossing.aspx?phasetype=C&rpttype=I&txtcrossingnum=796163H",
        "ACC_LINK": "https://safetydata.fra.dot.gov/OfficeofSafety/PublicSite/Crossing/Crossing.aspx?phasetype=C&rpttype=A&txtcrossingnum=796163H",
        "TTSTNNAM": "",
        "XPURPOSE": "1",
        "OPERATINGR": "UP",
        "OPERATIN_1": "Primary",
        "DAYTHRU": 10,
        "NGHTTHRU": 10,
        "MAINTRK": 1,
        "SIDINGTRK": 1,
        "YARDTRK": 0,
        "TRANSITTRK": 0,
        "INDUSTRYTR": 0,
        "OTHRTRK": 1,
        "WDCODE": "All other Gates",
        "REVISIONDA": "1975/01/01 00:00:00",
        "LASTUPDATE": "8/29/2025",
        "AADT": "342",
        "AADTYEAR": "2019",
        "STATENAME": "TEXAS",
        "STATEAB": "TX",
        "COUNTYNAME": "HOWARD",
        "CITYNAME": "COAHOMA",
        "LATDD": 32.2888976,
        "LONGDD": -101.3393348,
        "gridlyProductionCertified": true,
        "gridlyClassification": "PUBLIC_ROADWAY",
        "gridlyDisplayName": "Salem Street",
        "gridlyId": "FRA-796163H"
      }
    },
    {
      "type": "Feature",
      "id": 211851,
      "geometry": {
        "type": "Point",
        "coordinates": [
          -101.485434999696,
          32.2524489997701
        ]
      },
      "properties": {
        "OBJECTID": 211851,
        "CROSSING": "440980A",
        "EFFDATE": 1759104000000,
        "REASON": "14",
        "StateCode": "48",
        "CountyCode": "48227",
        "STCYFIPS": "48227",
        "CITYCD": "482270640",
        "RAILROAD": "UP",
        "RRDIV": "TEXOMA",
        "RRSUBDIV": "TOYAH SUB",
        "HIGHWAY": "NA",
        "STREET": "ALL PRIVATE IN YARD",
        "TTSTN": "",
        "MILEPOST": "0513.130",
        "TYPEXING": "Private",
        "POSXING": "At Grade",
        "PRVCAT": "14",
        "INIT": "1",
        "LATITUDE": 32.252449,
        "LONGITUD": -101.485435,
        "LLSOURCE": "1",
        "WHISTBAN": "",
        "RRCONT": "4025443721",
        "POLCONT": "8008488715",
        "INV_LINK": "https://safetydata.fra.dot.gov/OfficeofSafety/PublicSite/Crossing/Crossing.aspx?phasetype=C&rpttype=I&txtcrossingnum=440980A",
        "ACC_LINK": "https://safetydata.fra.dot.gov/OfficeofSafety/PublicSite/Crossing/Crossing.aspx?phasetype=C&rpttype=A&txtcrossingnum=440980A",
        "TTSTNNAM": "",
        "XPURPOSE": "1",
        "OPERATINGR": "UP",
        "OPERATIN_1": "Primary",
        "DAYTHRU": 0,
        "NGHTTHRU": 0,
        "MAINTRK": 0,
        "SIDINGTRK": 0,
        "YARDTRK": 1,
        "TRANSITTRK": 0,
        "INDUSTRYTR": 0,
        "OTHRTRK": 0,
        "WDCODE": "",
        "REVISIONDA": "1975/01/01 00:00:00",
        "LASTUPDATE": "9/29/2025",
        "AADT": "",
        "AADTYEAR": "",
        "STATENAME": "TEXAS",
        "STATEAB": "TX",
        "COUNTYNAME": "HOWARD",
        "CITYNAME": "BIG SPRING",
        "LATDD": 32.252449,
        "LONGDD": -101.485435,
        "gridlyProductionCertified": true,
        "gridlyClassification": "PUBLIC_ROADWAY",
        "gridlyDisplayName": "ALL PRIVATE IN YARD",
        "gridlyId": "FRA-440980A"
      }
    },
    {
      "type": "Feature",
      "id": 212058,
      "geometry": {
        "type": "Point",
        "coordinates": [
          -101.659116099584,
          32.1762998003388
        ]
      },
      "properties": {
        "OBJECTID": 212058,
        "CROSSING": "796366M",
        "EFFDATE": 1758499200000,
        "REASON": "14",
        "StateCode": "48",
        "CountyCode": "48227",
        "STCYFIPS": "48227",
        "CITYCD": "482270640",
        "RAILROAD": "UP",
        "RRDIV": "TEXOMA",
        "RRSUBDIV": "TOYAH SUB",
        "HIGHWAY": "FM 0818",
        "STREET": "FM 818",
        "TTSTN": "679680",
        "MILEPOST": "0525.910",
        "TYPEXING": "Public",
        "POSXING": "At Grade",
        "PRVCAT": "14",
        "INIT": "1",
        "LATITUDE": 32.1762998,
        "LONGITUD": -101.6591161,
        "LLSOURCE": "1",
        "WHISTBAN": "0",
        "RRCONT": "4025443721",
        "POLCONT": "8008488715",
        "INV_LINK": "https://safetydata.fra.dot.gov/OfficeofSafety/PublicSite/Crossing/Crossing.aspx?phasetype=C&rpttype=I&txtcrossingnum=796366M",
        "ACC_LINK": "https://safetydata.fra.dot.gov/OfficeofSafety/PublicSite/Crossing/Crossing.aspx?phasetype=C&rpttype=A&txtcrossingnum=796366M",
        "TTSTNNAM": "",
        "XPURPOSE": "1",
        "OPERATINGR": "UP",
        "OPERATIN_1": "Primary",
        "DAYTHRU": 20,
        "NGHTTHRU": 20,
        "MAINTRK": 1,
        "SIDINGTRK": 0,
        "YARDTRK": 0,
        "TRANSITTRK": 0,
        "INDUSTRYTR": 0,
        "OTHRTRK": 0,
        "WDCODE": "All other Gates",
        "REVISIONDA": "1975/01/01 00:00:00",
        "LASTUPDATE": "9/22/2025",
        "AADT": "347",
        "AADTYEAR": "2020",
        "STATENAME": "TEXAS",
        "STATEAB": "TX",
        "COUNTYNAME": "HOWARD",
        "CITYNAME": "BIG SPRING",
        "LATDD": 32.1762998,
        "LONGDD": -101.6591161,
        "gridlyProductionCertified": true,
        "gridlyClassification": "PUBLIC_ROADWAY",
        "gridlyDisplayName": "FM 818",
        "gridlyId": "FRA-796366M"
      }
    },
    {
      "type": "Feature",
      "id": 212059,
      "geometry": {
        "type": "Point",
        "coordinates": [
          -101.63418190001,
          32.1847549000265
        ]
      },
      "properties": {
        "OBJECTID": 212059,
        "CROSSING": "796367U",
        "EFFDATE": 1758499200000,
        "REASON": "14",
        "StateCode": "48",
        "CountyCode": "48227",
        "STCYFIPS": "48227",
        "CITYCD": "482270640",
        "RAILROAD": "UP",
        "RRDIV": "TEXOMA",
        "RRSUBDIV": "TOYAH SUB",
        "HIGHWAY": "NA",
        "STREET": "PRIVATE",
        "TTSTN": "679770",
        "MILEPOST": "0524.360",
        "TYPEXING": "Private",
        "POSXING": "At Grade",
        "PRVCAT": "14",
        "INIT": "1",
        "LATITUDE": 32.1847549,
        "LONGITUD": -101.6341819,
        "LLSOURCE": "1",
        "WHISTBAN": "0",
        "RRCONT": "4025443721",
        "POLCONT": "8008488715",
        "INV_LINK": "https://safetydata.fra.dot.gov/OfficeofSafety/PublicSite/Crossing/Crossing.aspx?phasetype=C&rpttype=I&txtcrossingnum=796367U",
        "ACC_LINK": "https://safetydata.fra.dot.gov/OfficeofSafety/PublicSite/Crossing/Crossing.aspx?phasetype=C&rpttype=A&txtcrossingnum=796367U",
        "TTSTNNAM": "",
        "XPURPOSE": "1",
        "OPERATINGR": "UP",
        "OPERATIN_1": "Primary",
        "DAYTHRU": 11,
        "NGHTTHRU": 10,
        "MAINTRK": 1,
        "SIDINGTRK": 1,
        "YARDTRK": 0,
        "TRANSITTRK": 0,
        "INDUSTRYTR": 0,
        "OTHRTRK": 0,
        "WDCODE": "",
        "REVISIONDA": "1975/01/01 00:00:00",
        "LASTUPDATE": "9/22/2025",
        "AADT": "1",
        "AADTYEAR": "1970",
        "STATENAME": "TEXAS",
        "STATEAB": "TX",
        "COUNTYNAME": "HOWARD",
        "CITYNAME": "BIG SPRING",
        "LATDD": 32.1847549,
        "LONGDD": -101.6341819,
        "gridlyProductionCertified": true,
        "gridlyClassification": "PUBLIC_ROADWAY",
        "gridlyDisplayName": "PRIVATE",
        "gridlyId": "FRA-796367U"
      }
    },
    {
      "type": "Feature",
      "id": 212060,
      "geometry": {
        "type": "Point",
        "coordinates": [
          -101.568954199557,
          32.2174433003541
        ]
      },
      "properties": {
        "OBJECTID": 212060,
        "CROSSING": "796369H",
        "EFFDATE": 1758499200000,
        "REASON": "14",
        "StateCode": "48",
        "CountyCode": "48227",
        "STCYFIPS": "48227",
        "CITYCD": "482270640",
        "RAILROAD": "UP",
        "RRDIV": "TEXOMA",
        "RRSUBDIV": "TOYAH SUB",
        "HIGHWAY": "CO 0306",
        "STREET": "CAUBLE ROAD",
        "TTSTN": "679680",
        "MILEPOST": "0519.780",
        "TYPEXING": "Public",
        "POSXING": "At Grade",
        "PRVCAT": "14",
        "INIT": "1",
        "LATITUDE": 32.2174433,
        "LONGITUD": -101.5689542,
        "LLSOURCE": "1",
        "WHISTBAN": "0",
        "RRCONT": "4025443721",
        "POLCONT": "8008488715",
        "INV_LINK": "https://safetydata.fra.dot.gov/OfficeofSafety/PublicSite/Crossing/Crossing.aspx?phasetype=C&rpttype=I&txtcrossingnum=796369H",
        "ACC_LINK": "https://safetydata.fra.dot.gov/OfficeofSafety/PublicSite/Crossing/Crossing.aspx?phasetype=C&rpttype=A&txtcrossingnum=796369H",
        "TTSTNNAM": "",
        "XPURPOSE": "1",
        "OPERATINGR": "UP",
        "OPERATIN_1": "Primary",
        "DAYTHRU": 11,
        "NGHTTHRU": 10,
        "MAINTRK": 1,
        "SIDINGTRK": 0,
        "YARDTRK": 0,
        "TRANSITTRK": 0,
        "INDUSTRYTR": 0,
        "OTHRTRK": 0,
        "WDCODE": "Flashing lights",
        "REVISIONDA": "1975/01/01 00:00:00",
        "LASTUPDATE": "9/22/2025",
        "AADT": "332",
        "AADTYEAR": "2019",
        "STATENAME": "TEXAS",
        "STATEAB": "TX",
        "COUNTYNAME": "HOWARD",
        "CITYNAME": "BIG SPRING",
        "LATDD": 32.2174433,
        "LONGDD": -101.5689542,
        "gridlyProductionCertified": true,
        "gridlyClassification": "PUBLIC_ROADWAY",
        "gridlyDisplayName": "CAUBLE ROAD",
        "gridlyId": "FRA-796369H"
      }
    },
    {
      "type": "Feature",
      "id": 212061,
      "geometry": {
        "type": "Point",
        "coordinates": [
          -101.562724000379,
          32.2245100000111
        ]
      },
      "properties": {
        "OBJECTID": 212061,
        "CROSSING": "796370C",
        "EFFDATE": 1758499200000,
        "REASON": "14",
        "StateCode": "48",
        "CountyCode": "48227",
        "STCYFIPS": "48227",
        "CITYCD": "482270640",
        "RAILROAD": "UP",
        "RRDIV": "TEXOMA",
        "RRSUBDIV": "TOYAH SUB",
        "HIGHWAY": "IH 0020",
        "STREET": "I 20",
        "TTSTN": "679680",
        "MILEPOST": "0519.170",
        "TYPEXING": "Public",
        "POSXING": "RR Under",
        "PRVCAT": "14",
        "INIT": "1",
        "LATITUDE": 32.22451,
        "LONGITUD": -101.562724,
        "LLSOURCE": "1",
        "WHISTBAN": "0",
        "RRCONT": "4025443721",
        "POLCONT": "8008488715",
        "INV_LINK": "https://safetydata.fra.dot.gov/OfficeofSafety/PublicSite/Crossing/Crossing.aspx?phasetype=C&rpttype=I&txtcrossingnum=796370C",
        "ACC_LINK": "https://safetydata.fra.dot.gov/OfficeofSafety/PublicSite/Crossing/Crossing.aspx?phasetype=C&rpttype=A&txtcrossingnum=796370C",
        "TTSTNNAM": "",
        "XPURPOSE": "1",
        "OPERATINGR": "UP",
        "OPERATIN_1": "Primary",
        "DAYTHRU": 0,
        "NGHTTHRU": 0,
        "MAINTRK": 1,
        "SIDINGTRK": 0,
        "YARDTRK": 0,
        "TRANSITTRK": 0,
        "INDUSTRYTR": 0,
        "OTHRTRK": 0,
        "WDCODE": "",
        "REVISIONDA": "1975/01/01 00:00:00",
        "LASTUPDATE": "9/22/2025",
        "AADT": "13000",
        "AADTYEAR": "2011",
        "STATENAME": "TEXAS",
        "STATEAB": "TX",
        "COUNTYNAME": "HOWARD",
        "CITYNAME": "BIG SPRING",
        "LATDD": 32.22451,
        "LONGDD": -101.562724,
        "gridlyProductionCertified": true,
        "gridlyClassification": "PUBLIC_ROADWAY",
        "gridlyDisplayName": "I 20",
        "gridlyId": "FRA-796370C"
      }
    },
    {
      "type": "Feature",
      "id": 212693,
      "geometry": {
        "type": "Point",
        "coordinates": [
          -101.511689100206,
          32.2531706998818
        ]
      },
      "properties": {
        "OBJECTID": 212693,
        "CROSSING": "796371J",
        "EFFDATE": 1758499200000,
        "REASON": "14",
        "StateCode": "48",
        "CountyCode": "48227",
        "STCYFIPS": "48227",
        "CITYCD": "482270640",
        "RAILROAD": "UP",
        "RRDIV": "TEXOMA",
        "RRSUBDIV": "TOYAH SUB",
        "HIGHWAY": "IH 0020",
        "STREET": "I 20",
        "TTSTN": "679680",
        "MILEPOST": "0515.490",
        "TYPEXING": "Public",
        "POSXING": "RR Under",
        "PRVCAT": "14",
        "INIT": "1",
        "LATITUDE": 32.2531707,
        "LONGITUD": -101.5116891,
        "LLSOURCE": "1",
        "WHISTBAN": "0",
        "RRCONT": "4025443721",
        "POLCONT": "8008488715",
        "INV_LINK": "https://safetydata.fra.dot.gov/OfficeofSafety/PublicSite/Crossing/Crossing.aspx?phasetype=C&rpttype=I&txtcrossingnum=796371J",
        "ACC_LINK": "https://safetydata.fra.dot.gov/OfficeofSafety/PublicSite/Crossing/Crossing.aspx?phasetype=C&rpttype=A&txtcrossingnum=796371J",
        "TTSTNNAM": "",
        "XPURPOSE": "1",
        "OPERATINGR": "UP",
        "OPERATIN_1": "Primary",
        "DAYTHRU": 0,
        "NGHTTHRU": 0,
        "MAINTRK": 1,
        "SIDINGTRK": 0,
        "YARDTRK": 0,
        "TRANSITTRK": 0,
        "INDUSTRYTR": 0,
        "OTHRTRK": 0,
        "WDCODE": "",
        "REVISIONDA": "1975/01/01 00:00:00",
        "LASTUPDATE": "9/22/2025",
        "AADT": "13580",
        "AADTYEAR": "2011",
        "STATENAME": "TEXAS",
        "STATEAB": "TX",
        "COUNTYNAME": "HOWARD",
        "CITYNAME": "BIG SPRING",
        "LATDD": 32.2531707,
        "LONGDD": -101.5116891,
        "gridlyProductionCertified": true,
        "gridlyClassification": "PUBLIC_ROADWAY",
        "gridlyDisplayName": "I 20",
        "gridlyId": "FRA-796371J"
      }
    },
    {
      "type": "Feature",
      "id": 212695,
      "geometry": {
        "type": "Point",
        "coordinates": [
          -101.63439099996,
          32.1850540003177
        ]
      },
      "properties": {
        "OBJECTID": 212695,
        "CROSSING": "981780J",
        "EFFDATE": 1762387200000,
        "REASON": "14",
        "StateCode": "48",
        "CountyCode": "48227",
        "STCYFIPS": "48227",
        "CITYCD": "482270640",
        "RAILROAD": "UP",
        "RRDIV": "Texoma",
        "RRSUBDIV": "Toyah Sub",
        "HIGHWAY": "TBD",
        "STREET": "Private Industry",
        "TTSTN": "",
        "MILEPOST": "0524.365",
        "TYPEXING": "Private",
        "POSXING": "At Grade",
        "PRVCAT": "14",
        "INIT": "1",
        "LATITUDE": 32.185054,
        "LONGITUD": -101.634391,
        "LLSOURCE": "1",
        "WHISTBAN": "",
        "RRCONT": "4025443721",
        "POLCONT": "8008488715",
        "INV_LINK": "https://safetydata.fra.dot.gov/OfficeofSafety/PublicSite/Crossing/Crossing.aspx?phasetype=C&rpttype=I&txtcrossingnum=981780J",
        "ACC_LINK": "https://safetydata.fra.dot.gov/OfficeofSafety/PublicSite/Crossing/Crossing.aspx?phasetype=C&rpttype=A&txtcrossingnum=981780J",
        "TTSTNNAM": "",
        "XPURPOSE": "1",
        "OPERATINGR": "UP",
        "OPERATIN_1": "Primary",
        "DAYTHRU": 1,
        "NGHTTHRU": 1,
        "MAINTRK": 0,
        "SIDINGTRK": 0,
        "YARDTRK": 0,
        "TRANSITTRK": 0,
        "INDUSTRYTR": 2,
        "OTHRTRK": 0,
        "WDCODE": "",
        "REVISIONDA": "1975/01/01 00:00:00",
        "LASTUPDATE": "11/6/2025",
        "AADT": "",
        "AADTYEAR": "",
        "STATENAME": "TEXAS",
        "STATEAB": "TX",
        "COUNTYNAME": "HOWARD",
        "CITYNAME": "BIG SPRING",
        "LATDD": 32.185054,
        "LONGDD": -101.634391,
        "gridlyProductionCertified": true,
        "gridlyClassification": "PUBLIC_ROADWAY",
        "gridlyDisplayName": "Private Industry",
        "gridlyId": "FRA-981780J"
      }
    },
    {
      "type": "Feature",
      "id": 212798,
      "geometry": {
        "type": "Point",
        "coordinates": [
          -101.405521100193,
          32.2737646002242
        ]
      },
      "properties": {
        "OBJECTID": 212798,
        "CROSSING": "796165W",
        "EFFDATE": 1761177600000,
        "REASON": "14",
        "StateCode": "48",
        "CountyCode": "48227",
        "STCYFIPS": "48227",
        "CITYCD": "482270640",
        "RAILROAD": "UP",
        "RRDIV": "TEXOMA",
        "RRSUBDIV": "TOYAH SUB",
        "HIGHWAY": "CO 0462",
        "STREET": "Midway Road",
        "TTSTN": "679680",
        "MILEPOST": "0508.930",
        "TYPEXING": "Public",
        "POSXING": "At Grade",
        "PRVCAT": "14",
        "INIT": "1",
        "LATITUDE": 32.2737646,
        "LONGITUD": -101.4055211,
        "LLSOURCE": "1",
        "WHISTBAN": "0",
        "RRCONT": "4025443721",
        "POLCONT": "8008488715",
        "INV_LINK": "https://safetydata.fra.dot.gov/OfficeofSafety/PublicSite/Crossing/Crossing.aspx?phasetype=C&rpttype=I&txtcrossingnum=796165W",
        "ACC_LINK": "https://safetydata.fra.dot.gov/OfficeofSafety/PublicSite/Crossing/Crossing.aspx?phasetype=C&rpttype=A&txtcrossingnum=796165W",
        "TTSTNNAM": "",
        "XPURPOSE": "1",
        "OPERATINGR": "UP",
        "OPERATIN_1": "Primary",
        "DAYTHRU": 10,
        "NGHTTHRU": 10,
        "MAINTRK": 1,
        "SIDINGTRK": 0,
        "YARDTRK": 1,
        "TRANSITTRK": 0,
        "INDUSTRYTR": 4,
        "OTHRTRK": 3,
        "WDCODE": "All other Gates",
        "REVISIONDA": "1975/01/01 00:00:00",
        "LASTUPDATE": "10/23/2025",
        "AADT": "712",
        "AADTYEAR": "2019",
        "STATENAME": "TEXAS",
        "STATEAB": "TX",
        "COUNTYNAME": "HOWARD",
        "CITYNAME": "BIG SPRING",
        "LATDD": 32.2737646,
        "LONGDD": -101.4055211,
        "gridlyProductionCertified": true,
        "gridlyClassification": "PUBLIC_ROADWAY",
        "gridlyDisplayName": "Midway Road",
        "gridlyId": "FRA-796165W"
      }
    },
    {
      "type": "Feature",
      "id": 214170,
      "geometry": {
        "type": "Point",
        "coordinates": [
          -101.418807999813,
          32.2703450003616
        ]
      },
      "properties": {
        "OBJECTID": 214170,
        "CROSSING": "796166D",
        "EFFDATE": 1766102400000,
        "REASON": "20",
        "StateCode": "48",
        "CountyCode": "48227",
        "STCYFIPS": "48227",
        "CITYCD": "482270640",
        "RAILROAD": "UP",
        "RRDIV": "TEXOMA",
        "RRSUBDIV": "TOYAH SUB",
        "HIGHWAY": "NA",
        "STREET": "PRIVATE",
        "TTSTN": "679680",
        "MILEPOST": "0509.660",
        "TYPEXING": "Private",
        "POSXING": "At Grade",
        "PRVCAT": "20",
        "INIT": "1",
        "LATITUDE": 32.270345,
        "LONGITUD": -101.418808,
        "LLSOURCE": "1",
        "WHISTBAN": "0",
        "RRCONT": "4025443721",
        "POLCONT": "8008488715",
        "INV_LINK": "https://safetydata.fra.dot.gov/OfficeofSafety/PublicSite/Crossing/Crossing.aspx?phasetype=C&rpttype=I&txtcrossingnum=796166D",
        "ACC_LINK": "https://safetydata.fra.dot.gov/OfficeofSafety/PublicSite/Crossing/Crossing.aspx?phasetype=C&rpttype=A&txtcrossingnum=796166D",
        "TTSTNNAM": "",
        "XPURPOSE": "1",
        "OPERATINGR": "UP",
        "OPERATIN_1": "Primary",
        "DAYTHRU": 10,
        "NGHTTHRU": 10,
        "MAINTRK": 1,
        "SIDINGTRK": 0,
        "YARDTRK": 0,
        "TRANSITTRK": 0,
        "INDUSTRYTR": 0,
        "OTHRTRK": 0,
        "WDCODE": "",
        "REVISIONDA": "1975/01/01 00:00:00",
        "LASTUPDATE": "12/19/2025",
        "AADT": "1",
        "AADTYEAR": "1970",
        "STATENAME": "TEXAS",
        "STATEAB": "TX",
        "COUNTYNAME": "HOWARD",
        "CITYNAME": "BIG SPRING",
        "LATDD": 32.270345,
        "LONGDD": -101.418808,
        "gridlyProductionCertified": true,
        "gridlyClassification": "PUBLIC_ROADWAY",
        "gridlyDisplayName": "PRIVATE",
        "gridlyId": "FRA-796166D"
      }
    }
  ]
}
