{
  "type": "FeatureCollection",
  "features": [
    {
      "type": "Feature",
      "id": 206316,
      "geometry": {
        "type": "Point",
        "coordinates": [
          -95.4660436997089,
          31.3014313999905
        ]
      },
      "properties": {
        "OBJECTID": 206316,
        "CROSSING": "432321A",
        "EFFDATE": 1756684800000,
        "REASON": "14",
        "StateCode": "48",
        "CountyCode": "48225",
        "STCYFIPS": "48225",
        "CITYCD": "482251620",
        "RAILROAD": "UP",
        "RRDIV": "GULF COAST",
        "RRSUBDIV": "Palestine Sub",
        "HIGHWAY": "FM 2110",
        "STREET": "WEST AUSTIN STREET/FM 2110",
        "TTSTN": "682150",
        "MILEPOST": "0120.930",
        "TYPEXING": "Public",
        "POSXING": "At Grade",
        "PRVCAT": "14",
        "INIT": "1",
        "LATITUDE": 31.3014314,
        "LONGITUD": -95.4660437,
        "LLSOURCE": "1",
        "WHISTBAN": "0",
        "RRCONT": "4025443721",
        "POLCONT": "8008488715",
        "INV_LINK": "https://safetydata.fra.dot.gov/OfficeofSafety/PublicSite/Crossing/Crossing.aspx?phasetype=C&rpttype=I&txtcrossingnum=432321A",
        "ACC_LINK": "https://safetydata.fra.dot.gov/OfficeofSafety/PublicSite/Crossing/Crossing.aspx?phasetype=C&rpttype=A&txtcrossingnum=432321A",
        "TTSTNNAM": "",
        "XPURPOSE": "1",
        "OPERATINGR": "UP",
        "OPERATIN_1": "Primary",
        "DAYTHRU": 4,
        "NGHTTHRU": 3,
        "MAINTRK": 1,
        "SIDINGTRK": 1,
        "YARDTRK": 0,
        "TRANSITTRK": 0,
        "INDUSTRYTR": 0,
        "OTHRTRK": 2,
        "WDCODE": "All other Gates",
        "REVISIONDA": "1975/01/01 00:00:00",
        "LASTUPDATE": "9/1/2025",
        "AADT": "847",
        "AADTYEAR": "2019",
        "STATENAME": "TEXAS",
        "STATEAB": "TX",
        "COUNTYNAME": "HOUSTON",
        "CITYNAME": "CROCKETT",
        "LATDD": 31.3014314,
        "LONGDD": -95.4660437,
        "gridlyProductionCertified": true,
        "gridlyClassification": "PUBLIC_ROADWAY",
        "gridlyDisplayName": "WEST AUSTIN STREET/FM 2110",
        "gridlyId": "FRA-432321A"
      }
    },
    {
      "type": "Feature",
      "id": 206317,
      "geometry": {
        "type": "Point",
        "coordinates": [
          -95.4617928996322,
          31.3127183997233
        ]
      },
      "properties": {
        "OBJECTID": 206317,
        "CROSSING": "432323N",
        "EFFDATE": 1756684800000,
        "REASON": "14",
        "StateCode": "48",
        "CountyCode": "48225",
        "STCYFIPS": "48225",
        "CITYCD": "482251620",
        "RAILROAD": "UP",
        "RRDIV": "GULF COAST",
        "RRSUBDIV": "Palestine Sub",
        "HIGHWAY": "ST 0000",
        "STREET": "EAST BELL AVENUE",
        "TTSTN": "682150",
        "MILEPOST": "0120.110",
        "TYPEXING": "Public",
        "POSXING": "At Grade",
        "PRVCAT": "14",
        "INIT": "1",
        "LATITUDE": 31.3127184,
        "LONGITUD": -95.4617929,
        "LLSOURCE": "1",
        "WHISTBAN": "0",
        "RRCONT": "4025443721",
        "POLCONT": "8008488715",
        "INV_LINK": "https://safetydata.fra.dot.gov/OfficeofSafety/PublicSite/Crossing/Crossing.aspx?phasetype=C&rpttype=I&txtcrossingnum=432323N",
        "ACC_LINK": "https://safetydata.fra.dot.gov/OfficeofSafety/PublicSite/Crossing/Crossing.aspx?phasetype=C&rpttype=A&txtcrossingnum=432323N",
        "TTSTNNAM": "",
        "XPURPOSE": "1",
        "OPERATINGR": "UP",
        "OPERATIN_1": "Primary",
        "DAYTHRU": 4,
        "NGHTTHRU": 3,
        "MAINTRK": 1,
        "SIDINGTRK": 1,
        "YARDTRK": 0,
        "TRANSITTRK": 0,
        "INDUSTRYTR": 0,
        "OTHRTRK": 2,
        "WDCODE": "All other Gates",
        "REVISIONDA": "1975/01/01 00:00:00",
        "LASTUPDATE": "9/1/2025",
        "AADT": "1904",
        "AADTYEAR": "2019",
        "STATENAME": "TEXAS",
        "STATEAB": "TX",
        "COUNTYNAME": "HOUSTON",
        "CITYNAME": "CROCKETT",
        "LATDD": 31.3127184,
        "LONGDD": -95.4617929,
        "gridlyProductionCertified": true,
        "gridlyClassification": "PUBLIC_ROADWAY",
        "gridlyDisplayName": "EAST BELL AVENUE",
        "gridlyId": "FRA-432323N"
      }
    },
    {
      "type": "Feature",
      "id": 206318,
      "geometry": {
        "type": "Point",
        "coordinates": [
          -95.4876432999484,
          31.5423825003055
        ]
      },
      "properties": {
        "OBJECTID": 206318,
        "CROSSING": "432837U",
        "EFFDATE": 1756684800000,
        "REASON": "14",
        "StateCode": "48",
        "CountyCode": "48225",
        "STCYFIPS": "48225",
        "CITYCD": "482252840",
        "RAILROAD": "UP",
        "RRDIV": "GULF COAST",
        "RRSUBDIV": "Palestine Sub",
        "HIGHWAY": "CO 2330",
        "STREET": "CR 2330",
        "TTSTN": "682123",
        "MILEPOST": "0103.240",
        "TYPEXING": "Public",
        "POSXING": "At Grade",
        "PRVCAT": "14",
        "INIT": "1",
        "LATITUDE": 31.5423825,
        "LONGITUD": -95.4876433,
        "LLSOURCE": "1",
        "WHISTBAN": "0",
        "RRCONT": "4025443721",
        "POLCONT": "8008488715",
        "INV_LINK": "https://safetydata.fra.dot.gov/OfficeofSafety/PublicSite/Crossing/Crossing.aspx?phasetype=C&rpttype=I&txtcrossingnum=432837U",
        "ACC_LINK": "https://safetydata.fra.dot.gov/OfficeofSafety/PublicSite/Crossing/Crossing.aspx?phasetype=C&rpttype=A&txtcrossingnum=432837U",
        "TTSTNNAM": "",
        "XPURPOSE": "1",
        "OPERATINGR": "UP",
        "OPERATIN_1": "Primary",
        "DAYTHRU": 4,
        "NGHTTHRU": 3,
        "MAINTRK": 1,
        "SIDINGTRK": 0,
        "YARDTRK": 0,
        "TRANSITTRK": 0,
        "INDUSTRYTR": 0,
        "OTHRTRK": 0,
        "WDCODE": "Crossbucks",
        "REVISIONDA": "1975/01/01 00:00:00",
        "LASTUPDATE": "9/1/2025",
        "AADT": "58",
        "AADTYEAR": "2019",
        "STATENAME": "TEXAS",
        "STATEAB": "TX",
        "COUNTYNAME": "HOUSTON",
        "CITYNAME": "GRAPELAND",
        "LATDD": 31.5423825,
        "LONGDD": -95.4876433,
        "gridlyProductionCertified": true,
        "gridlyClassification": "PUBLIC_ROADWAY",
        "gridlyDisplayName": "CR 2330",
        "gridlyId": "FRA-432837U"
      }
    },
    {
      "type": "Feature",
      "id": 206324,
      "geometry": {
        "type": "Point",
        "coordinates": [
          -95.4612435995989,
          31.3182470999513
        ]
      },
      "properties": {
        "OBJECTID": 206324,
        "CROSSING": "432325C",
        "EFFDATE": 1756684800000,
        "REASON": "14",
        "StateCode": "48",
        "CountyCode": "48225",
        "STCYFIPS": "48225",
        "CITYCD": "482251620",
        "RAILROAD": "UP",
        "RRDIV": "GULF COAST",
        "RRSUBDIV": "Palestine Sub",
        "HIGHWAY": "ST 0000",
        "STREET": "WEST HOUSTON AVENUE",
        "TTSTN": "682150",
        "MILEPOST": "0119.720",
        "TYPEXING": "Public",
        "POSXING": "At Grade",
        "PRVCAT": "14",
        "INIT": "1",
        "LATITUDE": 31.3182471,
        "LONGITUD": -95.4612436,
        "LLSOURCE": "1",
        "WHISTBAN": "0",
        "RRCONT": "4025443721",
        "POLCONT": "8008488715",
        "INV_LINK": "https://safetydata.fra.dot.gov/OfficeofSafety/PublicSite/Crossing/Crossing.aspx?phasetype=C&rpttype=I&txtcrossingnum=432325C",
        "ACC_LINK": "https://safetydata.fra.dot.gov/OfficeofSafety/PublicSite/Crossing/Crossing.aspx?phasetype=C&rpttype=A&txtcrossingnum=432325C",
        "TTSTNNAM": "",
        "XPURPOSE": "1",
        "OPERATINGR": "UP",
        "OPERATIN_1": "Primary",
        "DAYTHRU": 4,
        "NGHTTHRU": 3,
        "MAINTRK": 1,
        "SIDINGTRK": 0,
        "YARDTRK": 0,
        "TRANSITTRK": 0,
        "INDUSTRYTR": 0,
        "OTHRTRK": 1,
        "WDCODE": "All other Gates",
        "REVISIONDA": "1975/01/01 00:00:00",
        "LASTUPDATE": "9/1/2025",
        "AADT": "235",
        "AADTYEAR": "2019",
        "STATENAME": "TEXAS",
        "STATEAB": "TX",
        "COUNTYNAME": "HOUSTON",
        "CITYNAME": "CROCKETT",
        "LATDD": 31.3182471,
        "LONGDD": -95.4612436,
        "gridlyProductionCertified": true,
        "gridlyClassification": "PUBLIC_ROADWAY",
        "gridlyDisplayName": "WEST HOUSTON AVENUE",
        "gridlyId": "FRA-432325C"
      }
    },
    {
      "type": "Feature",
      "id": 206417,
      "geometry": {
        "type": "Point",
        "coordinates": [
          -95.4838347997749,
          31.5260864003563
        ]
      },
      "properties": {
        "OBJECTID": 206417,
        "CROSSING": "432838B",
        "EFFDATE": 1756684800000,
        "REASON": "14",
        "StateCode": "48",
        "CountyCode": "48225",
        "STCYFIPS": "48225",
        "CITYCD": "482252840",
        "RAILROAD": "UP",
        "RRDIV": "GULF COAST",
        "RRSUBDIV": "Palestine Sub",
        "HIGHWAY": "CR 2345",
        "STREET": "CR 2345 EAST",
        "TTSTN": "682123",
        "MILEPOST": "0104.430",
        "TYPEXING": "Public",
        "POSXING": "At Grade",
        "PRVCAT": "14",
        "INIT": "1",
        "LATITUDE": 31.5260864,
        "LONGITUD": -95.4838348,
        "LLSOURCE": "1",
        "WHISTBAN": "0",
        "RRCONT": "4025443721",
        "POLCONT": "8008488715",
        "INV_LINK": "https://safetydata.fra.dot.gov/OfficeofSafety/PublicSite/Crossing/Crossing.aspx?phasetype=C&rpttype=I&txtcrossingnum=432838B",
        "ACC_LINK": "https://safetydata.fra.dot.gov/OfficeofSafety/PublicSite/Crossing/Crossing.aspx?phasetype=C&rpttype=A&txtcrossingnum=432838B",
        "TTSTNNAM": "",
        "XPURPOSE": "1",
        "OPERATINGR": "UP",
        "OPERATIN_1": "Primary",
        "DAYTHRU": 4,
        "NGHTTHRU": 3,
        "MAINTRK": 1,
        "SIDINGTRK": 0,
        "YARDTRK": 0,
        "TRANSITTRK": 0,
        "INDUSTRYTR": 0,
        "OTHRTRK": 0,
        "WDCODE": "All other Gates",
        "REVISIONDA": "1975/01/01 00:00:00",
        "LASTUPDATE": "9/1/2025",
        "AADT": "111",
        "AADTYEAR": "2006",
        "STATENAME": "TEXAS",
        "STATEAB": "TX",
        "COUNTYNAME": "HOUSTON",
        "CITYNAME": "GRAPELAND",
        "LATDD": 31.5260864,
        "LONGDD": -95.4838348,
        "gridlyProductionCertified": true,
        "gridlyClassification": "PUBLIC_ROADWAY",
        "gridlyDisplayName": "CR 2345 EAST",
        "gridlyId": "FRA-432838B"
      }
    },
    {
      "type": "Feature",
      "id": 209157,
      "geometry": {
        "type": "Point",
        "coordinates": [
          -95.4792922996575,
          31.4914911002901
        ]
      },
      "properties": {
        "OBJECTID": 209157,
        "CROSSING": "427965S",
        "EFFDATE": 1756339200000,
        "REASON": "14",
        "StateCode": "48",
        "CountyCode": "48225",
        "STCYFIPS": "48225",
        "CITYCD": "482252840",
        "RAILROAD": "UP",
        "RRDIV": "GULF COAST",
        "RRSUBDIV": "Palestine Sub",
        "HIGHWAY": "FM 0227",
        "STREET": "CHESTNUT STREET/FM 227",
        "TTSTN": "682123",
        "MILEPOST": "0106.920",
        "TYPEXING": "Public",
        "POSXING": "At Grade",
        "PRVCAT": "14",
        "INIT": "1",
        "LATITUDE": 31.4914911,
        "LONGITUD": -95.4792923,
        "LLSOURCE": "1",
        "WHISTBAN": "0",
        "RRCONT": "4025443721",
        "POLCONT": "8008488715",
        "INV_LINK": "https://safetydata.fra.dot.gov/OfficeofSafety/PublicSite/Crossing/Crossing.aspx?phasetype=C&rpttype=I&txtcrossingnum=427965S",
        "ACC_LINK": "https://safetydata.fra.dot.gov/OfficeofSafety/PublicSite/Crossing/Crossing.aspx?phasetype=C&rpttype=A&txtcrossingnum=427965S",
        "TTSTNNAM": "",
        "XPURPOSE": "1",
        "OPERATINGR": "UP",
        "OPERATIN_1": "Primary",
        "DAYTHRU": 4,
        "NGHTTHRU": 3,
        "MAINTRK": 1,
        "SIDINGTRK": 0,
        "YARDTRK": 0,
        "TRANSITTRK": 0,
        "INDUSTRYTR": 0,
        "OTHRTRK": 1,
        "WDCODE": "All other Gates",
        "REVISIONDA": "1975/01/01 00:00:00",
        "LASTUPDATE": "8/28/2025",
        "AADT": "3849",
        "AADTYEAR": "2019",
        "STATENAME": "TEXAS",
        "STATEAB": "TX",
        "COUNTYNAME": "HOUSTON",
        "CITYNAME": "GRAPELAND",
        "LATDD": 31.4914911,
        "LONGDD": -95.4792923,
        "gridlyProductionCertified": true,
        "gridlyClassification": "PUBLIC_ROADWAY",
        "gridlyDisplayName": "CHESTNUT STREET/FM 227",
        "gridlyId": "FRA-427965S"
      }
    },
    {
      "type": "Feature",
      "id": 209260,
      "geometry": {
        "type": "Point",
        "coordinates": [
          -95.4741480001649,
          31.3362689999961
        ]
      },
      "properties": {
        "OBJECTID": 209260,
        "CROSSING": "432170M",
        "EFFDATE": 1756339200000,
        "REASON": "14",
        "StateCode": "48",
        "CountyCode": "48225",
        "STCYFIPS": "48225",
        "CITYCD": "482251620",
        "RAILROAD": "UP",
        "RRDIV": "GULF COAST",
        "RRSUBDIV": "Palestine Sub",
        "HIGHWAY": "NA",
        "STREET": "PRIVATE",
        "TTSTN": "682150",
        "MILEPOST": "0118.250",
        "TYPEXING": "Private",
        "POSXING": "At Grade",
        "PRVCAT": "14",
        "INIT": "1",
        "LATITUDE": 31.336269,
        "LONGITUD": -95.474148,
        "LLSOURCE": "1",
        "WHISTBAN": "0",
        "RRCONT": "4025443721",
        "POLCONT": "8008488715",
        "INV_LINK": "https://safetydata.fra.dot.gov/OfficeofSafety/PublicSite/Crossing/Crossing.aspx?phasetype=C&rpttype=I&txtcrossingnum=432170M",
        "ACC_LINK": "https://safetydata.fra.dot.gov/OfficeofSafety/PublicSite/Crossing/Crossing.aspx?phasetype=C&rpttype=A&txtcrossingnum=432170M",
        "TTSTNNAM": "",
        "XPURPOSE": "1",
        "OPERATINGR": "UP",
        "OPERATIN_1": "Primary",
        "DAYTHRU": 4,
        "NGHTTHRU": 3,
        "MAINTRK": 1,
        "SIDINGTRK": 0,
        "YARDTRK": 0,
        "TRANSITTRK": 0,
        "INDUSTRYTR": 0,
        "OTHRTRK": 0,
        "WDCODE": "",
        "REVISIONDA": "1975/01/01 00:00:00",
        "LASTUPDATE": "8/28/2025",
        "AADT": "1",
        "AADTYEAR": "",
        "STATENAME": "TEXAS",
        "STATEAB": "TX",
        "COUNTYNAME": "HOUSTON",
        "CITYNAME": "CROCKETT",
        "LATDD": 31.336269,
        "LONGDD": -95.474148,
        "gridlyProductionCertified": true,
        "gridlyClassification": "PUBLIC_ROADWAY",
        "gridlyDisplayName": "PRIVATE",
        "gridlyId": "FRA-432170M"
      }
    },
    {
      "type": "Feature",
      "id": 209264,
      "geometry": {
        "type": "Point",
        "coordinates": [
          -95.4760235001202,
          31.3744814001689
        ]
      },
      "properties": {
        "OBJECTID": 209264,
        "CROSSING": "432171U",
        "EFFDATE": 1756339200000,
        "REASON": "14",
        "StateCode": "48",
        "CountyCode": "48225",
        "STCYFIPS": "48225",
        "CITYCD": "482253906",
        "RAILROAD": "UP",
        "RRDIV": "GULF COAST",
        "RRSUBDIV": "Palestine Sub",
        "HIGHWAY": "PRIVATE",
        "STREET": "PRIVATE",
        "TTSTN": "682150",
        "MILEPOST": "0115.590",
        "TYPEXING": "Private",
        "POSXING": "At Grade",
        "PRVCAT": "14",
        "INIT": "1",
        "LATITUDE": 31.3744814,
        "LONGITUD": -95.4760235,
        "LLSOURCE": "1",
        "WHISTBAN": "0",
        "RRCONT": "4025443721",
        "POLCONT": "8008488715",
        "INV_LINK": "https://safetydata.fra.dot.gov/OfficeofSafety/PublicSite/Crossing/Crossing.aspx?phasetype=C&rpttype=I&txtcrossingnum=432171U",
        "ACC_LINK": "https://safetydata.fra.dot.gov/OfficeofSafety/PublicSite/Crossing/Crossing.aspx?phasetype=C&rpttype=A&txtcrossingnum=432171U",
        "TTSTNNAM": "",
        "XPURPOSE": "1",
        "OPERATINGR": "UP",
        "OPERATIN_1": "Primary",
        "DAYTHRU": 4,
        "NGHTTHRU": 3,
        "MAINTRK": 1,
        "SIDINGTRK": 0,
        "YARDTRK": 0,
        "TRANSITTRK": 0,
        "INDUSTRYTR": 0,
        "OTHRTRK": 0,
        "WDCODE": "",
        "REVISIONDA": "1975/01/01 00:00:00",
        "LASTUPDATE": "8/28/2025",
        "AADT": "1",
        "AADTYEAR": "1970",
        "STATENAME": "TEXAS",
        "STATEAB": "TX",
        "COUNTYNAME": "HOUSTON",
        "CITYNAME": "LATEXO",
        "LATDD": 31.3744814,
        "LONGDD": -95.4760235,
        "gridlyProductionCertified": true,
        "gridlyClassification": "PUBLIC_ROADWAY",
        "gridlyDisplayName": "PRIVATE",
        "gridlyId": "FRA-432171U"
      }
    },
    {
      "type": "Feature",
      "id": 209265,
      "geometry": {
        "type": "Point",
        "coordinates": [
          -95.4761167003309,
          31.3803209001429
        ]
      },
      "properties": {
        "OBJECTID": 209265,
        "CROSSING": "432172B",
        "EFFDATE": 1756339200000,
        "REASON": "14",
        "StateCode": "48",
        "CountyCode": "48225",
        "STCYFIPS": "48225",
        "CITYCD": "482253906",
        "RAILROAD": "UP",
        "RRDIV": "GULF COAST",
        "RRSUBDIV": "Palestine Sub",
        "HIGHWAY": "CO 2121",
        "STREET": "CR 2121",
        "TTSTN": "682150",
        "MILEPOST": "0115.190",
        "TYPEXING": "Public",
        "POSXING": "At Grade",
        "PRVCAT": "14",
        "INIT": "1",
        "LATITUDE": 31.3803209,
        "LONGITUD": -95.4761167,
        "LLSOURCE": "1",
        "WHISTBAN": "0",
        "RRCONT": "4025443721",
        "POLCONT": "8008488715",
        "INV_LINK": "https://safetydata.fra.dot.gov/OfficeofSafety/PublicSite/Crossing/Crossing.aspx?phasetype=C&rpttype=I&txtcrossingnum=432172B",
        "ACC_LINK": "https://safetydata.fra.dot.gov/OfficeofSafety/PublicSite/Crossing/Crossing.aspx?phasetype=C&rpttype=A&txtcrossingnum=432172B",
        "TTSTNNAM": "",
        "XPURPOSE": "1",
        "OPERATINGR": "UP",
        "OPERATIN_1": "Primary",
        "DAYTHRU": 4,
        "NGHTTHRU": 3,
        "MAINTRK": 1,
        "SIDINGTRK": 0,
        "YARDTRK": 0,
        "TRANSITTRK": 0,
        "INDUSTRYTR": 0,
        "OTHRTRK": 0,
        "WDCODE": "All other Gates",
        "REVISIONDA": "1975/01/01 00:00:00",
        "LASTUPDATE": "8/28/2025",
        "AADT": "31",
        "AADTYEAR": "2019",
        "STATENAME": "TEXAS",
        "STATEAB": "TX",
        "COUNTYNAME": "HOUSTON",
        "CITYNAME": "LATEXO",
        "LATDD": 31.3803209,
        "LONGDD": -95.4761167,
        "gridlyProductionCertified": true,
        "gridlyClassification": "PUBLIC_ROADWAY",
        "gridlyDisplayName": "CR 2121",
        "gridlyId": "FRA-432172B"
      }
    },
    {
      "type": "Feature",
      "id": 209266,
      "geometry": {
        "type": "Point",
        "coordinates": [
          -95.476989799905,
          31.3899732997194
        ]
      },
      "properties": {
        "OBJECTID": 209266,
        "CROSSING": "432173H",
        "EFFDATE": 1756339200000,
        "REASON": "14",
        "StateCode": "48",
        "CountyCode": "48225",
        "STCYFIPS": "48225",
        "CITYCD": "482253906",
        "RAILROAD": "UP",
        "RRDIV": "GULF COAST",
        "RRSUBDIV": "Palestine Sub",
        "HIGHWAY": "CO 0000",
        "STREET": "CR 2123",
        "TTSTN": "682150",
        "MILEPOST": "0114.500",
        "TYPEXING": "Public",
        "POSXING": "At Grade",
        "PRVCAT": "14",
        "INIT": "1",
        "LATITUDE": 31.3899733,
        "LONGITUD": -95.4769898,
        "LLSOURCE": "1",
        "WHISTBAN": "0",
        "RRCONT": "4025443721",
        "POLCONT": "8008488715",
        "INV_LINK": "https://safetydata.fra.dot.gov/OfficeofSafety/PublicSite/Crossing/Crossing.aspx?phasetype=C&rpttype=I&txtcrossingnum=432173H",
        "ACC_LINK": "https://safetydata.fra.dot.gov/OfficeofSafety/PublicSite/Crossing/Crossing.aspx?phasetype=C&rpttype=A&txtcrossingnum=432173H",
        "TTSTNNAM": "",
        "XPURPOSE": "1",
        "OPERATINGR": "UP",
        "OPERATIN_1": "Primary",
        "DAYTHRU": 4,
        "NGHTTHRU": 3,
        "MAINTRK": 1,
        "SIDINGTRK": 0,
        "YARDTRK": 0,
        "TRANSITTRK": 0,
        "INDUSTRYTR": 0,
        "OTHRTRK": 0,
        "WDCODE": "All other Gates",
        "REVISIONDA": "1975/01/01 00:00:00",
        "LASTUPDATE": "8/28/2025",
        "AADT": "201",
        "AADTYEAR": "2019",
        "STATENAME": "TEXAS",
        "STATEAB": "TX",
        "COUNTYNAME": "HOUSTON",
        "CITYNAME": "LATEXO",
        "LATDD": 31.3899733,
        "LONGDD": -95.4769898,
        "gridlyProductionCertified": true,
        "gridlyClassification": "PUBLIC_ROADWAY",
        "gridlyDisplayName": "CR 2123",
        "gridlyId": "FRA-432173H"
      }
    },
    {
      "type": "Feature",
      "id": 209278,
      "geometry": {
        "type": "Point",
        "coordinates": [
          -95.4807867001332,
          31.3984552003271
        ]
      },
      "properties": {
        "OBJECTID": 209278,
        "CROSSING": "432174P",
        "EFFDATE": 1756339200000,
        "REASON": "14",
        "StateCode": "48",
        "CountyCode": "48225",
        "STCYFIPS": "48225",
        "CITYCD": "482253906",
        "RAILROAD": "UP",
        "RRDIV": "GULF COAST",
        "RRSUBDIV": "Palestine Sub",
        "HIGHWAY": "CO 2124",
        "STREET": "CR 2124",
        "TTSTN": "682150",
        "MILEPOST": "0113.860",
        "TYPEXING": "Public",
        "POSXING": "At Grade",
        "PRVCAT": "14",
        "INIT": "1",
        "LATITUDE": 31.3984552,
        "LONGITUD": -95.4807867,
        "LLSOURCE": "1",
        "WHISTBAN": "0",
        "RRCONT": "4025443721",
        "POLCONT": "8008488715",
        "INV_LINK": "https://safetydata.fra.dot.gov/OfficeofSafety/PublicSite/Crossing/Crossing.aspx?phasetype=C&rpttype=I&txtcrossingnum=432174P",
        "ACC_LINK": "https://safetydata.fra.dot.gov/OfficeofSafety/PublicSite/Crossing/Crossing.aspx?phasetype=C&rpttype=A&txtcrossingnum=432174P",
        "TTSTNNAM": "",
        "XPURPOSE": "1",
        "OPERATINGR": "UP",
        "OPERATIN_1": "Primary",
        "DAYTHRU": 4,
        "NGHTTHRU": 3,
        "MAINTRK": 1,
        "SIDINGTRK": 0,
        "YARDTRK": 0,
        "TRANSITTRK": 0,
        "INDUSTRYTR": 0,
        "OTHRTRK": 0,
        "WDCODE": "All other Gates",
        "REVISIONDA": "1975/01/01 00:00:00",
        "LASTUPDATE": "8/28/2025",
        "AADT": "31",
        "AADTYEAR": "2019",
        "STATENAME": "TEXAS",
        "STATEAB": "TX",
        "COUNTYNAME": "HOUSTON",
        "CITYNAME": "LATEXO",
        "LATDD": 31.3984552,
        "LONGDD": -95.4807867,
        "gridlyProductionCertified": true,
        "gridlyClassification": "PUBLIC_ROADWAY",
        "gridlyDisplayName": "CR 2124",
        "gridlyId": "FRA-432174P"
      }
    },
    {
      "type": "Feature",
      "id": 209285,
      "geometry": {
        "type": "Point",
        "coordinates": [
          -95.4323311002957,
          31.1014552003158
        ]
      },
      "properties": {
        "OBJECTID": 209285,
        "CROSSING": "432301N",
        "EFFDATE": 1756339200000,
        "REASON": "14",
        "StateCode": "48",
        "CountyCode": "48225",
        "STCYFIPS": "48225",
        "CITYCD": "482254130",
        "RAILROAD": "UP",
        "RRDIV": "GULF COAST",
        "RRSUBDIV": "Palestine Sub",
        "HIGHWAY": "SH 0019",
        "STREET": "TX 19",
        "TTSTN": "682175",
        "MILEPOST": "0135.690",
        "TYPEXING": "Public",
        "POSXING": "RR Under",
        "PRVCAT": "14",
        "INIT": "1",
        "LATITUDE": 31.1014552,
        "LONGITUD": -95.4323311,
        "LLSOURCE": "1",
        "WHISTBAN": "0",
        "RRCONT": "4025443721",
        "POLCONT": "8008488715",
        "INV_LINK": "https://safetydata.fra.dot.gov/OfficeofSafety/PublicSite/Crossing/Crossing.aspx?phasetype=C&rpttype=I&txtcrossingnum=432301N",
        "ACC_LINK": "https://safetydata.fra.dot.gov/OfficeofSafety/PublicSite/Crossing/Crossing.aspx?phasetype=C&rpttype=A&txtcrossingnum=432301N",
        "TTSTNNAM": "",
        "XPURPOSE": "1",
        "OPERATINGR": "UP",
        "OPERATIN_1": "Primary",
        "DAYTHRU": 22,
        "NGHTTHRU": 6,
        "MAINTRK": 1,
        "SIDINGTRK": 0,
        "YARDTRK": 0,
        "TRANSITTRK": 0,
        "INDUSTRYTR": 0,
        "OTHRTRK": 0,
        "WDCODE": "",
        "REVISIONDA": "1975/01/01 00:00:00",
        "LASTUPDATE": "8/28/2025",
        "AADT": "3400",
        "AADTYEAR": "2013",
        "STATENAME": "TEXAS",
        "STATEAB": "TX",
        "COUNTYNAME": "HOUSTON",
        "CITYNAME": "LOVELADY",
        "LATDD": 31.1014552,
        "LONGDD": -95.4323311,
        "gridlyProductionCertified": true,
        "gridlyClassification": "PUBLIC_ROADWAY",
        "gridlyDisplayName": "TX 19",
        "gridlyId": "FRA-432301N"
      }
    },
    {
      "type": "Feature",
      "id": 209286,
      "geometry": {
        "type": "Point",
        "coordinates": [
          -95.478651100174,
          31.4906301002428
        ]
      },
      "properties": {
        "OBJECTID": 209286,
        "CROSSING": "427966Y",
        "EFFDATE": 1756339200000,
        "REASON": "14",
        "StateCode": "48",
        "CountyCode": "48225",
        "STCYFIPS": "48225",
        "CITYCD": "482252840",
        "RAILROAD": "UP",
        "RRDIV": "GULF COAST",
        "RRSUBDIV": "Palestine Sub",
        "HIGHWAY": "ST 0000",
        "STREET": "MAPLE STREET",
        "TTSTN": "682123",
        "MILEPOST": "0106.980",
        "TYPEXING": "Public",
        "POSXING": "At Grade",
        "PRVCAT": "14",
        "INIT": "1",
        "LATITUDE": 31.4906301,
        "LONGITUD": -95.4786511,
        "LLSOURCE": "1",
        "WHISTBAN": "0",
        "RRCONT": "4025443721",
        "POLCONT": "8008488715",
        "INV_LINK": "https://safetydata.fra.dot.gov/OfficeofSafety/PublicSite/Crossing/Crossing.aspx?phasetype=C&rpttype=I&txtcrossingnum=427966Y",
        "ACC_LINK": "https://safetydata.fra.dot.gov/OfficeofSafety/PublicSite/Crossing/Crossing.aspx?phasetype=C&rpttype=A&txtcrossingnum=427966Y",
        "TTSTNNAM": "",
        "XPURPOSE": "1",
        "OPERATINGR": "UP",
        "OPERATIN_1": "Primary",
        "DAYTHRU": 4,
        "NGHTTHRU": 3,
        "MAINTRK": 1,
        "SIDINGTRK": 0,
        "YARDTRK": 0,
        "TRANSITTRK": 0,
        "INDUSTRYTR": 0,
        "OTHRTRK": 1,
        "WDCODE": "All other Gates",
        "REVISIONDA": "1975/01/01 00:00:00",
        "LASTUPDATE": "8/28/2025",
        "AADT": "161",
        "AADTYEAR": "2003",
        "STATENAME": "TEXAS",
        "STATEAB": "TX",
        "COUNTYNAME": "HOUSTON",
        "CITYNAME": "GRAPELAND",
        "LATDD": 31.4906301,
        "LONGDD": -95.4786511,
        "gridlyProductionCertified": true,
        "gridlyClassification": "PUBLIC_ROADWAY",
        "gridlyDisplayName": "MAPLE STREET",
        "gridlyId": "FRA-427966Y"
      }
    },
    {
      "type": "Feature",
      "id": 209287,
      "geometry": {
        "type": "Point",
        "coordinates": [
          -95.4761289003508,
          31.4872468998762
        ]
      },
      "properties": {
        "OBJECTID": 209287,
        "CROSSING": "427967F",
        "EFFDATE": 1756339200000,
        "REASON": "14",
        "StateCode": "48",
        "CountyCode": "48225",
        "STCYFIPS": "48225",
        "CITYCD": "482252840",
        "RAILROAD": "UP",
        "RRDIV": "GULF COAST",
        "RRSUBDIV": "Palestine Sub",
        "HIGHWAY": "ST 0000",
        "STREET": "CROCKETT ROAD",
        "TTSTN": "682123",
        "MILEPOST": "0107.260",
        "TYPEXING": "Public",
        "POSXING": "At Grade",
        "PRVCAT": "14",
        "INIT": "1",
        "LATITUDE": 31.4872469,
        "LONGITUD": -95.4761289,
        "LLSOURCE": "1",
        "WHISTBAN": "0",
        "RRCONT": "4025443721",
        "POLCONT": "8008488715",
        "INV_LINK": "https://safetydata.fra.dot.gov/OfficeofSafety/PublicSite/Crossing/Crossing.aspx?phasetype=C&rpttype=I&txtcrossingnum=427967F",
        "ACC_LINK": "https://safetydata.fra.dot.gov/OfficeofSafety/PublicSite/Crossing/Crossing.aspx?phasetype=C&rpttype=A&txtcrossingnum=427967F",
        "TTSTNNAM": "",
        "XPURPOSE": "1",
        "OPERATINGR": "UP",
        "OPERATIN_1": "Primary",
        "DAYTHRU": 4,
        "NGHTTHRU": 3,
        "MAINTRK": 1,
        "SIDINGTRK": 0,
        "YARDTRK": 1,
        "TRANSITTRK": 0,
        "INDUSTRYTR": 0,
        "OTHRTRK": 1,
        "WDCODE": "All other Gates",
        "REVISIONDA": "1975/01/01 00:00:00",
        "LASTUPDATE": "8/28/2025",
        "AADT": "490",
        "AADTYEAR": "2011",
        "STATENAME": "TEXAS",
        "STATEAB": "TX",
        "COUNTYNAME": "HOUSTON",
        "CITYNAME": "GRAPELAND",
        "LATDD": 31.4872469,
        "LONGDD": -95.4761289,
        "gridlyProductionCertified": true,
        "gridlyClassification": "PUBLIC_ROADWAY",
        "gridlyDisplayName": "CROCKETT ROAD",
        "gridlyId": "FRA-427967F"
      }
    },
    {
      "type": "Feature",
      "id": 209288,
      "geometry": {
        "type": "Point",
        "coordinates": [
          -95.4930308003379,
          31.5642403996391
        ]
      },
      "properties": {
        "OBJECTID": 209288,
        "CROSSING": "432175W",
        "EFFDATE": 1756339200000,
        "REASON": "14",
        "StateCode": "48",
        "CountyCode": "48225",
        "STCYFIPS": "48225",
        "CITYCD": "482252840",
        "RAILROAD": "UP",
        "RRDIV": "GULF COAST",
        "RRSUBDIV": "Palestine Sub",
        "HIGHWAY": "CO 2320",
        "STREET": "CR 2320",
        "TTSTN": "666885",
        "MILEPOST": "0101.650",
        "TYPEXING": "Public",
        "POSXING": "At Grade",
        "PRVCAT": "14",
        "INIT": "1",
        "LATITUDE": 31.5642404,
        "LONGITUD": -95.4930308,
        "LLSOURCE": "1",
        "WHISTBAN": "0",
        "RRCONT": "4025443721",
        "POLCONT": "8008488715",
        "INV_LINK": "https://safetydata.fra.dot.gov/OfficeofSafety/PublicSite/Crossing/Crossing.aspx?phasetype=C&rpttype=I&txtcrossingnum=432175W",
        "ACC_LINK": "https://safetydata.fra.dot.gov/OfficeofSafety/PublicSite/Crossing/Crossing.aspx?phasetype=C&rpttype=A&txtcrossingnum=432175W",
        "TTSTNNAM": "",
        "XPURPOSE": "1",
        "OPERATINGR": "UP",
        "OPERATIN_1": "Primary",
        "DAYTHRU": 4,
        "NGHTTHRU": 3,
        "MAINTRK": 1,
        "SIDINGTRK": 0,
        "YARDTRK": 0,
        "TRANSITTRK": 0,
        "INDUSTRYTR": 0,
        "OTHRTRK": 0,
        "WDCODE": "All other Gates",
        "REVISIONDA": "1975/01/01 00:00:00",
        "LASTUPDATE": "8/28/2025",
        "AADT": "79",
        "AADTYEAR": "2019",
        "STATENAME": "TEXAS",
        "STATEAB": "TX",
        "COUNTYNAME": "HOUSTON",
        "CITYNAME": "GRAPELAND",
        "LATDD": 31.5642404,
        "LONGDD": -95.4930308,
        "gridlyProductionCertified": true,
        "gridlyClassification": "PUBLIC_ROADWAY",
        "gridlyDisplayName": "CR 2320",
        "gridlyId": "FRA-432175W"
      }
    },
    {
      "type": "Feature",
      "id": 209289,
      "geometry": {
        "type": "Point",
        "coordinates": [
          -95.4383683000278,
          31.1080100996895
        ]
      },
      "properties": {
        "OBJECTID": 209289,
        "CROSSING": "432302V",
        "EFFDATE": 1756339200000,
        "REASON": "14",
        "StateCode": "48",
        "CountyCode": "48225",
        "STCYFIPS": "48225",
        "CITYCD": "482254130",
        "RAILROAD": "UP",
        "RRDIV": "GULF COAST",
        "RRSUBDIV": "Palestine Sub",
        "HIGHWAY": "NA",
        "STREET": "PRIVATE",
        "TTSTN": "682175",
        "MILEPOST": "0135.090",
        "TYPEXING": "Private",
        "POSXING": "At Grade",
        "PRVCAT": "14",
        "INIT": "1",
        "LATITUDE": 31.1080101,
        "LONGITUD": -95.4383683,
        "LLSOURCE": "1",
        "WHISTBAN": "0",
        "RRCONT": "4025443721",
        "POLCONT": "8008488715",
        "INV_LINK": "https://safetydata.fra.dot.gov/OfficeofSafety/PublicSite/Crossing/Crossing.aspx?phasetype=C&rpttype=I&txtcrossingnum=432302V",
        "ACC_LINK": "https://safetydata.fra.dot.gov/OfficeofSafety/PublicSite/Crossing/Crossing.aspx?phasetype=C&rpttype=A&txtcrossingnum=432302V",
        "TTSTNNAM": "",
        "XPURPOSE": "1",
        "OPERATINGR": "UP",
        "OPERATIN_1": "Primary",
        "DAYTHRU": 4,
        "NGHTTHRU": 3,
        "MAINTRK": 1,
        "SIDINGTRK": 0,
        "YARDTRK": 0,
        "TRANSITTRK": 0,
        "INDUSTRYTR": 0,
        "OTHRTRK": 0,
        "WDCODE": "",
        "REVISIONDA": "1975/01/01 00:00:00",
        "LASTUPDATE": "8/28/2025",
        "AADT": "1",
        "AADTYEAR": "1970",
        "STATENAME": "TEXAS",
        "STATEAB": "TX",
        "COUNTYNAME": "HOUSTON",
        "CITYNAME": "LOVELADY",
        "LATDD": 31.1080101,
        "LONGDD": -95.4383683,
        "gridlyProductionCertified": true,
        "gridlyClassification": "PUBLIC_ROADWAY",
        "gridlyDisplayName": "PRIVATE",
        "gridlyId": "FRA-432302V"
      }
    },
    {
      "type": "Feature",
      "id": 209290,
      "geometry": {
        "type": "Point",
        "coordinates": [
          -95.4417574001514,
          31.1154500002097
        ]
      },
      "properties": {
        "OBJECTID": 209290,
        "CROSSING": "432303C",
        "EFFDATE": 1756339200000,
        "REASON": "14",
        "StateCode": "48",
        "CountyCode": "48225",
        "STCYFIPS": "48225",
        "CITYCD": "482254130",
        "RAILROAD": "UP",
        "RRDIV": "GULF COAST",
        "RRSUBDIV": "Palestine Sub",
        "HIGHWAY": "NA",
        "STREET": "PRIVATE",
        "TTSTN": "682175",
        "MILEPOST": "0134.540",
        "TYPEXING": "Private",
        "POSXING": "At Grade",
        "PRVCAT": "14",
        "INIT": "1",
        "LATITUDE": 31.11545,
        "LONGITUD": -95.4417574,
        "LLSOURCE": "1",
        "WHISTBAN": "0",
        "RRCONT": "4025443721",
        "POLCONT": "8008488715",
        "INV_LINK": "https://safetydata.fra.dot.gov/OfficeofSafety/PublicSite/Crossing/Crossing.aspx?phasetype=C&rpttype=I&txtcrossingnum=432303C",
        "ACC_LINK": "https://safetydata.fra.dot.gov/OfficeofSafety/PublicSite/Crossing/Crossing.aspx?phasetype=C&rpttype=A&txtcrossingnum=432303C",
        "TTSTNNAM": "",
        "XPURPOSE": "1",
        "OPERATINGR": "UP",
        "OPERATIN_1": "Primary",
        "DAYTHRU": 4,
        "NGHTTHRU": 3,
        "MAINTRK": 1,
        "SIDINGTRK": 0,
        "YARDTRK": 0,
        "TRANSITTRK": 0,
        "INDUSTRYTR": 0,
        "OTHRTRK": 0,
        "WDCODE": "",
        "REVISIONDA": "1975/01/01 00:00:00",
        "LASTUPDATE": "8/28/2025",
        "AADT": "1",
        "AADTYEAR": "1970",
        "STATENAME": "TEXAS",
        "STATEAB": "TX",
        "COUNTYNAME": "HOUSTON",
        "CITYNAME": "LOVELADY",
        "LATDD": 31.11545,
        "LONGDD": -95.4417574,
        "gridlyProductionCertified": true,
        "gridlyClassification": "PUBLIC_ROADWAY",
        "gridlyDisplayName": "PRIVATE",
        "gridlyId": "FRA-432303C"
      }
    },
    {
      "type": "Feature",
      "id": 209291,
      "geometry": {
        "type": "Point",
        "coordinates": [
          -95.4445346999557,
          31.1203423998296
        ]
      },
      "properties": {
        "OBJECTID": 209291,
        "CROSSING": "432304J",
        "EFFDATE": 1756339200000,
        "REASON": "14",
        "StateCode": "48",
        "CountyCode": "48225",
        "STCYFIPS": "48225",
        "CITYCD": "482254130",
        "RAILROAD": "UP",
        "RRDIV": "GULF COAST",
        "RRSUBDIV": "Palestine Sub",
        "HIGHWAY": "ST 0000",
        "STREET": "GIMON LANE",
        "TTSTN": "682175",
        "MILEPOST": "0134.170",
        "TYPEXING": "Public",
        "POSXING": "At Grade",
        "PRVCAT": "14",
        "INIT": "1",
        "LATITUDE": 31.1203424,
        "LONGITUD": -95.4445347,
        "LLSOURCE": "1",
        "WHISTBAN": "0",
        "RRCONT": "4025443721",
        "POLCONT": "8008488715",
        "INV_LINK": "https://safetydata.fra.dot.gov/OfficeofSafety/PublicSite/Crossing/Crossing.aspx?phasetype=C&rpttype=I&txtcrossingnum=432304J",
        "ACC_LINK": "https://safetydata.fra.dot.gov/OfficeofSafety/PublicSite/Crossing/Crossing.aspx?phasetype=C&rpttype=A&txtcrossingnum=432304J",
        "TTSTNNAM": "",
        "XPURPOSE": "1",
        "OPERATINGR": "UP",
        "OPERATIN_1": "Primary",
        "DAYTHRU": 4,
        "NGHTTHRU": 3,
        "MAINTRK": 0,
        "SIDINGTRK": 0,
        "YARDTRK": 1,
        "TRANSITTRK": 0,
        "INDUSTRYTR": 0,
        "OTHRTRK": 1,
        "WDCODE": "All other Gates",
        "REVISIONDA": "1975/01/01 00:00:00",
        "LASTUPDATE": "8/28/2025",
        "AADT": "33",
        "AADTYEAR": "2019",
        "STATENAME": "TEXAS",
        "STATEAB": "TX",
        "COUNTYNAME": "HOUSTON",
        "CITYNAME": "LOVELADY",
        "LATDD": 31.1203424,
        "LONGDD": -95.4445347,
        "gridlyProductionCertified": true,
        "gridlyClassification": "PUBLIC_ROADWAY",
        "gridlyDisplayName": "GIMON LANE",
        "gridlyId": "FRA-432304J"
      }
    },
    {
      "type": "Feature",
      "id": 209292,
      "geometry": {
        "type": "Point",
        "coordinates": [
          -95.4456602000735,
          31.124922400027
        ]
      },
      "properties": {
        "OBJECTID": 209292,
        "CROSSING": "432305R",
        "EFFDATE": 1756339200000,
        "REASON": "14",
        "StateCode": "48",
        "CountyCode": "48225",
        "STCYFIPS": "48225",
        "CITYCD": "482254130",
        "RAILROAD": "UP",
        "RRDIV": "Gulf Coast",
        "RRSUBDIV": "Palestine Sub",
        "HIGHWAY": "ST 0000",
        "STREET": "Cox Street",
        "TTSTN": "682175",
        "MILEPOST": "0133.840",
        "TYPEXING": "Public",
        "POSXING": "At Grade",
        "PRVCAT": "14",
        "INIT": "1",
        "LATITUDE": 31.1249224,
        "LONGITUD": -95.4456602,
        "LLSOURCE": "1",
        "WHISTBAN": "0",
        "RRCONT": "4025443721",
        "POLCONT": "8008488715",
        "INV_LINK": "https://safetydata.fra.dot.gov/OfficeofSafety/PublicSite/Crossing/Crossing.aspx?phasetype=C&rpttype=I&txtcrossingnum=432305R",
        "ACC_LINK": "https://safetydata.fra.dot.gov/OfficeofSafety/PublicSite/Crossing/Crossing.aspx?phasetype=C&rpttype=A&txtcrossingnum=432305R",
        "TTSTNNAM": "",
        "XPURPOSE": "1",
        "OPERATINGR": "UP",
        "OPERATIN_1": "Primary",
        "DAYTHRU": 4,
        "NGHTTHRU": 3,
        "MAINTRK": 0,
        "SIDINGTRK": 0,
        "YARDTRK": 1,
        "TRANSITTRK": 0,
        "INDUSTRYTR": 0,
        "OTHRTRK": 1,
        "WDCODE": "All other Gates",
        "REVISIONDA": "1975/01/01 00:00:00",
        "LASTUPDATE": "8/28/2025",
        "AADT": "31",
        "AADTYEAR": "2019",
        "STATENAME": "TEXAS",
        "STATEAB": "TX",
        "COUNTYNAME": "HOUSTON",
        "CITYNAME": "LOVELADY",
        "LATDD": 31.1249224,
        "LONGDD": -95.4456602,
        "gridlyProductionCertified": true,
        "gridlyClassification": "PUBLIC_ROADWAY",
        "gridlyDisplayName": "Cox Street",
        "gridlyId": "FRA-432305R"
      }
    },
    {
      "type": "Feature",
      "id": 209293,
      "geometry": {
        "type": "Point",
        "coordinates": [
          -95.4458896998657,
          31.1268092003797
        ]
      },
      "properties": {
        "OBJECTID": 209293,
        "CROSSING": "432306X",
        "EFFDATE": 1756339200000,
        "REASON": "14",
        "StateCode": "48",
        "CountyCode": "48225",
        "STCYFIPS": "48225",
        "CITYCD": "482254130",
        "RAILROAD": "UP",
        "RRDIV": "GULF COAST",
        "RRSUBDIV": "Palestine Sub",
        "HIGHWAY": "FM 0230",
        "STREET": "FM 230/HOUSTON",
        "TTSTN": "682175",
        "MILEPOST": "0133.710",
        "TYPEXING": "Public",
        "POSXING": "At Grade",
        "PRVCAT": "14",
        "INIT": "1",
        "LATITUDE": 31.1268092,
        "LONGITUD": -95.4458897,
        "LLSOURCE": "1",
        "WHISTBAN": "0",
        "RRCONT": "4025443721",
        "POLCONT": "8008488715",
        "INV_LINK": "https://safetydata.fra.dot.gov/OfficeofSafety/PublicSite/Crossing/Crossing.aspx?phasetype=C&rpttype=I&txtcrossingnum=432306X",
        "ACC_LINK": "https://safetydata.fra.dot.gov/OfficeofSafety/PublicSite/Crossing/Crossing.aspx?phasetype=C&rpttype=A&txtcrossingnum=432306X",
        "TTSTNNAM": "",
        "XPURPOSE": "1",
        "OPERATINGR": "UP",
        "OPERATIN_1": "Primary",
        "DAYTHRU": 4,
        "NGHTTHRU": 3,
        "MAINTRK": 1,
        "SIDINGTRK": 0,
        "YARDTRK": 1,
        "TRANSITTRK": 0,
        "INDUSTRYTR": 0,
        "OTHRTRK": 0,
        "WDCODE": "All other Gates",
        "REVISIONDA": "1975/01/01 00:00:00",
        "LASTUPDATE": "8/28/2025",
        "AADT": "1472",
        "AADTYEAR": "2019",
        "STATENAME": "TEXAS",
        "STATEAB": "TX",
        "COUNTYNAME": "HOUSTON",
        "CITYNAME": "LOVELADY",
        "LATDD": 31.1268092,
        "LONGDD": -95.4458897,
        "gridlyProductionCertified": true,
        "gridlyClassification": "PUBLIC_ROADWAY",
        "gridlyDisplayName": "FM 230/HOUSTON",
        "gridlyId": "FRA-432306X"
      }
    },
    {
      "type": "Feature",
      "id": 209294,
      "geometry": {
        "type": "Point",
        "coordinates": [
          -95.4499226998085,
          31.1357977003489
        ]
      },
      "properties": {
        "OBJECTID": 209294,
        "CROSSING": "432308L",
        "EFFDATE": 1756339200000,
        "REASON": "14",
        "StateCode": "48",
        "CountyCode": "48225",
        "STCYFIPS": "48225",
        "CITYCD": "482254130",
        "RAILROAD": "UP",
        "RRDIV": "GULF COAST",
        "RRSUBDIV": "Palestine Sub",
        "HIGHWAY": "CO 0000",
        "STREET": "EVERGREEN CEMETERY",
        "TTSTN": "682175",
        "MILEPOST": "0133.040",
        "TYPEXING": "Public",
        "POSXING": "At Grade",
        "PRVCAT": "14",
        "INIT": "1",
        "LATITUDE": 31.1357977,
        "LONGITUD": -95.4499227,
        "LLSOURCE": "1",
        "WHISTBAN": "0",
        "RRCONT": "4025443721",
        "POLCONT": "8008488715",
        "INV_LINK": "https://safetydata.fra.dot.gov/OfficeofSafety/PublicSite/Crossing/Crossing.aspx?phasetype=C&rpttype=I&txtcrossingnum=432308L",
        "ACC_LINK": "https://safetydata.fra.dot.gov/OfficeofSafety/PublicSite/Crossing/Crossing.aspx?phasetype=C&rpttype=A&txtcrossingnum=432308L",
        "TTSTNNAM": "",
        "XPURPOSE": "1",
        "OPERATINGR": "UP",
        "OPERATIN_1": "Primary",
        "DAYTHRU": 4,
        "NGHTTHRU": 3,
        "MAINTRK": 1,
        "SIDINGTRK": 0,
        "YARDTRK": 0,
        "TRANSITTRK": 0,
        "INDUSTRYTR": 0,
        "OTHRTRK": 0,
        "WDCODE": "Stop signs",
        "REVISIONDA": "1975/01/01 00:00:00",
        "LASTUPDATE": "8/28/2025",
        "AADT": "11",
        "AADTYEAR": "2001",
        "STATENAME": "TEXAS",
        "STATEAB": "TX",
        "COUNTYNAME": "HOUSTON",
        "CITYNAME": "LOVELADY",
        "LATDD": 31.1357977,
        "LONGDD": -95.4499227,
        "gridlyProductionCertified": true,
        "gridlyClassification": "PUBLIC_ROADWAY",
        "gridlyDisplayName": "EVERGREEN CEMETERY",
        "gridlyId": "FRA-432308L"
      }
    },
    {
      "type": "Feature",
      "id": 209295,
      "geometry": {
        "type": "Point",
        "coordinates": [
          -95.4715815996365,
          31.1748410996979
        ]
      },
      "properties": {
        "OBJECTID": 209295,
        "CROSSING": "432309T",
        "EFFDATE": 1756339200000,
        "REASON": "14",
        "StateCode": "48",
        "CountyCode": "48225",
        "STCYFIPS": "48225",
        "CITYCD": "482254130",
        "RAILROAD": "UP",
        "RRDIV": "GULF COAST",
        "RRSUBDIV": "Palestine Sub",
        "HIGHWAY": "TBD",
        "STREET": "CR 3450",
        "TTSTN": "682175",
        "MILEPOST": "0130.030",
        "TYPEXING": "Public",
        "POSXING": "At Grade",
        "PRVCAT": "14",
        "INIT": "1",
        "LATITUDE": 31.1748411,
        "LONGITUD": -95.4715816,
        "LLSOURCE": "1",
        "WHISTBAN": "0",
        "RRCONT": "4025443721",
        "POLCONT": "8008488715",
        "INV_LINK": "https://safetydata.fra.dot.gov/OfficeofSafety/PublicSite/Crossing/Crossing.aspx?phasetype=C&rpttype=I&txtcrossingnum=432309T",
        "ACC_LINK": "https://safetydata.fra.dot.gov/OfficeofSafety/PublicSite/Crossing/Crossing.aspx?phasetype=C&rpttype=A&txtcrossingnum=432309T",
        "TTSTNNAM": "",
        "XPURPOSE": "1",
        "OPERATINGR": "UP",
        "OPERATIN_1": "Primary",
        "DAYTHRU": 4,
        "NGHTTHRU": 3,
        "MAINTRK": 1,
        "SIDINGTRK": 0,
        "YARDTRK": 0,
        "TRANSITTRK": 0,
        "INDUSTRYTR": 0,
        "OTHRTRK": 0,
        "WDCODE": "Crossbucks",
        "REVISIONDA": "1975/01/01 00:00:00",
        "LASTUPDATE": "8/28/2025",
        "AADT": "31",
        "AADTYEAR": "2019",
        "STATENAME": "TEXAS",
        "STATEAB": "TX",
        "COUNTYNAME": "HOUSTON",
        "CITYNAME": "LOVELADY",
        "LATDD": 31.1748411,
        "LONGDD": -95.4715816,
        "gridlyProductionCertified": true,
        "gridlyClassification": "PUBLIC_ROADWAY",
        "gridlyDisplayName": "CR 3450",
        "gridlyId": "FRA-432309T"
      }
    },
    {
      "type": "Feature",
      "id": 209296,
      "geometry": {
        "type": "Point",
        "coordinates": [
          -95.4648880997409,
          31.1649200003106
        ]
      },
      "properties": {
        "OBJECTID": 209296,
        "CROSSING": "432310M",
        "EFFDATE": 1756339200000,
        "REASON": "14",
        "StateCode": "48",
        "CountyCode": "48225",
        "STCYFIPS": "48225",
        "CITYCD": "482254130",
        "RAILROAD": "UP",
        "RRDIV": "GULF COAST",
        "RRSUBDIV": "Palestine Sub",
        "HIGHWAY": "PRIVATE",
        "STREET": "PRIVATE",
        "TTSTN": "682175",
        "MILEPOST": "0130.830",
        "TYPEXING": "Private",
        "POSXING": "At Grade",
        "PRVCAT": "14",
        "INIT": "1",
        "LATITUDE": 31.16492,
        "LONGITUD": -95.4648881,
        "LLSOURCE": "1",
        "WHISTBAN": "0",
        "RRCONT": "4025443721",
        "POLCONT": "8008488715",
        "INV_LINK": "https://safetydata.fra.dot.gov/OfficeofSafety/PublicSite/Crossing/Crossing.aspx?phasetype=C&rpttype=I&txtcrossingnum=432310M",
        "ACC_LINK": "https://safetydata.fra.dot.gov/OfficeofSafety/PublicSite/Crossing/Crossing.aspx?phasetype=C&rpttype=A&txtcrossingnum=432310M",
        "TTSTNNAM": "",
        "XPURPOSE": "1",
        "OPERATINGR": "UP",
        "OPERATIN_1": "Primary",
        "DAYTHRU": 4,
        "NGHTTHRU": 3,
        "MAINTRK": 1,
        "SIDINGTRK": 0,
        "YARDTRK": 0,
        "TRANSITTRK": 0,
        "INDUSTRYTR": 0,
        "OTHRTRK": 0,
        "WDCODE": "",
        "REVISIONDA": "1975/01/01 00:00:00",
        "LASTUPDATE": "8/28/2025",
        "AADT": "1",
        "AADTYEAR": "1970",
        "STATENAME": "TEXAS",
        "STATEAB": "TX",
        "COUNTYNAME": "HOUSTON",
        "CITYNAME": "LOVELADY",
        "LATDD": 31.16492,
        "LONGDD": -95.4648881,
        "gridlyProductionCertified": true,
        "gridlyClassification": "PUBLIC_ROADWAY",
        "gridlyDisplayName": "PRIVATE",
        "gridlyId": "FRA-432310M"
      }
    },
    {
      "type": "Feature",
      "id": 209297,
      "geometry": {
        "type": "Point",
        "coordinates": [
          -95.4565012997893,
          31.1468308001683
        ]
      },
      "properties": {
        "OBJECTID": 209297,
        "CROSSING": "432311U",
        "EFFDATE": 1756339200000,
        "REASON": "14",
        "StateCode": "48",
        "CountyCode": "48225",
        "STCYFIPS": "48225",
        "CITYCD": "482254130",
        "RAILROAD": "UP",
        "RRDIV": "GULF COAST",
        "RRSUBDIV": "Palestine Sub",
        "HIGHWAY": "PRIVATE",
        "STREET": "PRIVATE",
        "TTSTN": "682175",
        "MILEPOST": "0132.180",
        "TYPEXING": "Private",
        "POSXING": "At Grade",
        "PRVCAT": "14",
        "INIT": "1",
        "LATITUDE": 31.1468308,
        "LONGITUD": -95.4565013,
        "LLSOURCE": "1",
        "WHISTBAN": "0",
        "RRCONT": "4025443721",
        "POLCONT": "8008488715",
        "INV_LINK": "https://safetydata.fra.dot.gov/OfficeofSafety/PublicSite/Crossing/Crossing.aspx?phasetype=C&rpttype=I&txtcrossingnum=432311U",
        "ACC_LINK": "https://safetydata.fra.dot.gov/OfficeofSafety/PublicSite/Crossing/Crossing.aspx?phasetype=C&rpttype=A&txtcrossingnum=432311U",
        "TTSTNNAM": "",
        "XPURPOSE": "1",
        "OPERATINGR": "UP",
        "OPERATIN_1": "Primary",
        "DAYTHRU": 4,
        "NGHTTHRU": 3,
        "MAINTRK": 1,
        "SIDINGTRK": 0,
        "YARDTRK": 0,
        "TRANSITTRK": 0,
        "INDUSTRYTR": 0,
        "OTHRTRK": 0,
        "WDCODE": "",
        "REVISIONDA": "1975/01/01 00:00:00",
        "LASTUPDATE": "8/28/2025",
        "AADT": "1",
        "AADTYEAR": "1970",
        "STATENAME": "TEXAS",
        "STATEAB": "TX",
        "COUNTYNAME": "HOUSTON",
        "CITYNAME": "LOVELADY",
        "LATDD": 31.1468308,
        "LONGDD": -95.4565013,
        "gridlyProductionCertified": true,
        "gridlyClassification": "PUBLIC_ROADWAY",
        "gridlyDisplayName": "PRIVATE",
        "gridlyId": "FRA-432311U"
      }
    },
    {
      "type": "Feature",
      "id": 209298,
      "geometry": {
        "type": "Point",
        "coordinates": [
          -95.4798518997738,
          31.1960454002782
        ]
      },
      "properties": {
        "OBJECTID": 209298,
        "CROSSING": "432314P",
        "EFFDATE": 1756339200000,
        "REASON": "14",
        "StateCode": "48",
        "CountyCode": "48225",
        "STCYFIPS": "48225",
        "CITYCD": "482254130",
        "RAILROAD": "UP",
        "RRDIV": "GULF COAST",
        "RRSUBDIV": "Palestine Sub",
        "HIGHWAY": "FM 0231",
        "STREET": "FM 231",
        "TTSTN": "661133",
        "MILEPOST": "0128.460",
        "TYPEXING": "Public",
        "POSXING": "At Grade",
        "PRVCAT": "14",
        "INIT": "1",
        "LATITUDE": 31.1960454,
        "LONGITUD": -95.4798519,
        "LLSOURCE": "1",
        "WHISTBAN": "0",
        "RRCONT": "4025443721",
        "POLCONT": "8008488715",
        "INV_LINK": "https://safetydata.fra.dot.gov/OfficeofSafety/PublicSite/Crossing/Crossing.aspx?phasetype=C&rpttype=I&txtcrossingnum=432314P",
        "ACC_LINK": "https://safetydata.fra.dot.gov/OfficeofSafety/PublicSite/Crossing/Crossing.aspx?phasetype=C&rpttype=A&txtcrossingnum=432314P",
        "TTSTNNAM": "",
        "XPURPOSE": "1",
        "OPERATINGR": "UP",
        "OPERATIN_1": "Primary",
        "DAYTHRU": 4,
        "NGHTTHRU": 3,
        "MAINTRK": 1,
        "SIDINGTRK": 0,
        "YARDTRK": 0,
        "TRANSITTRK": 0,
        "INDUSTRYTR": 0,
        "OTHRTRK": 0,
        "WDCODE": "All other Gates",
        "REVISIONDA": "1975/01/01 00:00:00",
        "LASTUPDATE": "8/28/2025",
        "AADT": "265",
        "AADTYEAR": "2019",
        "STATENAME": "TEXAS",
        "STATEAB": "TX",
        "COUNTYNAME": "HOUSTON",
        "CITYNAME": "LOVELADY",
        "LATDD": 31.1960454,
        "LONGDD": -95.4798519,
        "gridlyProductionCertified": true,
        "gridlyClassification": "PUBLIC_ROADWAY",
        "gridlyDisplayName": "FM 231",
        "gridlyId": "FRA-432314P"
      }
    },
    {
      "type": "Feature",
      "id": 209302,
      "geometry": {
        "type": "Point",
        "coordinates": [
          -95.4826221999055,
          31.2052006001691
        ]
      },
      "properties": {
        "OBJECTID": 209302,
        "CROSSING": "432315W",
        "EFFDATE": 1756339200000,
        "REASON": "14",
        "StateCode": "48",
        "CountyCode": "48225",
        "STCYFIPS": "48225",
        "CITYCD": "482251620",
        "RAILROAD": "UP",
        "RRDIV": "GULF COAST",
        "RRSUBDIV": "Palestine Sub",
        "HIGHWAY": "PRIVATE",
        "STREET": "PRIVATE",
        "TTSTN": "682150",
        "MILEPOST": "0127.800",
        "TYPEXING": "Private",
        "POSXING": "At Grade",
        "PRVCAT": "14",
        "INIT": "1",
        "LATITUDE": 31.2052006,
        "LONGITUD": -95.4826222,
        "LLSOURCE": "1",
        "WHISTBAN": "0",
        "RRCONT": "4025443721",
        "POLCONT": "8008488715",
        "INV_LINK": "https://safetydata.fra.dot.gov/OfficeofSafety/PublicSite/Crossing/Crossing.aspx?phasetype=C&rpttype=I&txtcrossingnum=432315W",
        "ACC_LINK": "https://safetydata.fra.dot.gov/OfficeofSafety/PublicSite/Crossing/Crossing.aspx?phasetype=C&rpttype=A&txtcrossingnum=432315W",
        "TTSTNNAM": "",
        "XPURPOSE": "1",
        "OPERATINGR": "UP",
        "OPERATIN_1": "Primary",
        "DAYTHRU": 4,
        "NGHTTHRU": 3,
        "MAINTRK": 1,
        "SIDINGTRK": 0,
        "YARDTRK": 0,
        "TRANSITTRK": 0,
        "INDUSTRYTR": 0,
        "OTHRTRK": 0,
        "WDCODE": "",
        "REVISIONDA": "1975/01/01 00:00:00",
        "LASTUPDATE": "8/28/2025",
        "AADT": "1",
        "AADTYEAR": "1970",
        "STATENAME": "TEXAS",
        "STATEAB": "TX",
        "COUNTYNAME": "HOUSTON",
        "CITYNAME": "CROCKETT",
        "LATDD": 31.2052006,
        "LONGDD": -95.4826222,
        "gridlyProductionCertified": true,
        "gridlyClassification": "PUBLIC_ROADWAY",
        "gridlyDisplayName": "PRIVATE",
        "gridlyId": "FRA-432315W"
      }
    },
    {
      "type": "Feature",
      "id": 209303,
      "geometry": {
        "type": "Point",
        "coordinates": [
          -95.4831167997245,
          31.2103496001273
        ]
      },
      "properties": {
        "OBJECTID": 209303,
        "CROSSING": "432316D",
        "EFFDATE": 1756339200000,
        "REASON": "14",
        "StateCode": "48",
        "CountyCode": "48225",
        "STCYFIPS": "48225",
        "CITYCD": "482251620",
        "RAILROAD": "UP",
        "RRDIV": "GULF COAST",
        "RRSUBDIV": "Palestine Sub",
        "HIGHWAY": "PRIVATE",
        "STREET": "PRIVATE",
        "TTSTN": "682150",
        "MILEPOST": "0127.440",
        "TYPEXING": "Private",
        "POSXING": "At Grade",
        "PRVCAT": "14",
        "INIT": "1",
        "LATITUDE": 31.2103496,
        "LONGITUD": -95.4831168,
        "LLSOURCE": "1",
        "WHISTBAN": "0",
        "RRCONT": "4025443721",
        "POLCONT": "8008488715",
        "INV_LINK": "https://safetydata.fra.dot.gov/OfficeofSafety/PublicSite/Crossing/Crossing.aspx?phasetype=C&rpttype=I&txtcrossingnum=432316D",
        "ACC_LINK": "https://safetydata.fra.dot.gov/OfficeofSafety/PublicSite/Crossing/Crossing.aspx?phasetype=C&rpttype=A&txtcrossingnum=432316D",
        "TTSTNNAM": "",
        "XPURPOSE": "1",
        "OPERATINGR": "UP",
        "OPERATIN_1": "Primary",
        "DAYTHRU": 4,
        "NGHTTHRU": 3,
        "MAINTRK": 1,
        "SIDINGTRK": 0,
        "YARDTRK": 0,
        "TRANSITTRK": 0,
        "INDUSTRYTR": 0,
        "OTHRTRK": 0,
        "WDCODE": "",
        "REVISIONDA": "1975/01/01 00:00:00",
        "LASTUPDATE": "8/28/2025",
        "AADT": "1",
        "AADTYEAR": "1970",
        "STATENAME": "TEXAS",
        "STATEAB": "TX",
        "COUNTYNAME": "HOUSTON",
        "CITYNAME": "CROCKETT",
        "LATDD": 31.2103496,
        "LONGDD": -95.4831168,
        "gridlyProductionCertified": true,
        "gridlyClassification": "PUBLIC_ROADWAY",
        "gridlyDisplayName": "PRIVATE",
        "gridlyId": "FRA-432316D"
      }
    },
    {
      "type": "Feature",
      "id": 209304,
      "geometry": {
        "type": "Point",
        "coordinates": [
          -95.481966899567,
          31.2222104997362
        ]
      },
      "properties": {
        "OBJECTID": 209304,
        "CROSSING": "432317K",
        "EFFDATE": 1756339200000,
        "REASON": "14",
        "StateCode": "48",
        "CountyCode": "48225",
        "STCYFIPS": "48225",
        "CITYCD": "482251620",
        "RAILROAD": "UP",
        "RRDIV": "GULF COAST",
        "RRSUBDIV": "Palestine Sub",
        "HIGHWAY": "CO 3365",
        "STREET": "CR 3365",
        "TTSTN": "682150",
        "MILEPOST": "0126.620",
        "TYPEXING": "Public",
        "POSXING": "At Grade",
        "PRVCAT": "14",
        "INIT": "1",
        "LATITUDE": 31.2222105,
        "LONGITUD": -95.4819669,
        "LLSOURCE": "1",
        "WHISTBAN": "0",
        "RRCONT": "4025443721",
        "POLCONT": "8008488715",
        "INV_LINK": "https://safetydata.fra.dot.gov/OfficeofSafety/PublicSite/Crossing/Crossing.aspx?phasetype=C&rpttype=I&txtcrossingnum=432317K",
        "ACC_LINK": "https://safetydata.fra.dot.gov/OfficeofSafety/PublicSite/Crossing/Crossing.aspx?phasetype=C&rpttype=A&txtcrossingnum=432317K",
        "TTSTNNAM": "",
        "XPURPOSE": "1",
        "OPERATINGR": "UP",
        "OPERATIN_1": "Primary",
        "DAYTHRU": 4,
        "NGHTTHRU": 3,
        "MAINTRK": 1,
        "SIDINGTRK": 0,
        "YARDTRK": 0,
        "TRANSITTRK": 0,
        "INDUSTRYTR": 0,
        "OTHRTRK": 0,
        "WDCODE": "Crossbucks",
        "REVISIONDA": "1975/01/01 00:00:00",
        "LASTUPDATE": "8/28/2025",
        "AADT": "25",
        "AADTYEAR": "2019",
        "STATENAME": "TEXAS",
        "STATEAB": "TX",
        "COUNTYNAME": "HOUSTON",
        "CITYNAME": "CROCKETT",
        "LATDD": 31.2222105,
        "LONGDD": -95.4819669,
        "gridlyProductionCertified": true,
        "gridlyClassification": "PUBLIC_ROADWAY",
        "gridlyDisplayName": "CR 3365",
        "gridlyId": "FRA-432317K"
      }
    },
    {
      "type": "Feature",
      "id": 209306,
      "geometry": {
        "type": "Point",
        "coordinates": [
          -95.4774586001091,
          31.2523874003692
        ]
      },
      "properties": {
        "OBJECTID": 209306,
        "CROSSING": "432318S",
        "EFFDATE": 1756339200000,
        "REASON": "14",
        "StateCode": "48",
        "CountyCode": "48225",
        "STCYFIPS": "48225",
        "CITYCD": "482251620",
        "RAILROAD": "UP",
        "RRDIV": "GULF COAST",
        "RRSUBDIV": "Palestine Sub",
        "HIGHWAY": "NA",
        "STREET": "PRIVATE",
        "TTSTN": "682150",
        "MILEPOST": "0124.400",
        "TYPEXING": "Private",
        "POSXING": "At Grade",
        "PRVCAT": "14",
        "INIT": "1",
        "LATITUDE": 31.2523874,
        "LONGITUD": -95.4774586,
        "LLSOURCE": "1",
        "WHISTBAN": "0",
        "RRCONT": "4025443721",
        "POLCONT": "8008488715",
        "INV_LINK": "https://safetydata.fra.dot.gov/OfficeofSafety/PublicSite/Crossing/Crossing.aspx?phasetype=C&rpttype=I&txtcrossingnum=432318S",
        "ACC_LINK": "https://safetydata.fra.dot.gov/OfficeofSafety/PublicSite/Crossing/Crossing.aspx?phasetype=C&rpttype=A&txtcrossingnum=432318S",
        "TTSTNNAM": "",
        "XPURPOSE": "1",
        "OPERATINGR": "UP",
        "OPERATIN_1": "Primary",
        "DAYTHRU": 4,
        "NGHTTHRU": 3,
        "MAINTRK": 1,
        "SIDINGTRK": 0,
        "YARDTRK": 0,
        "TRANSITTRK": 0,
        "INDUSTRYTR": 0,
        "OTHRTRK": 0,
        "WDCODE": "",
        "REVISIONDA": "1975/01/01 00:00:00",
        "LASTUPDATE": "8/28/2025",
        "AADT": "1",
        "AADTYEAR": "1970",
        "STATENAME": "TEXAS",
        "STATEAB": "TX",
        "COUNTYNAME": "HOUSTON",
        "CITYNAME": "CROCKETT",
        "LATDD": 31.2523874,
        "LONGDD": -95.4774586,
        "gridlyProductionCertified": true,
        "gridlyClassification": "PUBLIC_ROADWAY",
        "gridlyDisplayName": "PRIVATE",
        "gridlyId": "FRA-432318S"
      }
    },
    {
      "type": "Feature",
      "id": 209307,
      "geometry": {
        "type": "Point",
        "coordinates": [
          -95.4782699997962,
          31.2641896998264
        ]
      },
      "properties": {
        "OBJECTID": 209307,
        "CROSSING": "432319Y",
        "EFFDATE": 1756339200000,
        "REASON": "14",
        "StateCode": "48",
        "CountyCode": "48225",
        "STCYFIPS": "48225",
        "CITYCD": "482251620",
        "RAILROAD": "UP",
        "RRDIV": "Gulf Coast",
        "RRSUBDIV": "Palestine Sub",
        "HIGHWAY": "CO 3315",
        "STREET": "County Road 3315",
        "TTSTN": "682150",
        "MILEPOST": "0123.600",
        "TYPEXING": "Public",
        "POSXING": "At Grade",
        "PRVCAT": "14",
        "INIT": "1",
        "LATITUDE": 31.2641897,
        "LONGITUD": -95.47827,
        "LLSOURCE": "1",
        "WHISTBAN": "0",
        "RRCONT": "4025443721",
        "POLCONT": "8008488715",
        "INV_LINK": "https://safetydata.fra.dot.gov/OfficeofSafety/PublicSite/Crossing/Crossing.aspx?phasetype=C&rpttype=I&txtcrossingnum=432319Y",
        "ACC_LINK": "https://safetydata.fra.dot.gov/OfficeofSafety/PublicSite/Crossing/Crossing.aspx?phasetype=C&rpttype=A&txtcrossingnum=432319Y",
        "TTSTNNAM": "",
        "XPURPOSE": "1",
        "OPERATINGR": "UP",
        "OPERATIN_1": "Primary",
        "DAYTHRU": 4,
        "NGHTTHRU": 3,
        "MAINTRK": 1,
        "SIDINGTRK": 0,
        "YARDTRK": 0,
        "TRANSITTRK": 0,
        "INDUSTRYTR": 0,
        "OTHRTRK": 0,
        "WDCODE": "Stop signs",
        "REVISIONDA": "1975/01/01 00:00:00",
        "LASTUPDATE": "8/28/2025",
        "AADT": "30",
        "AADTYEAR": "2008",
        "STATENAME": "TEXAS",
        "STATEAB": "TX",
        "COUNTYNAME": "HOUSTON",
        "CITYNAME": "CROCKETT",
        "LATDD": 31.2641897,
        "LONGDD": -95.47827,
        "gridlyProductionCertified": true,
        "gridlyClassification": "PUBLIC_ROADWAY",
        "gridlyDisplayName": "County Road 3315",
        "gridlyId": "FRA-432319Y"
      }
    },
    {
      "type": "Feature",
      "id": 209308,
      "geometry": {
        "type": "Point",
        "coordinates": [
          -95.4673529996254,
          31.2979619999202
        ]
      },
      "properties": {
        "OBJECTID": 209308,
        "CROSSING": "432320T",
        "EFFDATE": 1756339200000,
        "REASON": "14",
        "StateCode": "48",
        "CountyCode": "48225",
        "STCYFIPS": "48225",
        "CITYCD": "482251620",
        "RAILROAD": "UP",
        "RRDIV": "GULF COAST",
        "RRSUBDIV": "Palestine Sub",
        "HIGHWAY": "SL 0304",
        "STREET": "LP 304",
        "TTSTN": "682150",
        "MILEPOST": "0121.179",
        "TYPEXING": "Public",
        "POSXING": "RR Over",
        "PRVCAT": "14",
        "INIT": "1",
        "LATITUDE": 31.297962,
        "LONGITUD": -95.467353,
        "LLSOURCE": "1",
        "WHISTBAN": "0",
        "RRCONT": "4025443721",
        "POLCONT": "8008488715",
        "INV_LINK": "https://safetydata.fra.dot.gov/OfficeofSafety/PublicSite/Crossing/Crossing.aspx?phasetype=C&rpttype=I&txtcrossingnum=432320T",
        "ACC_LINK": "https://safetydata.fra.dot.gov/OfficeofSafety/PublicSite/Crossing/Crossing.aspx?phasetype=C&rpttype=A&txtcrossingnum=432320T",
        "TTSTNNAM": "",
        "XPURPOSE": "1",
        "OPERATINGR": "UP",
        "OPERATIN_1": "Primary",
        "DAYTHRU": 22,
        "NGHTTHRU": 6,
        "MAINTRK": 1,
        "SIDINGTRK": 1,
        "YARDTRK": 0,
        "TRANSITTRK": 0,
        "INDUSTRYTR": 0,
        "OTHRTRK": 0,
        "WDCODE": "",
        "REVISIONDA": "1975/01/01 00:00:00",
        "LASTUPDATE": "8/28/2025",
        "AADT": "5100",
        "AADTYEAR": "2013",
        "STATENAME": "TEXAS",
        "STATEAB": "TX",
        "COUNTYNAME": "HOUSTON",
        "CITYNAME": "CROCKETT",
        "LATDD": 31.297962,
        "LONGDD": -95.467353,
        "gridlyProductionCertified": true,
        "gridlyClassification": "PUBLIC_ROADWAY",
        "gridlyDisplayName": "LP 304",
        "gridlyId": "FRA-432320T"
      }
    },
    {
      "type": "Feature",
      "id": 209312,
      "geometry": {
        "type": "Point",
        "coordinates": [
          -95.4651556000662,
          31.3226335002453
        ]
      },
      "properties": {
        "OBJECTID": 209312,
        "CROSSING": "432324V",
        "EFFDATE": 1756339200000,
        "REASON": "14",
        "StateCode": "48",
        "CountyCode": "48225",
        "STCYFIPS": "48225",
        "CITYCD": "482251620",
        "RAILROAD": "UP",
        "RRDIV": "GULF COAST",
        "RRSUBDIV": "Palestine Sub",
        "HIGHWAY": "ST 0000",
        "STREET": "PEASE AVENUE",
        "TTSTN": "682150",
        "MILEPOST": "0119.340",
        "TYPEXING": "Public",
        "POSXING": "At Grade",
        "PRVCAT": "14",
        "INIT": "1",
        "LATITUDE": 31.3226335,
        "LONGITUD": -95.4651556,
        "LLSOURCE": "1",
        "WHISTBAN": "0",
        "RRCONT": "4025443721",
        "POLCONT": "8008488715",
        "INV_LINK": "https://safetydata.fra.dot.gov/OfficeofSafety/PublicSite/Crossing/Crossing.aspx?phasetype=C&rpttype=I&txtcrossingnum=432324V",
        "ACC_LINK": "https://safetydata.fra.dot.gov/OfficeofSafety/PublicSite/Crossing/Crossing.aspx?phasetype=C&rpttype=A&txtcrossingnum=432324V",
        "TTSTNNAM": "",
        "XPURPOSE": "1",
        "OPERATINGR": "UP",
        "OPERATIN_1": "Primary",
        "DAYTHRU": 4,
        "NGHTTHRU": 3,
        "MAINTRK": 1,
        "SIDINGTRK": 0,
        "YARDTRK": 0,
        "TRANSITTRK": 0,
        "INDUSTRYTR": 0,
        "OTHRTRK": 0,
        "WDCODE": "All other Gates",
        "REVISIONDA": "1975/01/01 00:00:00",
        "LASTUPDATE": "8/28/2025",
        "AADT": "489",
        "AADTYEAR": "2019",
        "STATENAME": "TEXAS",
        "STATEAB": "TX",
        "COUNTYNAME": "HOUSTON",
        "CITYNAME": "CROCKETT",
        "LATDD": 31.3226335,
        "LONGDD": -95.4651556,
        "gridlyProductionCertified": true,
        "gridlyClassification": "PUBLIC_ROADWAY",
        "gridlyDisplayName": "PEASE AVENUE",
        "gridlyId": "FRA-432324V"
      }
    },
    {
      "type": "Feature",
      "id": 209313,
      "geometry": {
        "type": "Point",
        "coordinates": [
          -95.4764738004193,
          31.3529341998539
        ]
      },
      "properties": {
        "OBJECTID": 209313,
        "CROSSING": "432327R",
        "EFFDATE": 1756339200000,
        "REASON": "14",
        "StateCode": "48",
        "CountyCode": "48225",
        "STCYFIPS": "48225",
        "CITYCD": "482251620",
        "RAILROAD": "UP",
        "RRDIV": "GULF COAST",
        "RRSUBDIV": "Palestine Sub",
        "HIGHWAY": "PRIVATE",
        "STREET": "PRIVATE",
        "TTSTN": "682150",
        "MILEPOST": "0117.070",
        "TYPEXING": "Private",
        "POSXING": "At Grade",
        "PRVCAT": "14",
        "INIT": "1",
        "LATITUDE": 31.3529342,
        "LONGITUD": -95.4764738,
        "LLSOURCE": "1",
        "WHISTBAN": "0",
        "RRCONT": "4025443721",
        "POLCONT": "8008488715",
        "INV_LINK": "https://safetydata.fra.dot.gov/OfficeofSafety/PublicSite/Crossing/Crossing.aspx?phasetype=C&rpttype=I&txtcrossingnum=432327R",
        "ACC_LINK": "https://safetydata.fra.dot.gov/OfficeofSafety/PublicSite/Crossing/Crossing.aspx?phasetype=C&rpttype=A&txtcrossingnum=432327R",
        "TTSTNNAM": "",
        "XPURPOSE": "1",
        "OPERATINGR": "UP",
        "OPERATIN_1": "Primary",
        "DAYTHRU": 4,
        "NGHTTHRU": 3,
        "MAINTRK": 1,
        "SIDINGTRK": 0,
        "YARDTRK": 0,
        "TRANSITTRK": 0,
        "INDUSTRYTR": 0,
        "OTHRTRK": 0,
        "WDCODE": "",
        "REVISIONDA": "1975/01/01 00:00:00",
        "LASTUPDATE": "8/28/2025",
        "AADT": "1",
        "AADTYEAR": "1970",
        "STATENAME": "TEXAS",
        "STATEAB": "TX",
        "COUNTYNAME": "HOUSTON",
        "CITYNAME": "CROCKETT",
        "LATDD": 31.3529342,
        "LONGDD": -95.4764738,
        "gridlyProductionCertified": true,
        "gridlyClassification": "PUBLIC_ROADWAY",
        "gridlyDisplayName": "PRIVATE",
        "gridlyId": "FRA-432327R"
      }
    },
    {
      "type": "Feature",
      "id": 209314,
      "geometry": {
        "type": "Point",
        "coordinates": [
          -95.4608800001995,
          31.3174975002529
        ]
      },
      "properties": {
        "OBJECTID": 209314,
        "CROSSING": "432326J",
        "EFFDATE": 1756339200000,
        "REASON": "14",
        "StateCode": "48",
        "CountyCode": "48225",
        "STCYFIPS": "48225",
        "CITYCD": "482251620",
        "RAILROAD": "UP",
        "RRDIV": "GULF COAST",
        "RRSUBDIV": "Palestine Sub",
        "HIGHWAY": "SH 0007",
        "STREET": "WEST GOLIAD AVENUE/HWY 7 21",
        "TTSTN": "682150",
        "MILEPOST": "0119.777",
        "TYPEXING": "Public",
        "POSXING": "RR Over",
        "PRVCAT": "14",
        "INIT": "1",
        "LATITUDE": 31.3174975,
        "LONGITUD": -95.46088,
        "LLSOURCE": "1",
        "WHISTBAN": "0",
        "RRCONT": "4025443721",
        "POLCONT": "8008488715",
        "INV_LINK": "https://safetydata.fra.dot.gov/OfficeofSafety/PublicSite/Crossing/Crossing.aspx?phasetype=C&rpttype=I&txtcrossingnum=432326J",
        "ACC_LINK": "https://safetydata.fra.dot.gov/OfficeofSafety/PublicSite/Crossing/Crossing.aspx?phasetype=C&rpttype=A&txtcrossingnum=432326J",
        "TTSTNNAM": "",
        "XPURPOSE": "1",
        "OPERATINGR": "UP",
        "OPERATIN_1": "Primary",
        "DAYTHRU": 22,
        "NGHTTHRU": 6,
        "MAINTRK": 1,
        "SIDINGTRK": 0,
        "YARDTRK": 0,
        "TRANSITTRK": 0,
        "INDUSTRYTR": 0,
        "OTHRTRK": 0,
        "WDCODE": "",
        "REVISIONDA": "1975/01/01 00:00:00",
        "LASTUPDATE": "8/28/2025",
        "AADT": "4300",
        "AADTYEAR": "2011",
        "STATENAME": "TEXAS",
        "STATEAB": "TX",
        "COUNTYNAME": "HOUSTON",
        "CITYNAME": "CROCKETT",
        "LATDD": 31.3174975,
        "LONGDD": -95.46088,
        "gridlyProductionCertified": true,
        "gridlyClassification": "PUBLIC_ROADWAY",
        "gridlyDisplayName": "WEST GOLIAD AVENUE/HWY 7 21",
        "gridlyId": "FRA-432326J"
      }
    },
    {
      "type": "Feature",
      "id": 209326,
      "geometry": {
        "type": "Point",
        "coordinates": [
          -95.4889685997585,
          31.5582647999997
        ]
      },
      "properties": {
        "OBJECTID": 209326,
        "CROSSING": "432669R",
        "EFFDATE": 1756339200000,
        "REASON": "14",
        "StateCode": "48",
        "CountyCode": "48225",
        "STCYFIPS": "48225",
        "CITYCD": "482252840",
        "RAILROAD": "UP",
        "RRDIV": "GULF COAST",
        "RRSUBDIV": "Palestine Sub",
        "HIGHWAY": "PRIVATE",
        "STREET": "PRIVATE",
        "TTSTN": "682123",
        "MILEPOST": "0102.130",
        "TYPEXING": "Private",
        "POSXING": "At Grade",
        "PRVCAT": "14",
        "INIT": "1",
        "LATITUDE": 31.5582648,
        "LONGITUD": -95.4889686,
        "LLSOURCE": "1",
        "WHISTBAN": "0",
        "RRCONT": "4025443721",
        "POLCONT": "8008488715",
        "INV_LINK": "https://safetydata.fra.dot.gov/OfficeofSafety/PublicSite/Crossing/Crossing.aspx?phasetype=C&rpttype=I&txtcrossingnum=432669R",
        "ACC_LINK": "https://safetydata.fra.dot.gov/OfficeofSafety/PublicSite/Crossing/Crossing.aspx?phasetype=C&rpttype=A&txtcrossingnum=432669R",
        "TTSTNNAM": "",
        "XPURPOSE": "1",
        "OPERATINGR": "UP",
        "OPERATIN_1": "Primary",
        "DAYTHRU": 4,
        "NGHTTHRU": 3,
        "MAINTRK": 1,
        "SIDINGTRK": 0,
        "YARDTRK": 0,
        "TRANSITTRK": 0,
        "INDUSTRYTR": 0,
        "OTHRTRK": 0,
        "WDCODE": "",
        "REVISIONDA": "1975/01/01 00:00:00",
        "LASTUPDATE": "8/28/2025",
        "AADT": "1",
        "AADTYEAR": "1970",
        "STATENAME": "TEXAS",
        "STATEAB": "TX",
        "COUNTYNAME": "HOUSTON",
        "CITYNAME": "GRAPELAND",
        "LATDD": 31.5582648,
        "LONGDD": -95.4889686,
        "gridlyProductionCertified": true,
        "gridlyClassification": "PUBLIC_ROADWAY",
        "gridlyDisplayName": "PRIVATE",
        "gridlyId": "FRA-432669R"
      }
    },
    {
      "type": "Feature",
      "id": 209327,
      "geometry": {
        "type": "Point",
        "coordinates": [
          -95.4871674003587,
          31.5502151001749
        ]
      },
      "properties": {
        "OBJECTID": 209327,
        "CROSSING": "432670K",
        "EFFDATE": 1756339200000,
        "REASON": "14",
        "StateCode": "48",
        "CountyCode": "48225",
        "STCYFIPS": "48225",
        "CITYCD": "482252840",
        "RAILROAD": "UP",
        "RRDIV": "GULF COAST",
        "RRSUBDIV": "Palestine Sub",
        "HIGHWAY": "cr 2345",
        "STREET": "CR 2345",
        "TTSTN": "682123",
        "MILEPOST": "0102.700",
        "TYPEXING": "Public",
        "POSXING": "At Grade",
        "PRVCAT": "14",
        "INIT": "1",
        "LATITUDE": 31.5502151,
        "LONGITUD": -95.4871674,
        "LLSOURCE": "1",
        "WHISTBAN": "0",
        "RRCONT": "4025443721",
        "POLCONT": "8008488715",
        "INV_LINK": "https://safetydata.fra.dot.gov/OfficeofSafety/PublicSite/Crossing/Crossing.aspx?phasetype=C&rpttype=I&txtcrossingnum=432670K",
        "ACC_LINK": "https://safetydata.fra.dot.gov/OfficeofSafety/PublicSite/Crossing/Crossing.aspx?phasetype=C&rpttype=A&txtcrossingnum=432670K",
        "TTSTNNAM": "",
        "XPURPOSE": "1",
        "OPERATINGR": "UP",
        "OPERATIN_1": "Primary",
        "DAYTHRU": 8,
        "NGHTTHRU": 8,
        "MAINTRK": 1,
        "SIDINGTRK": 0,
        "YARDTRK": 0,
        "TRANSITTRK": 0,
        "INDUSTRYTR": 0,
        "OTHRTRK": 0,
        "WDCODE": "Stop signs",
        "REVISIONDA": "1975/01/01 00:00:00",
        "LASTUPDATE": "8/28/2025",
        "AADT": "731",
        "AADTYEAR": "2019",
        "STATENAME": "TEXAS",
        "STATEAB": "TX",
        "COUNTYNAME": "HOUSTON",
        "CITYNAME": "GRAPELAND",
        "LATDD": 31.5502151,
        "LONGDD": -95.4871674,
        "gridlyProductionCertified": true,
        "gridlyClassification": "PUBLIC_ROADWAY",
        "gridlyDisplayName": "CR 2345",
        "gridlyId": "FRA-432670K"
      }
    },
    {
      "type": "Feature",
      "id": 209328,
      "geometry": {
        "type": "Point",
        "coordinates": [
          -95.479665900001,
          31.5085020001793
        ]
      },
      "properties": {
        "OBJECTID": 209328,
        "CROSSING": "432840C",
        "EFFDATE": 1756339200000,
        "REASON": "14",
        "StateCode": "48",
        "CountyCode": "48225",
        "STCYFIPS": "48225",
        "CITYCD": "482252840",
        "RAILROAD": "UP",
        "RRDIV": "GULF COAST",
        "RRSUBDIV": "Palestine Sub",
        "HIGHWAY": "CO 2335",
        "STREET": "CR 2335",
        "TTSTN": "682123",
        "MILEPOST": "0105.700",
        "TYPEXING": "Public",
        "POSXING": "At Grade",
        "PRVCAT": "14",
        "INIT": "1",
        "LATITUDE": 31.508502,
        "LONGITUD": -95.4796659,
        "LLSOURCE": "1",
        "WHISTBAN": "0",
        "RRCONT": "4025443721",
        "POLCONT": "8008488715",
        "INV_LINK": "https://safetydata.fra.dot.gov/OfficeofSafety/PublicSite/Crossing/Crossing.aspx?phasetype=C&rpttype=I&txtcrossingnum=432840C",
        "ACC_LINK": "https://safetydata.fra.dot.gov/OfficeofSafety/PublicSite/Crossing/Crossing.aspx?phasetype=C&rpttype=A&txtcrossingnum=432840C",
        "TTSTNNAM": "",
        "XPURPOSE": "1",
        "OPERATINGR": "UP",
        "OPERATIN_1": "Primary",
        "DAYTHRU": 4,
        "NGHTTHRU": 3,
        "MAINTRK": 1,
        "SIDINGTRK": 0,
        "YARDTRK": 0,
        "TRANSITTRK": 0,
        "INDUSTRYTR": 1,
        "OTHRTRK": 1,
        "WDCODE": "All other Gates",
        "REVISIONDA": "1975/01/01 00:00:00",
        "LASTUPDATE": "8/28/2025",
        "AADT": "731",
        "AADTYEAR": "2019",
        "STATENAME": "TEXAS",
        "STATEAB": "TX",
        "COUNTYNAME": "HOUSTON",
        "CITYNAME": "GRAPELAND",
        "LATDD": 31.508502,
        "LONGDD": -95.4796659,
        "gridlyProductionCertified": true,
        "gridlyClassification": "PUBLIC_ROADWAY",
        "gridlyDisplayName": "CR 2335",
        "gridlyId": "FRA-432840C"
      }
    },
    {
      "type": "Feature",
      "id": 209563,
      "geometry": {
        "type": "Point",
        "coordinates": [
          -95.4606981003376,
          31.1538779003454
        ]
      },
      "properties": {
        "OBJECTID": 209563,
        "CROSSING": "450495U",
        "EFFDATE": 1756339200000,
        "REASON": "14",
        "StateCode": "48",
        "CountyCode": "48225",
        "STCYFIPS": "48225",
        "CITYCD": "482254130",
        "RAILROAD": "UP",
        "RRDIV": "GULF COAST",
        "RRSUBDIV": "Palestine Sub",
        "HIGHWAY": "NA",
        "STREET": "PRIVATE",
        "TTSTN": "682175",
        "MILEPOST": "0131.630",
        "TYPEXING": "Private",
        "POSXING": "At Grade",
        "PRVCAT": "14",
        "INIT": "1",
        "LATITUDE": 31.1538779,
        "LONGITUD": -95.4606981,
        "LLSOURCE": "1",
        "WHISTBAN": "0",
        "RRCONT": "4025443721",
        "POLCONT": "8008488715",
        "INV_LINK": "https://safetydata.fra.dot.gov/OfficeofSafety/PublicSite/Crossing/Crossing.aspx?phasetype=C&rpttype=I&txtcrossingnum=450495U",
        "ACC_LINK": "https://safetydata.fra.dot.gov/OfficeofSafety/PublicSite/Crossing/Crossing.aspx?phasetype=C&rpttype=A&txtcrossingnum=450495U",
        "TTSTNNAM": "",
        "XPURPOSE": "1",
        "OPERATINGR": "UP",
        "OPERATIN_1": "Primary",
        "DAYTHRU": 4,
        "NGHTTHRU": 3,
        "MAINTRK": 1,
        "SIDINGTRK": 0,
        "YARDTRK": 0,
        "TRANSITTRK": 0,
        "INDUSTRYTR": 0,
        "OTHRTRK": 0,
        "WDCODE": "",
        "REVISIONDA": "1975/01/01 00:00:00",
        "LASTUPDATE": "8/28/2025",
        "AADT": "1",
        "AADTYEAR": "",
        "STATENAME": "TEXAS",
        "STATEAB": "TX",
        "COUNTYNAME": "HOUSTON",
        "CITYNAME": "LOVELADY",
        "LATDD": 31.1538779,
        "LONGDD": -95.4606981,
        "gridlyProductionCertified": true,
        "gridlyClassification": "PUBLIC_ROADWAY",
        "gridlyDisplayName": "PRIVATE",
        "gridlyId": "FRA-450495U"
      }
    },
    {
      "type": "Feature",
      "id": 209627,
      "geometry": {
        "type": "Point",
        "coordinates": [
          -95.4760430995631,
          31.3587612002827
        ]
      },
      "properties": {
        "OBJECTID": 209627,
        "CROSSING": "432328X",
        "EFFDATE": 1756339200000,
        "REASON": "14",
        "StateCode": "48",
        "CountyCode": "48225",
        "STCYFIPS": "48225",
        "CITYCD": "482251620",
        "RAILROAD": "UP",
        "RRDIV": "GULF COAST",
        "RRSUBDIV": "Palestine Sub",
        "HIGHWAY": "FM 2160",
        "STREET": "FM 2160",
        "TTSTN": "682150",
        "MILEPOST": "0116.670",
        "TYPEXING": "Public",
        "POSXING": "At Grade",
        "PRVCAT": "14",
        "INIT": "1",
        "LATITUDE": 31.3587612,
        "LONGITUD": -95.4760431,
        "LLSOURCE": "1",
        "WHISTBAN": "0",
        "RRCONT": "4025443721",
        "POLCONT": "8008488715",
        "INV_LINK": "https://safetydata.fra.dot.gov/OfficeofSafety/PublicSite/Crossing/Crossing.aspx?phasetype=C&rpttype=I&txtcrossingnum=432328X",
        "ACC_LINK": "https://safetydata.fra.dot.gov/OfficeofSafety/PublicSite/Crossing/Crossing.aspx?phasetype=C&rpttype=A&txtcrossingnum=432328X",
        "TTSTNNAM": "",
        "XPURPOSE": "1",
        "OPERATINGR": "UP",
        "OPERATIN_1": "Primary",
        "DAYTHRU": 4,
        "NGHTTHRU": 3,
        "MAINTRK": 1,
        "SIDINGTRK": 0,
        "YARDTRK": 0,
        "TRANSITTRK": 0,
        "INDUSTRYTR": 0,
        "OTHRTRK": 0,
        "WDCODE": "All other Gates",
        "REVISIONDA": "1975/01/01 00:00:00",
        "LASTUPDATE": "8/28/2025",
        "AADT": "790",
        "AADTYEAR": "2019",
        "STATENAME": "TEXAS",
        "STATEAB": "TX",
        "COUNTYNAME": "HOUSTON",
        "CITYNAME": "CROCKETT",
        "LATDD": 31.3587612,
        "LONGDD": -95.4760431,
        "gridlyProductionCertified": true,
        "gridlyClassification": "PUBLIC_ROADWAY",
        "gridlyDisplayName": "FM 2160",
        "gridlyId": "FRA-432328X"
      }
    },
    {
      "type": "Feature",
      "id": 209628,
      "geometry": {
        "type": "Point",
        "coordinates": [
          -95.4724290002069,
          31.3318101000589
        ]
      },
      "properties": {
        "OBJECTID": 209628,
        "CROSSING": "432330Y",
        "EFFDATE": 1756339200000,
        "REASON": "14",
        "StateCode": "48",
        "CountyCode": "48225",
        "STCYFIPS": "48225",
        "CITYCD": "482251620",
        "RAILROAD": "UP",
        "RRDIV": "GULF COAST",
        "RRSUBDIV": "Palestine Sub",
        "HIGHWAY": "SL 0304",
        "STREET": "LOOP 304",
        "TTSTN": "682150",
        "MILEPOST": "0118.570",
        "TYPEXING": "Public",
        "POSXING": "RR Under",
        "PRVCAT": "14",
        "INIT": "1",
        "LATITUDE": 31.3318101,
        "LONGITUD": -95.472429,
        "LLSOURCE": "1",
        "WHISTBAN": "0",
        "RRCONT": "4025443721",
        "POLCONT": "8008488715",
        "INV_LINK": "https://safetydata.fra.dot.gov/OfficeofSafety/PublicSite/Crossing/Crossing.aspx?phasetype=C&rpttype=I&txtcrossingnum=432330Y",
        "ACC_LINK": "https://safetydata.fra.dot.gov/OfficeofSafety/PublicSite/Crossing/Crossing.aspx?phasetype=C&rpttype=A&txtcrossingnum=432330Y",
        "TTSTNNAM": "",
        "XPURPOSE": "1",
        "OPERATINGR": "UP",
        "OPERATIN_1": "Primary",
        "DAYTHRU": 22,
        "NGHTTHRU": 6,
        "MAINTRK": 1,
        "SIDINGTRK": 0,
        "YARDTRK": 0,
        "TRANSITTRK": 0,
        "INDUSTRYTR": 0,
        "OTHRTRK": 0,
        "WDCODE": "",
        "REVISIONDA": "1975/01/01 00:00:00",
        "LASTUPDATE": "8/28/2025",
        "AADT": "3500",
        "AADTYEAR": "2013",
        "STATENAME": "TEXAS",
        "STATEAB": "TX",
        "COUNTYNAME": "HOUSTON",
        "CITYNAME": "CROCKETT",
        "LATDD": 31.3318101,
        "LONGDD": -95.472429,
        "gridlyProductionCertified": true,
        "gridlyClassification": "PUBLIC_ROADWAY",
        "gridlyDisplayName": "LOOP 304",
        "gridlyId": "FRA-432330Y"
      }
    },
    {
      "type": "Feature",
      "id": 209645,
      "geometry": {
        "type": "Point",
        "coordinates": [
          -95.4759499999636,
          31.3697809998649
        ]
      },
      "properties": {
        "OBJECTID": 209645,
        "CROSSING": "432329E",
        "EFFDATE": 1756339200000,
        "REASON": "14",
        "StateCode": "48",
        "CountyCode": "48225",
        "STCYFIPS": "48225",
        "CITYCD": "482253906",
        "RAILROAD": "UP",
        "RRDIV": "GULF COAST",
        "RRSUBDIV": "Palestine Sub",
        "HIGHWAY": "CO 2120",
        "STREET": "PRIVATE",
        "TTSTN": "682150",
        "MILEPOST": "0115.910",
        "TYPEXING": "Private",
        "POSXING": "At Grade",
        "PRVCAT": "14",
        "INIT": "1",
        "LATITUDE": 31.369781,
        "LONGITUD": -95.47595,
        "LLSOURCE": "1",
        "WHISTBAN": "0",
        "RRCONT": "4025443721",
        "POLCONT": "8008488715",
        "INV_LINK": "https://safetydata.fra.dot.gov/OfficeofSafety/PublicSite/Crossing/Crossing.aspx?phasetype=C&rpttype=I&txtcrossingnum=432329E",
        "ACC_LINK": "https://safetydata.fra.dot.gov/OfficeofSafety/PublicSite/Crossing/Crossing.aspx?phasetype=C&rpttype=A&txtcrossingnum=432329E",
        "TTSTNNAM": "",
        "XPURPOSE": "1",
        "OPERATINGR": "UP",
        "OPERATIN_1": "Primary",
        "DAYTHRU": 4,
        "NGHTTHRU": 3,
        "MAINTRK": 1,
        "SIDINGTRK": 1,
        "YARDTRK": 0,
        "TRANSITTRK": 0,
        "INDUSTRYTR": 0,
        "OTHRTRK": 1,
        "WDCODE": "",
        "REVISIONDA": "1975/01/01 00:00:00",
        "LASTUPDATE": "8/28/2025",
        "AADT": "180",
        "AADTYEAR": "2003",
        "STATENAME": "TEXAS",
        "STATEAB": "TX",
        "COUNTYNAME": "HOUSTON",
        "CITYNAME": "LATEXO",
        "LATDD": 31.369781,
        "LONGDD": -95.47595,
        "gridlyProductionCertified": true,
        "gridlyClassification": "PUBLIC_ROADWAY",
        "gridlyDisplayName": "PRIVATE",
        "gridlyId": "FRA-432329E"
      }
    },
    {
      "type": "Feature",
      "id": 209646,
      "geometry": {
        "type": "Point",
        "coordinates": [
          -95.4808746999968,
          31.4936118996271
        ]
      },
      "properties": {
        "OBJECTID": 209646,
        "CROSSING": "432841J",
        "EFFDATE": 1756339200000,
        "REASON": "14",
        "StateCode": "48",
        "CountyCode": "48225",
        "STCYFIPS": "48225",
        "CITYCD": "482252840",
        "RAILROAD": "UP",
        "RRDIV": "GULF COAST",
        "RRSUBDIV": "Palestine Sub",
        "HIGHWAY": "ST 0000",
        "STREET": "COLLEGE STREET",
        "TTSTN": "682123",
        "MILEPOST": "0106.750",
        "TYPEXING": "Public",
        "POSXING": "At Grade",
        "PRVCAT": "14",
        "INIT": "1",
        "LATITUDE": 31.4936119,
        "LONGITUD": -95.4808747,
        "LLSOURCE": "1",
        "WHISTBAN": "0",
        "RRCONT": "4025443721",
        "POLCONT": "8008488715",
        "INV_LINK": "https://safetydata.fra.dot.gov/OfficeofSafety/PublicSite/Crossing/Crossing.aspx?phasetype=C&rpttype=I&txtcrossingnum=432841J",
        "ACC_LINK": "https://safetydata.fra.dot.gov/OfficeofSafety/PublicSite/Crossing/Crossing.aspx?phasetype=C&rpttype=A&txtcrossingnum=432841J",
        "TTSTNNAM": "",
        "XPURPOSE": "1",
        "OPERATINGR": "UP",
        "OPERATIN_1": "Primary",
        "DAYTHRU": 4,
        "NGHTTHRU": 3,
        "MAINTRK": 1,
        "SIDINGTRK": 0,
        "YARDTRK": 0,
        "TRANSITTRK": 0,
        "INDUSTRYTR": 0,
        "OTHRTRK": 0,
        "WDCODE": "All other Gates",
        "REVISIONDA": "1975/01/01 00:00:00",
        "LASTUPDATE": "8/28/2025",
        "AADT": "161",
        "AADTYEAR": "2003",
        "STATENAME": "TEXAS",
        "STATEAB": "TX",
        "COUNTYNAME": "HOUSTON",
        "CITYNAME": "GRAPELAND",
        "LATDD": 31.4936119,
        "LONGDD": -95.4808747,
        "gridlyProductionCertified": true,
        "gridlyClassification": "PUBLIC_ROADWAY",
        "gridlyDisplayName": "COLLEGE STREET",
        "gridlyId": "FRA-432841J"
      }
    },
    {
      "type": "Feature",
      "id": 213123,
      "geometry": {
        "type": "Point",
        "coordinates": [
          -95.479821000423,
          31.5080460000485
        ]
      },
      "properties": {
        "OBJECTID": 213123,
        "CROSSING": "973969X",
        "EFFDATE": 1758585600000,
        "REASON": "14",
        "StateCode": "48",
        "CountyCode": "48225",
        "STCYFIPS": "48225",
        "CITYCD": "482252840",
        "RAILROAD": "UP",
        "RRDIV": "GULF COAST",
        "RRSUBDIV": "Palestine Sub",
        "HIGHWAY": "TBD",
        "STREET": "CR 2345",
        "TTSTN": "",
        "MILEPOST": "0105.718",
        "TYPEXING": "Public",
        "POSXING": "At Grade",
        "PRVCAT": "14",
        "INIT": "1",
        "LATITUDE": 31.508046,
        "LONGITUD": -95.479821,
        "LLSOURCE": "1",
        "WHISTBAN": "",
        "RRCONT": "4025443721",
        "POLCONT": "8008488715",
        "INV_LINK": "https://safetydata.fra.dot.gov/OfficeofSafety/PublicSite/Crossing/Crossing.aspx?phasetype=C&rpttype=I&txtcrossingnum=973969X",
        "ACC_LINK": "https://safetydata.fra.dot.gov/OfficeofSafety/PublicSite/Crossing/Crossing.aspx?phasetype=C&rpttype=A&txtcrossingnum=973969X",
        "TTSTNNAM": "",
        "XPURPOSE": "1",
        "OPERATINGR": "UP",
        "OPERATIN_1": "Primary",
        "DAYTHRU": 0,
        "NGHTTHRU": 0,
        "MAINTRK": 0,
        "SIDINGTRK": 0,
        "YARDTRK": 0,
        "TRANSITTRK": 0,
        "INDUSTRYTR": 1,
        "OTHRTRK": 0,
        "WDCODE": "Stop signs",
        "REVISIONDA": "1975/01/01 00:00:00",
        "LASTUPDATE": "9/23/2025",
        "AADT": "1000",
        "AADTYEAR": "2018",
        "STATENAME": "TEXAS",
        "STATEAB": "TX",
        "COUNTYNAME": "HOUSTON",
        "CITYNAME": "GRAPELAND",
        "LATDD": 31.508046,
        "LONGDD": -95.479821,
        "gridlyProductionCertified": true,
        "gridlyClassification": "PUBLIC_ROADWAY",
        "gridlyDisplayName": "CR 2345",
        "gridlyId": "FRA-973969X"
      }
    },
    {
      "type": "Feature",
      "id": 213124,
      "geometry": {
        "type": "Point",
        "coordinates": [
          -95.4802280001288,
          31.5073669999366
        ]
      },
      "properties": {
        "OBJECTID": 213124,
        "CROSSING": "973970S",
        "EFFDATE": 1758585600000,
        "REASON": "14",
        "StateCode": "48",
        "CountyCode": "48225",
        "STCYFIPS": "48225",
        "CITYCD": "482252840",
        "RAILROAD": "UP",
        "RRDIV": "GULF COAST",
        "RRSUBDIV": "Palestine Sub",
        "HIGHWAY": "NA",
        "STREET": "ALL PRIVATE IN INDUSTRY - NUCORE METALS",
        "TTSTN": "",
        "MILEPOST": "0105.773",
        "TYPEXING": "Private",
        "POSXING": "At Grade",
        "PRVCAT": "14",
        "INIT": "1",
        "LATITUDE": 31.507367,
        "LONGITUD": -95.480228,
        "LLSOURCE": "1",
        "WHISTBAN": "",
        "RRCONT": "4025443721",
        "POLCONT": "8008488715",
        "INV_LINK": "https://safetydata.fra.dot.gov/OfficeofSafety/PublicSite/Crossing/Crossing.aspx?phasetype=C&rpttype=I&txtcrossingnum=973970S",
        "ACC_LINK": "https://safetydata.fra.dot.gov/OfficeofSafety/PublicSite/Crossing/Crossing.aspx?phasetype=C&rpttype=A&txtcrossingnum=973970S",
        "TTSTNNAM": "",
        "XPURPOSE": "1",
        "OPERATINGR": "UP",
        "OPERATIN_1": "Primary",
        "DAYTHRU": 0,
        "NGHTTHRU": 0,
        "MAINTRK": 0,
        "SIDINGTRK": 0,
        "YARDTRK": 0,
        "TRANSITTRK": 0,
        "INDUSTRYTR": 2,
        "OTHRTRK": 0,
        "WDCODE": "",
        "REVISIONDA": "1975/01/01 00:00:00",
        "LASTUPDATE": "9/23/2025",
        "AADT": "",
        "AADTYEAR": "",
        "STATENAME": "TEXAS",
        "STATEAB": "TX",
        "COUNTYNAME": "HOUSTON",
        "CITYNAME": "GRAPELAND",
        "LATDD": 31.507367,
        "LONGDD": -95.480228,
        "gridlyProductionCertified": true,
        "gridlyClassification": "PUBLIC_ROADWAY",
        "gridlyDisplayName": "ALL PRIVATE IN INDUSTRY - NUCORE METALS",
        "gridlyId": "FRA-973970S"
      }
    }
  ]
}
