{
  "type": "FeatureCollection",
  "features": [
    {
      "type": "Feature",
      "id": 200668,
      "geometry": {
        "type": "Point",
        "coordinates": [
          -99.1429139996289,
          31.2183879997874
        ]
      },
      "properties": {
        "OBJECTID": 200668,
        "CROSSING": "024786L",
        "EFFDATE": 1071619200000,
        "REASON": "14",
        "StateCode": "48",
        "CountyCode": "48307",
        "STCYFIPS": "48307",
        "CITYCD": "483070830",
        "RAILROAD": "GCSR",
        "RRDIV": "SOUTHERN",
        "RRSUBDIV": "SAN SABA",
        "HIGHWAY": "",
        "STREET": "PRIVATE ROAD",
        "TTSTN": "690549",
        "MILEPOST": "0055.15",
        "TYPEXING": "Private",
        "POSXING": "At Grade",
        "PRVCAT": "14",
        "INIT": "2",
        "LATITUDE": 31.218388,
        "LONGITUD": -99.142914,
        "LLSOURCE": "",
        "WHISTBAN": "0",
        "RRCONT": "",
        "POLCONT": "",
        "INV_LINK": "https://safetydata.fra.dot.gov/OfficeofSafety/PublicSite/Crossing/Crossing.aspx?phasetype=C&rpttype=I&txtcrossingnum=024786L",
        "ACC_LINK": "https://safetydata.fra.dot.gov/OfficeofSafety/PublicSite/Crossing/Crossing.aspx?phasetype=C&rpttype=A&txtcrossingnum=024786L",
        "TTSTNNAM": "",
        "XPURPOSE": "1",
        "OPERATINGR": "GCSR",
        "OPERATIN_1": "Primary",
        "DAYTHRU": 0,
        "NGHTTHRU": 0,
        "MAINTRK": 0,
        "SIDINGTRK": 0,
        "YARDTRK": 0,
        "TRANSITTRK": 0,
        "INDUSTRYTR": 0,
        "OTHRTRK": 0,
        "WDCODE": "No signs or signals",
        "REVISIONDA": "1993/01/01 00:00:00",
        "LASTUPDATE": "12/17/2003",
        "AADT": "",
        "AADTYEAR": "1970",
        "STATENAME": "TEXAS",
        "STATEAB": "TX",
        "COUNTYNAME": "MCCULLOCH",
        "CITYNAME": "BRADY",
        "LATDD": 31.218388,
        "LONGDD": -99.142914,
        "gridlyProductionCertified": true,
        "gridlyClassification": "PUBLIC_ROADWAY",
        "gridlyDisplayName": "PRIVATE ROAD",
        "gridlyId": "FRA-024786L"
      }
    },
    {
      "type": "Feature",
      "id": 200669,
      "geometry": {
        "type": "Point",
        "coordinates": [
          -99.1351170002551,
          31.2209300001815
        ]
      },
      "properties": {
        "OBJECTID": 200669,
        "CROSSING": "024785E",
        "EFFDATE": 1071619200000,
        "REASON": "14",
        "StateCode": "48",
        "CountyCode": "48307",
        "STCYFIPS": "48307",
        "CITYCD": "483070830",
        "RAILROAD": "GCSR",
        "RRDIV": "SOUTHERN",
        "RRSUBDIV": "SAN SABA",
        "HIGHWAY": "",
        "STREET": "PRIVATE ROAD",
        "TTSTN": "690549",
        "MILEPOST": "0054.44",
        "TYPEXING": "Private",
        "POSXING": "At Grade",
        "PRVCAT": "14",
        "INIT": "2",
        "LATITUDE": 31.22093,
        "LONGITUD": -99.135117,
        "LLSOURCE": "",
        "WHISTBAN": "0",
        "RRCONT": "",
        "POLCONT": "",
        "INV_LINK": "https://safetydata.fra.dot.gov/OfficeofSafety/PublicSite/Crossing/Crossing.aspx?phasetype=C&rpttype=I&txtcrossingnum=024785E",
        "ACC_LINK": "https://safetydata.fra.dot.gov/OfficeofSafety/PublicSite/Crossing/Crossing.aspx?phasetype=C&rpttype=A&txtcrossingnum=024785E",
        "TTSTNNAM": "",
        "XPURPOSE": "1",
        "OPERATINGR": "GCSR",
        "OPERATIN_1": "Primary",
        "DAYTHRU": 0,
        "NGHTTHRU": 0,
        "MAINTRK": 0,
        "SIDINGTRK": 0,
        "YARDTRK": 0,
        "TRANSITTRK": 0,
        "INDUSTRYTR": 0,
        "OTHRTRK": 0,
        "WDCODE": "No signs or signals",
        "REVISIONDA": "1993/01/01 00:00:00",
        "LASTUPDATE": "12/17/2003",
        "AADT": "",
        "AADTYEAR": "1970",
        "STATENAME": "TEXAS",
        "STATEAB": "TX",
        "COUNTYNAME": "MCCULLOCH",
        "CITYNAME": "BRADY",
        "LATDD": 31.22093,
        "LONGDD": -99.135117,
        "gridlyProductionCertified": true,
        "gridlyClassification": "PUBLIC_ROADWAY",
        "gridlyDisplayName": "PRIVATE ROAD",
        "gridlyId": "FRA-024785E"
      }
    },
    {
      "type": "Feature",
      "id": 200670,
      "geometry": {
        "type": "Point",
        "coordinates": [
          -99.1673580002312,
          31.2088389996631
        ]
      },
      "properties": {
        "OBJECTID": 200670,
        "CROSSING": "024790B",
        "EFFDATE": 1071619200000,
        "REASON": "14",
        "StateCode": "48",
        "CountyCode": "48307",
        "STCYFIPS": "48307",
        "CITYCD": "483070830",
        "RAILROAD": "GCSR",
        "RRDIV": "SOUTHERN",
        "RRSUBDIV": "SAN SABA",
        "HIGHWAY": "",
        "STREET": "PRIVATE ROAD",
        "TTSTN": "690549",
        "MILEPOST": "0056.56",
        "TYPEXING": "Private",
        "POSXING": "At Grade",
        "PRVCAT": "14",
        "INIT": "2",
        "LATITUDE": 31.208839,
        "LONGITUD": -99.167358,
        "LLSOURCE": "",
        "WHISTBAN": "0",
        "RRCONT": "",
        "POLCONT": "",
        "INV_LINK": "https://safetydata.fra.dot.gov/OfficeofSafety/PublicSite/Crossing/Crossing.aspx?phasetype=C&rpttype=I&txtcrossingnum=024790B",
        "ACC_LINK": "https://safetydata.fra.dot.gov/OfficeofSafety/PublicSite/Crossing/Crossing.aspx?phasetype=C&rpttype=A&txtcrossingnum=024790B",
        "TTSTNNAM": "",
        "XPURPOSE": "1",
        "OPERATINGR": "GCSR",
        "OPERATIN_1": "Primary",
        "DAYTHRU": 0,
        "NGHTTHRU": 0,
        "MAINTRK": 0,
        "SIDINGTRK": 0,
        "YARDTRK": 0,
        "TRANSITTRK": 0,
        "INDUSTRYTR": 0,
        "OTHRTRK": 0,
        "WDCODE": "No signs or signals",
        "REVISIONDA": "1993/01/01 00:00:00",
        "LASTUPDATE": "12/17/2003",
        "AADT": "",
        "AADTYEAR": "1970",
        "STATENAME": "TEXAS",
        "STATEAB": "TX",
        "COUNTYNAME": "MCCULLOCH",
        "CITYNAME": "BRADY",
        "LATDD": 31.208839,
        "LONGDD": -99.167358,
        "gridlyProductionCertified": true,
        "gridlyClassification": "PUBLIC_ROADWAY",
        "gridlyDisplayName": "PRIVATE ROAD",
        "gridlyId": "FRA-024790B"
      }
    },
    {
      "type": "Feature",
      "id": 200671,
      "geometry": {
        "type": "Point",
        "coordinates": [
          -99.1606980003092,
          31.2103669998774
        ]
      },
      "properties": {
        "OBJECTID": 200671,
        "CROSSING": "024789G",
        "EFFDATE": 1071619200000,
        "REASON": "14",
        "StateCode": "48",
        "CountyCode": "48307",
        "STCYFIPS": "48307",
        "CITYCD": "483070830",
        "RAILROAD": "GCSR",
        "RRDIV": "SOUTHERN",
        "RRSUBDIV": "SAN SABA",
        "HIGHWAY": "",
        "STREET": "PRIVATE ROAD",
        "TTSTN": "690549",
        "MILEPOST": "0056.18",
        "TYPEXING": "Private",
        "POSXING": "At Grade",
        "PRVCAT": "14",
        "INIT": "2",
        "LATITUDE": 31.210367,
        "LONGITUD": -99.160698,
        "LLSOURCE": "",
        "WHISTBAN": "0",
        "RRCONT": "",
        "POLCONT": "",
        "INV_LINK": "https://safetydata.fra.dot.gov/OfficeofSafety/PublicSite/Crossing/Crossing.aspx?phasetype=C&rpttype=I&txtcrossingnum=024789G",
        "ACC_LINK": "https://safetydata.fra.dot.gov/OfficeofSafety/PublicSite/Crossing/Crossing.aspx?phasetype=C&rpttype=A&txtcrossingnum=024789G",
        "TTSTNNAM": "",
        "XPURPOSE": "1",
        "OPERATINGR": "GCSR",
        "OPERATIN_1": "Primary",
        "DAYTHRU": 0,
        "NGHTTHRU": 0,
        "MAINTRK": 0,
        "SIDINGTRK": 0,
        "YARDTRK": 0,
        "TRANSITTRK": 0,
        "INDUSTRYTR": 0,
        "OTHRTRK": 0,
        "WDCODE": "No signs or signals",
        "REVISIONDA": "1993/01/01 00:00:00",
        "LASTUPDATE": "12/17/2003",
        "AADT": "",
        "AADTYEAR": "1970",
        "STATENAME": "TEXAS",
        "STATEAB": "TX",
        "COUNTYNAME": "MCCULLOCH",
        "CITYNAME": "BRADY",
        "LATDD": 31.210367,
        "LONGDD": -99.160698,
        "gridlyProductionCertified": true,
        "gridlyClassification": "PUBLIC_ROADWAY",
        "gridlyDisplayName": "PRIVATE ROAD",
        "gridlyId": "FRA-024789G"
      }
    },
    {
      "type": "Feature",
      "id": 200672,
      "geometry": {
        "type": "Point",
        "coordinates": [
          -99.2521820003475,
          31.1670320002725
        ]
      },
      "properties": {
        "OBJECTID": 200672,
        "CROSSING": "024803A",
        "EFFDATE": 1071619200000,
        "REASON": "14",
        "StateCode": "48",
        "CountyCode": "48307",
        "STCYFIPS": "48307",
        "CITYCD": "483070830",
        "RAILROAD": "GCSR",
        "RRDIV": "SOUTHERN",
        "RRSUBDIV": "SAN SABA",
        "HIGHWAY": "",
        "STREET": "PRIVATE ROAD",
        "TTSTN": "690660",
        "MILEPOST": "0061.65",
        "TYPEXING": "Private",
        "POSXING": "At Grade",
        "PRVCAT": "14",
        "INIT": "2",
        "LATITUDE": 31.167032,
        "LONGITUD": -99.252182,
        "LLSOURCE": "",
        "WHISTBAN": "0",
        "RRCONT": "",
        "POLCONT": "",
        "INV_LINK": "https://safetydata.fra.dot.gov/OfficeofSafety/PublicSite/Crossing/Crossing.aspx?phasetype=C&rpttype=I&txtcrossingnum=024803A",
        "ACC_LINK": "https://safetydata.fra.dot.gov/OfficeofSafety/PublicSite/Crossing/Crossing.aspx?phasetype=C&rpttype=A&txtcrossingnum=024803A",
        "TTSTNNAM": "BRADY",
        "XPURPOSE": "1",
        "OPERATINGR": "GCSR",
        "OPERATIN_1": "Primary",
        "DAYTHRU": 0,
        "NGHTTHRU": 0,
        "MAINTRK": 0,
        "SIDINGTRK": 0,
        "YARDTRK": 0,
        "TRANSITTRK": 0,
        "INDUSTRYTR": 0,
        "OTHRTRK": 0,
        "WDCODE": "No signs or signals",
        "REVISIONDA": "1993/01/01 00:00:00",
        "LASTUPDATE": "12/17/2003",
        "AADT": "",
        "AADTYEAR": "1970",
        "STATENAME": "TEXAS",
        "STATEAB": "TX",
        "COUNTYNAME": "MCCULLOCH",
        "CITYNAME": "BRADY",
        "LATDD": 31.167032,
        "LONGDD": -99.252182,
        "gridlyProductionCertified": true,
        "gridlyClassification": "PUBLIC_ROADWAY",
        "gridlyDisplayName": "PRIVATE ROAD",
        "gridlyId": "FRA-024803A"
      }
    },
    {
      "type": "Feature",
      "id": 200689,
      "geometry": {
        "type": "Point",
        "coordinates": [
          -99.2432400002278,
          31.1715339998699
        ]
      },
      "properties": {
        "OBJECTID": 200689,
        "CROSSING": "024802T",
        "EFFDATE": 1071619200000,
        "REASON": "14",
        "StateCode": "48",
        "CountyCode": "48307",
        "STCYFIPS": "48307",
        "CITYCD": "483070830",
        "RAILROAD": "GCSR",
        "RRDIV": "SOUTHERN",
        "RRSUBDIV": "SAN SABA",
        "HIGHWAY": "",
        "STREET": "PRIVATE ROAD",
        "TTSTN": "690660",
        "MILEPOST": "0061.11",
        "TYPEXING": "Private",
        "POSXING": "At Grade",
        "PRVCAT": "14",
        "INIT": "2",
        "LATITUDE": 31.171534,
        "LONGITUD": -99.24324,
        "LLSOURCE": "",
        "WHISTBAN": "0",
        "RRCONT": "",
        "POLCONT": "",
        "INV_LINK": "https://safetydata.fra.dot.gov/OfficeofSafety/PublicSite/Crossing/Crossing.aspx?phasetype=C&rpttype=I&txtcrossingnum=024802T",
        "ACC_LINK": "https://safetydata.fra.dot.gov/OfficeofSafety/PublicSite/Crossing/Crossing.aspx?phasetype=C&rpttype=A&txtcrossingnum=024802T",
        "TTSTNNAM": "BRADY",
        "XPURPOSE": "1",
        "OPERATINGR": "GCSR",
        "OPERATIN_1": "Primary",
        "DAYTHRU": 0,
        "NGHTTHRU": 0,
        "MAINTRK": 0,
        "SIDINGTRK": 0,
        "YARDTRK": 0,
        "TRANSITTRK": 0,
        "INDUSTRYTR": 0,
        "OTHRTRK": 0,
        "WDCODE": "No signs or signals",
        "REVISIONDA": "1993/01/01 00:00:00",
        "LASTUPDATE": "12/17/2003",
        "AADT": "",
        "AADTYEAR": "1970",
        "STATENAME": "TEXAS",
        "STATEAB": "TX",
        "COUNTYNAME": "MCCULLOCH",
        "CITYNAME": "BRADY",
        "LATDD": 31.171534,
        "LONGDD": -99.24324,
        "gridlyProductionCertified": true,
        "gridlyClassification": "PUBLIC_ROADWAY",
        "gridlyDisplayName": "PRIVATE ROAD",
        "gridlyId": "FRA-024802T"
      }
    },
    {
      "type": "Feature",
      "id": 200690,
      "geometry": {
        "type": "Point",
        "coordinates": [
          -99.2002410000897,
          31.196383999621
        ]
      },
      "properties": {
        "OBJECTID": 200690,
        "CROSSING": "024794D",
        "EFFDATE": 1071619200000,
        "REASON": "14",
        "StateCode": "48",
        "CountyCode": "48307",
        "STCYFIPS": "48307",
        "CITYCD": "483070830",
        "RAILROAD": "GCSR",
        "RRDIV": "SOUTHERN",
        "RRSUBDIV": "SAN SABA",
        "HIGHWAY": "",
        "STREET": "PRIVATE ROAD",
        "TTSTN": "690660",
        "MILEPOST": "0058.40",
        "TYPEXING": "Private",
        "POSXING": "At Grade",
        "PRVCAT": "14",
        "INIT": "2",
        "LATITUDE": 31.196384,
        "LONGITUD": -99.200241,
        "LLSOURCE": "",
        "WHISTBAN": "0",
        "RRCONT": "",
        "POLCONT": "",
        "INV_LINK": "https://safetydata.fra.dot.gov/OfficeofSafety/PublicSite/Crossing/Crossing.aspx?phasetype=C&rpttype=I&txtcrossingnum=024794D",
        "ACC_LINK": "https://safetydata.fra.dot.gov/OfficeofSafety/PublicSite/Crossing/Crossing.aspx?phasetype=C&rpttype=A&txtcrossingnum=024794D",
        "TTSTNNAM": "BRADY",
        "XPURPOSE": "1",
        "OPERATINGR": "GCSR",
        "OPERATIN_1": "Primary",
        "DAYTHRU": 0,
        "NGHTTHRU": 0,
        "MAINTRK": 0,
        "SIDINGTRK": 0,
        "YARDTRK": 0,
        "TRANSITTRK": 0,
        "INDUSTRYTR": 0,
        "OTHRTRK": 0,
        "WDCODE": "No signs or signals",
        "REVISIONDA": "1993/01/01 00:00:00",
        "LASTUPDATE": "12/17/2003",
        "AADT": "",
        "AADTYEAR": "1970",
        "STATENAME": "TEXAS",
        "STATEAB": "TX",
        "COUNTYNAME": "MCCULLOCH",
        "CITYNAME": "BRADY",
        "LATDD": 31.196384,
        "LONGDD": -99.200241,
        "gridlyProductionCertified": true,
        "gridlyClassification": "PUBLIC_ROADWAY",
        "gridlyDisplayName": "PRIVATE ROAD",
        "gridlyId": "FRA-024794D"
      }
    },
    {
      "type": "Feature",
      "id": 200691,
      "geometry": {
        "type": "Point",
        "coordinates": [
          -99.2156449997646,
          31.1854519998592
        ]
      },
      "properties": {
        "OBJECTID": 200691,
        "CROSSING": "024797Y",
        "EFFDATE": 1071619200000,
        "REASON": "14",
        "StateCode": "48",
        "CountyCode": "48307",
        "STCYFIPS": "48307",
        "CITYCD": "483070830",
        "RAILROAD": "GCSR",
        "RRDIV": "SOUTHERN",
        "RRSUBDIV": "SAN SABA",
        "HIGHWAY": "",
        "STREET": "PRIVATE ROAD",
        "TTSTN": "690660",
        "MILEPOST": "0059.43",
        "TYPEXING": "Private",
        "POSXING": "At Grade",
        "PRVCAT": "14",
        "INIT": "2",
        "LATITUDE": 31.185452,
        "LONGITUD": -99.215645,
        "LLSOURCE": "",
        "WHISTBAN": "0",
        "RRCONT": "",
        "POLCONT": "",
        "INV_LINK": "https://safetydata.fra.dot.gov/OfficeofSafety/PublicSite/Crossing/Crossing.aspx?phasetype=C&rpttype=I&txtcrossingnum=024797Y",
        "ACC_LINK": "https://safetydata.fra.dot.gov/OfficeofSafety/PublicSite/Crossing/Crossing.aspx?phasetype=C&rpttype=A&txtcrossingnum=024797Y",
        "TTSTNNAM": "BRADY",
        "XPURPOSE": "1",
        "OPERATINGR": "GCSR",
        "OPERATIN_1": "Primary",
        "DAYTHRU": 0,
        "NGHTTHRU": 0,
        "MAINTRK": 0,
        "SIDINGTRK": 0,
        "YARDTRK": 0,
        "TRANSITTRK": 0,
        "INDUSTRYTR": 0,
        "OTHRTRK": 0,
        "WDCODE": "No signs or signals",
        "REVISIONDA": "1993/01/01 00:00:00",
        "LASTUPDATE": "12/17/2003",
        "AADT": "",
        "AADTYEAR": "1970",
        "STATENAME": "TEXAS",
        "STATEAB": "TX",
        "COUNTYNAME": "MCCULLOCH",
        "CITYNAME": "BRADY",
        "LATDD": 31.185452,
        "LONGDD": -99.215645,
        "gridlyProductionCertified": true,
        "gridlyClassification": "PUBLIC_ROADWAY",
        "gridlyDisplayName": "PRIVATE ROAD",
        "gridlyId": "FRA-024797Y"
      }
    },
    {
      "type": "Feature",
      "id": 200692,
      "geometry": {
        "type": "Point",
        "coordinates": [
          -99.2235180002047,
          31.1814789996532
        ]
      },
      "properties": {
        "OBJECTID": 200692,
        "CROSSING": "024799M",
        "EFFDATE": 1071619200000,
        "REASON": "14",
        "StateCode": "48",
        "CountyCode": "48307",
        "STCYFIPS": "48307",
        "CITYCD": "483070830",
        "RAILROAD": "GCSR",
        "RRDIV": "SOUTHERN",
        "RRSUBDIV": "SAN SABA",
        "HIGHWAY": "",
        "STREET": "PRIVATE ROAD",
        "TTSTN": "690660",
        "MILEPOST": "0059.91",
        "TYPEXING": "Private",
        "POSXING": "At Grade",
        "PRVCAT": "14",
        "INIT": "2",
        "LATITUDE": 31.181479,
        "LONGITUD": -99.223518,
        "LLSOURCE": "",
        "WHISTBAN": "0",
        "RRCONT": "",
        "POLCONT": "",
        "INV_LINK": "https://safetydata.fra.dot.gov/OfficeofSafety/PublicSite/Crossing/Crossing.aspx?phasetype=C&rpttype=I&txtcrossingnum=024799M",
        "ACC_LINK": "https://safetydata.fra.dot.gov/OfficeofSafety/PublicSite/Crossing/Crossing.aspx?phasetype=C&rpttype=A&txtcrossingnum=024799M",
        "TTSTNNAM": "BRADY",
        "XPURPOSE": "1",
        "OPERATINGR": "GCSR",
        "OPERATIN_1": "Primary",
        "DAYTHRU": 0,
        "NGHTTHRU": 0,
        "MAINTRK": 0,
        "SIDINGTRK": 0,
        "YARDTRK": 0,
        "TRANSITTRK": 0,
        "INDUSTRYTR": 0,
        "OTHRTRK": 0,
        "WDCODE": "No signs or signals",
        "REVISIONDA": "1993/01/01 00:00:00",
        "LASTUPDATE": "12/17/2003",
        "AADT": "",
        "AADTYEAR": "1970",
        "STATENAME": "TEXAS",
        "STATEAB": "TX",
        "COUNTYNAME": "MCCULLOCH",
        "CITYNAME": "BRADY",
        "LATDD": 31.181479,
        "LONGDD": -99.223518,
        "gridlyProductionCertified": true,
        "gridlyClassification": "PUBLIC_ROADWAY",
        "gridlyDisplayName": "PRIVATE ROAD",
        "gridlyId": "FRA-024799M"
      }
    },
    {
      "type": "Feature",
      "id": 200695,
      "geometry": {
        "type": "Point",
        "coordinates": [
          -99.3464430001529,
          31.1386829997143
        ]
      },
      "properties": {
        "OBJECTID": 200695,
        "CROSSING": "024820R",
        "EFFDATE": 1071619200000,
        "REASON": "14",
        "StateCode": "48",
        "CountyCode": "48307",
        "STCYFIPS": "48307",
        "CITYCD": "483070830",
        "RAILROAD": "GCSR",
        "RRDIV": "SOUTHERN",
        "RRSUBDIV": "SAN SABA",
        "HIGHWAY": "LOCAL",
        "STREET": "PRIVATE ROAD",
        "TTSTN": "690660",
        "MILEPOST": "0067.37",
        "TYPEXING": "Private",
        "POSXING": "At Grade",
        "PRVCAT": "14",
        "INIT": "2",
        "LATITUDE": 31.138683,
        "LONGITUD": -99.346443,
        "LLSOURCE": "",
        "WHISTBAN": "0",
        "RRCONT": "",
        "POLCONT": "",
        "INV_LINK": "https://safetydata.fra.dot.gov/OfficeofSafety/PublicSite/Crossing/Crossing.aspx?phasetype=C&rpttype=I&txtcrossingnum=024820R",
        "ACC_LINK": "https://safetydata.fra.dot.gov/OfficeofSafety/PublicSite/Crossing/Crossing.aspx?phasetype=C&rpttype=A&txtcrossingnum=024820R",
        "TTSTNNAM": "BRADY",
        "XPURPOSE": "1",
        "OPERATINGR": "GCSR",
        "OPERATIN_1": "Primary",
        "DAYTHRU": 0,
        "NGHTTHRU": 0,
        "MAINTRK": 0,
        "SIDINGTRK": 0,
        "YARDTRK": 0,
        "TRANSITTRK": 0,
        "INDUSTRYTR": 0,
        "OTHRTRK": 0,
        "WDCODE": "No signs or signals",
        "REVISIONDA": "1993/01/01 00:00:00",
        "LASTUPDATE": "12/17/2003",
        "AADT": "",
        "AADTYEAR": "1978",
        "STATENAME": "TEXAS",
        "STATEAB": "TX",
        "COUNTYNAME": "MCCULLOCH",
        "CITYNAME": "BRADY",
        "LATDD": 31.138683,
        "LONGDD": -99.346443,
        "gridlyProductionCertified": true,
        "gridlyClassification": "PUBLIC_ROADWAY",
        "gridlyDisplayName": "PRIVATE ROAD",
        "gridlyId": "FRA-024820R"
      }
    },
    {
      "type": "Feature",
      "id": 200700,
      "geometry": {
        "type": "Point",
        "coordinates": [
          -99.1011470002753,
          31.2532740002472
        ]
      },
      "properties": {
        "OBJECTID": 200700,
        "CROSSING": "024783R",
        "EFFDATE": 1071619200000,
        "REASON": "14",
        "StateCode": "48",
        "CountyCode": "48307",
        "STCYFIPS": "48307",
        "CITYCD": "484115750",
        "RAILROAD": "GCSR",
        "RRDIV": "SOUTHERN",
        "RRSUBDIV": "SAN SABA",
        "HIGHWAY": "",
        "STREET": "PRIVATE ROAD",
        "TTSTN": "690549",
        "MILEPOST": "0049.52",
        "TYPEXING": "Private",
        "POSXING": "At Grade",
        "PRVCAT": "14",
        "INIT": "2",
        "LATITUDE": 31.253274,
        "LONGITUD": -99.101147,
        "LLSOURCE": "",
        "WHISTBAN": "0",
        "RRCONT": "",
        "POLCONT": "",
        "INV_LINK": "https://safetydata.fra.dot.gov/OfficeofSafety/PublicSite/Crossing/Crossing.aspx?phasetype=C&rpttype=I&txtcrossingnum=024783R",
        "ACC_LINK": "https://safetydata.fra.dot.gov/OfficeofSafety/PublicSite/Crossing/Crossing.aspx?phasetype=C&rpttype=A&txtcrossingnum=024783R",
        "TTSTNNAM": "",
        "XPURPOSE": "1",
        "OPERATINGR": "GCSR",
        "OPERATIN_1": "Primary",
        "DAYTHRU": 0,
        "NGHTTHRU": 0,
        "MAINTRK": 0,
        "SIDINGTRK": 0,
        "YARDTRK": 0,
        "TRANSITTRK": 0,
        "INDUSTRYTR": 0,
        "OTHRTRK": 0,
        "WDCODE": "No signs or signals",
        "REVISIONDA": "1993/01/01 00:00:00",
        "LASTUPDATE": "12/17/2003",
        "AADT": "",
        "AADTYEAR": "1970",
        "STATENAME": "TEXAS",
        "STATEAB": "TX",
        "COUNTYNAME": "MCCULLOCH",
        "CITYNAME": "RICHLAND SPGS",
        "LATDD": 31.253274,
        "LONGDD": -99.101147,
        "gridlyProductionCertified": true,
        "gridlyClassification": "PUBLIC_ROADWAY",
        "gridlyDisplayName": "PRIVATE ROAD",
        "gridlyId": "FRA-024783R"
      }
    },
    {
      "type": "Feature",
      "id": 202356,
      "geometry": {
        "type": "Point",
        "coordinates": [
          -99.3472678000091,
          31.1389407001839
        ]
      },
      "properties": {
        "OBJECTID": 202356,
        "CROSSING": "024816B",
        "EFFDATE": 1776384000000,
        "REASON": "14",
        "StateCode": "48",
        "CountyCode": "48307",
        "STCYFIPS": "48307",
        "CITYCD": "483070830",
        "RAILROAD": "CTXR",
        "RRDIV": "Central Texas",
        "RRSUBDIV": "BRADY",
        "HIGHWAY": "US0087",
        "STREET": "US0087 / san angelo highway",
        "TTSTN": "690660",
        "MILEPOST": "0066.65",
        "TYPEXING": "Public",
        "POSXING": "At Grade",
        "PRVCAT": "14",
        "INIT": "2",
        "LATITUDE": 31.1389407,
        "LONGITUD": -99.3472678,
        "LLSOURCE": "1",
        "WHISTBAN": "0",
        "RRCONT": "3255972359",
        "POLCONT": "8005339416",
        "INV_LINK": "https://safetydata.fra.dot.gov/OfficeofSafety/PublicSite/Crossing/Crossing.aspx?phasetype=C&rpttype=I&txtcrossingnum=024816B",
        "ACC_LINK": "https://safetydata.fra.dot.gov/OfficeofSafety/PublicSite/Crossing/Crossing.aspx?phasetype=C&rpttype=A&txtcrossingnum=024816B",
        "TTSTNNAM": "BRADY",
        "XPURPOSE": "1",
        "OPERATINGR": "CTXR",
        "OPERATIN_1": "Primary",
        "DAYTHRU": 1,
        "NGHTTHRU": 0,
        "MAINTRK": 1,
        "SIDINGTRK": 0,
        "YARDTRK": 0,
        "TRANSITTRK": 0,
        "INDUSTRYTR": 0,
        "OTHRTRK": 0,
        "WDCODE": "Flashing lights",
        "REVISIONDA": "2016/07/26 00:00:00",
        "LASTUPDATE": "4/17/2026",
        "AADT": "5411",
        "AADTYEAR": "2024",
        "STATENAME": "TEXAS",
        "STATEAB": "TX",
        "COUNTYNAME": "MCCULLOCH",
        "CITYNAME": "BRADY",
        "LATDD": 31.1389407,
        "LONGDD": -99.3472678,
        "gridlyProductionCertified": true,
        "gridlyClassification": "PUBLIC_ROADWAY",
        "gridlyDisplayName": "US0087 / san angelo highway",
        "gridlyId": "FRA-024816B"
      }
    },
    {
      "type": "Feature",
      "id": 202396,
      "geometry": {
        "type": "Point",
        "coordinates": [
          -99.2141115001162,
          31.1865816999633
        ]
      },
      "properties": {
        "OBJECTID": 202396,
        "CROSSING": "024793W",
        "EFFDATE": 1767744000000,
        "REASON": "20",
        "StateCode": "48",
        "CountyCode": "48307",
        "STCYFIPS": "48307",
        "CITYCD": "483070830",
        "RAILROAD": "CTXR",
        "RRDIV": "Central Texas",
        "RRSUBDIV": "BRADY",
        "HIGHWAY": "Cr0412",
        "STREET": "County Road 412",
        "TTSTN": "690660",
        "MILEPOST": "0057.91",
        "TYPEXING": "Public",
        "POSXING": "At Grade",
        "PRVCAT": "20",
        "INIT": "1",
        "LATITUDE": 31.1865817,
        "LONGITUD": -99.2141115,
        "LLSOURCE": "1",
        "WHISTBAN": "0",
        "RRCONT": "3255972359",
        "POLCONT": "8005339416",
        "INV_LINK": "https://safetydata.fra.dot.gov/OfficeofSafety/PublicSite/Crossing/Crossing.aspx?phasetype=C&rpttype=I&txtcrossingnum=024793W",
        "ACC_LINK": "https://safetydata.fra.dot.gov/OfficeofSafety/PublicSite/Crossing/Crossing.aspx?phasetype=C&rpttype=A&txtcrossingnum=024793W",
        "TTSTNNAM": "BRADY",
        "XPURPOSE": "1",
        "OPERATINGR": "CTXR",
        "OPERATIN_1": "Primary",
        "DAYTHRU": 1,
        "NGHTTHRU": 0,
        "MAINTRK": 1,
        "SIDINGTRK": 0,
        "YARDTRK": 0,
        "TRANSITTRK": 0,
        "INDUSTRYTR": 0,
        "OTHRTRK": 0,
        "WDCODE": "No signs or signals",
        "REVISIONDA": "2016/07/26 00:00:00",
        "LASTUPDATE": "1/7/2026",
        "AADT": "14",
        "AADTYEAR": "2022",
        "STATENAME": "TEXAS",
        "STATEAB": "TX",
        "COUNTYNAME": "MCCULLOCH",
        "CITYNAME": "BRADY",
        "LATDD": 31.1865817,
        "LONGDD": -99.2141115,
        "gridlyProductionCertified": true,
        "gridlyClassification": "PUBLIC_ROADWAY",
        "gridlyDisplayName": "County Road 412",
        "gridlyId": "FRA-024793W"
      }
    },
    {
      "type": "Feature",
      "id": 202397,
      "geometry": {
        "type": "Point",
        "coordinates": [
          -99.2063980000464,
          31.1914249997574
        ]
      },
      "properties": {
        "OBJECTID": 202397,
        "CROSSING": "024796S",
        "EFFDATE": 1767744000000,
        "REASON": "14",
        "StateCode": "48",
        "CountyCode": "48307",
        "STCYFIPS": "48307",
        "CITYCD": "483070830",
        "RAILROAD": "CTXR",
        "RRDIV": "SOUTHERN",
        "RRSUBDIV": "SAN SABA",
        "HIGHWAY": "Private",
        "STREET": "PRIVATE ROAD",
        "TTSTN": "690660",
        "MILEPOST": "0058.85",
        "TYPEXING": "Private",
        "POSXING": "At Grade",
        "PRVCAT": "14",
        "INIT": "1",
        "LATITUDE": 31.191425,
        "LONGITUD": -99.206398,
        "LLSOURCE": "1",
        "WHISTBAN": "0",
        "RRCONT": "3255972359",
        "POLCONT": "8005339416",
        "INV_LINK": "https://safetydata.fra.dot.gov/OfficeofSafety/PublicSite/Crossing/Crossing.aspx?phasetype=C&rpttype=I&txtcrossingnum=024796S",
        "ACC_LINK": "https://safetydata.fra.dot.gov/OfficeofSafety/PublicSite/Crossing/Crossing.aspx?phasetype=C&rpttype=A&txtcrossingnum=024796S",
        "TTSTNNAM": "BRADY",
        "XPURPOSE": "1",
        "OPERATINGR": "CTXR",
        "OPERATIN_1": "Primary",
        "DAYTHRU": 1,
        "NGHTTHRU": 0,
        "MAINTRK": 1,
        "SIDINGTRK": 0,
        "YARDTRK": 0,
        "TRANSITTRK": 0,
        "INDUSTRYTR": 0,
        "OTHRTRK": 0,
        "WDCODE": "",
        "REVISIONDA": "2016/07/26 00:00:00",
        "LASTUPDATE": "1/7/2026",
        "AADT": "",
        "AADTYEAR": "1970",
        "STATENAME": "TEXAS",
        "STATEAB": "TX",
        "COUNTYNAME": "MCCULLOCH",
        "CITYNAME": "BRADY",
        "LATDD": 31.191425,
        "LONGDD": -99.206398,
        "gridlyProductionCertified": true,
        "gridlyClassification": "PUBLIC_ROADWAY",
        "gridlyDisplayName": "PRIVATE ROAD",
        "gridlyId": "FRA-024796S"
      }
    },
    {
      "type": "Feature",
      "id": 202398,
      "geometry": {
        "type": "Point",
        "coordinates": [
          -99.3246774002321,
          31.1300002001688
        ]
      },
      "properties": {
        "OBJECTID": 202398,
        "CROSSING": "024810K",
        "EFFDATE": 1767744000000,
        "REASON": "20",
        "StateCode": "48",
        "CountyCode": "48307",
        "STCYFIPS": "48307",
        "CITYCD": "483070830",
        "RAILROAD": "CTXR",
        "RRDIV": "Central Texas",
        "RRSUBDIV": "BRADY",
        "HIGHWAY": "ls0000",
        "STREET": "east SIXTH STreet",
        "TTSTN": "690660",
        "MILEPOST": "0000.76",
        "TYPEXING": "Public",
        "POSXING": "At Grade",
        "PRVCAT": "20",
        "INIT": "1",
        "LATITUDE": 31.1300002,
        "LONGITUD": -99.3246774,
        "LLSOURCE": "2",
        "WHISTBAN": "0",
        "RRCONT": "3255972359",
        "POLCONT": "8005339416",
        "INV_LINK": "https://safetydata.fra.dot.gov/OfficeofSafety/PublicSite/Crossing/Crossing.aspx?phasetype=C&rpttype=I&txtcrossingnum=024810K",
        "ACC_LINK": "https://safetydata.fra.dot.gov/OfficeofSafety/PublicSite/Crossing/Crossing.aspx?phasetype=C&rpttype=A&txtcrossingnum=024810K",
        "TTSTNNAM": "BRADY",
        "XPURPOSE": "1",
        "OPERATINGR": "CTXR",
        "OPERATIN_1": "Primary",
        "DAYTHRU": 1,
        "NGHTTHRU": 0,
        "MAINTRK": 0,
        "SIDINGTRK": 0,
        "YARDTRK": 0,
        "TRANSITTRK": 0,
        "INDUSTRYTR": 2,
        "OTHRTRK": 2,
        "WDCODE": "Crossbucks",
        "REVISIONDA": "2016/07/26 00:00:00",
        "LASTUPDATE": "1/7/2026",
        "AADT": "245",
        "AADTYEAR": "2022",
        "STATENAME": "TEXAS",
        "STATEAB": "TX",
        "COUNTYNAME": "MCCULLOCH",
        "CITYNAME": "BRADY",
        "LATDD": 31.1300002,
        "LONGDD": -99.3246774,
        "gridlyProductionCertified": true,
        "gridlyClassification": "PUBLIC_ROADWAY",
        "gridlyDisplayName": "east SIXTH STreet",
        "gridlyId": "FRA-024810K"
      }
    },
    {
      "type": "Feature",
      "id": 203727,
      "geometry": {
        "type": "Point",
        "coordinates": [
          -99.3118940000399,
          31.1414301998864
        ]
      },
      "properties": {
        "OBJECTID": 203727,
        "CROSSING": "024807C",
        "EFFDATE": 1776384000000,
        "REASON": "14",
        "StateCode": "48",
        "CountyCode": "48307",
        "STCYFIPS": "48307",
        "CITYCD": "483070830",
        "RAILROAD": "CTXR",
        "RRDIV": "Central Texas",
        "RRSUBDIV": "BRADY",
        "HIGHWAY": "FM3533",
        "STREET": "FM3533",
        "TTSTN": "690660",
        "MILEPOST": "0064.51",
        "TYPEXING": "Public",
        "POSXING": "At Grade",
        "PRVCAT": "14",
        "INIT": "2",
        "LATITUDE": 31.1414302,
        "LONGITUD": -99.311894,
        "LLSOURCE": "1",
        "WHISTBAN": "0",
        "RRCONT": "3255972359",
        "POLCONT": "8005339416",
        "INV_LINK": "https://safetydata.fra.dot.gov/OfficeofSafety/PublicSite/Crossing/Crossing.aspx?phasetype=C&rpttype=I&txtcrossingnum=024807C",
        "ACC_LINK": "https://safetydata.fra.dot.gov/OfficeofSafety/PublicSite/Crossing/Crossing.aspx?phasetype=C&rpttype=A&txtcrossingnum=024807C",
        "TTSTNNAM": "BRADY",
        "XPURPOSE": "1",
        "OPERATINGR": "CTXR",
        "OPERATIN_1": "Primary",
        "DAYTHRU": 1,
        "NGHTTHRU": 0,
        "MAINTRK": 1,
        "SIDINGTRK": 0,
        "YARDTRK": 0,
        "TRANSITTRK": 0,
        "INDUSTRYTR": 0,
        "OTHRTRK": 0,
        "WDCODE": "All other Gates",
        "REVISIONDA": "2016/07/26 00:00:00",
        "LASTUPDATE": "4/17/2026",
        "AADT": "808",
        "AADTYEAR": "2022",
        "STATENAME": "TEXAS",
        "STATEAB": "TX",
        "COUNTYNAME": "MCCULLOCH",
        "CITYNAME": "BRADY",
        "LATDD": 31.1414302,
        "LONGDD": -99.311894,
        "gridlyProductionCertified": true,
        "gridlyClassification": "PUBLIC_ROADWAY",
        "gridlyDisplayName": "FM3533",
        "gridlyId": "FRA-024807C"
      }
    },
    {
      "type": "Feature",
      "id": 207797,
      "geometry": {
        "type": "Point",
        "coordinates": [
          -99.3348795004385,
          31.1392599003525
        ]
      },
      "properties": {
        "OBJECTID": 207797,
        "CROSSING": "024813F",
        "EFFDATE": 1776384000000,
        "REASON": "14",
        "StateCode": "48",
        "CountyCode": "48307",
        "STCYFIPS": "48307",
        "CITYCD": "483070830",
        "RAILROAD": "CTXR",
        "RRDIV": "Central Texas",
        "RRSUBDIV": "BRADY",
        "HIGHWAY": "US0190",
        "STREET": "US0190 / TEXAS FORTS TRAIL",
        "TTSTN": "690660",
        "MILEPOST": "0065.91",
        "TYPEXING": "Public",
        "POSXING": "At Grade",
        "PRVCAT": "14",
        "INIT": "2",
        "LATITUDE": 31.1392599,
        "LONGITUD": -99.3348795,
        "LLSOURCE": "1",
        "WHISTBAN": "0",
        "RRCONT": "3255972359",
        "POLCONT": "8005339416",
        "INV_LINK": "https://safetydata.fra.dot.gov/OfficeofSafety/PublicSite/Crossing/Crossing.aspx?phasetype=C&rpttype=I&txtcrossingnum=024813F",
        "ACC_LINK": "https://safetydata.fra.dot.gov/OfficeofSafety/PublicSite/Crossing/Crossing.aspx?phasetype=C&rpttype=A&txtcrossingnum=024813F",
        "TTSTNNAM": "BRADY",
        "XPURPOSE": "1",
        "OPERATINGR": "CTXR",
        "OPERATIN_1": "Primary",
        "DAYTHRU": 2,
        "NGHTTHRU": 0,
        "MAINTRK": 1,
        "SIDINGTRK": 0,
        "YARDTRK": 0,
        "TRANSITTRK": 0,
        "INDUSTRYTR": 0,
        "OTHRTRK": 0,
        "WDCODE": "All other Gates",
        "REVISIONDA": "2016/07/26 00:00:00",
        "LASTUPDATE": "4/17/2026",
        "AADT": "6956",
        "AADTYEAR": "2024",
        "STATENAME": "TEXAS",
        "STATEAB": "TX",
        "COUNTYNAME": "MCCULLOCH",
        "CITYNAME": "BRADY",
        "LATDD": 31.1392599,
        "LONGDD": -99.3348795,
        "gridlyProductionCertified": true,
        "gridlyClassification": "PUBLIC_ROADWAY",
        "gridlyDisplayName": "US0190 / TEXAS FORTS TRAIL",
        "gridlyId": "FRA-024813F"
      }
    },
    {
      "type": "Feature",
      "id": 209039,
      "geometry": {
        "type": "Point",
        "coordinates": [
          -99.1162568996111,
          31.2398144999295
        ]
      },
      "properties": {
        "OBJECTID": 209039,
        "CROSSING": "024784X",
        "EFFDATE": 1776384000000,
        "REASON": "14",
        "StateCode": "48",
        "CountyCode": "48307",
        "STCYFIPS": "48307",
        "CITYCD": "484115750",
        "RAILROAD": "CTXR",
        "RRDIV": "Central Texas",
        "RRSUBDIV": "BRADY",
        "HIGHWAY": "US0190",
        "STREET": "US0190",
        "TTSTN": "690549",
        "MILEPOST": "0050.82",
        "TYPEXING": "Public",
        "POSXING": "At Grade",
        "PRVCAT": "14",
        "INIT": "2",
        "LATITUDE": 31.2398145,
        "LONGITUD": -99.1162569,
        "LLSOURCE": "1",
        "WHISTBAN": "0",
        "RRCONT": "3255972359",
        "POLCONT": "8005339416",
        "INV_LINK": "https://safetydata.fra.dot.gov/OfficeofSafety/PublicSite/Crossing/Crossing.aspx?phasetype=C&rpttype=I&txtcrossingnum=024784X",
        "ACC_LINK": "https://safetydata.fra.dot.gov/OfficeofSafety/PublicSite/Crossing/Crossing.aspx?phasetype=C&rpttype=A&txtcrossingnum=024784X",
        "TTSTNNAM": "Richland Springs",
        "XPURPOSE": "1",
        "OPERATINGR": "CTXR",
        "OPERATIN_1": "Primary",
        "DAYTHRU": 1,
        "NGHTTHRU": 0,
        "MAINTRK": 1,
        "SIDINGTRK": 0,
        "YARDTRK": 0,
        "TRANSITTRK": 0,
        "INDUSTRYTR": 0,
        "OTHRTRK": 0,
        "WDCODE": "Flashing lights",
        "REVISIONDA": "2016/07/26 00:00:00",
        "LASTUPDATE": "4/17/2026",
        "AADT": "40",
        "AADTYEAR": "2022",
        "STATENAME": "TEXAS",
        "STATEAB": "TX",
        "COUNTYNAME": "MCCULLOCH",
        "CITYNAME": "RICHLAND SPGS",
        "LATDD": 31.2398145,
        "LONGDD": -99.1162569,
        "gridlyProductionCertified": true,
        "gridlyClassification": "PUBLIC_ROADWAY",
        "gridlyDisplayName": "US0190",
        "gridlyId": "FRA-024784X"
      }
    },
    {
      "type": "Feature",
      "id": 211891,
      "geometry": {
        "type": "Point",
        "coordinates": [
          -99.239936900318,
          31.1735820000684
        ]
      },
      "properties": {
        "OBJECTID": 211891,
        "CROSSING": "024798F",
        "EFFDATE": 1760486400000,
        "REASON": "14",
        "StateCode": "48",
        "CountyCode": "48307",
        "STCYFIPS": "48307",
        "CITYCD": "483070830",
        "RAILROAD": "GCSR",
        "RRDIV": "SOUTHERN",
        "RRSUBDIV": "SAN SABA",
        "HIGHWAY": "cr0416",
        "STREET": "County Road 416",
        "TTSTN": "690660",
        "MILEPOST": "0059.71",
        "TYPEXING": "Public",
        "POSXING": "RR Over",
        "PRVCAT": "14",
        "INIT": "2",
        "LATITUDE": 31.173582,
        "LONGITUD": -99.2399369,
        "LLSOURCE": "1",
        "WHISTBAN": "0",
        "RRCONT": "",
        "POLCONT": "",
        "INV_LINK": "https://safetydata.fra.dot.gov/OfficeofSafety/PublicSite/Crossing/Crossing.aspx?phasetype=C&rpttype=I&txtcrossingnum=024798F",
        "ACC_LINK": "https://safetydata.fra.dot.gov/OfficeofSafety/PublicSite/Crossing/Crossing.aspx?phasetype=C&rpttype=A&txtcrossingnum=024798F",
        "TTSTNNAM": "BRADY",
        "XPURPOSE": "1",
        "OPERATINGR": "GCSR",
        "OPERATIN_1": "Primary",
        "DAYTHRU": 0,
        "NGHTTHRU": 0,
        "MAINTRK": 0,
        "SIDINGTRK": 0,
        "YARDTRK": 0,
        "TRANSITTRK": 0,
        "INDUSTRYTR": 0,
        "OTHRTRK": 0,
        "WDCODE": "",
        "REVISIONDA": "1993/01/01 00:00:00",
        "LASTUPDATE": "10/15/2025",
        "AADT": "22",
        "AADTYEAR": "2019",
        "STATENAME": "TEXAS",
        "STATEAB": "TX",
        "COUNTYNAME": "MCCULLOCH",
        "CITYNAME": "BRADY",
        "LATDD": 31.173582,
        "LONGDD": -99.2399369,
        "gridlyProductionCertified": true,
        "gridlyClassification": "PUBLIC_ROADWAY",
        "gridlyDisplayName": "County Road 416",
        "gridlyId": "FRA-024798F"
      }
    },
    {
      "type": "Feature",
      "id": 213906,
      "geometry": {
        "type": "Point",
        "coordinates": [
          -99.3245513998353,
          31.1346827998547
        ]
      },
      "properties": {
        "OBJECTID": 213906,
        "CROSSING": "024818P",
        "EFFDATE": 1767830400000,
        "REASON": "14",
        "StateCode": "48",
        "CountyCode": "48307",
        "STCYFIPS": "48307",
        "CITYCD": "483070830",
        "RAILROAD": "CTXR",
        "RRDIV": "SOUTHERN",
        "RRSUBDIV": "SAN SABA",
        "HIGHWAY": "overpass",
        "STREET": "FM0714",
        "TTSTN": "690660",
        "MILEPOST": "0000.10",
        "TYPEXING": "Public",
        "POSXING": "RR Over",
        "PRVCAT": "14",
        "INIT": "1",
        "LATITUDE": 31.1346828,
        "LONGITUD": -99.3245514,
        "LLSOURCE": "1",
        "WHISTBAN": "0",
        "RRCONT": "3255972359",
        "POLCONT": "8005339416",
        "INV_LINK": "https://safetydata.fra.dot.gov/OfficeofSafety/PublicSite/Crossing/Crossing.aspx?phasetype=C&rpttype=I&txtcrossingnum=024818P",
        "ACC_LINK": "https://safetydata.fra.dot.gov/OfficeofSafety/PublicSite/Crossing/Crossing.aspx?phasetype=C&rpttype=A&txtcrossingnum=024818P",
        "TTSTNNAM": "BRADY",
        "XPURPOSE": "1",
        "OPERATINGR": "CTXR",
        "OPERATIN_1": "Primary",
        "DAYTHRU": 0,
        "NGHTTHRU": 0,
        "MAINTRK": 0,
        "SIDINGTRK": 0,
        "YARDTRK": 0,
        "TRANSITTRK": 0,
        "INDUSTRYTR": 0,
        "OTHRTRK": 0,
        "WDCODE": "",
        "REVISIONDA": "2016/07/26 00:00:00",
        "LASTUPDATE": "1/8/2026",
        "AADT": "1094",
        "AADTYEAR": "2024",
        "STATENAME": "TEXAS",
        "STATEAB": "TX",
        "COUNTYNAME": "MCCULLOCH",
        "CITYNAME": "BRADY",
        "LATDD": 31.1346828,
        "LONGDD": -99.3245514,
        "gridlyProductionCertified": true,
        "gridlyClassification": "PUBLIC_ROADWAY",
        "gridlyDisplayName": "FM0714",
        "gridlyId": "FRA-024818P"
      }
    },
    {
      "type": "Feature",
      "id": 215447,
      "geometry": {
        "type": "Point",
        "coordinates": [
          -99.3400629000021,
          31.1389526001741
        ]
      },
      "properties": {
        "OBJECTID": 215447,
        "CROSSING": "024815U",
        "EFFDATE": 1767744000000,
        "REASON": "20",
        "StateCode": "48",
        "CountyCode": "48307",
        "STCYFIPS": "48307",
        "CITYCD": "483070830",
        "RAILROAD": "CTXR",
        "RRDIV": "Central Texas",
        "RRSUBDIV": "BRADY",
        "HIGHWAY": "ls0000",
        "STREET": "north WALNUT street",
        "TTSTN": "690660",
        "MILEPOST": "0066.22",
        "TYPEXING": "Public",
        "POSXING": "At Grade",
        "PRVCAT": "20",
        "INIT": "1",
        "LATITUDE": 31.1389526,
        "LONGITUD": -99.3400629,
        "LLSOURCE": "1",
        "WHISTBAN": "0",
        "RRCONT": "3255972359",
        "POLCONT": "8005339416",
        "INV_LINK": "https://safetydata.fra.dot.gov/OfficeofSafety/PublicSite/Crossing/Crossing.aspx?phasetype=C&rpttype=I&txtcrossingnum=024815U",
        "ACC_LINK": "https://safetydata.fra.dot.gov/OfficeofSafety/PublicSite/Crossing/Crossing.aspx?phasetype=C&rpttype=A&txtcrossingnum=024815U",
        "TTSTNNAM": "BRADY",
        "XPURPOSE": "1",
        "OPERATINGR": "CTXR",
        "OPERATIN_1": "Primary",
        "DAYTHRU": 1,
        "NGHTTHRU": 0,
        "MAINTRK": 1,
        "SIDINGTRK": 0,
        "YARDTRK": 0,
        "TRANSITTRK": 0,
        "INDUSTRYTR": 0,
        "OTHRTRK": 0,
        "WDCODE": "Crossbucks",
        "REVISIONDA": "2016/07/26 00:00:00",
        "LASTUPDATE": "1/7/2026",
        "AADT": "109",
        "AADTYEAR": "2022",
        "STATENAME": "TEXAS",
        "STATEAB": "TX",
        "COUNTYNAME": "MCCULLOCH",
        "CITYNAME": "BRADY",
        "LATDD": 31.1389526,
        "LONGDD": -99.3400629,
        "gridlyProductionCertified": true,
        "gridlyClassification": "PUBLIC_ROADWAY",
        "gridlyDisplayName": "north WALNUT street",
        "gridlyId": "FRA-024815U"
      }
    },
    {
      "type": "Feature",
      "id": 215449,
      "geometry": {
        "type": "Point",
        "coordinates": [
          -99.324761699935,
          31.1227588000059
        ]
      },
      "properties": {
        "OBJECTID": 215449,
        "CROSSING": "024811S",
        "EFFDATE": 1767744000000,
        "REASON": "20",
        "StateCode": "48",
        "CountyCode": "48307",
        "STCYFIPS": "48307",
        "CITYCD": "483070830",
        "RAILROAD": "CTXR",
        "RRDIV": "Central Texas",
        "RRSUBDIV": "BRADY",
        "HIGHWAY": "FM2309",
        "STREET": "FM2309",
        "TTSTN": "690660",
        "MILEPOST": "0001.45",
        "TYPEXING": "Public",
        "POSXING": "At Grade",
        "PRVCAT": "20",
        "INIT": "1",
        "LATITUDE": 31.1227588,
        "LONGITUD": -99.3247617,
        "LLSOURCE": "1",
        "WHISTBAN": "0",
        "RRCONT": "3255972359",
        "POLCONT": "8005339416",
        "INV_LINK": "https://safetydata.fra.dot.gov/OfficeofSafety/PublicSite/Crossing/Crossing.aspx?phasetype=C&rpttype=I&txtcrossingnum=024811S",
        "ACC_LINK": "https://safetydata.fra.dot.gov/OfficeofSafety/PublicSite/Crossing/Crossing.aspx?phasetype=C&rpttype=A&txtcrossingnum=024811S",
        "TTSTNNAM": "BRADY",
        "XPURPOSE": "1",
        "OPERATINGR": "CTXR",
        "OPERATIN_1": "Primary",
        "DAYTHRU": 1,
        "NGHTTHRU": 0,
        "MAINTRK": 0,
        "SIDINGTRK": 0,
        "YARDTRK": 0,
        "TRANSITTRK": 0,
        "INDUSTRYTR": 2,
        "OTHRTRK": 2,
        "WDCODE": "Crossbucks",
        "REVISIONDA": "2016/07/26 00:00:00",
        "LASTUPDATE": "1/7/2026",
        "AADT": "696",
        "AADTYEAR": "2023",
        "STATENAME": "TEXAS",
        "STATEAB": "TX",
        "COUNTYNAME": "MCCULLOCH",
        "CITYNAME": "BRADY",
        "LATDD": 31.1227588,
        "LONGDD": -99.3247617,
        "gridlyProductionCertified": true,
        "gridlyClassification": "PUBLIC_ROADWAY",
        "gridlyDisplayName": "FM2309",
        "gridlyId": "FRA-024811S"
      }
    },
    {
      "type": "Feature",
      "id": 215450,
      "geometry": {
        "type": "Point",
        "coordinates": [
          -99.3366199997762,
          31.1386829997143
        ]
      },
      "properties": {
        "OBJECTID": 215450,
        "CROSSING": "024817H",
        "EFFDATE": 1767744000000,
        "REASON": "14",
        "StateCode": "48",
        "CountyCode": "48307",
        "STCYFIPS": "48307",
        "CITYCD": "483070830",
        "RAILROAD": "CTXR",
        "RRDIV": "Central Texas",
        "RRSUBDIV": "Brady",
        "HIGHWAY": "City St",
        "STREET": "N High St",
        "TTSTN": "690660",
        "MILEPOST": "0066.05",
        "TYPEXING": "Private",
        "POSXING": "At Grade",
        "PRVCAT": "14",
        "INIT": "1",
        "LATITUDE": 31.138683,
        "LONGITUD": -99.33662,
        "LLSOURCE": "1",
        "WHISTBAN": "0",
        "RRCONT": "3255972359",
        "POLCONT": "8005339416",
        "INV_LINK": "https://safetydata.fra.dot.gov/OfficeofSafety/PublicSite/Crossing/Crossing.aspx?phasetype=C&rpttype=I&txtcrossingnum=024817H",
        "ACC_LINK": "https://safetydata.fra.dot.gov/OfficeofSafety/PublicSite/Crossing/Crossing.aspx?phasetype=C&rpttype=A&txtcrossingnum=024817H",
        "TTSTNNAM": "BRADY",
        "XPURPOSE": "1",
        "OPERATINGR": "CTXR",
        "OPERATIN_1": "Primary",
        "DAYTHRU": 2,
        "NGHTTHRU": 0,
        "MAINTRK": 1,
        "SIDINGTRK": 0,
        "YARDTRK": 0,
        "TRANSITTRK": 0,
        "INDUSTRYTR": 0,
        "OTHRTRK": 0,
        "WDCODE": "",
        "REVISIONDA": "2016/07/26 00:00:00",
        "LASTUPDATE": "1/7/2026",
        "AADT": "000010",
        "AADTYEAR": "1987",
        "STATENAME": "TEXAS",
        "STATEAB": "TX",
        "COUNTYNAME": "MCCULLOCH",
        "CITYNAME": "BRADY",
        "LATDD": 31.138683,
        "LONGDD": -99.33662,
        "gridlyProductionCertified": true,
        "gridlyClassification": "PUBLIC_ROADWAY",
        "gridlyDisplayName": "N High St",
        "gridlyId": "FRA-024817H"
      }
    },
    {
      "type": "Feature",
      "id": 215451,
      "geometry": {
        "type": "Point",
        "coordinates": [
          -99.1815259998219,
          31.2067319998743
        ]
      },
      "properties": {
        "OBJECTID": 215451,
        "CROSSING": "024792P",
        "EFFDATE": 1767744000000,
        "REASON": "14",
        "StateCode": "48",
        "CountyCode": "48307",
        "STCYFIPS": "48307",
        "CITYCD": "483070830",
        "RAILROAD": "CTXR",
        "RRDIV": "SOUTHERN",
        "RRSUBDIV": "SAN SABA",
        "HIGHWAY": "Private",
        "STREET": "PRIVATE ROAD",
        "TTSTN": "690549",
        "MILEPOST": "0057.40",
        "TYPEXING": "Private",
        "POSXING": "At Grade",
        "PRVCAT": "14",
        "INIT": "1",
        "LATITUDE": 31.206732,
        "LONGITUD": -99.181526,
        "LLSOURCE": "1",
        "WHISTBAN": "0",
        "RRCONT": "3255972359",
        "POLCONT": "8005339416",
        "INV_LINK": "https://safetydata.fra.dot.gov/OfficeofSafety/PublicSite/Crossing/Crossing.aspx?phasetype=C&rpttype=I&txtcrossingnum=024792P",
        "ACC_LINK": "https://safetydata.fra.dot.gov/OfficeofSafety/PublicSite/Crossing/Crossing.aspx?phasetype=C&rpttype=A&txtcrossingnum=024792P",
        "TTSTNNAM": "",
        "XPURPOSE": "1",
        "OPERATINGR": "CTXR",
        "OPERATIN_1": "Primary",
        "DAYTHRU": 1,
        "NGHTTHRU": 0,
        "MAINTRK": 1,
        "SIDINGTRK": 0,
        "YARDTRK": 0,
        "TRANSITTRK": 0,
        "INDUSTRYTR": 0,
        "OTHRTRK": 0,
        "WDCODE": "",
        "REVISIONDA": "2016/07/26 00:00:00",
        "LASTUPDATE": "1/7/2026",
        "AADT": "",
        "AADTYEAR": "1970",
        "STATENAME": "TEXAS",
        "STATEAB": "TX",
        "COUNTYNAME": "MCCULLOCH",
        "CITYNAME": "BRADY",
        "LATDD": 31.206732,
        "LONGDD": -99.181526,
        "gridlyProductionCertified": true,
        "gridlyClassification": "PUBLIC_ROADWAY",
        "gridlyDisplayName": "PRIVATE ROAD",
        "gridlyId": "FRA-024792P"
      }
    },
    {
      "type": "Feature",
      "id": 215452,
      "geometry": {
        "type": "Point",
        "coordinates": [
          -99.2035219996469,
          31.1937409999524
        ]
      },
      "properties": {
        "OBJECTID": 215452,
        "CROSSING": "024795K",
        "EFFDATE": 1767744000000,
        "REASON": "14",
        "StateCode": "48",
        "CountyCode": "48307",
        "STCYFIPS": "48307",
        "CITYCD": "483070830",
        "RAILROAD": "CTXR",
        "RRDIV": "SOUTHERN",
        "RRSUBDIV": "SAN SABA",
        "HIGHWAY": "Private",
        "STREET": "PRIVATE ROAD",
        "TTSTN": "690660",
        "MILEPOST": "0058.64",
        "TYPEXING": "Private",
        "POSXING": "At Grade",
        "PRVCAT": "14",
        "INIT": "1",
        "LATITUDE": 31.193741,
        "LONGITUD": -99.203522,
        "LLSOURCE": "1",
        "WHISTBAN": "0",
        "RRCONT": "3255972359",
        "POLCONT": "8005339416",
        "INV_LINK": "https://safetydata.fra.dot.gov/OfficeofSafety/PublicSite/Crossing/Crossing.aspx?phasetype=C&rpttype=I&txtcrossingnum=024795K",
        "ACC_LINK": "https://safetydata.fra.dot.gov/OfficeofSafety/PublicSite/Crossing/Crossing.aspx?phasetype=C&rpttype=A&txtcrossingnum=024795K",
        "TTSTNNAM": "BRADY",
        "XPURPOSE": "1",
        "OPERATINGR": "CTXR",
        "OPERATIN_1": "Primary",
        "DAYTHRU": 1,
        "NGHTTHRU": 0,
        "MAINTRK": 1,
        "SIDINGTRK": 0,
        "YARDTRK": 0,
        "TRANSITTRK": 0,
        "INDUSTRYTR": 0,
        "OTHRTRK": 0,
        "WDCODE": "",
        "REVISIONDA": "2016/07/26 00:00:00",
        "LASTUPDATE": "1/7/2026",
        "AADT": "",
        "AADTYEAR": "1970",
        "STATENAME": "TEXAS",
        "STATEAB": "TX",
        "COUNTYNAME": "MCCULLOCH",
        "CITYNAME": "BRADY",
        "LATDD": 31.193741,
        "LONGDD": -99.203522,
        "gridlyProductionCertified": true,
        "gridlyClassification": "PUBLIC_ROADWAY",
        "gridlyDisplayName": "PRIVATE ROAD",
        "gridlyId": "FRA-024795K"
      }
    },
    {
      "type": "Feature",
      "id": 215453,
      "geometry": {
        "type": "Point",
        "coordinates": [
          -99.3136370002873,
          31.1407380000503
        ]
      },
      "properties": {
        "OBJECTID": 215453,
        "CROSSING": "024808J",
        "EFFDATE": 1767744000000,
        "REASON": "14",
        "StateCode": "48",
        "CountyCode": "48307",
        "STCYFIPS": "48307",
        "CITYCD": "483070830",
        "RAILROAD": "CTXR",
        "RRDIV": "SOUTHERN",
        "RRSUBDIV": "SAN SABA",
        "HIGHWAY": "Private",
        "STREET": "PRIVATE ROAD",
        "TTSTN": "690660",
        "MILEPOST": "0065.17",
        "TYPEXING": "Private",
        "POSXING": "At Grade",
        "PRVCAT": "14",
        "INIT": "1",
        "LATITUDE": 31.140738,
        "LONGITUD": -99.313637,
        "LLSOURCE": "1",
        "WHISTBAN": "0",
        "RRCONT": "3255972359",
        "POLCONT": "8005339416",
        "INV_LINK": "https://safetydata.fra.dot.gov/OfficeofSafety/PublicSite/Crossing/Crossing.aspx?phasetype=C&rpttype=I&txtcrossingnum=024808J",
        "ACC_LINK": "https://safetydata.fra.dot.gov/OfficeofSafety/PublicSite/Crossing/Crossing.aspx?phasetype=C&rpttype=A&txtcrossingnum=024808J",
        "TTSTNNAM": "BRADY",
        "XPURPOSE": "1",
        "OPERATINGR": "CTXR",
        "OPERATIN_1": "Primary",
        "DAYTHRU": 1,
        "NGHTTHRU": 0,
        "MAINTRK": 1,
        "SIDINGTRK": 0,
        "YARDTRK": 0,
        "TRANSITTRK": 0,
        "INDUSTRYTR": 0,
        "OTHRTRK": 0,
        "WDCODE": "",
        "REVISIONDA": "2016/07/26 00:00:00",
        "LASTUPDATE": "1/7/2026",
        "AADT": "",
        "AADTYEAR": "1970",
        "STATENAME": "TEXAS",
        "STATEAB": "TX",
        "COUNTYNAME": "MCCULLOCH",
        "CITYNAME": "BRADY",
        "LATDD": 31.140738,
        "LONGDD": -99.313637,
        "gridlyProductionCertified": true,
        "gridlyClassification": "PUBLIC_ROADWAY",
        "gridlyDisplayName": "PRIVATE ROAD",
        "gridlyId": "FRA-024808J"
      }
    },
    {
      "type": "Feature",
      "id": 215454,
      "geometry": {
        "type": "Point",
        "coordinates": [
          -99.2793781003155,
          31.1537408001534
        ]
      },
      "properties": {
        "OBJECTID": 215454,
        "CROSSING": "024805N",
        "EFFDATE": 1767744000000,
        "REASON": "20",
        "StateCode": "48",
        "CountyCode": "48307",
        "STCYFIPS": "48307",
        "CITYCD": "483070830",
        "RAILROAD": "CTXR",
        "RRDIV": "Central Texas",
        "RRSUBDIV": "BRADY",
        "HIGHWAY": "Cr0410",
        "STREET": "County Road 410",
        "TTSTN": "690660",
        "MILEPOST": "0062.41",
        "TYPEXING": "Public",
        "POSXING": "At Grade",
        "PRVCAT": "20",
        "INIT": "1",
        "LATITUDE": 31.1537408,
        "LONGITUD": -99.2793781,
        "LLSOURCE": "1",
        "WHISTBAN": "0",
        "RRCONT": "3255972359",
        "POLCONT": "8005339416",
        "INV_LINK": "https://safetydata.fra.dot.gov/OfficeofSafety/PublicSite/Crossing/Crossing.aspx?phasetype=C&rpttype=I&txtcrossingnum=024805N",
        "ACC_LINK": "https://safetydata.fra.dot.gov/OfficeofSafety/PublicSite/Crossing/Crossing.aspx?phasetype=C&rpttype=A&txtcrossingnum=024805N",
        "TTSTNNAM": "BRADY",
        "XPURPOSE": "1",
        "OPERATINGR": "CTXR",
        "OPERATIN_1": "Primary",
        "DAYTHRU": 1,
        "NGHTTHRU": 0,
        "MAINTRK": 1,
        "SIDINGTRK": 0,
        "YARDTRK": 0,
        "TRANSITTRK": 0,
        "INDUSTRYTR": 0,
        "OTHRTRK": 0,
        "WDCODE": "No signs or signals",
        "REVISIONDA": "2016/07/26 00:00:00",
        "LASTUPDATE": "1/7/2026",
        "AADT": "52",
        "AADTYEAR": "2022",
        "STATENAME": "TEXAS",
        "STATEAB": "TX",
        "COUNTYNAME": "MCCULLOCH",
        "CITYNAME": "BRADY",
        "LATDD": 31.1537408,
        "LONGDD": -99.2793781,
        "gridlyProductionCertified": true,
        "gridlyClassification": "PUBLIC_ROADWAY",
        "gridlyDisplayName": "County Road 410",
        "gridlyId": "FRA-024805N"
      }
    },
    {
      "type": "Feature",
      "id": 215455,
      "geometry": {
        "type": "Point",
        "coordinates": [
          -99.2522406998615,
          31.1674089999206
        ]
      },
      "properties": {
        "OBJECTID": 215455,
        "CROSSING": "024800E",
        "EFFDATE": 1767744000000,
        "REASON": "20",
        "StateCode": "48",
        "CountyCode": "48307",
        "STCYFIPS": "48307",
        "CITYCD": "483070830",
        "RAILROAD": "CTXR",
        "RRDIV": "Central Texas",
        "RRSUBDIV": "BRADY",
        "HIGHWAY": "cr0412",
        "STREET": "County Road 412",
        "TTSTN": "690660",
        "MILEPOST": "0060.59",
        "TYPEXING": "Public",
        "POSXING": "At Grade",
        "PRVCAT": "20",
        "INIT": "1",
        "LATITUDE": 31.167409,
        "LONGITUD": -99.2522407,
        "LLSOURCE": "1",
        "WHISTBAN": "0",
        "RRCONT": "3255972359",
        "POLCONT": "8005339416",
        "INV_LINK": "https://safetydata.fra.dot.gov/OfficeofSafety/PublicSite/Crossing/Crossing.aspx?phasetype=C&rpttype=I&txtcrossingnum=024800E",
        "ACC_LINK": "https://safetydata.fra.dot.gov/OfficeofSafety/PublicSite/Crossing/Crossing.aspx?phasetype=C&rpttype=A&txtcrossingnum=024800E",
        "TTSTNNAM": "BRADY",
        "XPURPOSE": "1",
        "OPERATINGR": "CTXR",
        "OPERATIN_1": "Primary",
        "DAYTHRU": 1,
        "NGHTTHRU": 0,
        "MAINTRK": 1,
        "SIDINGTRK": 0,
        "YARDTRK": 0,
        "TRANSITTRK": 0,
        "INDUSTRYTR": 0,
        "OTHRTRK": 0,
        "WDCODE": "No signs or signals",
        "REVISIONDA": "2016/07/26 00:00:00",
        "LASTUPDATE": "1/7/2026",
        "AADT": "19",
        "AADTYEAR": "2019",
        "STATENAME": "TEXAS",
        "STATEAB": "TX",
        "COUNTYNAME": "MCCULLOCH",
        "CITYNAME": "BRADY",
        "LATDD": 31.167409,
        "LONGDD": -99.2522407,
        "gridlyProductionCertified": true,
        "gridlyClassification": "PUBLIC_ROADWAY",
        "gridlyDisplayName": "County Road 412",
        "gridlyId": "FRA-024800E"
      }
    },
    {
      "type": "Feature",
      "id": 215456,
      "geometry": {
        "type": "Point",
        "coordinates": [
          -99.2818220002837,
          31.1521420002713
        ]
      },
      "properties": {
        "OBJECTID": 215456,
        "CROSSING": "024806V",
        "EFFDATE": 1767744000000,
        "REASON": "14",
        "StateCode": "48",
        "CountyCode": "48307",
        "STCYFIPS": "48307",
        "CITYCD": "483070830",
        "RAILROAD": "CTXR",
        "RRDIV": "SOUTHERN",
        "RRSUBDIV": "SAN SABA",
        "HIGHWAY": "Private",
        "STREET": "PRIVATE ROAD",
        "TTSTN": "690660",
        "MILEPOST": "0063.45",
        "TYPEXING": "Private",
        "POSXING": "At Grade",
        "PRVCAT": "14",
        "INIT": "1",
        "LATITUDE": 31.152142,
        "LONGITUD": -99.281822,
        "LLSOURCE": "1",
        "WHISTBAN": "0",
        "RRCONT": "3255972359",
        "POLCONT": "8005339416",
        "INV_LINK": "https://safetydata.fra.dot.gov/OfficeofSafety/PublicSite/Crossing/Crossing.aspx?phasetype=C&rpttype=I&txtcrossingnum=024806V",
        "ACC_LINK": "https://safetydata.fra.dot.gov/OfficeofSafety/PublicSite/Crossing/Crossing.aspx?phasetype=C&rpttype=A&txtcrossingnum=024806V",
        "TTSTNNAM": "BRADY",
        "XPURPOSE": "1",
        "OPERATINGR": "CTXR",
        "OPERATIN_1": "Primary",
        "DAYTHRU": 1,
        "NGHTTHRU": 0,
        "MAINTRK": 1,
        "SIDINGTRK": 0,
        "YARDTRK": 0,
        "TRANSITTRK": 0,
        "INDUSTRYTR": 0,
        "OTHRTRK": 0,
        "WDCODE": "",
        "REVISIONDA": "2016/07/26 00:00:00",
        "LASTUPDATE": "1/7/2026",
        "AADT": "",
        "AADTYEAR": "1970",
        "STATENAME": "TEXAS",
        "STATEAB": "TX",
        "COUNTYNAME": "MCCULLOCH",
        "CITYNAME": "BRADY",
        "LATDD": 31.152142,
        "LONGDD": -99.281822,
        "gridlyProductionCertified": true,
        "gridlyClassification": "PUBLIC_ROADWAY",
        "gridlyDisplayName": "PRIVATE ROAD",
        "gridlyId": "FRA-024806V"
      }
    },
    {
      "type": "Feature",
      "id": 215457,
      "geometry": {
        "type": "Point",
        "coordinates": [
          -99.170028999693,
          31.2082460000019
        ]
      },
      "properties": {
        "OBJECTID": 215457,
        "CROSSING": "024791H",
        "EFFDATE": 1767744000000,
        "REASON": "14",
        "StateCode": "48",
        "CountyCode": "48307",
        "STCYFIPS": "48307",
        "CITYCD": "483070830",
        "RAILROAD": "CTXR",
        "RRDIV": "SOUTHERN",
        "RRSUBDIV": "SAN SABA",
        "HIGHWAY": "Private",
        "STREET": "PRIVATE ROAD",
        "TTSTN": "690549",
        "MILEPOST": "0056.71",
        "TYPEXING": "Private",
        "POSXING": "At Grade",
        "PRVCAT": "14",
        "INIT": "1",
        "LATITUDE": 31.208246,
        "LONGITUD": -99.170029,
        "LLSOURCE": "1",
        "WHISTBAN": "0",
        "RRCONT": "3255972359",
        "POLCONT": "8005339416",
        "INV_LINK": "https://safetydata.fra.dot.gov/OfficeofSafety/PublicSite/Crossing/Crossing.aspx?phasetype=C&rpttype=I&txtcrossingnum=024791H",
        "ACC_LINK": "https://safetydata.fra.dot.gov/OfficeofSafety/PublicSite/Crossing/Crossing.aspx?phasetype=C&rpttype=A&txtcrossingnum=024791H",
        "TTSTNNAM": "",
        "XPURPOSE": "1",
        "OPERATINGR": "CTXR",
        "OPERATIN_1": "Primary",
        "DAYTHRU": 1,
        "NGHTTHRU": 0,
        "MAINTRK": 1,
        "SIDINGTRK": 0,
        "YARDTRK": 0,
        "TRANSITTRK": 0,
        "INDUSTRYTR": 0,
        "OTHRTRK": 0,
        "WDCODE": "",
        "REVISIONDA": "2016/07/26 00:00:00",
        "LASTUPDATE": "1/7/2026",
        "AADT": "",
        "AADTYEAR": "1970",
        "STATENAME": "TEXAS",
        "STATEAB": "TX",
        "COUNTYNAME": "MCCULLOCH",
        "CITYNAME": "BRADY",
        "LATDD": 31.208246,
        "LONGDD": -99.170029,
        "gridlyProductionCertified": true,
        "gridlyClassification": "PUBLIC_ROADWAY",
        "gridlyDisplayName": "PRIVATE ROAD",
        "gridlyId": "FRA-024791H"
      }
    },
    {
      "type": "Feature",
      "id": 215458,
      "geometry": {
        "type": "Point",
        "coordinates": [
          -99.3383066001968,
          31.139194500193
        ]
      },
      "properties": {
        "OBJECTID": 215458,
        "CROSSING": "024814M",
        "EFFDATE": 1767744000000,
        "REASON": "20",
        "StateCode": "48",
        "CountyCode": "48307",
        "STCYFIPS": "48307",
        "CITYCD": "483070830",
        "RAILROAD": "CTXR",
        "RRDIV": "Central Texas",
        "RRSUBDIV": "BRADY",
        "HIGHWAY": "ls0000",
        "STREET": "north PINE street",
        "TTSTN": "690660",
        "MILEPOST": "0066.12",
        "TYPEXING": "Public",
        "POSXING": "At Grade",
        "PRVCAT": "20",
        "INIT": "1",
        "LATITUDE": 31.1391945,
        "LONGITUD": -99.3383066,
        "LLSOURCE": "1",
        "WHISTBAN": "0",
        "RRCONT": "3255972359",
        "POLCONT": "8005339416",
        "INV_LINK": "https://safetydata.fra.dot.gov/OfficeofSafety/PublicSite/Crossing/Crossing.aspx?phasetype=C&rpttype=I&txtcrossingnum=024814M",
        "ACC_LINK": "https://safetydata.fra.dot.gov/OfficeofSafety/PublicSite/Crossing/Crossing.aspx?phasetype=C&rpttype=A&txtcrossingnum=024814M",
        "TTSTNNAM": "BRADY",
        "XPURPOSE": "1",
        "OPERATINGR": "CTXR",
        "OPERATIN_1": "Primary",
        "DAYTHRU": 2,
        "NGHTTHRU": 0,
        "MAINTRK": 1,
        "SIDINGTRK": 0,
        "YARDTRK": 0,
        "TRANSITTRK": 0,
        "INDUSTRYTR": 1,
        "OTHRTRK": 1,
        "WDCODE": "Crossbucks",
        "REVISIONDA": "2016/07/26 00:00:00",
        "LASTUPDATE": "1/7/2026",
        "AADT": "84",
        "AADTYEAR": "2022",
        "STATENAME": "TEXAS",
        "STATEAB": "TX",
        "COUNTYNAME": "MCCULLOCH",
        "CITYNAME": "BRADY",
        "LATDD": 31.1391945,
        "LONGDD": -99.3383066,
        "gridlyProductionCertified": true,
        "gridlyClassification": "PUBLIC_ROADWAY",
        "gridlyDisplayName": "north PINE street",
        "gridlyId": "FRA-024814M"
      }
    },
    {
      "type": "Feature",
      "id": 215459,
      "geometry": {
        "type": "Point",
        "coordinates": [
          -99.2586589999714,
          31.1637760002731
        ]
      },
      "properties": {
        "OBJECTID": 215459,
        "CROSSING": "024804G",
        "EFFDATE": 1767744000000,
        "REASON": "14",
        "StateCode": "48",
        "CountyCode": "48307",
        "STCYFIPS": "48307",
        "CITYCD": "483070830",
        "RAILROAD": "CTXR",
        "RRDIV": "SOUTHERN",
        "RRSUBDIV": "SAN SABA",
        "HIGHWAY": "Private",
        "STREET": "PRIVATE ROAD",
        "TTSTN": "690660",
        "MILEPOST": "0062.04",
        "TYPEXING": "Private",
        "POSXING": "At Grade",
        "PRVCAT": "14",
        "INIT": "1",
        "LATITUDE": 31.163776,
        "LONGITUD": -99.258659,
        "LLSOURCE": "1",
        "WHISTBAN": "0",
        "RRCONT": "3255972359",
        "POLCONT": "8005339416",
        "INV_LINK": "https://safetydata.fra.dot.gov/OfficeofSafety/PublicSite/Crossing/Crossing.aspx?phasetype=C&rpttype=I&txtcrossingnum=024804G",
        "ACC_LINK": "https://safetydata.fra.dot.gov/OfficeofSafety/PublicSite/Crossing/Crossing.aspx?phasetype=C&rpttype=A&txtcrossingnum=024804G",
        "TTSTNNAM": "BRADY",
        "XPURPOSE": "1",
        "OPERATINGR": "CTXR",
        "OPERATIN_1": "Primary",
        "DAYTHRU": 1,
        "NGHTTHRU": 0,
        "MAINTRK": 1,
        "SIDINGTRK": 0,
        "YARDTRK": 0,
        "TRANSITTRK": 0,
        "INDUSTRYTR": 0,
        "OTHRTRK": 0,
        "WDCODE": "",
        "REVISIONDA": "2016/07/26 00:00:00",
        "LASTUPDATE": "1/7/2026",
        "AADT": "",
        "AADTYEAR": "1970",
        "STATENAME": "TEXAS",
        "STATEAB": "TX",
        "COUNTYNAME": "MCCULLOCH",
        "CITYNAME": "BRADY",
        "LATDD": 31.163776,
        "LONGDD": -99.258659,
        "gridlyProductionCertified": true,
        "gridlyClassification": "PUBLIC_ROADWAY",
        "gridlyDisplayName": "PRIVATE ROAD",
        "gridlyId": "FRA-024804G"
      }
    },
    {
      "type": "Feature",
      "id": 215460,
      "geometry": {
        "type": "Point",
        "coordinates": [
          -99.1884100000499,
          31.206000799969
        ]
      },
      "properties": {
        "OBJECTID": 215460,
        "CROSSING": "024788A",
        "EFFDATE": 1767744000000,
        "REASON": "20",
        "StateCode": "48",
        "CountyCode": "48307",
        "STCYFIPS": "48307",
        "CITYCD": "483070830",
        "RAILROAD": "CTXR",
        "RRDIV": "Central Texas",
        "RRSUBDIV": "BRADY",
        "HIGHWAY": "cr0423",
        "STREET": "County Road 423",
        "TTSTN": "690549",
        "MILEPOST": "0055.88",
        "TYPEXING": "Public",
        "POSXING": "At Grade",
        "PRVCAT": "20",
        "INIT": "1",
        "LATITUDE": 31.2060008,
        "LONGITUD": -99.18841,
        "LLSOURCE": "1",
        "WHISTBAN": "0",
        "RRCONT": "3255972359",
        "POLCONT": "8005339416",
        "INV_LINK": "https://safetydata.fra.dot.gov/OfficeofSafety/PublicSite/Crossing/Crossing.aspx?phasetype=C&rpttype=I&txtcrossingnum=024788A",
        "ACC_LINK": "https://safetydata.fra.dot.gov/OfficeofSafety/PublicSite/Crossing/Crossing.aspx?phasetype=C&rpttype=A&txtcrossingnum=024788A",
        "TTSTNNAM": "Brady",
        "XPURPOSE": "1",
        "OPERATINGR": "CTXR",
        "OPERATIN_1": "Primary",
        "DAYTHRU": 1,
        "NGHTTHRU": 0,
        "MAINTRK": 1,
        "SIDINGTRK": 0,
        "YARDTRK": 0,
        "TRANSITTRK": 0,
        "INDUSTRYTR": 0,
        "OTHRTRK": 0,
        "WDCODE": "No signs or signals",
        "REVISIONDA": "2016/07/26 00:00:00",
        "LASTUPDATE": "1/7/2026",
        "AADT": "8",
        "AADTYEAR": "2022",
        "STATENAME": "TEXAS",
        "STATEAB": "TX",
        "COUNTYNAME": "MCCULLOCH",
        "CITYNAME": "BRADY",
        "LATDD": 31.2060008,
        "LONGDD": -99.18841,
        "gridlyProductionCertified": true,
        "gridlyClassification": "PUBLIC_ROADWAY",
        "gridlyDisplayName": "County Road 423",
        "gridlyId": "FRA-024788A"
      }
    },
    {
      "type": "Feature",
      "id": 215462,
      "geometry": {
        "type": "Point",
        "coordinates": [
          -99.2567099001466,
          31.165139099893
        ]
      },
      "properties": {
        "OBJECTID": 215462,
        "CROSSING": "024801L",
        "EFFDATE": 1767744000000,
        "REASON": "20",
        "StateCode": "48",
        "CountyCode": "48307",
        "STCYFIPS": "48307",
        "CITYCD": "483070830",
        "RAILROAD": "CTXR",
        "RRDIV": "Central Texas",
        "RRSUBDIV": "BRADY",
        "HIGHWAY": "Cr0414",
        "STREET": "County Road 414",
        "TTSTN": "690660",
        "MILEPOST": "0060.86",
        "TYPEXING": "Public",
        "POSXING": "At Grade",
        "PRVCAT": "20",
        "INIT": "1",
        "LATITUDE": 31.1651391,
        "LONGITUD": -99.2567099,
        "LLSOURCE": "1",
        "WHISTBAN": "0",
        "RRCONT": "3255972359",
        "POLCONT": "8005339416",
        "INV_LINK": "https://safetydata.fra.dot.gov/OfficeofSafety/PublicSite/Crossing/Crossing.aspx?phasetype=C&rpttype=I&txtcrossingnum=024801L",
        "ACC_LINK": "https://safetydata.fra.dot.gov/OfficeofSafety/PublicSite/Crossing/Crossing.aspx?phasetype=C&rpttype=A&txtcrossingnum=024801L",
        "TTSTNNAM": "BRADY",
        "XPURPOSE": "1",
        "OPERATINGR": "CTXR",
        "OPERATIN_1": "Primary",
        "DAYTHRU": 1,
        "NGHTTHRU": 0,
        "MAINTRK": 1,
        "SIDINGTRK": 0,
        "YARDTRK": 0,
        "TRANSITTRK": 0,
        "INDUSTRYTR": 0,
        "OTHRTRK": 0,
        "WDCODE": "Crossbucks",
        "REVISIONDA": "2016/07/26 00:00:00",
        "LASTUPDATE": "1/7/2026",
        "AADT": "19",
        "AADTYEAR": "2022",
        "STATENAME": "TEXAS",
        "STATEAB": "TX",
        "COUNTYNAME": "MCCULLOCH",
        "CITYNAME": "BRADY",
        "LATDD": 31.1651391,
        "LONGDD": -99.2567099,
        "gridlyProductionCertified": true,
        "gridlyClassification": "PUBLIC_ROADWAY",
        "gridlyDisplayName": "County Road 414",
        "gridlyId": "FRA-024801L"
      }
    }
  ]
}
