{
  "type": "FeatureCollection",
  "features": [
    {
      "type": "Feature",
      "id": 206771,
      "geometry": {
        "type": "Point",
        "coordinates": [
          -103.053713699642,
          31.5511857999837
        ]
      },
      "properties": {
        "OBJECTID": 206771,
        "CROSSING": "796268W",
        "EFFDATE": 1756684800000,
        "REASON": "14",
        "StateCode": "48",
        "CountyCode": "48475",
        "STCYFIPS": "48475",
        "CITYCD": "484755565",
        "RAILROAD": "UP",
        "RRDIV": "TEXOMA",
        "RRSUBDIV": "TOYAH SUB",
        "HIGHWAY": "NA",
        "STREET": "PRIVATE",
        "TTSTN": "694927",
        "MILEPOST": "0619.340",
        "TYPEXING": "Private",
        "POSXING": "At Grade",
        "PRVCAT": "14",
        "INIT": "1",
        "LATITUDE": 31.5511858,
        "LONGITUD": -103.0537137,
        "LLSOURCE": "1",
        "WHISTBAN": "0",
        "RRCONT": "4025443721",
        "POLCONT": "8008488715",
        "INV_LINK": "https://safetydata.fra.dot.gov/OfficeofSafety/PublicSite/Crossing/Crossing.aspx?phasetype=C&rpttype=I&txtcrossingnum=796268W",
        "ACC_LINK": "https://safetydata.fra.dot.gov/OfficeofSafety/PublicSite/Crossing/Crossing.aspx?phasetype=C&rpttype=A&txtcrossingnum=796268W",
        "TTSTNNAM": "",
        "XPURPOSE": "1",
        "OPERATINGR": "UP",
        "OPERATIN_1": "Primary",
        "DAYTHRU": 9,
        "NGHTTHRU": 9,
        "MAINTRK": 1,
        "SIDINGTRK": 0,
        "YARDTRK": 0,
        "TRANSITTRK": 0,
        "INDUSTRYTR": 0,
        "OTHRTRK": 0,
        "WDCODE": "",
        "REVISIONDA": "1975/01/01 00:00:00",
        "LASTUPDATE": "9/1/2025",
        "AADT": "1",
        "AADTYEAR": "1970",
        "STATENAME": "TEXAS",
        "STATEAB": "TX",
        "COUNTYNAME": "WARD",
        "CITYNAME": "PYOTE",
        "LATDD": 31.5511858,
        "LONGDD": -103.0537137,
        "gridlyProductionCertified": true,
        "gridlyClassification": "PUBLIC_ROADWAY",
        "gridlyDisplayName": "PRIVATE",
        "gridlyId": "FRA-796268W"
      }
    },
    {
      "type": "Feature",
      "id": 208715,
      "geometry": {
        "type": "Point",
        "coordinates": [
          -103.072445200165,
          31.5460643998413
        ]
      },
      "properties": {
        "OBJECTID": 208715,
        "CROSSING": "796267P",
        "EFFDATE": 1756339200000,
        "REASON": "14",
        "StateCode": "48",
        "CountyCode": "48475",
        "STCYFIPS": "48475",
        "CITYCD": "484755565",
        "RAILROAD": "UP",
        "RRDIV": "TEXOMA",
        "RRSUBDIV": "TOYAH SUB",
        "HIGHWAY": "NA",
        "STREET": "PRIVATE",
        "TTSTN": "694927",
        "MILEPOST": "0620.510",
        "TYPEXING": "Private",
        "POSXING": "At Grade",
        "PRVCAT": "14",
        "INIT": "1",
        "LATITUDE": 31.5460644,
        "LONGITUD": -103.0724452,
        "LLSOURCE": "1",
        "WHISTBAN": "0",
        "RRCONT": "4025443721",
        "POLCONT": "8008488715",
        "INV_LINK": "https://safetydata.fra.dot.gov/OfficeofSafety/PublicSite/Crossing/Crossing.aspx?phasetype=C&rpttype=I&txtcrossingnum=796267P",
        "ACC_LINK": "https://safetydata.fra.dot.gov/OfficeofSafety/PublicSite/Crossing/Crossing.aspx?phasetype=C&rpttype=A&txtcrossingnum=796267P",
        "TTSTNNAM": "",
        "XPURPOSE": "1",
        "OPERATINGR": "UP",
        "OPERATIN_1": "Primary",
        "DAYTHRU": 9,
        "NGHTTHRU": 9,
        "MAINTRK": 1,
        "SIDINGTRK": 0,
        "YARDTRK": 0,
        "TRANSITTRK": 0,
        "INDUSTRYTR": 0,
        "OTHRTRK": 0,
        "WDCODE": "",
        "REVISIONDA": "1975/01/01 00:00:00",
        "LASTUPDATE": "8/28/2025",
        "AADT": "1",
        "AADTYEAR": "1970",
        "STATENAME": "TEXAS",
        "STATEAB": "TX",
        "COUNTYNAME": "WARD",
        "CITYNAME": "PYOTE",
        "LATDD": 31.5460644,
        "LONGDD": -103.0724452,
        "gridlyProductionCertified": true,
        "gridlyClassification": "PUBLIC_ROADWAY",
        "gridlyDisplayName": "PRIVATE",
        "gridlyId": "FRA-796267P"
      }
    },
    {
      "type": "Feature",
      "id": 208736,
      "geometry": {
        "type": "Point",
        "coordinates": [
          -102.9609478001,
          31.5765367998237
        ]
      },
      "properties": {
        "OBJECTID": 208736,
        "CROSSING": "796271E",
        "EFFDATE": 1756339200000,
        "REASON": "14",
        "StateCode": "48",
        "CountyCode": "48475",
        "STCYFIPS": "48475",
        "CITYCD": "484757492",
        "RAILROAD": "UP",
        "RRDIV": "TEXOMA",
        "RRSUBDIV": "TOYAH SUB",
        "HIGHWAY": "CO 0000",
        "STREET": "North Yucca Drive",
        "TTSTN": "694923",
        "MILEPOST": "0613.580",
        "TYPEXING": "Private",
        "POSXING": "At Grade",
        "PRVCAT": "14",
        "INIT": "1",
        "LATITUDE": 31.5765368,
        "LONGITUD": -102.9609478,
        "LLSOURCE": "1",
        "WHISTBAN": "0",
        "RRCONT": "4025443721",
        "POLCONT": "8008488715",
        "INV_LINK": "https://safetydata.fra.dot.gov/OfficeofSafety/PublicSite/Crossing/Crossing.aspx?phasetype=C&rpttype=I&txtcrossingnum=796271E",
        "ACC_LINK": "https://safetydata.fra.dot.gov/OfficeofSafety/PublicSite/Crossing/Crossing.aspx?phasetype=C&rpttype=A&txtcrossingnum=796271E",
        "TTSTNNAM": "",
        "XPURPOSE": "1",
        "OPERATINGR": "UP",
        "OPERATIN_1": "Primary",
        "DAYTHRU": 9,
        "NGHTTHRU": 9,
        "MAINTRK": 1,
        "SIDINGTRK": 0,
        "YARDTRK": 0,
        "TRANSITTRK": 0,
        "INDUSTRYTR": 0,
        "OTHRTRK": 0,
        "WDCODE": "",
        "REVISIONDA": "1975/01/01 00:00:00",
        "LASTUPDATE": "8/28/2025",
        "AADT": "40",
        "AADTYEAR": "2018",
        "STATENAME": "TEXAS",
        "STATEAB": "TX",
        "COUNTYNAME": "WARD",
        "CITYNAME": "WICKETT",
        "LATDD": 31.5765368,
        "LONGDD": -102.9609478,
        "gridlyProductionCertified": true,
        "gridlyClassification": "PUBLIC_ROADWAY",
        "gridlyDisplayName": "North Yucca Drive",
        "gridlyId": "FRA-796271E"
      }
    },
    {
      "type": "Feature",
      "id": 208756,
      "geometry": {
        "type": "Point",
        "coordinates": [
          -103.277284500431,
          31.4898179997927
        ]
      },
      "properties": {
        "OBJECTID": 208756,
        "CROSSING": "924344S",
        "EFFDATE": 1756339200000,
        "REASON": "14",
        "StateCode": "48",
        "CountyCode": "48475",
        "STCYFIPS": "48475",
        "CITYCD": "484750440",
        "RAILROAD": "UP",
        "RRDIV": "TEXOMA",
        "RRSUBDIV": "TOYAH SUB",
        "HIGHWAY": "NA",
        "STREET": "PRIVATE UPRR",
        "TTSTN": "",
        "MILEPOST": "0633.170",
        "TYPEXING": "Private",
        "POSXING": "At Grade",
        "PRVCAT": "14",
        "INIT": "1",
        "LATITUDE": 31.489818,
        "LONGITUD": -103.2772845,
        "LLSOURCE": "1",
        "WHISTBAN": "",
        "RRCONT": "4025443721",
        "POLCONT": "8008488715",
        "INV_LINK": "https://safetydata.fra.dot.gov/OfficeofSafety/PublicSite/Crossing/Crossing.aspx?phasetype=C&rpttype=I&txtcrossingnum=924344S",
        "ACC_LINK": "https://safetydata.fra.dot.gov/OfficeofSafety/PublicSite/Crossing/Crossing.aspx?phasetype=C&rpttype=A&txtcrossingnum=924344S",
        "TTSTNNAM": "",
        "XPURPOSE": "1",
        "OPERATINGR": "UP",
        "OPERATIN_1": "Primary",
        "DAYTHRU": 9,
        "NGHTTHRU": 9,
        "MAINTRK": 1,
        "SIDINGTRK": 0,
        "YARDTRK": 0,
        "TRANSITTRK": 0,
        "INDUSTRYTR": 0,
        "OTHRTRK": 0,
        "WDCODE": "",
        "REVISIONDA": "1975/01/01 00:00:00",
        "LASTUPDATE": "8/28/2025",
        "AADT": "",
        "AADTYEAR": "",
        "STATENAME": "TEXAS",
        "STATEAB": "TX",
        "COUNTYNAME": "WARD",
        "CITYNAME": "BARSTOW",
        "LATDD": 31.489818,
        "LONGDD": -103.2772845,
        "gridlyProductionCertified": true,
        "gridlyClassification": "PUBLIC_ROADWAY",
        "gridlyDisplayName": "PRIVATE UPRR",
        "gridlyId": "FRA-924344S"
      }
    },
    {
      "type": "Feature",
      "id": 213172,
      "geometry": {
        "type": "Point",
        "coordinates": [
          -102.961508000291,
          31.5780350000886
        ]
      },
      "properties": {
        "OBJECTID": 213172,
        "CROSSING": "975411Y",
        "EFFDATE": 1758585600000,
        "REASON": "24",
        "StateCode": "48",
        "CountyCode": "48475",
        "STCYFIPS": "48475",
        "CITYCD": "484754660",
        "RAILROAD": "UP",
        "RRDIV": "Texoma",
        "RRSUBDIV": "Toyah Sub",
        "HIGHWAY": "NA",
        "STREET": "Private",
        "TTSTN": "",
        "MILEPOST": "0613.524",
        "TYPEXING": "Private",
        "POSXING": "At Grade",
        "PRVCAT": "24",
        "INIT": "1",
        "LATITUDE": 31.578035,
        "LONGITUD": -102.961508,
        "LLSOURCE": "1",
        "WHISTBAN": "",
        "RRCONT": "4025443721",
        "POLCONT": "8008488715",
        "INV_LINK": "https://safetydata.fra.dot.gov/OfficeofSafety/PublicSite/Crossing/Crossing.aspx?phasetype=C&rpttype=I&txtcrossingnum=975411Y",
        "ACC_LINK": "https://safetydata.fra.dot.gov/OfficeofSafety/PublicSite/Crossing/Crossing.aspx?phasetype=C&rpttype=A&txtcrossingnum=975411Y",
        "TTSTNNAM": "",
        "XPURPOSE": "1",
        "OPERATINGR": "UP",
        "OPERATIN_1": "Primary",
        "DAYTHRU": 0,
        "NGHTTHRU": 0,
        "MAINTRK": 0,
        "SIDINGTRK": 0,
        "YARDTRK": 0,
        "TRANSITTRK": 0,
        "INDUSTRYTR": 1,
        "OTHRTRK": 0,
        "WDCODE": "",
        "REVISIONDA": "1975/01/01 00:00:00",
        "LASTUPDATE": "9/23/2025",
        "AADT": "",
        "AADTYEAR": "",
        "STATENAME": "TEXAS",
        "STATEAB": "TX",
        "COUNTYNAME": "WARD",
        "CITYNAME": "MONAHANS",
        "LATDD": 31.578035,
        "LONGDD": -102.961508,
        "gridlyProductionCertified": true,
        "gridlyClassification": "PUBLIC_ROADWAY",
        "gridlyDisplayName": "Private",
        "gridlyId": "FRA-975411Y"
      }
    },
    {
      "type": "Feature",
      "id": 213173,
      "geometry": {
        "type": "Point",
        "coordinates": [
          -102.962971000156,
          31.5821660002407
        ]
      },
      "properties": {
        "OBJECTID": 213173,
        "CROSSING": "975412F",
        "EFFDATE": 1758585600000,
        "REASON": "24",
        "StateCode": "48",
        "CountyCode": "48475",
        "STCYFIPS": "48475",
        "CITYCD": "484754660",
        "RAILROAD": "UP",
        "RRDIV": "Texoma",
        "RRSUBDIV": "Toyah Sub",
        "HIGHWAY": "NA",
        "STREET": "All Private In Industry",
        "TTSTN": "",
        "MILEPOST": "0613.260",
        "TYPEXING": "Private",
        "POSXING": "At Grade",
        "PRVCAT": "24",
        "INIT": "1",
        "LATITUDE": 31.582166,
        "LONGITUD": -102.962971,
        "LLSOURCE": "1",
        "WHISTBAN": "",
        "RRCONT": "4025443721",
        "POLCONT": "5555555555",
        "INV_LINK": "https://safetydata.fra.dot.gov/OfficeofSafety/PublicSite/Crossing/Crossing.aspx?phasetype=C&rpttype=I&txtcrossingnum=975412F",
        "ACC_LINK": "https://safetydata.fra.dot.gov/OfficeofSafety/PublicSite/Crossing/Crossing.aspx?phasetype=C&rpttype=A&txtcrossingnum=975412F",
        "TTSTNNAM": "",
        "XPURPOSE": "1",
        "OPERATINGR": "UP",
        "OPERATIN_1": "Primary",
        "DAYTHRU": 0,
        "NGHTTHRU": 0,
        "MAINTRK": 0,
        "SIDINGTRK": 0,
        "YARDTRK": 0,
        "TRANSITTRK": 0,
        "INDUSTRYTR": 1,
        "OTHRTRK": 0,
        "WDCODE": "",
        "REVISIONDA": "1975/01/01 00:00:00",
        "LASTUPDATE": "9/23/2025",
        "AADT": "",
        "AADTYEAR": "",
        "STATENAME": "TEXAS",
        "STATEAB": "TX",
        "COUNTYNAME": "WARD",
        "CITYNAME": "MONAHANS",
        "LATDD": 31.582166,
        "LONGDD": -102.962971,
        "gridlyProductionCertified": true,
        "gridlyClassification": "PUBLIC_ROADWAY",
        "gridlyDisplayName": "All Private In Industry",
        "gridlyId": "FRA-975412F"
      }
    },
    {
      "type": "Feature",
      "id": 214022,
      "geometry": {
        "type": "Point",
        "coordinates": [
          -103.445836699747,
          31.4431752997217
        ]
      },
      "properties": {
        "OBJECTID": 214022,
        "CROSSING": "796256C",
        "EFFDATE": 1767830400000,
        "REASON": "14",
        "StateCode": "48",
        "CountyCode": "48389",
        "STCYFIPS": "48389",
        "CITYCD": "483895280",
        "RAILROAD": "UP",
        "RRDIV": "TEXOMA",
        "RRSUBDIV": "TOYAH SUB",
        "HIGHWAY": "Cr0170",
        "STREET": "County Road 170",
        "TTSTN": "695430",
        "MILEPOST": "0643.670",
        "TYPEXING": "Public",
        "POSXING": "At Grade",
        "PRVCAT": "14",
        "INIT": "2",
        "LATITUDE": 31.4431753,
        "LONGITUD": -103.4458367,
        "LLSOURCE": "1",
        "WHISTBAN": "0",
        "RRCONT": "4025443721",
        "POLCONT": "8008488715",
        "INV_LINK": "https://safetydata.fra.dot.gov/OfficeofSafety/PublicSite/Crossing/Crossing.aspx?phasetype=C&rpttype=I&txtcrossingnum=796256C",
        "ACC_LINK": "https://safetydata.fra.dot.gov/OfficeofSafety/PublicSite/Crossing/Crossing.aspx?phasetype=C&rpttype=A&txtcrossingnum=796256C",
        "TTSTNNAM": "",
        "XPURPOSE": "1",
        "OPERATINGR": "UP",
        "OPERATIN_1": "Primary",
        "DAYTHRU": 9,
        "NGHTTHRU": 9,
        "MAINTRK": 1,
        "SIDINGTRK": 0,
        "YARDTRK": 0,
        "TRANSITTRK": 0,
        "INDUSTRYTR": 0,
        "OTHRTRK": 0,
        "WDCODE": "All other Gates",
        "REVISIONDA": "1975/01/01 00:00:00",
        "LASTUPDATE": "1/8/2026",
        "AADT": "973",
        "AADTYEAR": "2022",
        "STATENAME": "TEXAS",
        "STATEAB": "TX",
        "COUNTYNAME": "REEVES",
        "CITYNAME": "PECOS",
        "LATDD": 31.4431753,
        "LONGDD": -103.4458367,
        "gridlyProductionCertified": true,
        "gridlyClassification": "PUBLIC_ROADWAY",
        "gridlyDisplayName": "County Road 170",
        "gridlyId": "FRA-796256C"
      }
    },
    {
      "type": "Feature",
      "id": 214089,
      "geometry": {
        "type": "Point",
        "coordinates": [
          -103.370775299983,
          31.4640045001226
        ]
      },
      "properties": {
        "OBJECTID": 214089,
        "CROSSING": "796261Y",
        "EFFDATE": 1767830400000,
        "REASON": "14",
        "StateCode": "48",
        "CountyCode": "48475",
        "STCYFIPS": "48475",
        "CITYCD": "484750440",
        "RAILROAD": "UP",
        "RRDIV": "TEXOMA",
        "RRSUBDIV": "TOYAH SUB",
        "HIGHWAY": "Cr0135",
        "STREET": "County Road 135",
        "TTSTN": "695430",
        "MILEPOST": "0638.870",
        "TYPEXING": "Public",
        "POSXING": "At Grade",
        "PRVCAT": "14",
        "INIT": "2",
        "LATITUDE": 31.4640045,
        "LONGITUD": -103.3707753,
        "LLSOURCE": "1",
        "WHISTBAN": "0",
        "RRCONT": "4025443721",
        "POLCONT": "8008488715",
        "INV_LINK": "https://safetydata.fra.dot.gov/OfficeofSafety/PublicSite/Crossing/Crossing.aspx?phasetype=C&rpttype=I&txtcrossingnum=796261Y",
        "ACC_LINK": "https://safetydata.fra.dot.gov/OfficeofSafety/PublicSite/Crossing/Crossing.aspx?phasetype=C&rpttype=A&txtcrossingnum=796261Y",
        "TTSTNNAM": "",
        "XPURPOSE": "1",
        "OPERATINGR": "UP",
        "OPERATIN_1": "Primary",
        "DAYTHRU": 9,
        "NGHTTHRU": 9,
        "MAINTRK": 1,
        "SIDINGTRK": 0,
        "YARDTRK": 0,
        "TRANSITTRK": 0,
        "INDUSTRYTR": 0,
        "OTHRTRK": 0,
        "WDCODE": "All other Gates",
        "REVISIONDA": "1975/01/01 00:00:00",
        "LASTUPDATE": "1/8/2026",
        "AADT": "1451",
        "AADTYEAR": "2022",
        "STATENAME": "TEXAS",
        "STATEAB": "TX",
        "COUNTYNAME": "WARD",
        "CITYNAME": "BARSTOW",
        "LATDD": 31.4640045,
        "LONGDD": -103.3707753,
        "gridlyProductionCertified": true,
        "gridlyClassification": "PUBLIC_ROADWAY",
        "gridlyDisplayName": "County Road 135",
        "gridlyId": "FRA-796261Y"
      }
    },
    {
      "type": "Feature",
      "id": 214090,
      "geometry": {
        "type": "Point",
        "coordinates": [
          -103.40153200014,
          31.4554476997106
        ]
      },
      "properties": {
        "OBJECTID": 214090,
        "CROSSING": "796257J",
        "EFFDATE": 1767830400000,
        "REASON": "14",
        "StateCode": "48",
        "CountyCode": "48475",
        "STCYFIPS": "48475",
        "CITYCD": "484750440",
        "RAILROAD": "UP",
        "RRDIV": "TEXOMA",
        "RRSUBDIV": "TOYAH SUB",
        "HIGHWAY": "cr0463",
        "STREET": "County Road 463",
        "TTSTN": "695430",
        "MILEPOST": "0640.840",
        "TYPEXING": "Public",
        "POSXING": "At Grade",
        "PRVCAT": "14",
        "INIT": "2",
        "LATITUDE": 31.4554477,
        "LONGITUD": -103.401532,
        "LLSOURCE": "1",
        "WHISTBAN": "0",
        "RRCONT": "4025443721",
        "POLCONT": "8008488715",
        "INV_LINK": "https://safetydata.fra.dot.gov/OfficeofSafety/PublicSite/Crossing/Crossing.aspx?phasetype=C&rpttype=I&txtcrossingnum=796257J",
        "ACC_LINK": "https://safetydata.fra.dot.gov/OfficeofSafety/PublicSite/Crossing/Crossing.aspx?phasetype=C&rpttype=A&txtcrossingnum=796257J",
        "TTSTNNAM": "",
        "XPURPOSE": "1",
        "OPERATINGR": "UP",
        "OPERATIN_1": "Primary",
        "DAYTHRU": 9,
        "NGHTTHRU": 9,
        "MAINTRK": 1,
        "SIDINGTRK": 0,
        "YARDTRK": 0,
        "TRANSITTRK": 0,
        "INDUSTRYTR": 0,
        "OTHRTRK": 0,
        "WDCODE": "All other Gates",
        "REVISIONDA": "1975/01/01 00:00:00",
        "LASTUPDATE": "1/8/2026",
        "AADT": "1400",
        "AADTYEAR": "2022",
        "STATENAME": "TEXAS",
        "STATEAB": "TX",
        "COUNTYNAME": "WARD",
        "CITYNAME": "BARSTOW",
        "LATDD": 31.4554477,
        "LONGDD": -103.401532,
        "gridlyProductionCertified": true,
        "gridlyClassification": "PUBLIC_ROADWAY",
        "gridlyDisplayName": "County Road 463",
        "gridlyId": "FRA-796257J"
      }
    },
    {
      "type": "Feature",
      "id": 214091,
      "geometry": {
        "type": "Point",
        "coordinates": [
          -103.392846300151,
          31.4578733996183
        ]
      },
      "properties": {
        "OBJECTID": 214091,
        "CROSSING": "796258R",
        "EFFDATE": 1767830400000,
        "REASON": "14",
        "StateCode": "48",
        "CountyCode": "48475",
        "STCYFIPS": "48475",
        "CITYCD": "484750440",
        "RAILROAD": "UP",
        "RRDIV": "TEXOMA",
        "RRSUBDIV": "TOYAH SUB",
        "HIGHWAY": "FM0516",
        "STREET": "FM0516",
        "TTSTN": "695430",
        "MILEPOST": "0640.270",
        "TYPEXING": "Public",
        "POSXING": "At Grade",
        "PRVCAT": "14",
        "INIT": "2",
        "LATITUDE": 31.4578734,
        "LONGITUD": -103.3928463,
        "LLSOURCE": "1",
        "WHISTBAN": "0",
        "RRCONT": "4025443721",
        "POLCONT": "8008488715",
        "INV_LINK": "https://safetydata.fra.dot.gov/OfficeofSafety/PublicSite/Crossing/Crossing.aspx?phasetype=C&rpttype=I&txtcrossingnum=796258R",
        "ACC_LINK": "https://safetydata.fra.dot.gov/OfficeofSafety/PublicSite/Crossing/Crossing.aspx?phasetype=C&rpttype=A&txtcrossingnum=796258R",
        "TTSTNNAM": "",
        "XPURPOSE": "1",
        "OPERATINGR": "UP",
        "OPERATIN_1": "Primary",
        "DAYTHRU": 9,
        "NGHTTHRU": 9,
        "MAINTRK": 1,
        "SIDINGTRK": 0,
        "YARDTRK": 0,
        "TRANSITTRK": 0,
        "INDUSTRYTR": 0,
        "OTHRTRK": 0,
        "WDCODE": "All other Gates",
        "REVISIONDA": "1975/01/01 00:00:00",
        "LASTUPDATE": "1/8/2026",
        "AADT": "1902",
        "AADTYEAR": "2023",
        "STATENAME": "TEXAS",
        "STATEAB": "TX",
        "COUNTYNAME": "WARD",
        "CITYNAME": "BARSTOW",
        "LATDD": 31.4578734,
        "LONGDD": -103.3928463,
        "gridlyProductionCertified": true,
        "gridlyClassification": "PUBLIC_ROADWAY",
        "gridlyDisplayName": "FM0516",
        "gridlyId": "FRA-796258R"
      }
    },
    {
      "type": "Feature",
      "id": 214092,
      "geometry": {
        "type": "Point",
        "coordinates": [
          -103.382846699972,
          31.4606418000825
        ]
      },
      "properties": {
        "OBJECTID": 214092,
        "CROSSING": "796260S",
        "EFFDATE": 1767830400000,
        "REASON": "14",
        "StateCode": "48",
        "CountyCode": "48475",
        "STCYFIPS": "48475",
        "CITYCD": "484750440",
        "RAILROAD": "UP",
        "RRDIV": "TEXOMA",
        "RRSUBDIV": "TOYAH SUB",
        "HIGHWAY": "Cr0137",
        "STREET": "County Road 137",
        "TTSTN": "695430",
        "MILEPOST": "0639.640",
        "TYPEXING": "Public",
        "POSXING": "At Grade",
        "PRVCAT": "14",
        "INIT": "2",
        "LATITUDE": 31.4606418,
        "LONGITUD": -103.3828467,
        "LLSOURCE": "1",
        "WHISTBAN": "0",
        "RRCONT": "4025443721",
        "POLCONT": "8008488715",
        "INV_LINK": "https://safetydata.fra.dot.gov/OfficeofSafety/PublicSite/Crossing/Crossing.aspx?phasetype=C&rpttype=I&txtcrossingnum=796260S",
        "ACC_LINK": "https://safetydata.fra.dot.gov/OfficeofSafety/PublicSite/Crossing/Crossing.aspx?phasetype=C&rpttype=A&txtcrossingnum=796260S",
        "TTSTNNAM": "",
        "XPURPOSE": "1",
        "OPERATINGR": "UP",
        "OPERATIN_1": "Primary",
        "DAYTHRU": 9,
        "NGHTTHRU": 9,
        "MAINTRK": 1,
        "SIDINGTRK": 0,
        "YARDTRK": 0,
        "TRANSITTRK": 0,
        "INDUSTRYTR": 0,
        "OTHRTRK": 0,
        "WDCODE": "All other Gates",
        "REVISIONDA": "1975/01/01 00:00:00",
        "LASTUPDATE": "1/8/2026",
        "AADT": "973",
        "AADTYEAR": "2022",
        "STATENAME": "TEXAS",
        "STATEAB": "TX",
        "COUNTYNAME": "WARD",
        "CITYNAME": "BARSTOW",
        "LATDD": 31.4606418,
        "LONGDD": -103.3828467,
        "gridlyProductionCertified": true,
        "gridlyClassification": "PUBLIC_ROADWAY",
        "gridlyDisplayName": "County Road 137",
        "gridlyId": "FRA-796260S"
      }
    },
    {
      "type": "Feature",
      "id": 214093,
      "geometry": {
        "type": "Point",
        "coordinates": [
          -102.886879499561,
          31.5967357002242
        ]
      },
      "properties": {
        "OBJECTID": 214093,
        "CROSSING": "796275G",
        "EFFDATE": 1767830400000,
        "REASON": "14",
        "StateCode": "48",
        "CountyCode": "48475",
        "STCYFIPS": "48475",
        "CITYCD": "484754660",
        "RAILROAD": "UP",
        "RRDIV": "TEXOMA",
        "RRSUBDIV": "TOYAH SUB",
        "HIGHWAY": "lS0000",
        "STREET": "NORTH FRANKLIN AVENUE",
        "TTSTN": "694910",
        "MILEPOST": "0609.012",
        "TYPEXING": "Public",
        "POSXING": "At Grade",
        "PRVCAT": "14",
        "INIT": "2",
        "LATITUDE": 31.5967357,
        "LONGITUD": -102.8868795,
        "LLSOURCE": "1",
        "WHISTBAN": "0",
        "RRCONT": "4025443721",
        "POLCONT": "8008488715",
        "INV_LINK": "https://safetydata.fra.dot.gov/OfficeofSafety/PublicSite/Crossing/Crossing.aspx?phasetype=C&rpttype=I&txtcrossingnum=796275G",
        "ACC_LINK": "https://safetydata.fra.dot.gov/OfficeofSafety/PublicSite/Crossing/Crossing.aspx?phasetype=C&rpttype=A&txtcrossingnum=796275G",
        "TTSTNNAM": "",
        "XPURPOSE": "1",
        "OPERATINGR": "UP",
        "OPERATIN_1": "Primary",
        "DAYTHRU": 9,
        "NGHTTHRU": 9,
        "MAINTRK": 1,
        "SIDINGTRK": 1,
        "YARDTRK": 1,
        "TRANSITTRK": 0,
        "INDUSTRYTR": 0,
        "OTHRTRK": 1,
        "WDCODE": "All other Gates",
        "REVISIONDA": "1975/01/01 00:00:00",
        "LASTUPDATE": "1/8/2026",
        "AADT": "1013",
        "AADTYEAR": "2022",
        "STATENAME": "TEXAS",
        "STATEAB": "TX",
        "COUNTYNAME": "WARD",
        "CITYNAME": "MONAHANS",
        "LATDD": 31.5967357,
        "LONGDD": -102.8868795,
        "gridlyProductionCertified": true,
        "gridlyClassification": "PUBLIC_ROADWAY",
        "gridlyDisplayName": "NORTH FRANKLIN AVENUE",
        "gridlyId": "FRA-796275G"
      }
    },
    {
      "type": "Feature",
      "id": 214094,
      "geometry": {
        "type": "Point",
        "coordinates": [
          -102.893232500234,
          31.5950037000868
        ]
      },
      "properties": {
        "OBJECTID": 214094,
        "CROSSING": "796274A",
        "EFFDATE": 1767830400000,
        "REASON": "14",
        "StateCode": "48",
        "CountyCode": "48475",
        "STCYFIPS": "48475",
        "CITYCD": "484754660",
        "RAILROAD": "UP",
        "RRDIV": "TEXOMA",
        "RRSUBDIV": "TOYAH SUB",
        "HIGHWAY": "SH0018",
        "STREET": "SH0018 / NORTH MAIN STREET",
        "TTSTN": "694910",
        "MILEPOST": "0609.390",
        "TYPEXING": "Public",
        "POSXING": "At Grade",
        "PRVCAT": "14",
        "INIT": "2",
        "LATITUDE": 31.5950037,
        "LONGITUD": -102.8932325,
        "LLSOURCE": "1",
        "WHISTBAN": "0",
        "RRCONT": "4025443721",
        "POLCONT": "8008488715",
        "INV_LINK": "https://safetydata.fra.dot.gov/OfficeofSafety/PublicSite/Crossing/Crossing.aspx?phasetype=C&rpttype=I&txtcrossingnum=796274A",
        "ACC_LINK": "https://safetydata.fra.dot.gov/OfficeofSafety/PublicSite/Crossing/Crossing.aspx?phasetype=C&rpttype=A&txtcrossingnum=796274A",
        "TTSTNNAM": "",
        "XPURPOSE": "1",
        "OPERATINGR": "UP",
        "OPERATIN_1": "Primary",
        "DAYTHRU": 9,
        "NGHTTHRU": 9,
        "MAINTRK": 1,
        "SIDINGTRK": 0,
        "YARDTRK": 1,
        "TRANSITTRK": 0,
        "INDUSTRYTR": 0,
        "OTHRTRK": 0,
        "WDCODE": "All other Gates",
        "REVISIONDA": "1975/01/01 00:00:00",
        "LASTUPDATE": "1/8/2026",
        "AADT": "4561",
        "AADTYEAR": "2023",
        "STATENAME": "TEXAS",
        "STATEAB": "TX",
        "COUNTYNAME": "WARD",
        "CITYNAME": "MONAHANS",
        "LATDD": 31.5950037,
        "LONGDD": -102.8932325,
        "gridlyProductionCertified": true,
        "gridlyClassification": "PUBLIC_ROADWAY",
        "gridlyDisplayName": "SH0018 / NORTH MAIN STREET",
        "gridlyId": "FRA-796274A"
      }
    },
    {
      "type": "Feature",
      "id": 214095,
      "geometry": {
        "type": "Point",
        "coordinates": [
          -102.898659999908,
          31.5935551996981
        ]
      },
      "properties": {
        "OBJECTID": 214095,
        "CROSSING": "796273T",
        "EFFDATE": 1767830400000,
        "REASON": "14",
        "StateCode": "48",
        "CountyCode": "48475",
        "STCYFIPS": "48475",
        "CITYCD": "484754660",
        "RAILROAD": "UP",
        "RRDIV": "TEXOMA",
        "RRSUBDIV": "TOYAH SUB",
        "HIGHWAY": "lS0000",
        "STREET": "south EVA AVENUE",
        "TTSTN": "694910",
        "MILEPOST": "0609.715",
        "TYPEXING": "Public",
        "POSXING": "At Grade",
        "PRVCAT": "14",
        "INIT": "2",
        "LATITUDE": 31.5935552,
        "LONGITUD": -102.89866,
        "LLSOURCE": "1",
        "WHISTBAN": "0",
        "RRCONT": "4025443721",
        "POLCONT": "8008488715",
        "INV_LINK": "https://safetydata.fra.dot.gov/OfficeofSafety/PublicSite/Crossing/Crossing.aspx?phasetype=C&rpttype=I&txtcrossingnum=796273T",
        "ACC_LINK": "https://safetydata.fra.dot.gov/OfficeofSafety/PublicSite/Crossing/Crossing.aspx?phasetype=C&rpttype=A&txtcrossingnum=796273T",
        "TTSTNNAM": "",
        "XPURPOSE": "1",
        "OPERATINGR": "UP",
        "OPERATIN_1": "Primary",
        "DAYTHRU": 9,
        "NGHTTHRU": 9,
        "MAINTRK": 1,
        "SIDINGTRK": 0,
        "YARDTRK": 1,
        "TRANSITTRK": 0,
        "INDUSTRYTR": 0,
        "OTHRTRK": 2,
        "WDCODE": "All other Gates",
        "REVISIONDA": "1975/01/01 00:00:00",
        "LASTUPDATE": "1/8/2026",
        "AADT": "2623",
        "AADTYEAR": "2022",
        "STATENAME": "TEXAS",
        "STATEAB": "TX",
        "COUNTYNAME": "WARD",
        "CITYNAME": "MONAHANS",
        "LATDD": 31.5935552,
        "LONGDD": -102.89866,
        "gridlyProductionCertified": true,
        "gridlyClassification": "PUBLIC_ROADWAY",
        "gridlyDisplayName": "south EVA AVENUE",
        "gridlyId": "FRA-796273T"
      }
    },
    {
      "type": "Feature",
      "id": 214096,
      "geometry": {
        "type": "Point",
        "coordinates": [
          -102.917328799821,
          31.5884507999913
        ]
      },
      "properties": {
        "OBJECTID": 214096,
        "CROSSING": "796272L",
        "EFFDATE": 1767830400000,
        "REASON": "14",
        "StateCode": "48",
        "CountyCode": "48475",
        "STCYFIPS": "48475",
        "CITYCD": "484754660",
        "RAILROAD": "UP",
        "RRDIV": "TEXOMA",
        "RRSUBDIV": "Toyah SUB",
        "HIGHWAY": "SL0464",
        "STREET": "sl0464",
        "TTSTN": "694910",
        "MILEPOST": "0610.870",
        "TYPEXING": "Public",
        "POSXING": "At Grade",
        "PRVCAT": "14",
        "INIT": "2",
        "LATITUDE": 31.5884508,
        "LONGITUD": -102.9173288,
        "LLSOURCE": "1",
        "WHISTBAN": "0",
        "RRCONT": "4025443721",
        "POLCONT": "8008488715",
        "INV_LINK": "https://safetydata.fra.dot.gov/OfficeofSafety/PublicSite/Crossing/Crossing.aspx?phasetype=C&rpttype=I&txtcrossingnum=796272L",
        "ACC_LINK": "https://safetydata.fra.dot.gov/OfficeofSafety/PublicSite/Crossing/Crossing.aspx?phasetype=C&rpttype=A&txtcrossingnum=796272L",
        "TTSTNNAM": "",
        "XPURPOSE": "1",
        "OPERATINGR": "UP",
        "OPERATIN_1": "Primary",
        "DAYTHRU": 9,
        "NGHTTHRU": 9,
        "MAINTRK": 1,
        "SIDINGTRK": 0,
        "YARDTRK": 1,
        "TRANSITTRK": 0,
        "INDUSTRYTR": 0,
        "OTHRTRK": 1,
        "WDCODE": "All other Gates",
        "REVISIONDA": "1975/01/01 00:00:00",
        "LASTUPDATE": "1/8/2026",
        "AADT": "6014",
        "AADTYEAR": "2023",
        "STATENAME": "TEXAS",
        "STATEAB": "TX",
        "COUNTYNAME": "WARD",
        "CITYNAME": "MONAHANS",
        "LATDD": 31.5884508,
        "LONGDD": -102.9173288,
        "gridlyProductionCertified": true,
        "gridlyClassification": "PUBLIC_ROADWAY",
        "gridlyDisplayName": "sl0464",
        "gridlyId": "FRA-796272L"
      }
    },
    {
      "type": "Feature",
      "id": 214097,
      "geometry": {
        "type": "Point",
        "coordinates": [
          -102.927816600221,
          31.6004531000324
        ]
      },
      "properties": {
        "OBJECTID": 214097,
        "CROSSING": "864585N",
        "EFFDATE": 1767830400000,
        "REASON": "14",
        "StateCode": "48",
        "CountyCode": "48475",
        "STCYFIPS": "48475",
        "CITYCD": "484754660",
        "RAILROAD": "TXN",
        "RRDIV": "south plains",
        "RRSUBDIV": "LOVINGTON",
        "HIGHWAY": "SL0464",
        "STREET": "SL0464",
        "TTSTN": "694910",
        "MILEPOST": "0001.28",
        "TYPEXING": "Public",
        "POSXING": "At Grade",
        "PRVCAT": "14",
        "INIT": "2",
        "LATITUDE": 31.6004531,
        "LONGITUD": -102.9278166,
        "LLSOURCE": "1",
        "WHISTBAN": "0",
        "RRCONT": "5753942117",
        "POLCONT": "8663869321",
        "INV_LINK": "https://safetydata.fra.dot.gov/OfficeofSafety/PublicSite/Crossing/Crossing.aspx?phasetype=C&rpttype=I&txtcrossingnum=864585N",
        "ACC_LINK": "https://safetydata.fra.dot.gov/OfficeofSafety/PublicSite/Crossing/Crossing.aspx?phasetype=C&rpttype=A&txtcrossingnum=864585N",
        "TTSTNNAM": "MONAHANS",
        "XPURPOSE": "1",
        "OPERATINGR": "TXN",
        "OPERATIN_1": "Primary",
        "DAYTHRU": 2,
        "NGHTTHRU": 1,
        "MAINTRK": 1,
        "SIDINGTRK": 0,
        "YARDTRK": 0,
        "TRANSITTRK": 0,
        "INDUSTRYTR": 0,
        "OTHRTRK": 0,
        "WDCODE": "All other Gates",
        "REVISIONDA": "2015/07/08 00:00:00",
        "LASTUPDATE": "1/8/2026",
        "AADT": "4563",
        "AADTYEAR": "2023",
        "STATENAME": "TEXAS",
        "STATEAB": "TX",
        "COUNTYNAME": "WARD",
        "CITYNAME": "MONAHANS",
        "LATDD": 31.6004531,
        "LONGDD": -102.9278166,
        "gridlyProductionCertified": true,
        "gridlyClassification": "PUBLIC_ROADWAY",
        "gridlyDisplayName": "SL0464",
        "gridlyId": "FRA-864585N"
      }
    },
    {
      "type": "Feature",
      "id": 214098,
      "geometry": {
        "type": "Point",
        "coordinates": [
          -102.81170069987,
          31.6171405998452
        ]
      },
      "properties": {
        "OBJECTID": 214098,
        "CROSSING": "796277V",
        "EFFDATE": 1767830400000,
        "REASON": "14",
        "StateCode": "48",
        "CountyCode": "48475",
        "STCYFIPS": "48475",
        "CITYCD": "484754660",
        "RAILROAD": "UP",
        "RRDIV": "TEXOMA",
        "RRSUBDIV": "TOYAH SUB",
        "HIGHWAY": "pr0041",
        "STREET": "PARK ROAD 41",
        "TTSTN": "694910",
        "MILEPOST": "0604.390",
        "TYPEXING": "Public",
        "POSXING": "At Grade",
        "PRVCAT": "14",
        "INIT": "2",
        "LATITUDE": 31.6171406,
        "LONGITUD": -102.8117007,
        "LLSOURCE": "1",
        "WHISTBAN": "0",
        "RRCONT": "4025443721",
        "POLCONT": "8008488715",
        "INV_LINK": "https://safetydata.fra.dot.gov/OfficeofSafety/PublicSite/Crossing/Crossing.aspx?phasetype=C&rpttype=I&txtcrossingnum=796277V",
        "ACC_LINK": "https://safetydata.fra.dot.gov/OfficeofSafety/PublicSite/Crossing/Crossing.aspx?phasetype=C&rpttype=A&txtcrossingnum=796277V",
        "TTSTNNAM": "",
        "XPURPOSE": "1",
        "OPERATINGR": "UP",
        "OPERATIN_1": "Primary",
        "DAYTHRU": 9,
        "NGHTTHRU": 9,
        "MAINTRK": 1,
        "SIDINGTRK": 0,
        "YARDTRK": 0,
        "TRANSITTRK": 0,
        "INDUSTRYTR": 0,
        "OTHRTRK": 0,
        "WDCODE": "All other Gates",
        "REVISIONDA": "1975/01/01 00:00:00",
        "LASTUPDATE": "1/8/2026",
        "AADT": "84",
        "AADTYEAR": "2023",
        "STATENAME": "TEXAS",
        "STATEAB": "TX",
        "COUNTYNAME": "WARD",
        "CITYNAME": "MONAHANS",
        "LATDD": 31.6171406,
        "LONGDD": -102.8117007,
        "gridlyProductionCertified": true,
        "gridlyClassification": "PUBLIC_ROADWAY",
        "gridlyDisplayName": "PARK ROAD 41",
        "gridlyId": "FRA-796277V"
      }
    },
    {
      "type": "Feature",
      "id": 214099,
      "geometry": {
        "type": "Point",
        "coordinates": [
          -103.001346100236,
          31.6494237003619
        ]
      },
      "properties": {
        "OBJECTID": 214099,
        "CROSSING": "864588J",
        "EFFDATE": 1767830400000,
        "REASON": "14",
        "StateCode": "48",
        "CountyCode": "48475",
        "STCYFIPS": "48475",
        "CITYCD": "484754660",
        "RAILROAD": "TXN",
        "RRDIV": "south plains",
        "RRSUBDIV": "LOVINGTON",
        "HIGHWAY": "FM1219",
        "STREET": "fm1219",
        "TTSTN": "694910",
        "MILEPOST": "0006.78",
        "TYPEXING": "Public",
        "POSXING": "At Grade",
        "PRVCAT": "14",
        "INIT": "2",
        "LATITUDE": 31.6494237,
        "LONGITUD": -103.0013461,
        "LLSOURCE": "1",
        "WHISTBAN": "0",
        "RRCONT": "5753942117",
        "POLCONT": "8663869321",
        "INV_LINK": "https://safetydata.fra.dot.gov/OfficeofSafety/PublicSite/Crossing/Crossing.aspx?phasetype=C&rpttype=I&txtcrossingnum=864588J",
        "ACC_LINK": "https://safetydata.fra.dot.gov/OfficeofSafety/PublicSite/Crossing/Crossing.aspx?phasetype=C&rpttype=A&txtcrossingnum=864588J",
        "TTSTNNAM": "MONAHANS",
        "XPURPOSE": "1",
        "OPERATINGR": "TXN",
        "OPERATIN_1": "Primary",
        "DAYTHRU": 2,
        "NGHTTHRU": 1,
        "MAINTRK": 1,
        "SIDINGTRK": 1,
        "YARDTRK": 1,
        "TRANSITTRK": 0,
        "INDUSTRYTR": 0,
        "OTHRTRK": 0,
        "WDCODE": "All other Gates",
        "REVISIONDA": "2015/07/08 00:00:00",
        "LASTUPDATE": "1/8/2026",
        "AADT": "1247",
        "AADTYEAR": "2023",
        "STATENAME": "TEXAS",
        "STATEAB": "TX",
        "COUNTYNAME": "WARD",
        "CITYNAME": "MONAHANS",
        "LATDD": 31.6494237,
        "LONGDD": -103.0013461,
        "gridlyProductionCertified": true,
        "gridlyClassification": "PUBLIC_ROADWAY",
        "gridlyDisplayName": "fm1219",
        "gridlyId": "FRA-864588J"
      }
    },
    {
      "type": "Feature",
      "id": 214100,
      "geometry": {
        "type": "Point",
        "coordinates": [
          -103.125126599965,
          31.5316592002951
        ]
      },
      "properties": {
        "OBJECTID": 214100,
        "CROSSING": "796264U",
        "EFFDATE": 1767830400000,
        "REASON": "14",
        "StateCode": "48",
        "CountyCode": "48475",
        "STCYFIPS": "48475",
        "CITYCD": "484755565",
        "RAILROAD": "UP",
        "RRDIV": "TEXOMA",
        "RRSUBDIV": "TOYAH SUB",
        "HIGHWAY": "SS0247",
        "STREET": "SS0247 / PYOTE STREET",
        "TTSTN": "694927",
        "MILEPOST": "0623.760",
        "TYPEXING": "Public",
        "POSXING": "At Grade",
        "PRVCAT": "14",
        "INIT": "2",
        "LATITUDE": 31.5316592,
        "LONGITUD": -103.1251266,
        "LLSOURCE": "1",
        "WHISTBAN": "0",
        "RRCONT": "4025443721",
        "POLCONT": "8008488715",
        "INV_LINK": "https://safetydata.fra.dot.gov/OfficeofSafety/PublicSite/Crossing/Crossing.aspx?phasetype=C&rpttype=I&txtcrossingnum=796264U",
        "ACC_LINK": "https://safetydata.fra.dot.gov/OfficeofSafety/PublicSite/Crossing/Crossing.aspx?phasetype=C&rpttype=A&txtcrossingnum=796264U",
        "TTSTNNAM": "",
        "XPURPOSE": "1",
        "OPERATINGR": "UP",
        "OPERATIN_1": "Primary",
        "DAYTHRU": 9,
        "NGHTTHRU": 9,
        "MAINTRK": 1,
        "SIDINGTRK": 0,
        "YARDTRK": 0,
        "TRANSITTRK": 0,
        "INDUSTRYTR": 0,
        "OTHRTRK": 1,
        "WDCODE": "All other Gates",
        "REVISIONDA": "1975/01/01 00:00:00",
        "LASTUPDATE": "1/8/2026",
        "AADT": "164",
        "AADTYEAR": "2024",
        "STATENAME": "TEXAS",
        "STATEAB": "TX",
        "COUNTYNAME": "WARD",
        "CITYNAME": "PYOTE",
        "LATDD": 31.5316592,
        "LONGDD": -103.1251266,
        "gridlyProductionCertified": true,
        "gridlyClassification": "PUBLIC_ROADWAY",
        "gridlyDisplayName": "SS0247 / PYOTE STREET",
        "gridlyId": "FRA-796264U"
      }
    },
    {
      "type": "Feature",
      "id": 214101,
      "geometry": {
        "type": "Point",
        "coordinates": [
          -103.120461000111,
          31.5329330001942
        ]
      },
      "properties": {
        "OBJECTID": 214101,
        "CROSSING": "796265B",
        "EFFDATE": 1767830400000,
        "REASON": "14",
        "StateCode": "48",
        "CountyCode": "48475",
        "STCYFIPS": "48475",
        "CITYCD": "484755565",
        "RAILROAD": "UP",
        "RRDIV": "TEXOMA",
        "RRSUBDIV": "TOYAH SUB",
        "HIGHWAY": "SH0115",
        "STREET": "sh0115",
        "TTSTN": "694927",
        "MILEPOST": "0623.470",
        "TYPEXING": "Public",
        "POSXING": "At Grade",
        "PRVCAT": "14",
        "INIT": "2",
        "LATITUDE": 31.532933,
        "LONGITUD": -103.120461,
        "LLSOURCE": "1",
        "WHISTBAN": "0",
        "RRCONT": "4025443721",
        "POLCONT": "8008488715",
        "INV_LINK": "https://safetydata.fra.dot.gov/OfficeofSafety/PublicSite/Crossing/Crossing.aspx?phasetype=C&rpttype=I&txtcrossingnum=796265B",
        "ACC_LINK": "https://safetydata.fra.dot.gov/OfficeofSafety/PublicSite/Crossing/Crossing.aspx?phasetype=C&rpttype=A&txtcrossingnum=796265B",
        "TTSTNNAM": "",
        "XPURPOSE": "1",
        "OPERATINGR": "UP",
        "OPERATIN_1": "Primary",
        "DAYTHRU": 9,
        "NGHTTHRU": 9,
        "MAINTRK": 1,
        "SIDINGTRK": 0,
        "YARDTRK": 0,
        "TRANSITTRK": 0,
        "INDUSTRYTR": 0,
        "OTHRTRK": 0,
        "WDCODE": "All other Gates",
        "REVISIONDA": "1975/01/01 00:00:00",
        "LASTUPDATE": "1/8/2026",
        "AADT": "6075",
        "AADTYEAR": "2024",
        "STATENAME": "TEXAS",
        "STATEAB": "TX",
        "COUNTYNAME": "WARD",
        "CITYNAME": "PYOTE",
        "LATDD": 31.532933,
        "LONGDD": -103.120461,
        "gridlyProductionCertified": true,
        "gridlyClassification": "PUBLIC_ROADWAY",
        "gridlyDisplayName": "sh0115",
        "gridlyId": "FRA-796265B"
      }
    },
    {
      "type": "Feature",
      "id": 214102,
      "geometry": {
        "type": "Point",
        "coordinates": [
          -103.096783699926,
          31.5393981003809
        ]
      },
      "properties": {
        "OBJECTID": 214102,
        "CROSSING": "796266H",
        "EFFDATE": 1767830400000,
        "REASON": "14",
        "StateCode": "48",
        "CountyCode": "48475",
        "STCYFIPS": "48475",
        "CITYCD": "484755565",
        "RAILROAD": "UP",
        "RRDIV": "TEXOMA",
        "RRSUBDIV": "TOYAH SUB",
        "HIGHWAY": "ls0000",
        "STREET": "CEMETERY ROAD",
        "TTSTN": "694927",
        "MILEPOST": "0622.020",
        "TYPEXING": "Public",
        "POSXING": "At Grade",
        "PRVCAT": "14",
        "INIT": "2",
        "LATITUDE": 31.5393981,
        "LONGITUD": -103.0967837,
        "LLSOURCE": "1",
        "WHISTBAN": "0",
        "RRCONT": "4025443721",
        "POLCONT": "8008488715",
        "INV_LINK": "https://safetydata.fra.dot.gov/OfficeofSafety/PublicSite/Crossing/Crossing.aspx?phasetype=C&rpttype=I&txtcrossingnum=796266H",
        "ACC_LINK": "https://safetydata.fra.dot.gov/OfficeofSafety/PublicSite/Crossing/Crossing.aspx?phasetype=C&rpttype=A&txtcrossingnum=796266H",
        "TTSTNNAM": "",
        "XPURPOSE": "1",
        "OPERATINGR": "UP",
        "OPERATIN_1": "Primary",
        "DAYTHRU": 9,
        "NGHTTHRU": 9,
        "MAINTRK": 1,
        "SIDINGTRK": 0,
        "YARDTRK": 0,
        "TRANSITTRK": 0,
        "INDUSTRYTR": 0,
        "OTHRTRK": 0,
        "WDCODE": "All other Gates",
        "REVISIONDA": "1975/01/01 00:00:00",
        "LASTUPDATE": "1/8/2026",
        "AADT": "732",
        "AADTYEAR": "2024",
        "STATENAME": "TEXAS",
        "STATEAB": "TX",
        "COUNTYNAME": "WARD",
        "CITYNAME": "PYOTE",
        "LATDD": 31.5393981,
        "LONGDD": -103.0967837,
        "gridlyProductionCertified": true,
        "gridlyClassification": "PUBLIC_ROADWAY",
        "gridlyDisplayName": "CEMETERY ROAD",
        "gridlyId": "FRA-796266H"
      }
    },
    {
      "type": "Feature",
      "id": 214103,
      "geometry": {
        "type": "Point",
        "coordinates": [
          -103.006075800275,
          31.5642059996784
        ]
      },
      "properties": {
        "OBJECTID": 214103,
        "CROSSING": "796269D",
        "EFFDATE": 1767830400000,
        "REASON": "14",
        "StateCode": "48",
        "CountyCode": "48475",
        "STCYFIPS": "48475",
        "CITYCD": "484757492",
        "RAILROAD": "UP",
        "RRDIV": "TEXOMA",
        "RRSUBDIV": "TOYAH SUB",
        "HIGHWAY": "CR0000",
        "STREET": "FRIONA AVENUE",
        "TTSTN": "694923",
        "MILEPOST": "0616.400",
        "TYPEXING": "Public",
        "POSXING": "At Grade",
        "PRVCAT": "14",
        "INIT": "2",
        "LATITUDE": 31.564206,
        "LONGITUD": -103.0060758,
        "LLSOURCE": "1",
        "WHISTBAN": "0",
        "RRCONT": "4025443721",
        "POLCONT": "8008488715",
        "INV_LINK": "https://safetydata.fra.dot.gov/OfficeofSafety/PublicSite/Crossing/Crossing.aspx?phasetype=C&rpttype=I&txtcrossingnum=796269D",
        "ACC_LINK": "https://safetydata.fra.dot.gov/OfficeofSafety/PublicSite/Crossing/Crossing.aspx?phasetype=C&rpttype=A&txtcrossingnum=796269D",
        "TTSTNNAM": "",
        "XPURPOSE": "1",
        "OPERATINGR": "UP",
        "OPERATIN_1": "Primary",
        "DAYTHRU": 9,
        "NGHTTHRU": 9,
        "MAINTRK": 1,
        "SIDINGTRK": 0,
        "YARDTRK": 0,
        "TRANSITTRK": 0,
        "INDUSTRYTR": 0,
        "OTHRTRK": 0,
        "WDCODE": "All other Gates",
        "REVISIONDA": "1975/01/01 00:00:00",
        "LASTUPDATE": "1/8/2026",
        "AADT": "545",
        "AADTYEAR": "2022",
        "STATENAME": "TEXAS",
        "STATEAB": "TX",
        "COUNTYNAME": "WARD",
        "CITYNAME": "WICKETT",
        "LATDD": 31.564206,
        "LONGDD": -103.0060758,
        "gridlyProductionCertified": true,
        "gridlyClassification": "PUBLIC_ROADWAY",
        "gridlyDisplayName": "FRIONA AVENUE",
        "gridlyId": "FRA-796269D"
      }
    },
    {
      "type": "Feature",
      "id": 214104,
      "geometry": {
        "type": "Point",
        "coordinates": [
          -102.999480499715,
          31.5660181002001
        ]
      },
      "properties": {
        "OBJECTID": 214104,
        "CROSSING": "796270X",
        "EFFDATE": 1767830400000,
        "REASON": "14",
        "StateCode": "48",
        "CountyCode": "48475",
        "STCYFIPS": "48475",
        "CITYCD": "484757492",
        "RAILROAD": "UP",
        "RRDIV": "TEXOMA",
        "RRSUBDIV": "TOYAH SUB",
        "HIGHWAY": "FM1219",
        "STREET": "FM1219 / OBRIEN STREET",
        "TTSTN": "694923",
        "MILEPOST": "0615.980",
        "TYPEXING": "Public",
        "POSXING": "At Grade",
        "PRVCAT": "14",
        "INIT": "2",
        "LATITUDE": 31.5660181,
        "LONGITUD": -102.9994805,
        "LLSOURCE": "1",
        "WHISTBAN": "0",
        "RRCONT": "4025443721",
        "POLCONT": "8008488715",
        "INV_LINK": "https://safetydata.fra.dot.gov/OfficeofSafety/PublicSite/Crossing/Crossing.aspx?phasetype=C&rpttype=I&txtcrossingnum=796270X",
        "ACC_LINK": "https://safetydata.fra.dot.gov/OfficeofSafety/PublicSite/Crossing/Crossing.aspx?phasetype=C&rpttype=A&txtcrossingnum=796270X",
        "TTSTNNAM": "",
        "XPURPOSE": "1",
        "OPERATINGR": "UP",
        "OPERATIN_1": "Primary",
        "DAYTHRU": 9,
        "NGHTTHRU": 9,
        "MAINTRK": 1,
        "SIDINGTRK": 0,
        "YARDTRK": 0,
        "TRANSITTRK": 0,
        "INDUSTRYTR": 0,
        "OTHRTRK": 1,
        "WDCODE": "All other Gates",
        "REVISIONDA": "1975/01/01 00:00:00",
        "LASTUPDATE": "1/8/2026",
        "AADT": "2630",
        "AADTYEAR": "2023",
        "STATENAME": "TEXAS",
        "STATEAB": "TX",
        "COUNTYNAME": "WARD",
        "CITYNAME": "WICKETT",
        "LATDD": 31.5660181,
        "LONGDD": -102.9994805,
        "gridlyProductionCertified": true,
        "gridlyClassification": "PUBLIC_ROADWAY",
        "gridlyDisplayName": "FM1219 / OBRIEN STREET",
        "gridlyId": "FRA-796270X"
      }
    }
  ]
}
