{
  "type": "FeatureCollection",
  "features": [
    {
      "type": "Feature",
      "id": 201387,
      "geometry": {
        "type": "Point",
        "coordinates": [
          -95.1667798002552,
          33.1763262002961
        ]
      },
      "properties": {
        "OBJECTID": 201387,
        "CROSSING": "790321K",
        "EFFDATE": 1645747200000,
        "REASON": "21",
        "StateCode": "48",
        "CountyCode": "48159",
        "STCYFIPS": "48159",
        "CITYCD": "481594760",
        "RAILROAD": "NETC",
        "RRDIV": "PINE BLUFF",
        "RRSUBDIV": "COMMERCE",
        "HIGHWAY": "CO 0000",
        "STREET": "",
        "TTSTN": "661940",
        "MILEPOST": "0491.90",
        "TYPEXING": "Public",
        "POSXING": "At Grade",
        "PRVCAT": "21",
        "INIT": "4",
        "LATITUDE": 33.1763262,
        "LONGITUD": -95.1667798,
        "LLSOURCE": "",
        "WHISTBAN": "0",
        "RRCONT": "",
        "POLCONT": "8008488715",
        "INV_LINK": "https://safetydata.fra.dot.gov/OfficeofSafety/PublicSite/Crossing/Crossing.aspx?phasetype=C&rpttype=I&txtcrossingnum=790321K",
        "ACC_LINK": "https://safetydata.fra.dot.gov/OfficeofSafety/PublicSite/Crossing/Crossing.aspx?phasetype=C&rpttype=A&txtcrossingnum=790321K",
        "TTSTNNAM": "MT VERNON",
        "XPURPOSE": "1",
        "OPERATINGR": "NETC",
        "OPERATIN_1": "Primary",
        "DAYTHRU": 4,
        "NGHTTHRU": 2,
        "MAINTRK": 1,
        "SIDINGTRK": 0,
        "YARDTRK": 0,
        "TRANSITTRK": 0,
        "INDUSTRYTR": 0,
        "OTHRTRK": 0,
        "WDCODE": "No signs or signals",
        "REVISIONDA": "2020/07/01 00:00:00",
        "LASTUPDATE": "2/25/2022",
        "AADT": "000010",
        "AADTYEAR": "1988",
        "STATENAME": "TEXAS",
        "STATEAB": "TX",
        "COUNTYNAME": "FRANKLIN",
        "CITYNAME": "MOUNT VERNON",
        "LATDD": 33.1763262,
        "LONGDD": -95.1667798,
        "gridlyProductionCertified": true,
        "gridlyClassification": "PUBLIC_ROADWAY",
        "gridlyDisplayName": "CO 0000",
        "gridlyId": "FRA-790321K"
      }
    },
    {
      "type": "Feature",
      "id": 201561,
      "geometry": {
        "type": "Point",
        "coordinates": [
          -95.2329783998669,
          33.1863543003128
        ]
      },
      "properties": {
        "OBJECTID": 201561,
        "CROSSING": "789404C",
        "EFFDATE": 1648598400000,
        "REASON": "21",
        "StateCode": "48",
        "CountyCode": "48159",
        "STCYFIPS": "48159",
        "CITYCD": "481594760",
        "RAILROAD": "NETC",
        "RRDIV": "PINE BLUFF",
        "RRSUBDIV": "COMMERCE",
        "HIGHWAY": "US 0067",
        "STREET": "SH 0037",
        "TTSTN": "661940",
        "MILEPOST": "0495.90",
        "TYPEXING": "Public",
        "POSXING": "RR Over",
        "PRVCAT": "21",
        "INIT": "1",
        "LATITUDE": 33.1863543,
        "LONGITUD": -95.2329784,
        "LLSOURCE": "",
        "WHISTBAN": "0",
        "RRCONT": "",
        "POLCONT": "8008488715",
        "INV_LINK": "https://safetydata.fra.dot.gov/OfficeofSafety/PublicSite/Crossing/Crossing.aspx?phasetype=C&rpttype=I&txtcrossingnum=789404C",
        "ACC_LINK": "https://safetydata.fra.dot.gov/OfficeofSafety/PublicSite/Crossing/Crossing.aspx?phasetype=C&rpttype=A&txtcrossingnum=789404C",
        "TTSTNNAM": "MT VERNON",
        "XPURPOSE": "1",
        "OPERATINGR": "NETC",
        "OPERATIN_1": "Primary",
        "DAYTHRU": 0,
        "NGHTTHRU": 0,
        "MAINTRK": 0,
        "SIDINGTRK": 0,
        "YARDTRK": 0,
        "TRANSITTRK": 0,
        "INDUSTRYTR": 0,
        "OTHRTRK": 0,
        "WDCODE": "",
        "REVISIONDA": "2020/07/01 00:00:00",
        "LASTUPDATE": "3/30/2022",
        "AADT": "005000",
        "AADTYEAR": "2013",
        "STATENAME": "TEXAS",
        "STATEAB": "TX",
        "COUNTYNAME": "FRANKLIN",
        "CITYNAME": "MOUNT VERNON",
        "LATDD": 33.1863543,
        "LONGDD": -95.2329784,
        "gridlyProductionCertified": true,
        "gridlyClassification": "PUBLIC_ROADWAY",
        "gridlyDisplayName": "SH 0037",
        "gridlyId": "FRA-789404C"
      }
    },
    {
      "type": "Feature",
      "id": 201614,
      "geometry": {
        "type": "Point",
        "coordinates": [
          -95.2504073001086,
          33.1880347000552
        ]
      },
      "properties": {
        "OBJECTID": 201614,
        "CROSSING": "789401G",
        "EFFDATE": 1648598400000,
        "REASON": "21",
        "StateCode": "48",
        "CountyCode": "48159",
        "STCYFIPS": "48159",
        "CITYCD": "481594760",
        "RAILROAD": "NETC",
        "RRDIV": "PINE BLUFF",
        "RRSUBDIV": "COMMERCE",
        "HIGHWAY": "CO 1010",
        "STREET": "CR 1010",
        "TTSTN": "661940",
        "MILEPOST": "0497.00",
        "TYPEXING": "Public",
        "POSXING": "At Grade",
        "PRVCAT": "21",
        "INIT": "1",
        "LATITUDE": 33.1880347,
        "LONGITUD": -95.2504073,
        "LLSOURCE": "",
        "WHISTBAN": "0",
        "RRCONT": "",
        "POLCONT": "8008488715",
        "INV_LINK": "https://safetydata.fra.dot.gov/OfficeofSafety/PublicSite/Crossing/Crossing.aspx?phasetype=C&rpttype=I&txtcrossingnum=789401G",
        "ACC_LINK": "https://safetydata.fra.dot.gov/OfficeofSafety/PublicSite/Crossing/Crossing.aspx?phasetype=C&rpttype=A&txtcrossingnum=789401G",
        "TTSTNNAM": "MT VERNON",
        "XPURPOSE": "1",
        "OPERATINGR": "NETC",
        "OPERATIN_1": "Primary",
        "DAYTHRU": 2,
        "NGHTTHRU": 4,
        "MAINTRK": 1,
        "SIDINGTRK": 0,
        "YARDTRK": 0,
        "TRANSITTRK": 0,
        "INDUSTRYTR": 0,
        "OTHRTRK": 0,
        "WDCODE": "Crossbucks",
        "REVISIONDA": "2020/07/01 00:00:00",
        "LASTUPDATE": "3/30/2022",
        "AADT": "000060",
        "AADTYEAR": "2013",
        "STATENAME": "TEXAS",
        "STATEAB": "TX",
        "COUNTYNAME": "FRANKLIN",
        "CITYNAME": "MOUNT VERNON",
        "LATDD": 33.1880347,
        "LONGDD": -95.2504073,
        "gridlyProductionCertified": true,
        "gridlyClassification": "PUBLIC_ROADWAY",
        "gridlyDisplayName": "CR 1010",
        "gridlyId": "FRA-789401G"
      }
    },
    {
      "type": "Feature",
      "id": 201615,
      "geometry": {
        "type": "Point",
        "coordinates": [
          -95.1317710001589,
          33.1675417002311
        ]
      },
      "properties": {
        "OBJECTID": 201615,
        "CROSSING": "790322S",
        "EFFDATE": 1665705600000,
        "REASON": "14",
        "StateCode": "48",
        "CountyCode": "48159",
        "STCYFIPS": "48159",
        "CITYCD": "481594760",
        "RAILROAD": "NETC",
        "RRDIV": "PINE BLUFF",
        "RRSUBDIV": "COMMERCE",
        "HIGHWAY": "CO 2080",
        "STREET": "CR 2080",
        "TTSTN": "661760",
        "MILEPOST": "0490.01",
        "TYPEXING": "Public",
        "POSXING": "At Grade",
        "PRVCAT": "14",
        "INIT": "2",
        "LATITUDE": 33.1675417,
        "LONGITUD": -95.131771,
        "LLSOURCE": "",
        "WHISTBAN": "0",
        "RRCONT": "",
        "POLCONT": "8008488715",
        "INV_LINK": "https://safetydata.fra.dot.gov/OfficeofSafety/PublicSite/Crossing/Crossing.aspx?phasetype=C&rpttype=I&txtcrossingnum=790322S",
        "ACC_LINK": "https://safetydata.fra.dot.gov/OfficeofSafety/PublicSite/Crossing/Crossing.aspx?phasetype=C&rpttype=A&txtcrossingnum=790322S",
        "TTSTNNAM": "WINFIELD",
        "XPURPOSE": "1",
        "OPERATINGR": "NETC",
        "OPERATIN_1": "Primary",
        "DAYTHRU": 4,
        "NGHTTHRU": 2,
        "MAINTRK": 1,
        "SIDINGTRK": 0,
        "YARDTRK": 0,
        "TRANSITTRK": 0,
        "INDUSTRYTR": 0,
        "OTHRTRK": 0,
        "WDCODE": "Crossbucks",
        "REVISIONDA": "2020/07/01 00:00:00",
        "LASTUPDATE": "10/14/2022",
        "AADT": "96",
        "AADTYEAR": "2019",
        "STATENAME": "TEXAS",
        "STATEAB": "TX",
        "COUNTYNAME": "FRANKLIN",
        "CITYNAME": "MOUNT VERNON",
        "LATDD": 33.1675417,
        "LONGDD": -95.131771,
        "gridlyProductionCertified": true,
        "gridlyClassification": "PUBLIC_ROADWAY",
        "gridlyDisplayName": "CR 2080",
        "gridlyId": "FRA-790322S"
      }
    },
    {
      "type": "Feature",
      "id": 201619,
      "geometry": {
        "type": "Point",
        "coordinates": [
          -95.2200605003171,
          33.1865711997542
        ]
      },
      "properties": {
        "OBJECTID": 201619,
        "CROSSING": "789406R",
        "EFFDATE": 1665705600000,
        "REASON": "14",
        "StateCode": "48",
        "CountyCode": "48159",
        "STCYFIPS": "48159",
        "CITYCD": "481594760",
        "RAILROAD": "NETC",
        "RRDIV": "PINE BLUFF",
        "RRSUBDIV": "COMMERCE",
        "HIGHWAY": "SS 0423",
        "STREET": "LP 0423",
        "TTSTN": "661940",
        "MILEPOST": "0495.50",
        "TYPEXING": "Public",
        "POSXING": "At Grade",
        "PRVCAT": "14",
        "INIT": "2",
        "LATITUDE": 33.1865712,
        "LONGITUD": -95.2200605,
        "LLSOURCE": "",
        "WHISTBAN": "0",
        "RRCONT": "__________",
        "POLCONT": "8008488715",
        "INV_LINK": "https://safetydata.fra.dot.gov/OfficeofSafety/PublicSite/Crossing/Crossing.aspx?phasetype=C&rpttype=I&txtcrossingnum=789406R",
        "ACC_LINK": "https://safetydata.fra.dot.gov/OfficeofSafety/PublicSite/Crossing/Crossing.aspx?phasetype=C&rpttype=A&txtcrossingnum=789406R",
        "TTSTNNAM": "MT VERNON",
        "XPURPOSE": "1",
        "OPERATINGR": "NETC",
        "OPERATIN_1": "Primary",
        "DAYTHRU": 4,
        "NGHTTHRU": 2,
        "MAINTRK": 1,
        "SIDINGTRK": 0,
        "YARDTRK": 0,
        "TRANSITTRK": 0,
        "INDUSTRYTR": 0,
        "OTHRTRK": 0,
        "WDCODE": "Flashing lights",
        "REVISIONDA": "2020/07/01 00:00:00",
        "LASTUPDATE": "10/14/2022",
        "AADT": "1510",
        "AADTYEAR": "2019",
        "STATENAME": "TEXAS",
        "STATEAB": "TX",
        "COUNTYNAME": "FRANKLIN",
        "CITYNAME": "MOUNT VERNON",
        "LATDD": 33.1865712,
        "LONGDD": -95.2200605,
        "gridlyProductionCertified": true,
        "gridlyClassification": "PUBLIC_ROADWAY",
        "gridlyDisplayName": "LP 0423",
        "gridlyId": "FRA-789406R"
      }
    },
    {
      "type": "Feature",
      "id": 201620,
      "geometry": {
        "type": "Point",
        "coordinates": [
          -95.2829134998245,
          33.192935999833
        ]
      },
      "properties": {
        "OBJECTID": 201620,
        "CROSSING": "789400A",
        "EFFDATE": 1665705600000,
        "REASON": "14",
        "StateCode": "48",
        "CountyCode": "48159",
        "STCYFIPS": "48159",
        "CITYCD": "481594760",
        "RAILROAD": "NETC",
        "RRDIV": "PINE BLUFF",
        "RRSUBDIV": "COMMERCE",
        "HIGHWAY": "CO 1015",
        "STREET": "CR 1015",
        "TTSTN": "661940",
        "MILEPOST": "0499.00",
        "TYPEXING": "Public",
        "POSXING": "At Grade",
        "PRVCAT": "14",
        "INIT": "2",
        "LATITUDE": 33.192936,
        "LONGITUD": -95.2829135,
        "LLSOURCE": "",
        "WHISTBAN": "0",
        "RRCONT": "",
        "POLCONT": "8008488715",
        "INV_LINK": "https://safetydata.fra.dot.gov/OfficeofSafety/PublicSite/Crossing/Crossing.aspx?phasetype=C&rpttype=I&txtcrossingnum=789400A",
        "ACC_LINK": "https://safetydata.fra.dot.gov/OfficeofSafety/PublicSite/Crossing/Crossing.aspx?phasetype=C&rpttype=A&txtcrossingnum=789400A",
        "TTSTNNAM": "MT VERNON",
        "XPURPOSE": "1",
        "OPERATINGR": "NETC",
        "OPERATIN_1": "Primary",
        "DAYTHRU": 2,
        "NGHTTHRU": 4,
        "MAINTRK": 1,
        "SIDINGTRK": 0,
        "YARDTRK": 0,
        "TRANSITTRK": 0,
        "INDUSTRYTR": 0,
        "OTHRTRK": 0,
        "WDCODE": "Crossbucks",
        "REVISIONDA": "2020/07/01 00:00:00",
        "LASTUPDATE": "10/14/2022",
        "AADT": "209",
        "AADTYEAR": "2019",
        "STATENAME": "TEXAS",
        "STATEAB": "TX",
        "COUNTYNAME": "FRANKLIN",
        "CITYNAME": "MOUNT VERNON",
        "LATDD": 33.192936,
        "LONGDD": -95.2829135,
        "gridlyProductionCertified": true,
        "gridlyClassification": "PUBLIC_ROADWAY",
        "gridlyDisplayName": "CR 1015",
        "gridlyId": "FRA-789400A"
      }
    },
    {
      "type": "Feature",
      "id": 201621,
      "geometry": {
        "type": "Point",
        "coordinates": [
          -95.2376137004447,
          33.186656799665
        ]
      },
      "properties": {
        "OBJECTID": 201621,
        "CROSSING": "789402N",
        "EFFDATE": 1665705600000,
        "REASON": "14",
        "StateCode": "48",
        "CountyCode": "48159",
        "STCYFIPS": "48159",
        "CITYCD": "481594760",
        "RAILROAD": "NETC",
        "RRDIV": "PINE BLUFF",
        "RRSUBDIV": "COMMERCE",
        "HIGHWAY": "CO 1032",
        "STREET": "CR 1032",
        "TTSTN": "661940",
        "MILEPOST": "0496.20",
        "TYPEXING": "Public",
        "POSXING": "At Grade",
        "PRVCAT": "14",
        "INIT": "2",
        "LATITUDE": 33.1866568,
        "LONGITUD": -95.2376137,
        "LLSOURCE": "",
        "WHISTBAN": "0",
        "RRCONT": "",
        "POLCONT": "8008488715",
        "INV_LINK": "https://safetydata.fra.dot.gov/OfficeofSafety/PublicSite/Crossing/Crossing.aspx?phasetype=C&rpttype=I&txtcrossingnum=789402N",
        "ACC_LINK": "https://safetydata.fra.dot.gov/OfficeofSafety/PublicSite/Crossing/Crossing.aspx?phasetype=C&rpttype=A&txtcrossingnum=789402N",
        "TTSTNNAM": "MT VERNON",
        "XPURPOSE": "1",
        "OPERATINGR": "NETC",
        "OPERATIN_1": "Primary",
        "DAYTHRU": 2,
        "NGHTTHRU": 4,
        "MAINTRK": 1,
        "SIDINGTRK": 0,
        "YARDTRK": 0,
        "TRANSITTRK": 0,
        "INDUSTRYTR": 0,
        "OTHRTRK": 0,
        "WDCODE": "Crossbucks",
        "REVISIONDA": "2020/07/01 00:00:00",
        "LASTUPDATE": "10/14/2022",
        "AADT": "60",
        "AADTYEAR": "2019",
        "STATENAME": "TEXAS",
        "STATEAB": "TX",
        "COUNTYNAME": "FRANKLIN",
        "CITYNAME": "MOUNT VERNON",
        "LATDD": 33.1866568,
        "LONGDD": -95.2376137,
        "gridlyProductionCertified": true,
        "gridlyClassification": "PUBLIC_ROADWAY",
        "gridlyDisplayName": "CR 1032",
        "gridlyId": "FRA-789402N"
      }
    },
    {
      "type": "Feature",
      "id": 201624,
      "geometry": {
        "type": "Point",
        "coordinates": [
          -95.2270526002131,
          33.1871195997751
        ]
      },
      "properties": {
        "OBJECTID": 201624,
        "CROSSING": "789403V",
        "EFFDATE": 1665705600000,
        "REASON": "14",
        "StateCode": "48",
        "CountyCode": "48159",
        "STCYFIPS": "48159",
        "CITYCD": "481594760",
        "RAILROAD": "NETC",
        "RRDIV": "PINE BLUFF",
        "RRSUBDIV": "COMMERCE",
        "HIGHWAY": "ST 0000",
        "STREET": "BOLIN ST",
        "TTSTN": "661940",
        "MILEPOST": "0495.85",
        "TYPEXING": "Public",
        "POSXING": "At Grade",
        "PRVCAT": "14",
        "INIT": "2",
        "LATITUDE": 33.1871196,
        "LONGITUD": -95.2270526,
        "LLSOURCE": "",
        "WHISTBAN": "0",
        "RRCONT": "",
        "POLCONT": "8008488715",
        "INV_LINK": "https://safetydata.fra.dot.gov/OfficeofSafety/PublicSite/Crossing/Crossing.aspx?phasetype=C&rpttype=I&txtcrossingnum=789403V",
        "ACC_LINK": "https://safetydata.fra.dot.gov/OfficeofSafety/PublicSite/Crossing/Crossing.aspx?phasetype=C&rpttype=A&txtcrossingnum=789403V",
        "TTSTNNAM": "MT VERNON",
        "XPURPOSE": "1",
        "OPERATINGR": "NETC",
        "OPERATIN_1": "Primary",
        "DAYTHRU": 4,
        "NGHTTHRU": 2,
        "MAINTRK": 1,
        "SIDINGTRK": 0,
        "YARDTRK": 0,
        "TRANSITTRK": 0,
        "INDUSTRYTR": 0,
        "OTHRTRK": 0,
        "WDCODE": "Crossbucks",
        "REVISIONDA": "2020/07/01 00:00:00",
        "LASTUPDATE": "10/14/2022",
        "AADT": "60",
        "AADTYEAR": "2019",
        "STATENAME": "TEXAS",
        "STATEAB": "TX",
        "COUNTYNAME": "FRANKLIN",
        "CITYNAME": "MOUNT VERNON",
        "LATDD": 33.1871196,
        "LONGDD": -95.2270526,
        "gridlyProductionCertified": true,
        "gridlyClassification": "PUBLIC_ROADWAY",
        "gridlyDisplayName": "BOLIN ST",
        "gridlyId": "FRA-789403V"
      }
    },
    {
      "type": "Feature",
      "id": 201689,
      "geometry": {
        "type": "Point",
        "coordinates": [
          -95.2215689001382,
          33.1870602001755
        ]
      },
      "properties": {
        "OBJECTID": 201689,
        "CROSSING": "789405J",
        "EFFDATE": 1665705600000,
        "REASON": "14",
        "StateCode": "48",
        "CountyCode": "48159",
        "STCYFIPS": "48159",
        "CITYCD": "481594760",
        "RAILROAD": "NETC",
        "RRDIV": "PINE BLUFF",
        "RRSUBDIV": "COMMERCE",
        "HIGHWAY": "ST 0000",
        "STREET": "KAUFMAN ST",
        "TTSTN": "661940",
        "MILEPOST": "0495.70",
        "TYPEXING": "Public",
        "POSXING": "At Grade",
        "PRVCAT": "14",
        "INIT": "2",
        "LATITUDE": 33.1870602,
        "LONGITUD": -95.2215689,
        "LLSOURCE": "",
        "WHISTBAN": "0",
        "RRCONT": "__________",
        "POLCONT": "8008488715",
        "INV_LINK": "https://safetydata.fra.dot.gov/OfficeofSafety/PublicSite/Crossing/Crossing.aspx?phasetype=C&rpttype=I&txtcrossingnum=789405J",
        "ACC_LINK": "https://safetydata.fra.dot.gov/OfficeofSafety/PublicSite/Crossing/Crossing.aspx?phasetype=C&rpttype=A&txtcrossingnum=789405J",
        "TTSTNNAM": "MT VERNON",
        "XPURPOSE": "1",
        "OPERATINGR": "NETC",
        "OPERATIN_1": "Primary",
        "DAYTHRU": 4,
        "NGHTTHRU": 2,
        "MAINTRK": 1,
        "SIDINGTRK": 0,
        "YARDTRK": 0,
        "TRANSITTRK": 0,
        "INDUSTRYTR": 0,
        "OTHRTRK": 1,
        "WDCODE": "All other Gates",
        "REVISIONDA": "2020/07/01 00:00:00",
        "LASTUPDATE": "10/14/2022",
        "AADT": "1171",
        "AADTYEAR": "2019",
        "STATENAME": "TEXAS",
        "STATEAB": "TX",
        "COUNTYNAME": "FRANKLIN",
        "CITYNAME": "MOUNT VERNON",
        "LATDD": 33.1870602,
        "LONGDD": -95.2215689,
        "gridlyProductionCertified": true,
        "gridlyClassification": "PUBLIC_ROADWAY",
        "gridlyDisplayName": "KAUFMAN ST",
        "gridlyId": "FRA-789405J"
      }
    },
    {
      "type": "Feature",
      "id": 201690,
      "geometry": {
        "type": "Point",
        "coordinates": [
          -95.2115583000891,
          33.181454999794
        ]
      },
      "properties": {
        "OBJECTID": 201690,
        "CROSSING": "789407X",
        "EFFDATE": 1665705600000,
        "REASON": "14",
        "StateCode": "48",
        "CountyCode": "48159",
        "STCYFIPS": "48159",
        "CITYCD": "481594760",
        "RAILROAD": "NETC",
        "RRDIV": "EAST TEXAS",
        "RRSUBDIV": "CORSICANA",
        "HIGHWAY": "CO 2020",
        "STREET": "CR 2020",
        "TTSTN": "666513",
        "MILEPOST": "0494.50",
        "TYPEXING": "Public",
        "POSXING": "At Grade",
        "PRVCAT": "14",
        "INIT": "2",
        "LATITUDE": 33.181455,
        "LONGITUD": -95.2115583,
        "LLSOURCE": "",
        "WHISTBAN": "0",
        "RRCONT": "",
        "POLCONT": "8008488715",
        "INV_LINK": "https://safetydata.fra.dot.gov/OfficeofSafety/PublicSite/Crossing/Crossing.aspx?phasetype=C&rpttype=I&txtcrossingnum=789407X",
        "ACC_LINK": "https://safetydata.fra.dot.gov/OfficeofSafety/PublicSite/Crossing/Crossing.aspx?phasetype=C&rpttype=A&txtcrossingnum=789407X",
        "TTSTNNAM": "CHANDLER",
        "XPURPOSE": "1",
        "OPERATINGR": "NETC",
        "OPERATIN_1": "Primary",
        "DAYTHRU": 1,
        "NGHTTHRU": 0,
        "MAINTRK": 1,
        "SIDINGTRK": 0,
        "YARDTRK": 0,
        "TRANSITTRK": 0,
        "INDUSTRYTR": 0,
        "OTHRTRK": 0,
        "WDCODE": "All other Gates",
        "REVISIONDA": "2020/07/01 00:00:00",
        "LASTUPDATE": "10/14/2022",
        "AADT": "84",
        "AADTYEAR": "2019",
        "STATENAME": "TEXAS",
        "STATEAB": "TX",
        "COUNTYNAME": "FRANKLIN",
        "CITYNAME": "MOUNT VERNON",
        "LATDD": 33.181455,
        "LONGDD": -95.2115583,
        "gridlyProductionCertified": true,
        "gridlyClassification": "PUBLIC_ROADWAY",
        "gridlyDisplayName": "CR 2020",
        "gridlyId": "FRA-789407X"
      }
    },
    {
      "type": "Feature",
      "id": 202885,
      "geometry": {
        "type": "Point",
        "coordinates": [
          -95.1968690000542,
          32.9698610996602
        ]
      },
      "properties": {
        "OBJECTID": 202885,
        "CROSSING": "331608V",
        "EFFDATE": 1772064000000,
        "REASON": "14",
        "StateCode": "48",
        "CountyCode": "48159",
        "STCYFIPS": "48159",
        "CITYCD": "481597560",
        "RAILROAD": "KCS",
        "RRDIV": "Speedway",
        "RRSUBDIV": "Greenville",
        "HIGHWAY": "CO 4425",
        "STREET": "CR 4425 / WEST WYE",
        "TTSTN": "661980",
        "MILEPOST": "0112.036",
        "TYPEXING": "Public",
        "POSXING": "At Grade",
        "PRVCAT": "14",
        "INIT": "1",
        "LATITUDE": 32.9698611,
        "LONGITUD": -95.196869,
        "LLSOURCE": "1",
        "WHISTBAN": "0",
        "RRCONT": "3186766269",
        "POLCONT": "8775279464",
        "INV_LINK": "https://safetydata.fra.dot.gov/OfficeofSafety/PublicSite/Crossing/Crossing.aspx?phasetype=C&rpttype=I&txtcrossingnum=331608V",
        "ACC_LINK": "https://safetydata.fra.dot.gov/OfficeofSafety/PublicSite/Crossing/Crossing.aspx?phasetype=C&rpttype=A&txtcrossingnum=331608V",
        "TTSTNNAM": "661980",
        "XPURPOSE": "1",
        "OPERATINGR": "CPKC",
        "OPERATIN_1": "Primary",
        "DAYTHRU": 0,
        "NGHTTHRU": 0,
        "MAINTRK": 0,
        "SIDINGTRK": 0,
        "YARDTRK": 0,
        "TRANSITTRK": 0,
        "INDUSTRYTR": 1,
        "OTHRTRK": 1,
        "WDCODE": "Crossbucks",
        "REVISIONDA": "1975/01/01 00:00:00",
        "LASTUPDATE": "2/26/2026",
        "AADT": "25",
        "AADTYEAR": "2019",
        "STATENAME": "TEXAS",
        "STATEAB": "TX",
        "COUNTYNAME": "FRANKLIN",
        "CITYNAME": "WINNSBORO",
        "LATDD": 32.9698611,
        "LONGDD": -95.196869,
        "gridlyProductionCertified": true,
        "gridlyClassification": "PUBLIC_ROADWAY",
        "gridlyDisplayName": "CR 4425 / WEST WYE",
        "gridlyId": "FRA-331608V"
      }
    },
    {
      "type": "Feature",
      "id": 202930,
      "geometry": {
        "type": "Point",
        "coordinates": [
          -95.2197760002733,
          32.9646120999819
        ]
      },
      "properties": {
        "OBJECTID": 202930,
        "CROSSING": "331550P",
        "EFFDATE": 1772064000000,
        "REASON": "14",
        "StateCode": "48",
        "CountyCode": "48159",
        "STCYFIPS": "48159",
        "CITYCD": "481597560",
        "RAILROAD": "KCS",
        "RRDIV": "Speedway",
        "RRSUBDIV": "Greenville",
        "HIGHWAY": "NA",
        "STREET": "Private",
        "TTSTN": "661980",
        "MILEPOST": "0113.420",
        "TYPEXING": "Private",
        "POSXING": "At Grade",
        "PRVCAT": "14",
        "INIT": "1",
        "LATITUDE": 32.9646121,
        "LONGITUD": -95.219776,
        "LLSOURCE": "1",
        "WHISTBAN": "0",
        "RRCONT": "3186766269",
        "POLCONT": "8775279464",
        "INV_LINK": "https://safetydata.fra.dot.gov/OfficeofSafety/PublicSite/Crossing/Crossing.aspx?phasetype=C&rpttype=I&txtcrossingnum=331550P",
        "ACC_LINK": "https://safetydata.fra.dot.gov/OfficeofSafety/PublicSite/Crossing/Crossing.aspx?phasetype=C&rpttype=A&txtcrossingnum=331550P",
        "TTSTNNAM": "661980",
        "XPURPOSE": "1",
        "OPERATINGR": "CPKC",
        "OPERATIN_1": "Primary",
        "DAYTHRU": 3,
        "NGHTTHRU": 2,
        "MAINTRK": 1,
        "SIDINGTRK": 0,
        "YARDTRK": 0,
        "TRANSITTRK": 0,
        "INDUSTRYTR": 0,
        "OTHRTRK": 0,
        "WDCODE": "",
        "REVISIONDA": "1975/01/01 00:00:00",
        "LASTUPDATE": "2/26/2026",
        "AADT": "1",
        "AADTYEAR": "1970",
        "STATENAME": "TEXAS",
        "STATEAB": "TX",
        "COUNTYNAME": "FRANKLIN",
        "CITYNAME": "WINNSBORO",
        "LATDD": 32.9646121,
        "LONGDD": -95.219776,
        "gridlyProductionCertified": true,
        "gridlyClassification": "PUBLIC_ROADWAY",
        "gridlyDisplayName": "Private",
        "gridlyId": "FRA-331550P"
      }
    },
    {
      "type": "Feature",
      "id": 203436,
      "geometry": {
        "type": "Point",
        "coordinates": [
          -95.20986199966,
          32.9668010999938
        ]
      },
      "properties": {
        "OBJECTID": 203436,
        "CROSSING": "330923H",
        "EFFDATE": 1772064000000,
        "REASON": "14",
        "StateCode": "48",
        "CountyCode": "48159",
        "STCYFIPS": "48159",
        "CITYCD": "481597560",
        "RAILROAD": "KCS",
        "RRDIV": "Speedway",
        "RRSUBDIV": "Greenville",
        "HIGHWAY": "PRIVATE",
        "STREET": "PRIVATE ROAD",
        "TTSTN": "661980",
        "MILEPOST": "0112.800",
        "TYPEXING": "Private",
        "POSXING": "At Grade",
        "PRVCAT": "14",
        "INIT": "1",
        "LATITUDE": 32.9668011,
        "LONGITUD": -95.209862,
        "LLSOURCE": "1",
        "WHISTBAN": "0",
        "RRCONT": "3186766269",
        "POLCONT": "8775279464",
        "INV_LINK": "https://safetydata.fra.dot.gov/OfficeofSafety/PublicSite/Crossing/Crossing.aspx?phasetype=C&rpttype=I&txtcrossingnum=330923H",
        "ACC_LINK": "https://safetydata.fra.dot.gov/OfficeofSafety/PublicSite/Crossing/Crossing.aspx?phasetype=C&rpttype=A&txtcrossingnum=330923H",
        "TTSTNNAM": "661980",
        "XPURPOSE": "1",
        "OPERATINGR": "CPKC",
        "OPERATIN_1": "Primary",
        "DAYTHRU": 3,
        "NGHTTHRU": 2,
        "MAINTRK": 1,
        "SIDINGTRK": 0,
        "YARDTRK": 0,
        "TRANSITTRK": 0,
        "INDUSTRYTR": 0,
        "OTHRTRK": 0,
        "WDCODE": "",
        "REVISIONDA": "1975/01/01 00:00:00",
        "LASTUPDATE": "2/26/2026",
        "AADT": "1",
        "AADTYEAR": "1991",
        "STATENAME": "TEXAS",
        "STATEAB": "TX",
        "COUNTYNAME": "FRANKLIN",
        "CITYNAME": "WINNSBORO",
        "LATDD": 32.9668011,
        "LONGDD": -95.209862,
        "gridlyProductionCertified": true,
        "gridlyClassification": "PUBLIC_ROADWAY",
        "gridlyDisplayName": "PRIVATE ROAD",
        "gridlyId": "FRA-330923H"
      }
    },
    {
      "type": "Feature",
      "id": 203783,
      "geometry": {
        "type": "Point",
        "coordinates": [
          -95.1841850002448,
          32.9724580000729
        ]
      },
      "properties": {
        "OBJECTID": 203783,
        "CROSSING": "331543E",
        "EFFDATE": 1772064000000,
        "REASON": "14",
        "StateCode": "48",
        "CountyCode": "48159",
        "STCYFIPS": "48159",
        "CITYCD": "481597560",
        "RAILROAD": "KCS",
        "RRDIV": "Speedway",
        "RRSUBDIV": "Greenville",
        "HIGHWAY": "FM 115",
        "STREET": "FM 115",
        "TTSTN": "661980",
        "MILEPOST": "0111.282",
        "TYPEXING": "Public",
        "POSXING": "At Grade",
        "PRVCAT": "14",
        "INIT": "1",
        "LATITUDE": 32.972458,
        "LONGITUD": -95.184185,
        "LLSOURCE": "1",
        "WHISTBAN": "0",
        "RRCONT": "3186766269",
        "POLCONT": "8775279464",
        "INV_LINK": "https://safetydata.fra.dot.gov/OfficeofSafety/PublicSite/Crossing/Crossing.aspx?phasetype=C&rpttype=I&txtcrossingnum=331543E",
        "ACC_LINK": "https://safetydata.fra.dot.gov/OfficeofSafety/PublicSite/Crossing/Crossing.aspx?phasetype=C&rpttype=A&txtcrossingnum=331543E",
        "TTSTNNAM": "661980",
        "XPURPOSE": "1",
        "OPERATINGR": "CPKC",
        "OPERATIN_1": "Primary",
        "DAYTHRU": 3,
        "NGHTTHRU": 2,
        "MAINTRK": 1,
        "SIDINGTRK": 0,
        "YARDTRK": 0,
        "TRANSITTRK": 0,
        "INDUSTRYTR": 0,
        "OTHRTRK": 0,
        "WDCODE": "All other Gates",
        "REVISIONDA": "1975/01/01 00:00:00",
        "LASTUPDATE": "2/26/2026",
        "AADT": "656",
        "AADTYEAR": "2019",
        "STATENAME": "TEXAS",
        "STATEAB": "TX",
        "COUNTYNAME": "FRANKLIN",
        "CITYNAME": "WINNSBORO",
        "LATDD": 32.972458,
        "LONGDD": -95.184185,
        "gridlyProductionCertified": true,
        "gridlyClassification": "PUBLIC_ROADWAY",
        "gridlyDisplayName": "FM 115",
        "gridlyId": "FRA-331543E"
      }
    },
    {
      "type": "Feature",
      "id": 203849,
      "geometry": {
        "type": "Point",
        "coordinates": [
          -95.1971440004138,
          32.969644100062
        ]
      },
      "properties": {
        "OBJECTID": 203849,
        "CROSSING": "331546A",
        "EFFDATE": 1772064000000,
        "REASON": "14",
        "StateCode": "48",
        "CountyCode": "48159",
        "STCYFIPS": "48159",
        "CITYCD": "481597560",
        "RAILROAD": "KCS",
        "RRDIV": "Speedway",
        "RRSUBDIV": "Greenville",
        "HIGHWAY": "NA",
        "STREET": "PRIVATE ROAD",
        "TTSTN": "661980",
        "MILEPOST": "0112.090",
        "TYPEXING": "Private",
        "POSXING": "At Grade",
        "PRVCAT": "14",
        "INIT": "1",
        "LATITUDE": 32.9696441,
        "LONGITUD": -95.197144,
        "LLSOURCE": "1",
        "WHISTBAN": "0",
        "RRCONT": "3186766269",
        "POLCONT": "8775279464",
        "INV_LINK": "https://safetydata.fra.dot.gov/OfficeofSafety/PublicSite/Crossing/Crossing.aspx?phasetype=C&rpttype=I&txtcrossingnum=331546A",
        "ACC_LINK": "https://safetydata.fra.dot.gov/OfficeofSafety/PublicSite/Crossing/Crossing.aspx?phasetype=C&rpttype=A&txtcrossingnum=331546A",
        "TTSTNNAM": "661980",
        "XPURPOSE": "1",
        "OPERATINGR": "CPKC",
        "OPERATIN_1": "Primary",
        "DAYTHRU": 3,
        "NGHTTHRU": 2,
        "MAINTRK": 1,
        "SIDINGTRK": 0,
        "YARDTRK": 0,
        "TRANSITTRK": 0,
        "INDUSTRYTR": 1,
        "OTHRTRK": 0,
        "WDCODE": "",
        "REVISIONDA": "1975/01/01 00:00:00",
        "LASTUPDATE": "2/26/2026",
        "AADT": "1",
        "AADTYEAR": "1970",
        "STATENAME": "TEXAS",
        "STATEAB": "TX",
        "COUNTYNAME": "FRANKLIN",
        "CITYNAME": "WINNSBORO",
        "LATDD": 32.9696441,
        "LONGDD": -95.197144,
        "gridlyProductionCertified": true,
        "gridlyClassification": "PUBLIC_ROADWAY",
        "gridlyDisplayName": "PRIVATE ROAD",
        "gridlyId": "FRA-331546A"
      }
    },
    {
      "type": "Feature",
      "id": 208601,
      "geometry": {
        "type": "Point",
        "coordinates": [
          -95.2239160003463,
          32.9636940998521
        ]
      },
      "properties": {
        "OBJECTID": 208601,
        "CROSSING": "331552D",
        "EFFDATE": 1772064000000,
        "REASON": "14",
        "StateCode": "48",
        "CountyCode": "48159",
        "STCYFIPS": "48159",
        "CITYCD": "481597560",
        "RAILROAD": "KCS",
        "RRDIV": "Speedway",
        "RRSUBDIV": "Greenville",
        "HIGHWAY": "NA",
        "STREET": "PRIVATE ROAD",
        "TTSTN": "661980",
        "MILEPOST": "0113.800",
        "TYPEXING": "Private",
        "POSXING": "At Grade",
        "PRVCAT": "14",
        "INIT": "1",
        "LATITUDE": 32.9636941,
        "LONGITUD": -95.223916,
        "LLSOURCE": "1",
        "WHISTBAN": "0",
        "RRCONT": "3186766269",
        "POLCONT": "8775279464",
        "INV_LINK": "https://safetydata.fra.dot.gov/OfficeofSafety/PublicSite/Crossing/Crossing.aspx?phasetype=C&rpttype=I&txtcrossingnum=331552D",
        "ACC_LINK": "https://safetydata.fra.dot.gov/OfficeofSafety/PublicSite/Crossing/Crossing.aspx?phasetype=C&rpttype=A&txtcrossingnum=331552D",
        "TTSTNNAM": "661980",
        "XPURPOSE": "1",
        "OPERATINGR": "CPKC",
        "OPERATIN_1": "Primary",
        "DAYTHRU": 3,
        "NGHTTHRU": 2,
        "MAINTRK": 1,
        "SIDINGTRK": 0,
        "YARDTRK": 0,
        "TRANSITTRK": 0,
        "INDUSTRYTR": 0,
        "OTHRTRK": 0,
        "WDCODE": "",
        "REVISIONDA": "1975/01/01 00:00:00",
        "LASTUPDATE": "2/26/2026",
        "AADT": "1",
        "AADTYEAR": "1970",
        "STATENAME": "TEXAS",
        "STATEAB": "TX",
        "COUNTYNAME": "FRANKLIN",
        "CITYNAME": "WINNSBORO",
        "LATDD": 32.9636941,
        "LONGDD": -95.223916,
        "gridlyProductionCertified": true,
        "gridlyClassification": "PUBLIC_ROADWAY",
        "gridlyDisplayName": "PRIVATE ROAD",
        "gridlyId": "FRA-331552D"
      }
    },
    {
      "type": "Feature",
      "id": 213860,
      "geometry": {
        "type": "Point",
        "coordinates": [
          -95.2272510003301,
          32.963070999918
        ]
      },
      "properties": {
        "OBJECTID": 213860,
        "CROSSING": "331553K",
        "EFFDATE": 1772064000000,
        "REASON": "14",
        "StateCode": "48",
        "CountyCode": "48159",
        "STCYFIPS": "48159",
        "CITYCD": "481597560",
        "RAILROAD": "KCS",
        "RRDIV": "Speedway",
        "RRSUBDIV": "Greenville",
        "HIGHWAY": "CR 4350 CR 4425",
        "STREET": "CR 4350/ CR 4425",
        "TTSTN": "661980",
        "MILEPOST": "0113.910",
        "TYPEXING": "Public",
        "POSXING": "At Grade",
        "PRVCAT": "14",
        "INIT": "1",
        "LATITUDE": 32.963071,
        "LONGITUD": -95.227251,
        "LLSOURCE": "1",
        "WHISTBAN": "0",
        "RRCONT": "3186766269",
        "POLCONT": "8775279464",
        "INV_LINK": "https://safetydata.fra.dot.gov/OfficeofSafety/PublicSite/Crossing/Crossing.aspx?phasetype=C&rpttype=I&txtcrossingnum=331553K",
        "ACC_LINK": "https://safetydata.fra.dot.gov/OfficeofSafety/PublicSite/Crossing/Crossing.aspx?phasetype=C&rpttype=A&txtcrossingnum=331553K",
        "TTSTNNAM": "661980",
        "XPURPOSE": "1",
        "OPERATINGR": "CPKC",
        "OPERATIN_1": "Primary",
        "DAYTHRU": 3,
        "NGHTTHRU": 2,
        "MAINTRK": 1,
        "SIDINGTRK": 0,
        "YARDTRK": 0,
        "TRANSITTRK": 0,
        "INDUSTRYTR": 0,
        "OTHRTRK": 0,
        "WDCODE": "All other Gates",
        "REVISIONDA": "1975/01/01 00:00:00",
        "LASTUPDATE": "2/26/2026",
        "AADT": "25",
        "AADTYEAR": "2019",
        "STATENAME": "TEXAS",
        "STATEAB": "TX",
        "COUNTYNAME": "FRANKLIN",
        "CITYNAME": "WINNSBORO",
        "LATDD": 32.963071,
        "LONGDD": -95.227251,
        "gridlyProductionCertified": true,
        "gridlyClassification": "PUBLIC_ROADWAY",
        "gridlyDisplayName": "CR 4350/ CR 4425",
        "gridlyId": "FRA-331553K"
      }
    },
    {
      "type": "Feature",
      "id": 214570,
      "geometry": {
        "type": "Point",
        "coordinates": [
          -95.2140650003804,
          32.9658731001489
        ]
      },
      "properties": {
        "OBJECTID": 214570,
        "CROSSING": "331549V",
        "EFFDATE": 1772064000000,
        "REASON": "14",
        "StateCode": "48",
        "CountyCode": "48159",
        "STCYFIPS": "48159",
        "CITYCD": "481597560",
        "RAILROAD": "KCS",
        "RRDIV": "Speedway",
        "RRSUBDIV": "Greenville",
        "HIGHWAY": "NA",
        "STREET": "PRIVATE ROAD",
        "TTSTN": "661980",
        "MILEPOST": "0113.090",
        "TYPEXING": "Private",
        "POSXING": "At Grade",
        "PRVCAT": "14",
        "INIT": "1",
        "LATITUDE": 32.9658731,
        "LONGITUD": -95.214065,
        "LLSOURCE": "1",
        "WHISTBAN": "0",
        "RRCONT": "3186766269",
        "POLCONT": "8775279464",
        "INV_LINK": "https://safetydata.fra.dot.gov/OfficeofSafety/PublicSite/Crossing/Crossing.aspx?phasetype=C&rpttype=I&txtcrossingnum=331549V",
        "ACC_LINK": "https://safetydata.fra.dot.gov/OfficeofSafety/PublicSite/Crossing/Crossing.aspx?phasetype=C&rpttype=A&txtcrossingnum=331549V",
        "TTSTNNAM": "661980",
        "XPURPOSE": "1",
        "OPERATINGR": "CPKC",
        "OPERATIN_1": "Primary",
        "DAYTHRU": 3,
        "NGHTTHRU": 2,
        "MAINTRK": 1,
        "SIDINGTRK": 0,
        "YARDTRK": 0,
        "TRANSITTRK": 0,
        "INDUSTRYTR": 0,
        "OTHRTRK": 0,
        "WDCODE": "",
        "REVISIONDA": "1975/01/01 00:00:00",
        "LASTUPDATE": "2/26/2026",
        "AADT": "1",
        "AADTYEAR": "1970",
        "STATENAME": "TEXAS",
        "STATEAB": "TX",
        "COUNTYNAME": "FRANKLIN",
        "CITYNAME": "WINNSBORO",
        "LATDD": 32.9658731,
        "LONGDD": -95.214065,
        "gridlyProductionCertified": true,
        "gridlyClassification": "PUBLIC_ROADWAY",
        "gridlyDisplayName": "PRIVATE ROAD",
        "gridlyId": "FRA-331549V"
      }
    },
    {
      "type": "Feature",
      "id": 214626,
      "geometry": {
        "type": "Point",
        "coordinates": [
          -95.2005019999639,
          32.9688670996331
        ]
      },
      "properties": {
        "OBJECTID": 214626,
        "CROSSING": "331547G",
        "EFFDATE": 1772064000000,
        "REASON": "14",
        "StateCode": "48",
        "CountyCode": "48159",
        "STCYFIPS": "48159",
        "CITYCD": "481597560",
        "RAILROAD": "KCS",
        "RRDIV": "Speedway",
        "RRSUBDIV": "Greenville",
        "HIGHWAY": "NA",
        "STREET": "PRIVATE ROAD",
        "TTSTN": "661980",
        "MILEPOST": "0112.170",
        "TYPEXING": "Private",
        "POSXING": "At Grade",
        "PRVCAT": "14",
        "INIT": "1",
        "LATITUDE": 32.9688671,
        "LONGITUD": -95.200502,
        "LLSOURCE": "1",
        "WHISTBAN": "0",
        "RRCONT": "3186766269",
        "POLCONT": "8775279464",
        "INV_LINK": "https://safetydata.fra.dot.gov/OfficeofSafety/PublicSite/Crossing/Crossing.aspx?phasetype=C&rpttype=I&txtcrossingnum=331547G",
        "ACC_LINK": "https://safetydata.fra.dot.gov/OfficeofSafety/PublicSite/Crossing/Crossing.aspx?phasetype=C&rpttype=A&txtcrossingnum=331547G",
        "TTSTNNAM": "661980",
        "XPURPOSE": "1",
        "OPERATINGR": "CPKC",
        "OPERATIN_1": "Primary",
        "DAYTHRU": 3,
        "NGHTTHRU": 2,
        "MAINTRK": 1,
        "SIDINGTRK": 0,
        "YARDTRK": 0,
        "TRANSITTRK": 0,
        "INDUSTRYTR": 0,
        "OTHRTRK": 0,
        "WDCODE": "",
        "REVISIONDA": "1975/01/01 00:00:00",
        "LASTUPDATE": "2/26/2026",
        "AADT": "1",
        "AADTYEAR": "1970",
        "STATENAME": "TEXAS",
        "STATEAB": "TX",
        "COUNTYNAME": "FRANKLIN",
        "CITYNAME": "WINNSBORO",
        "LATDD": 32.9688671,
        "LONGDD": -95.200502,
        "gridlyProductionCertified": true,
        "gridlyClassification": "PUBLIC_ROADWAY",
        "gridlyDisplayName": "PRIVATE ROAD",
        "gridlyId": "FRA-331547G"
      }
    },
    {
      "type": "Feature",
      "id": 215860,
      "geometry": {
        "type": "Point",
        "coordinates": [
          -95.2041709998586,
          32.9680571000137
        ]
      },
      "properties": {
        "OBJECTID": 215860,
        "CROSSING": "331548N",
        "EFFDATE": 1772064000000,
        "REASON": "14",
        "StateCode": "48",
        "CountyCode": "48159",
        "STCYFIPS": "48159",
        "CITYCD": "481597560",
        "RAILROAD": "KCS",
        "RRDIV": "Speedway",
        "RRSUBDIV": "Greenville",
        "HIGHWAY": "NA",
        "STREET": "PRIVATE ROAD",
        "TTSTN": "661980",
        "MILEPOST": "0112.390",
        "TYPEXING": "Private",
        "POSXING": "At Grade",
        "PRVCAT": "14",
        "INIT": "1",
        "LATITUDE": 32.9680571,
        "LONGITUD": -95.204171,
        "LLSOURCE": "1",
        "WHISTBAN": "0",
        "RRCONT": "3186766269",
        "POLCONT": "8775279464",
        "INV_LINK": "https://safetydata.fra.dot.gov/OfficeofSafety/PublicSite/Crossing/Crossing.aspx?phasetype=C&rpttype=I&txtcrossingnum=331548N",
        "ACC_LINK": "https://safetydata.fra.dot.gov/OfficeofSafety/PublicSite/Crossing/Crossing.aspx?phasetype=C&rpttype=A&txtcrossingnum=331548N",
        "TTSTNNAM": "661980",
        "XPURPOSE": "1",
        "OPERATINGR": "CPKC",
        "OPERATIN_1": "Primary",
        "DAYTHRU": 3,
        "NGHTTHRU": 2,
        "MAINTRK": 1,
        "SIDINGTRK": 0,
        "YARDTRK": 0,
        "TRANSITTRK": 0,
        "INDUSTRYTR": 0,
        "OTHRTRK": 0,
        "WDCODE": "",
        "REVISIONDA": "1975/01/01 00:00:00",
        "LASTUPDATE": "2/26/2026",
        "AADT": "1",
        "AADTYEAR": "1970",
        "STATENAME": "TEXAS",
        "STATEAB": "TX",
        "COUNTYNAME": "FRANKLIN",
        "CITYNAME": "WINNSBORO",
        "LATDD": 32.9680571,
        "LONGDD": -95.204171,
        "gridlyProductionCertified": true,
        "gridlyClassification": "PUBLIC_ROADWAY",
        "gridlyDisplayName": "PRIVATE ROAD",
        "gridlyId": "FRA-331548N"
      }
    }
  ]
}
