{
  "type": "FeatureCollection",
  "features": [
    {
      "type": "Feature",
      "id": 201448,
      "geometry": {
        "type": "Point",
        "coordinates": [
          -97.2730849003695,
          28.2956489997811
        ]
      },
      "properties": {
        "OBJECTID": 201448,
        "CROSSING": "427570V",
        "EFFDATE": 1777507200000,
        "REASON": "14",
        "StateCode": "48",
        "CountyCode": "48391",
        "STCYFIPS": "48391",
        "CITYCD": "483915700",
        "RAILROAD": "UP",
        "RRDIV": "Houston",
        "RRSUBDIV": "BROWNSVILLE SUB",
        "HIGHWAY": "FM0774",
        "STREET": "FM0774",
        "TTSTN": "688450",
        "MILEPOST": "0185.290",
        "TYPEXING": "Public",
        "POSXING": "At Grade",
        "PRVCAT": "14",
        "INIT": "2",
        "LATITUDE": 28.295649,
        "LONGITUD": -97.2730849,
        "LLSOURCE": "1",
        "WHISTBAN": "0",
        "RRCONT": "4025443721",
        "POLCONT": "8008488715",
        "INV_LINK": "https://safetydata.fra.dot.gov/OfficeofSafety/PublicSite/Crossing/Crossing.aspx?phasetype=C&rpttype=I&txtcrossingnum=427570V",
        "ACC_LINK": "https://safetydata.fra.dot.gov/OfficeofSafety/PublicSite/Crossing/Crossing.aspx?phasetype=C&rpttype=A&txtcrossingnum=427570V",
        "TTSTNNAM": "",
        "XPURPOSE": "1",
        "OPERATINGR": "UP",
        "OPERATIN_1": "Primary",
        "DAYTHRU": 9,
        "NGHTTHRU": 9,
        "MAINTRK": 1,
        "SIDINGTRK": 0,
        "YARDTRK": 0,
        "TRANSITTRK": 0,
        "INDUSTRYTR": 0,
        "OTHRTRK": 0,
        "WDCODE": "All other Gates",
        "REVISIONDA": "1975/01/01 00:00:00",
        "LASTUPDATE": "4/30/2026",
        "AADT": "4824",
        "AADTYEAR": "2024",
        "STATENAME": "TEXAS",
        "STATEAB": "TX",
        "COUNTYNAME": "REFUGIO",
        "CITYNAME": "REFUGIO",
        "LATDD": 28.295649,
        "LONGDD": -97.2730849,
        "gridlyProductionCertified": true,
        "gridlyClassification": "PUBLIC_ROADWAY",
        "gridlyDisplayName": "FM0774",
        "gridlyId": "FRA-427570V"
      }
    },
    {
      "type": "Feature",
      "id": 201449,
      "geometry": {
        "type": "Point",
        "coordinates": [
          -97.271977399795,
          28.3012908001504
        ]
      },
      "properties": {
        "OBJECTID": 201449,
        "CROSSING": "427565Y",
        "EFFDATE": 1777507200000,
        "REASON": "14",
        "StateCode": "48",
        "CountyCode": "48391",
        "STCYFIPS": "48391",
        "CITYCD": "483915700",
        "RAILROAD": "UP",
        "RRDIV": "GULF COAST",
        "RRSUBDIV": "BROWNSVILLE SUB",
        "HIGHWAY": "LS0000",
        "STREET": "East SANTIAGO STREET",
        "TTSTN": "688450",
        "MILEPOST": "0185.730",
        "TYPEXING": "Public",
        "POSXING": "At Grade",
        "PRVCAT": "14",
        "INIT": "2",
        "LATITUDE": 28.3012908,
        "LONGITUD": -97.2719774,
        "LLSOURCE": "1",
        "WHISTBAN": "0",
        "RRCONT": "4025443721",
        "POLCONT": "8008488715",
        "INV_LINK": "https://safetydata.fra.dot.gov/OfficeofSafety/PublicSite/Crossing/Crossing.aspx?phasetype=C&rpttype=I&txtcrossingnum=427565Y",
        "ACC_LINK": "https://safetydata.fra.dot.gov/OfficeofSafety/PublicSite/Crossing/Crossing.aspx?phasetype=C&rpttype=A&txtcrossingnum=427565Y",
        "TTSTNNAM": "",
        "XPURPOSE": "1",
        "OPERATINGR": "UP",
        "OPERATIN_1": "Primary",
        "DAYTHRU": 9,
        "NGHTTHRU": 9,
        "MAINTRK": 1,
        "SIDINGTRK": 0,
        "YARDTRK": 0,
        "TRANSITTRK": 0,
        "INDUSTRYTR": 0,
        "OTHRTRK": 0,
        "WDCODE": "All other Gates",
        "REVISIONDA": "1975/01/01 00:00:00",
        "LASTUPDATE": "4/30/2026",
        "AADT": "206",
        "AADTYEAR": "2019",
        "STATENAME": "TEXAS",
        "STATEAB": "TX",
        "COUNTYNAME": "REFUGIO",
        "CITYNAME": "REFUGIO",
        "LATDD": 28.3012908,
        "LONGDD": -97.2719774,
        "gridlyProductionCertified": true,
        "gridlyClassification": "PUBLIC_ROADWAY",
        "gridlyDisplayName": "East SANTIAGO STREET",
        "gridlyId": "FRA-427565Y"
      }
    },
    {
      "type": "Feature",
      "id": 201575,
      "geometry": {
        "type": "Point",
        "coordinates": [
          -97.2724132003871,
          28.2990150999494
        ]
      },
      "properties": {
        "OBJECTID": 201575,
        "CROSSING": "427567M",
        "EFFDATE": 1777507200000,
        "REASON": "14",
        "StateCode": "48",
        "CountyCode": "48391",
        "STCYFIPS": "48391",
        "CITYCD": "483915700",
        "RAILROAD": "UP",
        "RRDIV": "GULF COAST",
        "RRSUBDIV": "BROWNSVILLE SUB",
        "HIGHWAY": "LS0000",
        "STREET": "E PLASUELA STREET",
        "TTSTN": "688450",
        "MILEPOST": "0185.560",
        "TYPEXING": "Public",
        "POSXING": "At Grade",
        "PRVCAT": "14",
        "INIT": "2",
        "LATITUDE": 28.2990151,
        "LONGITUD": -97.2724132,
        "LLSOURCE": "1",
        "WHISTBAN": "0",
        "RRCONT": "4025443721",
        "POLCONT": "8008488715",
        "INV_LINK": "https://safetydata.fra.dot.gov/OfficeofSafety/PublicSite/Crossing/Crossing.aspx?phasetype=C&rpttype=I&txtcrossingnum=427567M",
        "ACC_LINK": "https://safetydata.fra.dot.gov/OfficeofSafety/PublicSite/Crossing/Crossing.aspx?phasetype=C&rpttype=A&txtcrossingnum=427567M",
        "TTSTNNAM": "",
        "XPURPOSE": "1",
        "OPERATINGR": "UP",
        "OPERATIN_1": "Primary",
        "DAYTHRU": 9,
        "NGHTTHRU": 9,
        "MAINTRK": 1,
        "SIDINGTRK": 0,
        "YARDTRK": 0,
        "TRANSITTRK": 0,
        "INDUSTRYTR": 0,
        "OTHRTRK": 0,
        "WDCODE": "All other Gates",
        "REVISIONDA": "1975/01/01 00:00:00",
        "LASTUPDATE": "4/30/2026",
        "AADT": "153",
        "AADTYEAR": "2019",
        "STATENAME": "TEXAS",
        "STATEAB": "TX",
        "COUNTYNAME": "REFUGIO",
        "CITYNAME": "REFUGIO",
        "LATDD": 28.2990151,
        "LONGDD": -97.2724132,
        "gridlyProductionCertified": true,
        "gridlyClassification": "PUBLIC_ROADWAY",
        "gridlyDisplayName": "E PLASUELA STREET",
        "gridlyId": "FRA-427567M"
      }
    },
    {
      "type": "Feature",
      "id": 201576,
      "geometry": {
        "type": "Point",
        "coordinates": [
          -97.2728346997999,
          28.2967645996472
        ]
      },
      "properties": {
        "OBJECTID": 201576,
        "CROSSING": "427569B",
        "EFFDATE": 1777507200000,
        "REASON": "14",
        "StateCode": "48",
        "CountyCode": "48391",
        "STCYFIPS": "48391",
        "CITYCD": "483915700",
        "RAILROAD": "UP",
        "RRDIV": "GULF COAST",
        "RRSUBDIV": "BROWNSVILLE SUB",
        "HIGHWAY": "LS0000",
        "STREET": "E PURISIMA STREET",
        "TTSTN": "688450",
        "MILEPOST": "0185.380",
        "TYPEXING": "Public",
        "POSXING": "At Grade",
        "PRVCAT": "14",
        "INIT": "2",
        "LATITUDE": 28.2967646,
        "LONGITUD": -97.2728347,
        "LLSOURCE": "1",
        "WHISTBAN": "0",
        "RRCONT": "4025443721",
        "POLCONT": "8008488715",
        "INV_LINK": "https://safetydata.fra.dot.gov/OfficeofSafety/PublicSite/Crossing/Crossing.aspx?phasetype=C&rpttype=I&txtcrossingnum=427569B",
        "ACC_LINK": "https://safetydata.fra.dot.gov/OfficeofSafety/PublicSite/Crossing/Crossing.aspx?phasetype=C&rpttype=A&txtcrossingnum=427569B",
        "TTSTNNAM": "",
        "XPURPOSE": "1",
        "OPERATINGR": "UP",
        "OPERATIN_1": "Primary",
        "DAYTHRU": 9,
        "NGHTTHRU": 9,
        "MAINTRK": 1,
        "SIDINGTRK": 0,
        "YARDTRK": 0,
        "TRANSITTRK": 0,
        "INDUSTRYTR": 0,
        "OTHRTRK": 0,
        "WDCODE": "All other Gates",
        "REVISIONDA": "1975/01/01 00:00:00",
        "LASTUPDATE": "4/30/2026",
        "AADT": "130",
        "AADTYEAR": "2019",
        "STATENAME": "TEXAS",
        "STATEAB": "TX",
        "COUNTYNAME": "REFUGIO",
        "CITYNAME": "REFUGIO",
        "LATDD": 28.2967646,
        "LONGDD": -97.2728347,
        "gridlyProductionCertified": true,
        "gridlyClassification": "PUBLIC_ROADWAY",
        "gridlyDisplayName": "E PURISIMA STREET",
        "gridlyId": "FRA-427569B"
      }
    },
    {
      "type": "Feature",
      "id": 201988,
      "geometry": {
        "type": "Point",
        "coordinates": [
          -97.2721923998802,
          28.3001456996072
        ]
      },
      "properties": {
        "OBJECTID": 201988,
        "CROSSING": "427566F",
        "EFFDATE": 1777507200000,
        "REASON": "14",
        "StateCode": "48",
        "CountyCode": "48391",
        "STCYFIPS": "48391",
        "CITYCD": "483915700",
        "RAILROAD": "UP",
        "RRDIV": "GULF COAST",
        "RRSUBDIV": "BROWNSVILLE SUB",
        "HIGHWAY": "LS0000",
        "STREET": "EAST NORTH STREET",
        "TTSTN": "688450",
        "MILEPOST": "0185.640",
        "TYPEXING": "Public",
        "POSXING": "At Grade",
        "PRVCAT": "14",
        "INIT": "2",
        "LATITUDE": 28.3001457,
        "LONGITUD": -97.2721924,
        "LLSOURCE": "1",
        "WHISTBAN": "0",
        "RRCONT": "4025443721",
        "POLCONT": "8008488715",
        "INV_LINK": "https://safetydata.fra.dot.gov/OfficeofSafety/PublicSite/Crossing/Crossing.aspx?phasetype=C&rpttype=I&txtcrossingnum=427566F",
        "ACC_LINK": "https://safetydata.fra.dot.gov/OfficeofSafety/PublicSite/Crossing/Crossing.aspx?phasetype=C&rpttype=A&txtcrossingnum=427566F",
        "TTSTNNAM": "",
        "XPURPOSE": "1",
        "OPERATINGR": "UP",
        "OPERATIN_1": "Primary",
        "DAYTHRU": 9,
        "NGHTTHRU": 9,
        "MAINTRK": 1,
        "SIDINGTRK": 0,
        "YARDTRK": 0,
        "TRANSITTRK": 0,
        "INDUSTRYTR": 0,
        "OTHRTRK": 0,
        "WDCODE": "All other Gates",
        "REVISIONDA": "1975/01/01 00:00:00",
        "LASTUPDATE": "4/30/2026",
        "AADT": "165",
        "AADTYEAR": "2019",
        "STATENAME": "TEXAS",
        "STATEAB": "TX",
        "COUNTYNAME": "REFUGIO",
        "CITYNAME": "REFUGIO",
        "LATDD": 28.3001457,
        "LONGDD": -97.2721924,
        "gridlyProductionCertified": true,
        "gridlyClassification": "PUBLIC_ROADWAY",
        "gridlyDisplayName": "EAST NORTH STREET",
        "gridlyId": "FRA-427566F"
      }
    },
    {
      "type": "Feature",
      "id": 204953,
      "geometry": {
        "type": "Point",
        "coordinates": [
          -97.3310012998612,
          28.2402426001973
        ]
      },
      "properties": {
        "OBJECTID": 204953,
        "CROSSING": "427575E",
        "EFFDATE": 1771286400000,
        "REASON": "14",
        "StateCode": "48",
        "CountyCode": "48391",
        "STCYFIPS": "48391",
        "CITYCD": "483917590",
        "RAILROAD": "UP",
        "RRDIV": "GULF COAST",
        "RRSUBDIV": "BROWNSVILLE SUB",
        "HIGHWAY": "FM 0136",
        "STREET": "WOODS/FM 136",
        "TTSTN": "688470",
        "MILEPOST": "0180.030",
        "TYPEXING": "Public",
        "POSXING": "At Grade",
        "PRVCAT": "14",
        "INIT": "2",
        "LATITUDE": 28.2402426,
        "LONGITUD": -97.3310013,
        "LLSOURCE": "1",
        "WHISTBAN": "0",
        "RRCONT": "4025443721",
        "POLCONT": "8008488715",
        "INV_LINK": "https://safetydata.fra.dot.gov/OfficeofSafety/PublicSite/Crossing/Crossing.aspx?phasetype=C&rpttype=I&txtcrossingnum=427575E",
        "ACC_LINK": "https://safetydata.fra.dot.gov/OfficeofSafety/PublicSite/Crossing/Crossing.aspx?phasetype=C&rpttype=A&txtcrossingnum=427575E",
        "TTSTNNAM": "",
        "XPURPOSE": "1",
        "OPERATINGR": "UP",
        "OPERATIN_1": "Primary",
        "DAYTHRU": 9,
        "NGHTTHRU": 9,
        "MAINTRK": 1,
        "SIDINGTRK": 0,
        "YARDTRK": 0,
        "TRANSITTRK": 0,
        "INDUSTRYTR": 0,
        "OTHRTRK": 0,
        "WDCODE": "All other Gates",
        "REVISIONDA": "1975/01/01 00:00:00",
        "LASTUPDATE": "2/17/2026",
        "AADT": "1298",
        "AADTYEAR": "2024",
        "STATENAME": "TEXAS",
        "STATEAB": "TX",
        "COUNTYNAME": "REFUGIO",
        "CITYNAME": "WOODSBORO",
        "LATDD": 28.2402426,
        "LONGDD": -97.3310013,
        "gridlyProductionCertified": true,
        "gridlyClassification": "PUBLIC_ROADWAY",
        "gridlyDisplayName": "WOODS/FM 136",
        "gridlyId": "FRA-427575E"
      }
    },
    {
      "type": "Feature",
      "id": 205365,
      "geometry": {
        "type": "Point",
        "coordinates": [
          -97.3327614004384,
          28.2381873998944
        ]
      },
      "properties": {
        "OBJECTID": 205365,
        "CROSSING": "427576L",
        "EFFDATE": 1771286400000,
        "REASON": "14",
        "StateCode": "48",
        "CountyCode": "48391",
        "STCYFIPS": "48391",
        "CITYCD": "483917590",
        "RAILROAD": "UP",
        "RRDIV": "GULF COAST",
        "RRSUBDIV": "BROWNSVILLE SUB",
        "HIGHWAY": "FM1360",
        "STREET": "FM1360 / LOCKE STREET",
        "TTSTN": "688470",
        "MILEPOST": "0179.850",
        "TYPEXING": "Public",
        "POSXING": "At Grade",
        "PRVCAT": "14",
        "INIT": "2",
        "LATITUDE": 28.2381874,
        "LONGITUD": -97.3327614,
        "LLSOURCE": "1",
        "WHISTBAN": "0",
        "RRCONT": "4025443721",
        "POLCONT": "8008488715",
        "INV_LINK": "https://safetydata.fra.dot.gov/OfficeofSafety/PublicSite/Crossing/Crossing.aspx?phasetype=C&rpttype=I&txtcrossingnum=427576L",
        "ACC_LINK": "https://safetydata.fra.dot.gov/OfficeofSafety/PublicSite/Crossing/Crossing.aspx?phasetype=C&rpttype=A&txtcrossingnum=427576L",
        "TTSTNNAM": "",
        "XPURPOSE": "1",
        "OPERATINGR": "UP",
        "OPERATIN_1": "Primary",
        "DAYTHRU": 9,
        "NGHTTHRU": 9,
        "MAINTRK": 1,
        "SIDINGTRK": 0,
        "YARDTRK": 1,
        "TRANSITTRK": 0,
        "INDUSTRYTR": 0,
        "OTHRTRK": 1,
        "WDCODE": "All other Gates",
        "REVISIONDA": "1975/01/01 00:00:00",
        "LASTUPDATE": "2/17/2026",
        "AADT": "1451",
        "AADTYEAR": "2024",
        "STATENAME": "TEXAS",
        "STATEAB": "TX",
        "COUNTYNAME": "REFUGIO",
        "CITYNAME": "WOODSBORO",
        "LATDD": 28.2381874,
        "LONGDD": -97.3327614,
        "gridlyProductionCertified": true,
        "gridlyClassification": "PUBLIC_ROADWAY",
        "gridlyDisplayName": "FM1360 / LOCKE STREET",
        "gridlyId": "FRA-427576L"
      }
    },
    {
      "type": "Feature",
      "id": 209439,
      "geometry": {
        "type": "Point",
        "coordinates": [
          -97.0437203001719,
          28.5246620000402
        ]
      },
      "properties": {
        "OBJECTID": 209439,
        "CROSSING": "427537V",
        "EFFDATE": 1756339200000,
        "REASON": "14",
        "StateCode": "48",
        "CountyCode": "48469",
        "STCYFIPS": "48469",
        "CITYCD": "483915700",
        "RAILROAD": "UP",
        "RRDIV": "GULF COAST",
        "RRSUBDIV": "BROWNSVILLE SUB",
        "HIGHWAY": "US 0077",
        "STREET": "US 77",
        "TTSTN": "688290",
        "MILEPOST": "0206.570",
        "TYPEXING": "Public",
        "POSXING": "RR Under",
        "PRVCAT": "14",
        "INIT": "1",
        "LATITUDE": 28.524662,
        "LONGITUD": -97.0437203,
        "LLSOURCE": "1",
        "WHISTBAN": "0",
        "RRCONT": "4025443721",
        "POLCONT": "8008488715",
        "INV_LINK": "https://safetydata.fra.dot.gov/OfficeofSafety/PublicSite/Crossing/Crossing.aspx?phasetype=C&rpttype=I&txtcrossingnum=427537V",
        "ACC_LINK": "https://safetydata.fra.dot.gov/OfficeofSafety/PublicSite/Crossing/Crossing.aspx?phasetype=C&rpttype=A&txtcrossingnum=427537V",
        "TTSTNNAM": "",
        "XPURPOSE": "1",
        "OPERATINGR": "UP",
        "OPERATIN_1": "Primary",
        "DAYTHRU": 9,
        "NGHTTHRU": 9,
        "MAINTRK": 1,
        "SIDINGTRK": 0,
        "YARDTRK": 0,
        "TRANSITTRK": 0,
        "INDUSTRYTR": 0,
        "OTHRTRK": 0,
        "WDCODE": "",
        "REVISIONDA": "1975/01/01 00:00:00",
        "LASTUPDATE": "8/28/2025",
        "AADT": "15500",
        "AADTYEAR": "2013",
        "STATENAME": "TEXAS",
        "STATEAB": "TX",
        "COUNTYNAME": "VICTORIA",
        "CITYNAME": "REFUGIO",
        "LATDD": 28.524662,
        "LONGDD": -97.0437203,
        "gridlyProductionCertified": true,
        "gridlyClassification": "PUBLIC_ROADWAY",
        "gridlyDisplayName": "US 77",
        "gridlyId": "FRA-427537V"
      }
    },
    {
      "type": "Feature",
      "id": 209440,
      "geometry": {
        "type": "Point",
        "coordinates": [
          -97.0526908999553,
          28.5161388996859
        ]
      },
      "properties": {
        "OBJECTID": 209440,
        "CROSSING": "427539J",
        "EFFDATE": 1756339200000,
        "REASON": "14",
        "StateCode": "48",
        "CountyCode": "48469",
        "STCYFIPS": "48469",
        "CITYCD": "483915700",
        "RAILROAD": "UP",
        "RRDIV": "GULF COAST",
        "RRSUBDIV": "BROWNSVILLE SUB",
        "HIGHWAY": "NA",
        "STREET": "PRIVATE NORTHERN NATURAL",
        "TTSTN": "688290",
        "MILEPOST": "0205.760",
        "TYPEXING": "Private",
        "POSXING": "At Grade",
        "PRVCAT": "14",
        "INIT": "1",
        "LATITUDE": 28.5161389,
        "LONGITUD": -97.0526909,
        "LLSOURCE": "1",
        "WHISTBAN": "0",
        "RRCONT": "4025443721",
        "POLCONT": "8008488715",
        "INV_LINK": "https://safetydata.fra.dot.gov/OfficeofSafety/PublicSite/Crossing/Crossing.aspx?phasetype=C&rpttype=I&txtcrossingnum=427539J",
        "ACC_LINK": "https://safetydata.fra.dot.gov/OfficeofSafety/PublicSite/Crossing/Crossing.aspx?phasetype=C&rpttype=A&txtcrossingnum=427539J",
        "TTSTNNAM": "",
        "XPURPOSE": "1",
        "OPERATINGR": "UP",
        "OPERATIN_1": "Primary",
        "DAYTHRU": 9,
        "NGHTTHRU": 9,
        "MAINTRK": 1,
        "SIDINGTRK": 1,
        "YARDTRK": 0,
        "TRANSITTRK": 0,
        "INDUSTRYTR": 0,
        "OTHRTRK": 0,
        "WDCODE": "",
        "REVISIONDA": "1975/01/01 00:00:00",
        "LASTUPDATE": "8/28/2025",
        "AADT": "1",
        "AADTYEAR": "1970",
        "STATENAME": "TEXAS",
        "STATEAB": "TX",
        "COUNTYNAME": "VICTORIA",
        "CITYNAME": "REFUGIO",
        "LATDD": 28.5161389,
        "LONGDD": -97.0526909,
        "gridlyProductionCertified": true,
        "gridlyClassification": "PUBLIC_ROADWAY",
        "gridlyDisplayName": "PRIVATE NORTHERN NATURAL",
        "gridlyId": "FRA-427539J"
      }
    },
    {
      "type": "Feature",
      "id": 209445,
      "geometry": {
        "type": "Point",
        "coordinates": [
          -97.0756506995536,
          28.4947058997208
        ]
      },
      "properties": {
        "OBJECTID": 209445,
        "CROSSING": "427540D",
        "EFFDATE": 1756339200000,
        "REASON": "14",
        "StateCode": "48",
        "CountyCode": "48469",
        "STCYFIPS": "48469",
        "CITYCD": "483915700",
        "RAILROAD": "UP",
        "RRDIV": "GULF COAST",
        "RRSUBDIV": "BROWNSVILLE SUB",
        "HIGHWAY": "NA",
        "STREET": "PRIVATE",
        "TTSTN": "688290",
        "MILEPOST": "0203.730",
        "TYPEXING": "Private",
        "POSXING": "At Grade",
        "PRVCAT": "14",
        "INIT": "1",
        "LATITUDE": 28.4947059,
        "LONGITUD": -97.0756507,
        "LLSOURCE": "1",
        "WHISTBAN": "0",
        "RRCONT": "4025443721",
        "POLCONT": "8008488715",
        "INV_LINK": "https://safetydata.fra.dot.gov/OfficeofSafety/PublicSite/Crossing/Crossing.aspx?phasetype=C&rpttype=I&txtcrossingnum=427540D",
        "ACC_LINK": "https://safetydata.fra.dot.gov/OfficeofSafety/PublicSite/Crossing/Crossing.aspx?phasetype=C&rpttype=A&txtcrossingnum=427540D",
        "TTSTNNAM": "",
        "XPURPOSE": "1",
        "OPERATINGR": "UP",
        "OPERATIN_1": "Primary",
        "DAYTHRU": 9,
        "NGHTTHRU": 9,
        "MAINTRK": 1,
        "SIDINGTRK": 0,
        "YARDTRK": 0,
        "TRANSITTRK": 0,
        "INDUSTRYTR": 0,
        "OTHRTRK": 0,
        "WDCODE": "",
        "REVISIONDA": "1975/01/01 00:00:00",
        "LASTUPDATE": "8/28/2025",
        "AADT": "1",
        "AADTYEAR": "1970",
        "STATENAME": "TEXAS",
        "STATEAB": "TX",
        "COUNTYNAME": "VICTORIA",
        "CITYNAME": "REFUGIO",
        "LATDD": 28.4947059,
        "LONGDD": -97.0756507,
        "gridlyProductionCertified": true,
        "gridlyClassification": "PUBLIC_ROADWAY",
        "gridlyDisplayName": "PRIVATE",
        "gridlyId": "FRA-427540D"
      }
    },
    {
      "type": "Feature",
      "id": 209451,
      "geometry": {
        "type": "Point",
        "coordinates": [
          -97.1284811002147,
          28.4454877999201
        ]
      },
      "properties": {
        "OBJECTID": 209451,
        "CROSSING": "427543Y",
        "EFFDATE": 1756339200000,
        "REASON": "14",
        "StateCode": "48",
        "CountyCode": "48391",
        "STCYFIPS": "48391",
        "CITYCD": "483915700",
        "RAILROAD": "UP",
        "RRDIV": "GULF COAST",
        "RRSUBDIV": "BROWNSVILLE SUB",
        "HIGHWAY": "NA",
        "STREET": "PRIVATE",
        "TTSTN": "688290",
        "MILEPOST": "0199.060",
        "TYPEXING": "Private",
        "POSXING": "At Grade",
        "PRVCAT": "14",
        "INIT": "1",
        "LATITUDE": 28.4454878,
        "LONGITUD": -97.1284811,
        "LLSOURCE": "1",
        "WHISTBAN": "0",
        "RRCONT": "4025443721",
        "POLCONT": "8008488715",
        "INV_LINK": "https://safetydata.fra.dot.gov/OfficeofSafety/PublicSite/Crossing/Crossing.aspx?phasetype=C&rpttype=I&txtcrossingnum=427543Y",
        "ACC_LINK": "https://safetydata.fra.dot.gov/OfficeofSafety/PublicSite/Crossing/Crossing.aspx?phasetype=C&rpttype=A&txtcrossingnum=427543Y",
        "TTSTNNAM": "",
        "XPURPOSE": "1",
        "OPERATINGR": "UP",
        "OPERATIN_1": "Primary",
        "DAYTHRU": 9,
        "NGHTTHRU": 9,
        "MAINTRK": 1,
        "SIDINGTRK": 0,
        "YARDTRK": 0,
        "TRANSITTRK": 0,
        "INDUSTRYTR": 0,
        "OTHRTRK": 0,
        "WDCODE": "",
        "REVISIONDA": "1975/01/01 00:00:00",
        "LASTUPDATE": "8/28/2025",
        "AADT": "1",
        "AADTYEAR": "1970",
        "STATENAME": "TEXAS",
        "STATEAB": "TX",
        "COUNTYNAME": "REFUGIO",
        "CITYNAME": "REFUGIO",
        "LATDD": 28.4454878,
        "LONGDD": -97.1284811,
        "gridlyProductionCertified": true,
        "gridlyClassification": "PUBLIC_ROADWAY",
        "gridlyDisplayName": "PRIVATE",
        "gridlyId": "FRA-427543Y"
      }
    },
    {
      "type": "Feature",
      "id": 209452,
      "geometry": {
        "type": "Point",
        "coordinates": [
          -97.1466429996772,
          28.4285591000509
        ]
      },
      "properties": {
        "OBJECTID": 209452,
        "CROSSING": "427546U",
        "EFFDATE": 1756339200000,
        "REASON": "14",
        "StateCode": "48",
        "CountyCode": "48391",
        "STCYFIPS": "48391",
        "CITYCD": "483915700",
        "RAILROAD": "UP",
        "RRDIV": "GULF COAST",
        "RRSUBDIV": "BROWNSVILLE SUB",
        "HIGHWAY": "CO 0000",
        "STREET": "VIDAURRI STREET",
        "TTSTN": "688440",
        "MILEPOST": "0197.430",
        "TYPEXING": "Private",
        "POSXING": "At Grade",
        "PRVCAT": "14",
        "INIT": "1",
        "LATITUDE": 28.4285591,
        "LONGITUD": -97.146643,
        "LLSOURCE": "1",
        "WHISTBAN": "0",
        "RRCONT": "4025443721",
        "POLCONT": "8008488715",
        "INV_LINK": "https://safetydata.fra.dot.gov/OfficeofSafety/PublicSite/Crossing/Crossing.aspx?phasetype=C&rpttype=I&txtcrossingnum=427546U",
        "ACC_LINK": "https://safetydata.fra.dot.gov/OfficeofSafety/PublicSite/Crossing/Crossing.aspx?phasetype=C&rpttype=A&txtcrossingnum=427546U",
        "TTSTNNAM": "",
        "XPURPOSE": "1",
        "OPERATINGR": "UP",
        "OPERATIN_1": "Primary",
        "DAYTHRU": 9,
        "NGHTTHRU": 9,
        "MAINTRK": 1,
        "SIDINGTRK": 0,
        "YARDTRK": 0,
        "TRANSITTRK": 0,
        "INDUSTRYTR": 0,
        "OTHRTRK": 0,
        "WDCODE": "",
        "REVISIONDA": "1975/01/01 00:00:00",
        "LASTUPDATE": "8/28/2025",
        "AADT": "1",
        "AADTYEAR": "1990",
        "STATENAME": "TEXAS",
        "STATEAB": "TX",
        "COUNTYNAME": "REFUGIO",
        "CITYNAME": "REFUGIO",
        "LATDD": 28.4285591,
        "LONGDD": -97.146643,
        "gridlyProductionCertified": true,
        "gridlyClassification": "PUBLIC_ROADWAY",
        "gridlyDisplayName": "VIDAURRI STREET",
        "gridlyId": "FRA-427546U"
      }
    },
    {
      "type": "Feature",
      "id": 209453,
      "geometry": {
        "type": "Point",
        "coordinates": [
          -97.1549765996011,
          28.4207906002324
        ]
      },
      "properties": {
        "OBJECTID": 209453,
        "CROSSING": "427547B",
        "EFFDATE": 1756339200000,
        "REASON": "14",
        "StateCode": "48",
        "CountyCode": "48391",
        "STCYFIPS": "48391",
        "CITYCD": "483915700",
        "RAILROAD": "UP",
        "RRDIV": "GULF COAST",
        "RRSUBDIV": "BROWNSVILLE SUB",
        "HIGHWAY": "NA",
        "STREET": "PRIVATE",
        "TTSTN": "688440",
        "MILEPOST": "0196.690",
        "TYPEXING": "Private",
        "POSXING": "At Grade",
        "PRVCAT": "14",
        "INIT": "1",
        "LATITUDE": 28.4207906,
        "LONGITUD": -97.1549766,
        "LLSOURCE": "1",
        "WHISTBAN": "0",
        "RRCONT": "4025443721",
        "POLCONT": "8008488715",
        "INV_LINK": "https://safetydata.fra.dot.gov/OfficeofSafety/PublicSite/Crossing/Crossing.aspx?phasetype=C&rpttype=I&txtcrossingnum=427547B",
        "ACC_LINK": "https://safetydata.fra.dot.gov/OfficeofSafety/PublicSite/Crossing/Crossing.aspx?phasetype=C&rpttype=A&txtcrossingnum=427547B",
        "TTSTNNAM": "",
        "XPURPOSE": "1",
        "OPERATINGR": "UP",
        "OPERATIN_1": "Primary",
        "DAYTHRU": 9,
        "NGHTTHRU": 9,
        "MAINTRK": 1,
        "SIDINGTRK": 0,
        "YARDTRK": 0,
        "TRANSITTRK": 0,
        "INDUSTRYTR": 0,
        "OTHRTRK": 0,
        "WDCODE": "",
        "REVISIONDA": "1975/01/01 00:00:00",
        "LASTUPDATE": "8/28/2025",
        "AADT": "1",
        "AADTYEAR": "1970",
        "STATENAME": "TEXAS",
        "STATEAB": "TX",
        "COUNTYNAME": "REFUGIO",
        "CITYNAME": "REFUGIO",
        "LATDD": 28.4207906,
        "LONGDD": -97.1549766,
        "gridlyProductionCertified": true,
        "gridlyClassification": "PUBLIC_ROADWAY",
        "gridlyDisplayName": "PRIVATE",
        "gridlyId": "FRA-427547B"
      }
    },
    {
      "type": "Feature",
      "id": 209454,
      "geometry": {
        "type": "Point",
        "coordinates": [
          -97.1716533000313,
          28.405238400092
        ]
      },
      "properties": {
        "OBJECTID": 209454,
        "CROSSING": "427548H",
        "EFFDATE": 1756339200000,
        "REASON": "14",
        "StateCode": "48",
        "CountyCode": "48391",
        "STCYFIPS": "48391",
        "CITYCD": "483915700",
        "RAILROAD": "UP",
        "RRDIV": "GULF COAST",
        "RRSUBDIV": "BROWNSVILLE SUB",
        "HIGHWAY": "NA",
        "STREET": "PRIVATE HEADQUARTERS",
        "TTSTN": "688440",
        "MILEPOST": "0195.240",
        "TYPEXING": "Private",
        "POSXING": "At Grade",
        "PRVCAT": "14",
        "INIT": "1",
        "LATITUDE": 28.4052384,
        "LONGITUD": -97.1716533,
        "LLSOURCE": "1",
        "WHISTBAN": "0",
        "RRCONT": "4025443721",
        "POLCONT": "8008488715",
        "INV_LINK": "https://safetydata.fra.dot.gov/OfficeofSafety/PublicSite/Crossing/Crossing.aspx?phasetype=C&rpttype=I&txtcrossingnum=427548H",
        "ACC_LINK": "https://safetydata.fra.dot.gov/OfficeofSafety/PublicSite/Crossing/Crossing.aspx?phasetype=C&rpttype=A&txtcrossingnum=427548H",
        "TTSTNNAM": "",
        "XPURPOSE": "1",
        "OPERATINGR": "UP",
        "OPERATIN_1": "Primary",
        "DAYTHRU": 9,
        "NGHTTHRU": 9,
        "MAINTRK": 1,
        "SIDINGTRK": 0,
        "YARDTRK": 0,
        "TRANSITTRK": 0,
        "INDUSTRYTR": 0,
        "OTHRTRK": 0,
        "WDCODE": "",
        "REVISIONDA": "1975/01/01 00:00:00",
        "LASTUPDATE": "8/28/2025",
        "AADT": "10",
        "AADTYEAR": "1978",
        "STATENAME": "TEXAS",
        "STATEAB": "TX",
        "COUNTYNAME": "REFUGIO",
        "CITYNAME": "REFUGIO",
        "LATDD": 28.4052384,
        "LONGDD": -97.1716533,
        "gridlyProductionCertified": true,
        "gridlyClassification": "PUBLIC_ROADWAY",
        "gridlyDisplayName": "PRIVATE HEADQUARTERS",
        "gridlyId": "FRA-427548H"
      }
    },
    {
      "type": "Feature",
      "id": 209455,
      "geometry": {
        "type": "Point",
        "coordinates": [
          -97.1807762999009,
          28.3967263996099
        ]
      },
      "properties": {
        "OBJECTID": 209455,
        "CROSSING": "427549P",
        "EFFDATE": 1756339200000,
        "REASON": "14",
        "StateCode": "48",
        "CountyCode": "48391",
        "STCYFIPS": "48391",
        "CITYCD": "483915700",
        "RAILROAD": "UP",
        "RRDIV": "GULF COAST",
        "RRSUBDIV": "BROWNSVILLE SUB",
        "HIGHWAY": "PRIVATE",
        "STREET": "Private",
        "TTSTN": "688440",
        "MILEPOST": "0194.430",
        "TYPEXING": "Private",
        "POSXING": "At Grade",
        "PRVCAT": "14",
        "INIT": "1",
        "LATITUDE": 28.3967264,
        "LONGITUD": -97.1807763,
        "LLSOURCE": "1",
        "WHISTBAN": "0",
        "RRCONT": "4025443721",
        "POLCONT": "8008488715",
        "INV_LINK": "https://safetydata.fra.dot.gov/OfficeofSafety/PublicSite/Crossing/Crossing.aspx?phasetype=C&rpttype=I&txtcrossingnum=427549P",
        "ACC_LINK": "https://safetydata.fra.dot.gov/OfficeofSafety/PublicSite/Crossing/Crossing.aspx?phasetype=C&rpttype=A&txtcrossingnum=427549P",
        "TTSTNNAM": "",
        "XPURPOSE": "1",
        "OPERATINGR": "UP",
        "OPERATIN_1": "Primary",
        "DAYTHRU": 9,
        "NGHTTHRU": 9,
        "MAINTRK": 1,
        "SIDINGTRK": 0,
        "YARDTRK": 0,
        "TRANSITTRK": 0,
        "INDUSTRYTR": 0,
        "OTHRTRK": 0,
        "WDCODE": "",
        "REVISIONDA": "1975/01/01 00:00:00",
        "LASTUPDATE": "8/28/2025",
        "AADT": "10",
        "AADTYEAR": "1978",
        "STATENAME": "TEXAS",
        "STATEAB": "TX",
        "COUNTYNAME": "REFUGIO",
        "CITYNAME": "REFUGIO",
        "LATDD": 28.3967264,
        "LONGDD": -97.1807763,
        "gridlyProductionCertified": true,
        "gridlyClassification": "PUBLIC_ROADWAY",
        "gridlyDisplayName": "Private",
        "gridlyId": "FRA-427549P"
      }
    },
    {
      "type": "Feature",
      "id": 209457,
      "geometry": {
        "type": "Point",
        "coordinates": [
          -97.1913318000351,
          28.3868197001467
        ]
      },
      "properties": {
        "OBJECTID": 209457,
        "CROSSING": "427552X",
        "EFFDATE": 1756339200000,
        "REASON": "14",
        "StateCode": "48",
        "CountyCode": "48391",
        "STCYFIPS": "48391",
        "CITYCD": "483915700",
        "RAILROAD": "UP",
        "RRDIV": "GULF COAST",
        "RRSUBDIV": "BROWNSVILLE SUB",
        "HIGHWAY": "NA",
        "STREET": "PRIVATE",
        "TTSTN": "688440",
        "MILEPOST": "0193.490",
        "TYPEXING": "Private",
        "POSXING": "At Grade",
        "PRVCAT": "14",
        "INIT": "1",
        "LATITUDE": 28.3868197,
        "LONGITUD": -97.1913318,
        "LLSOURCE": "1",
        "WHISTBAN": "0",
        "RRCONT": "4025443721",
        "POLCONT": "8008488715",
        "INV_LINK": "https://safetydata.fra.dot.gov/OfficeofSafety/PublicSite/Crossing/Crossing.aspx?phasetype=C&rpttype=I&txtcrossingnum=427552X",
        "ACC_LINK": "https://safetydata.fra.dot.gov/OfficeofSafety/PublicSite/Crossing/Crossing.aspx?phasetype=C&rpttype=A&txtcrossingnum=427552X",
        "TTSTNNAM": "",
        "XPURPOSE": "1",
        "OPERATINGR": "UP",
        "OPERATIN_1": "Primary",
        "DAYTHRU": 9,
        "NGHTTHRU": 9,
        "MAINTRK": 1,
        "SIDINGTRK": 1,
        "YARDTRK": 0,
        "TRANSITTRK": 0,
        "INDUSTRYTR": 0,
        "OTHRTRK": 1,
        "WDCODE": "",
        "REVISIONDA": "1975/01/01 00:00:00",
        "LASTUPDATE": "8/28/2025",
        "AADT": "10",
        "AADTYEAR": "1978",
        "STATENAME": "TEXAS",
        "STATEAB": "TX",
        "COUNTYNAME": "REFUGIO",
        "CITYNAME": "REFUGIO",
        "LATDD": 28.3868197,
        "LONGDD": -97.1913318,
        "gridlyProductionCertified": true,
        "gridlyClassification": "PUBLIC_ROADWAY",
        "gridlyDisplayName": "PRIVATE",
        "gridlyId": "FRA-427552X"
      }
    },
    {
      "type": "Feature",
      "id": 209460,
      "geometry": {
        "type": "Point",
        "coordinates": [
          -97.2014892997859,
          28.3774026003721
        ]
      },
      "properties": {
        "OBJECTID": 209460,
        "CROSSING": "427553E",
        "EFFDATE": 1756339200000,
        "REASON": "14",
        "StateCode": "48",
        "CountyCode": "48391",
        "STCYFIPS": "48391",
        "CITYCD": "483915700",
        "RAILROAD": "UP",
        "RRDIV": "GULF COAST",
        "RRSUBDIV": "BROWNSVILLE SUB",
        "HIGHWAY": "NA",
        "STREET": "PRIVATE",
        "TTSTN": "688440",
        "MILEPOST": "0192.590",
        "TYPEXING": "Private",
        "POSXING": "At Grade",
        "PRVCAT": "14",
        "INIT": "1",
        "LATITUDE": 28.3774026,
        "LONGITUD": -97.2014893,
        "LLSOURCE": "1",
        "WHISTBAN": "0",
        "RRCONT": "4025443721",
        "POLCONT": "8008488715",
        "INV_LINK": "https://safetydata.fra.dot.gov/OfficeofSafety/PublicSite/Crossing/Crossing.aspx?phasetype=C&rpttype=I&txtcrossingnum=427553E",
        "ACC_LINK": "https://safetydata.fra.dot.gov/OfficeofSafety/PublicSite/Crossing/Crossing.aspx?phasetype=C&rpttype=A&txtcrossingnum=427553E",
        "TTSTNNAM": "",
        "XPURPOSE": "1",
        "OPERATINGR": "UP",
        "OPERATIN_1": "Primary",
        "DAYTHRU": 9,
        "NGHTTHRU": 9,
        "MAINTRK": 1,
        "SIDINGTRK": 1,
        "YARDTRK": 0,
        "TRANSITTRK": 0,
        "INDUSTRYTR": 0,
        "OTHRTRK": 0,
        "WDCODE": "",
        "REVISIONDA": "1975/01/01 00:00:00",
        "LASTUPDATE": "8/28/2025",
        "AADT": "1",
        "AADTYEAR": "1970",
        "STATENAME": "TEXAS",
        "STATEAB": "TX",
        "COUNTYNAME": "REFUGIO",
        "CITYNAME": "REFUGIO",
        "LATDD": 28.3774026,
        "LONGDD": -97.2014893,
        "gridlyProductionCertified": true,
        "gridlyClassification": "PUBLIC_ROADWAY",
        "gridlyDisplayName": "PRIVATE",
        "gridlyId": "FRA-427553E"
      }
    },
    {
      "type": "Feature",
      "id": 209461,
      "geometry": {
        "type": "Point",
        "coordinates": [
          -97.2125424001121,
          28.3670897999409
        ]
      },
      "properties": {
        "OBJECTID": 209461,
        "CROSSING": "427554L",
        "EFFDATE": 1756339200000,
        "REASON": "14",
        "StateCode": "48",
        "CountyCode": "48391",
        "STCYFIPS": "48391",
        "CITYCD": "483915700",
        "RAILROAD": "UP",
        "RRDIV": "GULF COAST",
        "RRSUBDIV": "BROWNSVILLE SUB",
        "HIGHWAY": "NA",
        "STREET": "PRIVATE",
        "TTSTN": "688440",
        "MILEPOST": "0191.610",
        "TYPEXING": "Private",
        "POSXING": "At Grade",
        "PRVCAT": "14",
        "INIT": "1",
        "LATITUDE": 28.3670898,
        "LONGITUD": -97.2125424,
        "LLSOURCE": "1",
        "WHISTBAN": "0",
        "RRCONT": "4025443721",
        "POLCONT": "8008488715",
        "INV_LINK": "https://safetydata.fra.dot.gov/OfficeofSafety/PublicSite/Crossing/Crossing.aspx?phasetype=C&rpttype=I&txtcrossingnum=427554L",
        "ACC_LINK": "https://safetydata.fra.dot.gov/OfficeofSafety/PublicSite/Crossing/Crossing.aspx?phasetype=C&rpttype=A&txtcrossingnum=427554L",
        "TTSTNNAM": "",
        "XPURPOSE": "1",
        "OPERATINGR": "UP",
        "OPERATIN_1": "Primary",
        "DAYTHRU": 9,
        "NGHTTHRU": 9,
        "MAINTRK": 1,
        "SIDINGTRK": 1,
        "YARDTRK": 0,
        "TRANSITTRK": 0,
        "INDUSTRYTR": 0,
        "OTHRTRK": 0,
        "WDCODE": "",
        "REVISIONDA": "1975/01/01 00:00:00",
        "LASTUPDATE": "8/28/2025",
        "AADT": "1",
        "AADTYEAR": "1970",
        "STATENAME": "TEXAS",
        "STATEAB": "TX",
        "COUNTYNAME": "REFUGIO",
        "CITYNAME": "REFUGIO",
        "LATDD": 28.3670898,
        "LONGDD": -97.2125424,
        "gridlyProductionCertified": true,
        "gridlyClassification": "PUBLIC_ROADWAY",
        "gridlyDisplayName": "PRIVATE",
        "gridlyId": "FRA-427554L"
      }
    },
    {
      "type": "Feature",
      "id": 209466,
      "geometry": {
        "type": "Point",
        "coordinates": [
          -97.2263747998925,
          28.3541892000084
        ]
      },
      "properties": {
        "OBJECTID": 209466,
        "CROSSING": "427556A",
        "EFFDATE": 1756339200000,
        "REASON": "14",
        "StateCode": "48",
        "CountyCode": "48391",
        "STCYFIPS": "48391",
        "CITYCD": "483915700",
        "RAILROAD": "UP",
        "RRDIV": "GULF COAST",
        "RRSUBDIV": "BROWNSVILLE SUB",
        "HIGHWAY": "NA",
        "STREET": "PRIVATE REFCO",
        "TTSTN": "688440",
        "MILEPOST": "0190.380",
        "TYPEXING": "Private",
        "POSXING": "At Grade",
        "PRVCAT": "14",
        "INIT": "1",
        "LATITUDE": 28.3541892,
        "LONGITUD": -97.2263748,
        "LLSOURCE": "1",
        "WHISTBAN": "0",
        "RRCONT": "4025443721",
        "POLCONT": "8008488715",
        "INV_LINK": "https://safetydata.fra.dot.gov/OfficeofSafety/PublicSite/Crossing/Crossing.aspx?phasetype=C&rpttype=I&txtcrossingnum=427556A",
        "ACC_LINK": "https://safetydata.fra.dot.gov/OfficeofSafety/PublicSite/Crossing/Crossing.aspx?phasetype=C&rpttype=A&txtcrossingnum=427556A",
        "TTSTNNAM": "",
        "XPURPOSE": "1",
        "OPERATINGR": "UP",
        "OPERATIN_1": "Primary",
        "DAYTHRU": 9,
        "NGHTTHRU": 9,
        "MAINTRK": 1,
        "SIDINGTRK": 0,
        "YARDTRK": 0,
        "TRANSITTRK": 0,
        "INDUSTRYTR": 0,
        "OTHRTRK": 0,
        "WDCODE": "",
        "REVISIONDA": "1975/01/01 00:00:00",
        "LASTUPDATE": "8/28/2025",
        "AADT": "1",
        "AADTYEAR": "1970",
        "STATENAME": "TEXAS",
        "STATEAB": "TX",
        "COUNTYNAME": "REFUGIO",
        "CITYNAME": "REFUGIO",
        "LATDD": 28.3541892,
        "LONGDD": -97.2263748,
        "gridlyProductionCertified": true,
        "gridlyClassification": "PUBLIC_ROADWAY",
        "gridlyDisplayName": "PRIVATE REFCO",
        "gridlyId": "FRA-427556A"
      }
    },
    {
      "type": "Feature",
      "id": 209467,
      "geometry": {
        "type": "Point",
        "coordinates": [
          -97.2313642001857,
          28.34953720007
        ]
      },
      "properties": {
        "OBJECTID": 209467,
        "CROSSING": "427557G",
        "EFFDATE": 1756339200000,
        "REASON": "14",
        "StateCode": "48",
        "CountyCode": "48391",
        "STCYFIPS": "48391",
        "CITYCD": "483915700",
        "RAILROAD": "UP",
        "RRDIV": "GULF COAST",
        "RRSUBDIV": "BROWNSVILLE SUB",
        "HIGHWAY": "NA",
        "STREET": "PRIVATE",
        "TTSTN": "688440",
        "MILEPOST": "0189.940",
        "TYPEXING": "Private",
        "POSXING": "At Grade",
        "PRVCAT": "14",
        "INIT": "1",
        "LATITUDE": 28.3495372,
        "LONGITUD": -97.2313642,
        "LLSOURCE": "1",
        "WHISTBAN": "0",
        "RRCONT": "4025443721",
        "POLCONT": "8008488715",
        "INV_LINK": "https://safetydata.fra.dot.gov/OfficeofSafety/PublicSite/Crossing/Crossing.aspx?phasetype=C&rpttype=I&txtcrossingnum=427557G",
        "ACC_LINK": "https://safetydata.fra.dot.gov/OfficeofSafety/PublicSite/Crossing/Crossing.aspx?phasetype=C&rpttype=A&txtcrossingnum=427557G",
        "TTSTNNAM": "",
        "XPURPOSE": "1",
        "OPERATINGR": "UP",
        "OPERATIN_1": "Primary",
        "DAYTHRU": 9,
        "NGHTTHRU": 9,
        "MAINTRK": 1,
        "SIDINGTRK": 0,
        "YARDTRK": 0,
        "TRANSITTRK": 0,
        "INDUSTRYTR": 0,
        "OTHRTRK": 0,
        "WDCODE": "",
        "REVISIONDA": "1975/01/01 00:00:00",
        "LASTUPDATE": "8/28/2025",
        "AADT": "1",
        "AADTYEAR": "1970",
        "STATENAME": "TEXAS",
        "STATEAB": "TX",
        "COUNTYNAME": "REFUGIO",
        "CITYNAME": "REFUGIO",
        "LATDD": 28.3495372,
        "LONGDD": -97.2313642,
        "gridlyProductionCertified": true,
        "gridlyClassification": "PUBLIC_ROADWAY",
        "gridlyDisplayName": "PRIVATE",
        "gridlyId": "FRA-427557G"
      }
    },
    {
      "type": "Feature",
      "id": 209468,
      "geometry": {
        "type": "Point",
        "coordinates": [
          -97.2475953003023,
          28.3339003002387
        ]
      },
      "properties": {
        "OBJECTID": 209468,
        "CROSSING": "427558N",
        "EFFDATE": 1756339200000,
        "REASON": "14",
        "StateCode": "48",
        "CountyCode": "48391",
        "STCYFIPS": "48391",
        "CITYCD": "483915700",
        "RAILROAD": "UP",
        "RRDIV": "GULF COAST",
        "RRSUBDIV": "BROWNSVILLE SUB",
        "HIGHWAY": "NA",
        "STREET": "PRIVATE",
        "TTSTN": "688450",
        "MILEPOST": "0188.490",
        "TYPEXING": "Private",
        "POSXING": "At Grade",
        "PRVCAT": "14",
        "INIT": "1",
        "LATITUDE": 28.3339003,
        "LONGITUD": -97.2475953,
        "LLSOURCE": "1",
        "WHISTBAN": "0",
        "RRCONT": "4025443721",
        "POLCONT": "8008488715",
        "INV_LINK": "https://safetydata.fra.dot.gov/OfficeofSafety/PublicSite/Crossing/Crossing.aspx?phasetype=C&rpttype=I&txtcrossingnum=427558N",
        "ACC_LINK": "https://safetydata.fra.dot.gov/OfficeofSafety/PublicSite/Crossing/Crossing.aspx?phasetype=C&rpttype=A&txtcrossingnum=427558N",
        "TTSTNNAM": "",
        "XPURPOSE": "1",
        "OPERATINGR": "UP",
        "OPERATIN_1": "Primary",
        "DAYTHRU": 9,
        "NGHTTHRU": 9,
        "MAINTRK": 1,
        "SIDINGTRK": 0,
        "YARDTRK": 0,
        "TRANSITTRK": 0,
        "INDUSTRYTR": 0,
        "OTHRTRK": 0,
        "WDCODE": "",
        "REVISIONDA": "1975/01/01 00:00:00",
        "LASTUPDATE": "8/28/2025",
        "AADT": "1",
        "AADTYEAR": "1970",
        "STATENAME": "TEXAS",
        "STATEAB": "TX",
        "COUNTYNAME": "REFUGIO",
        "CITYNAME": "REFUGIO",
        "LATDD": 28.3339003,
        "LONGDD": -97.2475953,
        "gridlyProductionCertified": true,
        "gridlyClassification": "PUBLIC_ROADWAY",
        "gridlyDisplayName": "PRIVATE",
        "gridlyId": "FRA-427558N"
      }
    },
    {
      "type": "Feature",
      "id": 209476,
      "geometry": {
        "type": "Point",
        "coordinates": [
          -97.2498367002425,
          28.3317956002347
        ]
      },
      "properties": {
        "OBJECTID": 209476,
        "CROSSING": "427559V",
        "EFFDATE": 1756339200000,
        "REASON": "14",
        "StateCode": "48",
        "CountyCode": "48391",
        "STCYFIPS": "48391",
        "CITYCD": "483915700",
        "RAILROAD": "UP",
        "RRDIV": "GULF COAST",
        "RRSUBDIV": "BROWNSVILLE SUB",
        "HIGHWAY": "US 0077",
        "STREET": "US 77",
        "TTSTN": "688450",
        "MILEPOST": "0188.290",
        "TYPEXING": "Public",
        "POSXING": "RR Over",
        "PRVCAT": "14",
        "INIT": "1",
        "LATITUDE": 28.3317956,
        "LONGITUD": -97.2498367,
        "LLSOURCE": "1",
        "WHISTBAN": "0",
        "RRCONT": "4025443721",
        "POLCONT": "8008488715",
        "INV_LINK": "https://safetydata.fra.dot.gov/OfficeofSafety/PublicSite/Crossing/Crossing.aspx?phasetype=C&rpttype=I&txtcrossingnum=427559V",
        "ACC_LINK": "https://safetydata.fra.dot.gov/OfficeofSafety/PublicSite/Crossing/Crossing.aspx?phasetype=C&rpttype=A&txtcrossingnum=427559V",
        "TTSTNNAM": "",
        "XPURPOSE": "1",
        "OPERATINGR": "UP",
        "OPERATIN_1": "Primary",
        "DAYTHRU": 7,
        "NGHTTHRU": 6,
        "MAINTRK": 1,
        "SIDINGTRK": 0,
        "YARDTRK": 0,
        "TRANSITTRK": 0,
        "INDUSTRYTR": 0,
        "OTHRTRK": 0,
        "WDCODE": "",
        "REVISIONDA": "1975/01/01 00:00:00",
        "LASTUPDATE": "8/28/2025",
        "AADT": "14900",
        "AADTYEAR": "2011",
        "STATENAME": "TEXAS",
        "STATEAB": "TX",
        "COUNTYNAME": "REFUGIO",
        "CITYNAME": "REFUGIO",
        "LATDD": 28.3317956,
        "LONGDD": -97.2498367,
        "gridlyProductionCertified": true,
        "gridlyClassification": "PUBLIC_ROADWAY",
        "gridlyDisplayName": "US 77",
        "gridlyId": "FRA-427559V"
      }
    },
    {
      "type": "Feature",
      "id": 209480,
      "geometry": {
        "type": "Point",
        "coordinates": [
          -97.0957084997114,
          28.4760266001313
        ]
      },
      "properties": {
        "OBJECTID": 209480,
        "CROSSING": "427541K",
        "EFFDATE": 1756339200000,
        "REASON": "14",
        "StateCode": "48",
        "CountyCode": "48469",
        "STCYFIPS": "48469",
        "CITYCD": "484694213",
        "RAILROAD": "UP",
        "RRDIV": "GULF COAST",
        "RRSUBDIV": "BROWNSVILLE SUB",
        "HIGHWAY": "NA",
        "STREET": "PRIVATE",
        "TTSTN": "688290",
        "MILEPOST": "0201.960",
        "TYPEXING": "Private",
        "POSXING": "At Grade",
        "PRVCAT": "14",
        "INIT": "1",
        "LATITUDE": 28.4760266,
        "LONGITUD": -97.0957085,
        "LLSOURCE": "1",
        "WHISTBAN": "0",
        "RRCONT": "4025443721",
        "POLCONT": "8008488715",
        "INV_LINK": "https://safetydata.fra.dot.gov/OfficeofSafety/PublicSite/Crossing/Crossing.aspx?phasetype=C&rpttype=I&txtcrossingnum=427541K",
        "ACC_LINK": "https://safetydata.fra.dot.gov/OfficeofSafety/PublicSite/Crossing/Crossing.aspx?phasetype=C&rpttype=A&txtcrossingnum=427541K",
        "TTSTNNAM": "",
        "XPURPOSE": "1",
        "OPERATINGR": "UP",
        "OPERATIN_1": "Primary",
        "DAYTHRU": 9,
        "NGHTTHRU": 9,
        "MAINTRK": 1,
        "SIDINGTRK": 0,
        "YARDTRK": 0,
        "TRANSITTRK": 0,
        "INDUSTRYTR": 0,
        "OTHRTRK": 0,
        "WDCODE": "",
        "REVISIONDA": "1975/01/01 00:00:00",
        "LASTUPDATE": "8/28/2025",
        "AADT": "1",
        "AADTYEAR": "1970",
        "STATENAME": "TEXAS",
        "STATEAB": "TX",
        "COUNTYNAME": "VICTORIA",
        "CITYNAME": "MCFADDIN",
        "LATDD": 28.4760266,
        "LONGDD": -97.0957085,
        "gridlyProductionCertified": true,
        "gridlyClassification": "PUBLIC_ROADWAY",
        "gridlyDisplayName": "PRIVATE",
        "gridlyId": "FRA-427541K"
      }
    },
    {
      "type": "Feature",
      "id": 209499,
      "geometry": {
        "type": "Point",
        "coordinates": [
          -97.3497276000369,
          28.2185593000697
        ]
      },
      "properties": {
        "OBJECTID": 209499,
        "CROSSING": "427577T",
        "EFFDATE": 1756339200000,
        "REASON": "14",
        "StateCode": "48",
        "CountyCode": "48391",
        "STCYFIPS": "48391",
        "CITYCD": "483917590",
        "RAILROAD": "UP",
        "RRDIV": "GULF COAST",
        "RRSUBDIV": "BROWNSVILLE SUB",
        "HIGHWAY": "NA",
        "STREET": "PRIVATE",
        "TTSTN": "688470",
        "MILEPOST": "0178.150",
        "TYPEXING": "Private",
        "POSXING": "At Grade",
        "PRVCAT": "14",
        "INIT": "1",
        "LATITUDE": 28.2185593,
        "LONGITUD": -97.3497276,
        "LLSOURCE": "1",
        "WHISTBAN": "0",
        "RRCONT": "4025443721",
        "POLCONT": "8008488715",
        "INV_LINK": "https://safetydata.fra.dot.gov/OfficeofSafety/PublicSite/Crossing/Crossing.aspx?phasetype=C&rpttype=I&txtcrossingnum=427577T",
        "ACC_LINK": "https://safetydata.fra.dot.gov/OfficeofSafety/PublicSite/Crossing/Crossing.aspx?phasetype=C&rpttype=A&txtcrossingnum=427577T",
        "TTSTNNAM": "",
        "XPURPOSE": "1",
        "OPERATINGR": "UP",
        "OPERATIN_1": "Primary",
        "DAYTHRU": 9,
        "NGHTTHRU": 9,
        "MAINTRK": 1,
        "SIDINGTRK": 0,
        "YARDTRK": 0,
        "TRANSITTRK": 0,
        "INDUSTRYTR": 0,
        "OTHRTRK": 0,
        "WDCODE": "",
        "REVISIONDA": "1975/01/01 00:00:00",
        "LASTUPDATE": "8/28/2025",
        "AADT": "1",
        "AADTYEAR": "1970",
        "STATENAME": "TEXAS",
        "STATEAB": "TX",
        "COUNTYNAME": "REFUGIO",
        "CITYNAME": "WOODSBORO",
        "LATDD": 28.2185593,
        "LONGDD": -97.3497276,
        "gridlyProductionCertified": true,
        "gridlyClassification": "PUBLIC_ROADWAY",
        "gridlyDisplayName": "PRIVATE",
        "gridlyId": "FRA-427577T"
      }
    },
    {
      "type": "Feature",
      "id": 209501,
      "geometry": {
        "type": "Point",
        "coordinates": [
          -97.3552035000402,
          28.2122188000924
        ]
      },
      "properties": {
        "OBJECTID": 209501,
        "CROSSING": "427578A",
        "EFFDATE": 1756339200000,
        "REASON": "14",
        "StateCode": "48",
        "CountyCode": "48391",
        "STCYFIPS": "48391",
        "CITYCD": "483917590",
        "RAILROAD": "UP",
        "RRDIV": "GULF COAST",
        "RRSUBDIV": "BROWNSVILLE SUB",
        "HIGHWAY": "NA",
        "STREET": "PRIVATE",
        "TTSTN": "688470",
        "MILEPOST": "0177.610",
        "TYPEXING": "Private",
        "POSXING": "At Grade",
        "PRVCAT": "14",
        "INIT": "1",
        "LATITUDE": 28.2122188,
        "LONGITUD": -97.3552035,
        "LLSOURCE": "1",
        "WHISTBAN": "0",
        "RRCONT": "4025443721",
        "POLCONT": "8008488715",
        "INV_LINK": "https://safetydata.fra.dot.gov/OfficeofSafety/PublicSite/Crossing/Crossing.aspx?phasetype=C&rpttype=I&txtcrossingnum=427578A",
        "ACC_LINK": "https://safetydata.fra.dot.gov/OfficeofSafety/PublicSite/Crossing/Crossing.aspx?phasetype=C&rpttype=A&txtcrossingnum=427578A",
        "TTSTNNAM": "",
        "XPURPOSE": "1",
        "OPERATINGR": "UP",
        "OPERATIN_1": "Primary",
        "DAYTHRU": 9,
        "NGHTTHRU": 9,
        "MAINTRK": 1,
        "SIDINGTRK": 0,
        "YARDTRK": 0,
        "TRANSITTRK": 0,
        "INDUSTRYTR": 0,
        "OTHRTRK": 0,
        "WDCODE": "",
        "REVISIONDA": "1975/01/01 00:00:00",
        "LASTUPDATE": "8/28/2025",
        "AADT": "1",
        "AADTYEAR": "1970",
        "STATENAME": "TEXAS",
        "STATEAB": "TX",
        "COUNTYNAME": "REFUGIO",
        "CITYNAME": "WOODSBORO",
        "LATDD": 28.2122188,
        "LONGDD": -97.3552035,
        "gridlyProductionCertified": true,
        "gridlyClassification": "PUBLIC_ROADWAY",
        "gridlyDisplayName": "PRIVATE",
        "gridlyId": "FRA-427578A"
      }
    },
    {
      "type": "Feature",
      "id": 209502,
      "geometry": {
        "type": "Point",
        "coordinates": [
          -97.3622012997467,
          28.2041153998445
        ]
      },
      "properties": {
        "OBJECTID": 209502,
        "CROSSING": "427579G",
        "EFFDATE": 1756339200000,
        "REASON": "14",
        "StateCode": "48",
        "CountyCode": "48391",
        "STCYFIPS": "48391",
        "CITYCD": "483917590",
        "RAILROAD": "UP",
        "RRDIV": "GULF COAST",
        "RRSUBDIV": "BROWNSVILLE SUB",
        "HIGHWAY": "NA",
        "STREET": "PRIVATE",
        "TTSTN": "688470",
        "MILEPOST": "0176.910",
        "TYPEXING": "Private",
        "POSXING": "At Grade",
        "PRVCAT": "14",
        "INIT": "1",
        "LATITUDE": 28.2041154,
        "LONGITUD": -97.3622013,
        "LLSOURCE": "1",
        "WHISTBAN": "0",
        "RRCONT": "4025443721",
        "POLCONT": "8008488715",
        "INV_LINK": "https://safetydata.fra.dot.gov/OfficeofSafety/PublicSite/Crossing/Crossing.aspx?phasetype=C&rpttype=I&txtcrossingnum=427579G",
        "ACC_LINK": "https://safetydata.fra.dot.gov/OfficeofSafety/PublicSite/Crossing/Crossing.aspx?phasetype=C&rpttype=A&txtcrossingnum=427579G",
        "TTSTNNAM": "",
        "XPURPOSE": "1",
        "OPERATINGR": "UP",
        "OPERATIN_1": "Primary",
        "DAYTHRU": 9,
        "NGHTTHRU": 9,
        "MAINTRK": 1,
        "SIDINGTRK": 0,
        "YARDTRK": 0,
        "TRANSITTRK": 0,
        "INDUSTRYTR": 0,
        "OTHRTRK": 0,
        "WDCODE": "",
        "REVISIONDA": "1975/01/01 00:00:00",
        "LASTUPDATE": "8/28/2025",
        "AADT": "1",
        "AADTYEAR": "1970",
        "STATENAME": "TEXAS",
        "STATEAB": "TX",
        "COUNTYNAME": "REFUGIO",
        "CITYNAME": "WOODSBORO",
        "LATDD": 28.2041154,
        "LONGDD": -97.3622013,
        "gridlyProductionCertified": true,
        "gridlyClassification": "PUBLIC_ROADWAY",
        "gridlyDisplayName": "PRIVATE",
        "gridlyId": "FRA-427579G"
      }
    },
    {
      "type": "Feature",
      "id": 209503,
      "geometry": {
        "type": "Point",
        "coordinates": [
          -97.3940653001542,
          28.1671945000445
        ]
      },
      "properties": {
        "OBJECTID": 209503,
        "CROSSING": "427580B",
        "EFFDATE": 1756339200000,
        "REASON": "14",
        "StateCode": "48",
        "CountyCode": "48391",
        "STCYFIPS": "48391",
        "CITYCD": "483917590",
        "RAILROAD": "UP",
        "RRDIV": "GULF COAST",
        "RRSUBDIV": "BROWNSVILLE SUB",
        "HIGHWAY": "NA",
        "STREET": "CRANELL STREET",
        "TTSTN": "688470",
        "MILEPOST": "0173.710",
        "TYPEXING": "Private",
        "POSXING": "At Grade",
        "PRVCAT": "14",
        "INIT": "1",
        "LATITUDE": 28.1671945,
        "LONGITUD": -97.3940653,
        "LLSOURCE": "1",
        "WHISTBAN": "0",
        "RRCONT": "4025443721",
        "POLCONT": "8008488715",
        "INV_LINK": "https://safetydata.fra.dot.gov/OfficeofSafety/PublicSite/Crossing/Crossing.aspx?phasetype=C&rpttype=I&txtcrossingnum=427580B",
        "ACC_LINK": "https://safetydata.fra.dot.gov/OfficeofSafety/PublicSite/Crossing/Crossing.aspx?phasetype=C&rpttype=A&txtcrossingnum=427580B",
        "TTSTNNAM": "",
        "XPURPOSE": "1",
        "OPERATINGR": "UP",
        "OPERATIN_1": "Primary",
        "DAYTHRU": 9,
        "NGHTTHRU": 9,
        "MAINTRK": 1,
        "SIDINGTRK": 0,
        "YARDTRK": 0,
        "TRANSITTRK": 0,
        "INDUSTRYTR": 0,
        "OTHRTRK": 1,
        "WDCODE": "",
        "REVISIONDA": "1975/01/01 00:00:00",
        "LASTUPDATE": "8/28/2025",
        "AADT": "10",
        "AADTYEAR": "1978",
        "STATENAME": "TEXAS",
        "STATEAB": "TX",
        "COUNTYNAME": "REFUGIO",
        "CITYNAME": "WOODSBORO",
        "LATDD": 28.1671945,
        "LONGDD": -97.3940653,
        "gridlyProductionCertified": true,
        "gridlyClassification": "PUBLIC_ROADWAY",
        "gridlyDisplayName": "CRANELL STREET",
        "gridlyId": "FRA-427580B"
      }
    },
    {
      "type": "Feature",
      "id": 209515,
      "geometry": {
        "type": "Point",
        "coordinates": [
          -97.4153974000684,
          28.1385003003435
        ]
      },
      "properties": {
        "OBJECTID": 209515,
        "CROSSING": "427581H",
        "EFFDATE": 1756339200000,
        "REASON": "14",
        "StateCode": "48",
        "CountyCode": "48391",
        "STCYFIPS": "48391",
        "CITYCD": "483917590",
        "RAILROAD": "UP",
        "RRDIV": "GULF COAST",
        "RRSUBDIV": "BROWNSVILLE SUB",
        "HIGHWAY": "NA",
        "STREET": "PRIVATE",
        "TTSTN": "688470",
        "MILEPOST": "0171.370",
        "TYPEXING": "Private",
        "POSXING": "At Grade",
        "PRVCAT": "14",
        "INIT": "1",
        "LATITUDE": 28.1385003,
        "LONGITUD": -97.4153974,
        "LLSOURCE": "1",
        "WHISTBAN": "0",
        "RRCONT": "4025443721",
        "POLCONT": "8008488715",
        "INV_LINK": "https://safetydata.fra.dot.gov/OfficeofSafety/PublicSite/Crossing/Crossing.aspx?phasetype=C&rpttype=I&txtcrossingnum=427581H",
        "ACC_LINK": "https://safetydata.fra.dot.gov/OfficeofSafety/PublicSite/Crossing/Crossing.aspx?phasetype=C&rpttype=A&txtcrossingnum=427581H",
        "TTSTNNAM": "",
        "XPURPOSE": "1",
        "OPERATINGR": "UP",
        "OPERATIN_1": "Primary",
        "DAYTHRU": 9,
        "NGHTTHRU": 9,
        "MAINTRK": 1,
        "SIDINGTRK": 1,
        "YARDTRK": 0,
        "TRANSITTRK": 0,
        "INDUSTRYTR": 0,
        "OTHRTRK": 0,
        "WDCODE": "",
        "REVISIONDA": "1975/01/01 00:00:00",
        "LASTUPDATE": "8/28/2025",
        "AADT": "1",
        "AADTYEAR": "1970",
        "STATENAME": "TEXAS",
        "STATEAB": "TX",
        "COUNTYNAME": "REFUGIO",
        "CITYNAME": "WOODSBORO",
        "LATDD": 28.1385003,
        "LONGDD": -97.4153974,
        "gridlyProductionCertified": true,
        "gridlyClassification": "PUBLIC_ROADWAY",
        "gridlyDisplayName": "PRIVATE",
        "gridlyId": "FRA-427581H"
      }
    },
    {
      "type": "Feature",
      "id": 209998,
      "geometry": {
        "type": "Point",
        "coordinates": [
          -97.1374339995938,
          28.4371432003503
        ]
      },
      "properties": {
        "OBJECTID": 209998,
        "CROSSING": "427544F",
        "EFFDATE": 1756339200000,
        "REASON": "14",
        "StateCode": "48",
        "CountyCode": "48469",
        "STCYFIPS": "48469",
        "CITYCD": "483915700",
        "RAILROAD": "UP",
        "RRDIV": "GULF COAST",
        "RRSUBDIV": "BROWNSVILLE SUB",
        "HIGHWAY": "NA",
        "STREET": "BAUMGARDNER STREET",
        "TTSTN": "688440",
        "MILEPOST": "0198.260",
        "TYPEXING": "Private",
        "POSXING": "At Grade",
        "PRVCAT": "14",
        "INIT": "1",
        "LATITUDE": 28.4371432,
        "LONGITUD": -97.137434,
        "LLSOURCE": "1",
        "WHISTBAN": "0",
        "RRCONT": "4025443721",
        "POLCONT": "8008488715",
        "INV_LINK": "https://safetydata.fra.dot.gov/OfficeofSafety/PublicSite/Crossing/Crossing.aspx?phasetype=C&rpttype=I&txtcrossingnum=427544F",
        "ACC_LINK": "https://safetydata.fra.dot.gov/OfficeofSafety/PublicSite/Crossing/Crossing.aspx?phasetype=C&rpttype=A&txtcrossingnum=427544F",
        "TTSTNNAM": "",
        "XPURPOSE": "1",
        "OPERATINGR": "UP",
        "OPERATIN_1": "Primary",
        "DAYTHRU": 9,
        "NGHTTHRU": 9,
        "MAINTRK": 1,
        "SIDINGTRK": 0,
        "YARDTRK": 0,
        "TRANSITTRK": 0,
        "INDUSTRYTR": 0,
        "OTHRTRK": 0,
        "WDCODE": "",
        "REVISIONDA": "1975/01/01 00:00:00",
        "LASTUPDATE": "8/28/2025",
        "AADT": "80",
        "AADTYEAR": "1978",
        "STATENAME": "TEXAS",
        "STATEAB": "TX",
        "COUNTYNAME": "VICTORIA",
        "CITYNAME": "REFUGIO",
        "LATDD": 28.4371432,
        "LONGDD": -97.137434,
        "gridlyProductionCertified": true,
        "gridlyClassification": "PUBLIC_ROADWAY",
        "gridlyDisplayName": "BAUMGARDNER STREET",
        "gridlyId": "FRA-427544F"
      }
    },
    {
      "type": "Feature",
      "id": 210145,
      "geometry": {
        "type": "Point",
        "coordinates": [
          -97.4180407996915,
          28.1339637003687
        ]
      },
      "properties": {
        "OBJECTID": 210145,
        "CROSSING": "427582P",
        "EFFDATE": 1756339200000,
        "REASON": "14",
        "StateCode": "48",
        "CountyCode": "48391",
        "STCYFIPS": "48391",
        "CITYCD": "483917590",
        "RAILROAD": "UP",
        "RRDIV": "GULF COAST",
        "RRSUBDIV": "BROWNSVILLE SUB",
        "HIGHWAY": "NA",
        "STREET": "PRIVATE",
        "TTSTN": "688840",
        "MILEPOST": "0171.020",
        "TYPEXING": "Private",
        "POSXING": "At Grade",
        "PRVCAT": "14",
        "INIT": "1",
        "LATITUDE": 28.1339637,
        "LONGITUD": -97.4180408,
        "LLSOURCE": "1",
        "WHISTBAN": "0",
        "RRCONT": "4025443721",
        "POLCONT": "8008488715",
        "INV_LINK": "https://safetydata.fra.dot.gov/OfficeofSafety/PublicSite/Crossing/Crossing.aspx?phasetype=C&rpttype=I&txtcrossingnum=427582P",
        "ACC_LINK": "https://safetydata.fra.dot.gov/OfficeofSafety/PublicSite/Crossing/Crossing.aspx?phasetype=C&rpttype=A&txtcrossingnum=427582P",
        "TTSTNNAM": "",
        "XPURPOSE": "1",
        "OPERATINGR": "UP",
        "OPERATIN_1": "Primary",
        "DAYTHRU": 9,
        "NGHTTHRU": 9,
        "MAINTRK": 1,
        "SIDINGTRK": 0,
        "YARDTRK": 0,
        "TRANSITTRK": 0,
        "INDUSTRYTR": 0,
        "OTHRTRK": 0,
        "WDCODE": "",
        "REVISIONDA": "1975/01/01 00:00:00",
        "LASTUPDATE": "8/28/2025",
        "AADT": "1",
        "AADTYEAR": "1970",
        "STATENAME": "TEXAS",
        "STATEAB": "TX",
        "COUNTYNAME": "REFUGIO",
        "CITYNAME": "WOODSBORO",
        "LATDD": 28.1339637,
        "LONGDD": -97.4180408,
        "gridlyProductionCertified": true,
        "gridlyClassification": "PUBLIC_ROADWAY",
        "gridlyDisplayName": "PRIVATE",
        "gridlyId": "FRA-427582P"
      }
    },
    {
      "type": "Feature",
      "id": 214130,
      "geometry": {
        "type": "Point",
        "coordinates": [
          -97.2726296997605,
          28.2979307998847
        ]
      },
      "properties": {
        "OBJECTID": 214130,
        "CROSSING": "427568U",
        "EFFDATE": 1777507200000,
        "REASON": "14",
        "StateCode": "48",
        "CountyCode": "48391",
        "STCYFIPS": "48391",
        "CITYCD": "483915700",
        "RAILROAD": "UP",
        "RRDIV": "GULF COAST",
        "RRSUBDIV": "BROWNSVILLE SUB",
        "HIGHWAY": "LS0000",
        "STREET": "E YMBACION STREET",
        "TTSTN": "688450",
        "MILEPOST": "0185.470",
        "TYPEXING": "Public",
        "POSXING": "At Grade",
        "PRVCAT": "14",
        "INIT": "2",
        "LATITUDE": 28.2979308,
        "LONGITUD": -97.2726297,
        "LLSOURCE": "1",
        "WHISTBAN": "0",
        "RRCONT": "4025443721",
        "POLCONT": "8008488715",
        "INV_LINK": "https://safetydata.fra.dot.gov/OfficeofSafety/PublicSite/Crossing/Crossing.aspx?phasetype=C&rpttype=I&txtcrossingnum=427568U",
        "ACC_LINK": "https://safetydata.fra.dot.gov/OfficeofSafety/PublicSite/Crossing/Crossing.aspx?phasetype=C&rpttype=A&txtcrossingnum=427568U",
        "TTSTNNAM": "",
        "XPURPOSE": "1",
        "OPERATINGR": "UP",
        "OPERATIN_1": "Primary",
        "DAYTHRU": 9,
        "NGHTTHRU": 9,
        "MAINTRK": 1,
        "SIDINGTRK": 0,
        "YARDTRK": 0,
        "TRANSITTRK": 0,
        "INDUSTRYTR": 0,
        "OTHRTRK": 0,
        "WDCODE": "All other Gates",
        "REVISIONDA": "1975/01/01 00:00:00",
        "LASTUPDATE": "4/30/2026",
        "AADT": "95",
        "AADTYEAR": "2019",
        "STATENAME": "TEXAS",
        "STATEAB": "TX",
        "COUNTYNAME": "REFUGIO",
        "CITYNAME": "REFUGIO",
        "LATDD": 28.2979308,
        "LONGDD": -97.2726297,
        "gridlyProductionCertified": true,
        "gridlyClassification": "PUBLIC_ROADWAY",
        "gridlyDisplayName": "E YMBACION STREET",
        "gridlyId": "FRA-427568U"
      }
    },
    {
      "type": "Feature",
      "id": 214131,
      "geometry": {
        "type": "Point",
        "coordinates": [
          -97.2971634995519,
          28.27942299973
        ]
      },
      "properties": {
        "OBJECTID": 214131,
        "CROSSING": "427571C",
        "EFFDATE": 1777507200000,
        "REASON": "14",
        "StateCode": "48",
        "CountyCode": "48391",
        "STCYFIPS": "48391",
        "CITYCD": "483915700",
        "RAILROAD": "UP",
        "RRDIV": "GULF COAST",
        "RRSUBDIV": "BROWNSVILLE SUB",
        "HIGHWAY": "Cr0100",
        "STREET": "EXXON ROAD",
        "TTSTN": "688450",
        "MILEPOST": "0183.400",
        "TYPEXING": "Public",
        "POSXING": "At Grade",
        "PRVCAT": "14",
        "INIT": "2",
        "LATITUDE": 28.279423,
        "LONGITUD": -97.2971635,
        "LLSOURCE": "1",
        "WHISTBAN": "0",
        "RRCONT": "4025443721",
        "POLCONT": "8008488715",
        "INV_LINK": "https://safetydata.fra.dot.gov/OfficeofSafety/PublicSite/Crossing/Crossing.aspx?phasetype=C&rpttype=I&txtcrossingnum=427571C",
        "ACC_LINK": "https://safetydata.fra.dot.gov/OfficeofSafety/PublicSite/Crossing/Crossing.aspx?phasetype=C&rpttype=A&txtcrossingnum=427571C",
        "TTSTNNAM": "",
        "XPURPOSE": "1",
        "OPERATINGR": "UP",
        "OPERATIN_1": "Primary",
        "DAYTHRU": 9,
        "NGHTTHRU": 9,
        "MAINTRK": 1,
        "SIDINGTRK": 0,
        "YARDTRK": 0,
        "TRANSITTRK": 0,
        "INDUSTRYTR": 0,
        "OTHRTRK": 0,
        "WDCODE": "All other Gates",
        "REVISIONDA": "1975/01/01 00:00:00",
        "LASTUPDATE": "4/30/2026",
        "AADT": "40",
        "AADTYEAR": "2019",
        "STATENAME": "TEXAS",
        "STATEAB": "TX",
        "COUNTYNAME": "REFUGIO",
        "CITYNAME": "REFUGIO",
        "LATDD": 28.279423,
        "LONGDD": -97.2971635,
        "gridlyProductionCertified": true,
        "gridlyClassification": "PUBLIC_ROADWAY",
        "gridlyDisplayName": "EXXON ROAD",
        "gridlyId": "FRA-427571C"
      }
    },
    {
      "type": "Feature",
      "id": 214312,
      "geometry": {
        "type": "Point",
        "coordinates": [
          -97.2713125997724,
          28.3046836998488
        ]
      },
      "properties": {
        "OBJECTID": 214312,
        "CROSSING": "427562D",
        "EFFDATE": 1777420800000,
        "REASON": "14",
        "StateCode": "48",
        "CountyCode": "48391",
        "STCYFIPS": "48391",
        "CITYCD": "483915700",
        "RAILROAD": "UP",
        "RRDIV": "GULF COAST",
        "RRSUBDIV": "BROWNSVILLE SUB",
        "HIGHWAY": "LS0000",
        "STREET": "EAST COMMONS STREET",
        "TTSTN": "688450",
        "MILEPOST": "0185.990",
        "TYPEXING": "Public",
        "POSXING": "At Grade",
        "PRVCAT": "14",
        "INIT": "2",
        "LATITUDE": 28.3046837,
        "LONGITUD": -97.2713126,
        "LLSOURCE": "1",
        "WHISTBAN": "0",
        "RRCONT": "4025443721",
        "POLCONT": "8008488715",
        "INV_LINK": "https://safetydata.fra.dot.gov/OfficeofSafety/PublicSite/Crossing/Crossing.aspx?phasetype=C&rpttype=I&txtcrossingnum=427562D",
        "ACC_LINK": "https://safetydata.fra.dot.gov/OfficeofSafety/PublicSite/Crossing/Crossing.aspx?phasetype=C&rpttype=A&txtcrossingnum=427562D",
        "TTSTNNAM": "",
        "XPURPOSE": "1",
        "OPERATINGR": "UP",
        "OPERATIN_1": "Primary",
        "DAYTHRU": 9,
        "NGHTTHRU": 9,
        "MAINTRK": 1,
        "SIDINGTRK": 0,
        "YARDTRK": 0,
        "TRANSITTRK": 0,
        "INDUSTRYTR": 0,
        "OTHRTRK": 0,
        "WDCODE": "All other Gates",
        "REVISIONDA": "1975/01/01 00:00:00",
        "LASTUPDATE": "4/29/2026",
        "AADT": "703",
        "AADTYEAR": "2021",
        "STATENAME": "TEXAS",
        "STATEAB": "TX",
        "COUNTYNAME": "REFUGIO",
        "CITYNAME": "REFUGIO",
        "LATDD": 28.3046837,
        "LONGDD": -97.2713126,
        "gridlyProductionCertified": true,
        "gridlyClassification": "PUBLIC_ROADWAY",
        "gridlyDisplayName": "EAST COMMONS STREET",
        "gridlyId": "FRA-427562D"
      }
    },
    {
      "type": "Feature",
      "id": 214313,
      "geometry": {
        "type": "Point",
        "coordinates": [
          -97.048052999653,
          28.5203819996168
        ]
      },
      "properties": {
        "OBJECTID": 214313,
        "CROSSING": "427538C",
        "EFFDATE": 1777420800000,
        "REASON": "14",
        "StateCode": "48",
        "CountyCode": "48391",
        "STCYFIPS": "48391",
        "CITYCD": "483915700",
        "RAILROAD": "UP",
        "RRDIV": "GULF COAST",
        "RRSUBDIV": "BROWNSVILLE SUB",
        "HIGHWAY": "SH0239",
        "STREET": "TX 239",
        "TTSTN": "688290",
        "MILEPOST": "0206.170",
        "TYPEXING": "Public",
        "POSXING": "At Grade",
        "PRVCAT": "14",
        "INIT": "2",
        "LATITUDE": 28.520382,
        "LONGITUD": -97.048053,
        "LLSOURCE": "1",
        "WHISTBAN": "0",
        "RRCONT": "4025443721",
        "POLCONT": "8008488715",
        "INV_LINK": "https://safetydata.fra.dot.gov/OfficeofSafety/PublicSite/Crossing/Crossing.aspx?phasetype=C&rpttype=I&txtcrossingnum=427538C",
        "ACC_LINK": "https://safetydata.fra.dot.gov/OfficeofSafety/PublicSite/Crossing/Crossing.aspx?phasetype=C&rpttype=A&txtcrossingnum=427538C",
        "TTSTNNAM": "",
        "XPURPOSE": "1",
        "OPERATINGR": "UP",
        "OPERATIN_1": "Primary",
        "DAYTHRU": 9,
        "NGHTTHRU": 9,
        "MAINTRK": 1,
        "SIDINGTRK": 0,
        "YARDTRK": 0,
        "TRANSITTRK": 0,
        "INDUSTRYTR": 0,
        "OTHRTRK": 0,
        "WDCODE": "All other Gates",
        "REVISIONDA": "1975/01/01 00:00:00",
        "LASTUPDATE": "4/29/2026",
        "AADT": "350",
        "AADTYEAR": "2024",
        "STATENAME": "TEXAS",
        "STATEAB": "TX",
        "COUNTYNAME": "REFUGIO",
        "CITYNAME": "REFUGIO",
        "LATDD": 28.520382,
        "LONGDD": -97.048053,
        "gridlyProductionCertified": true,
        "gridlyClassification": "PUBLIC_ROADWAY",
        "gridlyDisplayName": "TX 239",
        "gridlyId": "FRA-427538C"
      }
    },
    {
      "type": "Feature",
      "id": 214314,
      "geometry": {
        "type": "Point",
        "coordinates": [
          -97.2715434003251,
          28.3035395999521
        ]
      },
      "properties": {
        "OBJECTID": 214314,
        "CROSSING": "427563K",
        "EFFDATE": 1777420800000,
        "REASON": "14",
        "StateCode": "48",
        "CountyCode": "48391",
        "STCYFIPS": "48391",
        "CITYCD": "483915700",
        "RAILROAD": "UP",
        "RRDIV": "GULF COAST",
        "RRSUBDIV": "BROWNSVILLE SUB",
        "HIGHWAY": "LS0000",
        "STREET": "EAST WARD STREET",
        "TTSTN": "688450",
        "MILEPOST": "0185.910",
        "TYPEXING": "Public",
        "POSXING": "At Grade",
        "PRVCAT": "14",
        "INIT": "2",
        "LATITUDE": 28.3035396,
        "LONGITUD": -97.2715434,
        "LLSOURCE": "1",
        "WHISTBAN": "0",
        "RRCONT": "4025443721",
        "POLCONT": "8008488715",
        "INV_LINK": "https://safetydata.fra.dot.gov/OfficeofSafety/PublicSite/Crossing/Crossing.aspx?phasetype=C&rpttype=I&txtcrossingnum=427563K",
        "ACC_LINK": "https://safetydata.fra.dot.gov/OfficeofSafety/PublicSite/Crossing/Crossing.aspx?phasetype=C&rpttype=A&txtcrossingnum=427563K",
        "TTSTNNAM": "",
        "XPURPOSE": "1",
        "OPERATINGR": "UP",
        "OPERATIN_1": "Primary",
        "DAYTHRU": 9,
        "NGHTTHRU": 9,
        "MAINTRK": 1,
        "SIDINGTRK": 0,
        "YARDTRK": 0,
        "TRANSITTRK": 0,
        "INDUSTRYTR": 0,
        "OTHRTRK": 0,
        "WDCODE": "All other Gates",
        "REVISIONDA": "1975/01/01 00:00:00",
        "LASTUPDATE": "4/29/2026",
        "AADT": "166",
        "AADTYEAR": "2019",
        "STATENAME": "TEXAS",
        "STATEAB": "TX",
        "COUNTYNAME": "REFUGIO",
        "CITYNAME": "REFUGIO",
        "LATDD": 28.3035396,
        "LONGDD": -97.2715434,
        "gridlyProductionCertified": true,
        "gridlyClassification": "PUBLIC_ROADWAY",
        "gridlyDisplayName": "EAST WARD STREET",
        "gridlyId": "FRA-427563K"
      }
    },
    {
      "type": "Feature",
      "id": 214315,
      "geometry": {
        "type": "Point",
        "coordinates": [
          -97.2703879997831,
          28.3094743000095
        ]
      },
      "properties": {
        "OBJECTID": 214315,
        "CROSSING": "427561W",
        "EFFDATE": 1777420800000,
        "REASON": "14",
        "StateCode": "48",
        "CountyCode": "48391",
        "STCYFIPS": "48391",
        "CITYCD": "483915700",
        "RAILROAD": "UP",
        "RRDIV": "GULF COAST",
        "RRSUBDIV": "BROWNSVILLE SUB",
        "HIGHWAY": "LS0000",
        "STREET": "RAFAEL STREET",
        "TTSTN": "688450",
        "MILEPOST": "0186.320",
        "TYPEXING": "Public",
        "POSXING": "At Grade",
        "PRVCAT": "14",
        "INIT": "2",
        "LATITUDE": 28.3094743,
        "LONGITUD": -97.270388,
        "LLSOURCE": "1",
        "WHISTBAN": "0",
        "RRCONT": "4025443721",
        "POLCONT": "8008488715",
        "INV_LINK": "https://safetydata.fra.dot.gov/OfficeofSafety/PublicSite/Crossing/Crossing.aspx?phasetype=C&rpttype=I&txtcrossingnum=427561W",
        "ACC_LINK": "https://safetydata.fra.dot.gov/OfficeofSafety/PublicSite/Crossing/Crossing.aspx?phasetype=C&rpttype=A&txtcrossingnum=427561W",
        "TTSTNNAM": "",
        "XPURPOSE": "1",
        "OPERATINGR": "UP",
        "OPERATIN_1": "Primary",
        "DAYTHRU": 9,
        "NGHTTHRU": 9,
        "MAINTRK": 1,
        "SIDINGTRK": 0,
        "YARDTRK": 0,
        "TRANSITTRK": 0,
        "INDUSTRYTR": 0,
        "OTHRTRK": 1,
        "WDCODE": "All other Gates",
        "REVISIONDA": "1975/01/01 00:00:00",
        "LASTUPDATE": "4/29/2026",
        "AADT": "298",
        "AADTYEAR": "2016",
        "STATENAME": "TEXAS",
        "STATEAB": "TX",
        "COUNTYNAME": "REFUGIO",
        "CITYNAME": "REFUGIO",
        "LATDD": 28.3094743,
        "LONGDD": -97.270388,
        "gridlyProductionCertified": true,
        "gridlyClassification": "PUBLIC_ROADWAY",
        "gridlyDisplayName": "RAFAEL STREET",
        "gridlyId": "FRA-427561W"
      }
    },
    {
      "type": "Feature",
      "id": 214316,
      "geometry": {
        "type": "Point",
        "coordinates": [
          -97.2717620996726,
          28.3024179999467
        ]
      },
      "properties": {
        "OBJECTID": 214316,
        "CROSSING": "427564S",
        "EFFDATE": 1777420800000,
        "REASON": "14",
        "StateCode": "48",
        "CountyCode": "48391",
        "STCYFIPS": "48391",
        "CITYCD": "483915700",
        "RAILROAD": "UP",
        "RRDIV": "GULF COAST",
        "RRSUBDIV": "BROWNSVILLE SUB",
        "HIGHWAY": "LS0000",
        "STREET": "EAST KING STREET",
        "TTSTN": "688450",
        "MILEPOST": "0185.820",
        "TYPEXING": "Public",
        "POSXING": "At Grade",
        "PRVCAT": "14",
        "INIT": "2",
        "LATITUDE": 28.302418,
        "LONGITUD": -97.2717621,
        "LLSOURCE": "1",
        "WHISTBAN": "0",
        "RRCONT": "4025443721",
        "POLCONT": "8008488715",
        "INV_LINK": "https://safetydata.fra.dot.gov/OfficeofSafety/PublicSite/Crossing/Crossing.aspx?phasetype=C&rpttype=I&txtcrossingnum=427564S",
        "ACC_LINK": "https://safetydata.fra.dot.gov/OfficeofSafety/PublicSite/Crossing/Crossing.aspx?phasetype=C&rpttype=A&txtcrossingnum=427564S",
        "TTSTNNAM": "",
        "XPURPOSE": "1",
        "OPERATINGR": "UP",
        "OPERATIN_1": "Primary",
        "DAYTHRU": 9,
        "NGHTTHRU": 9,
        "MAINTRK": 1,
        "SIDINGTRK": 0,
        "YARDTRK": 0,
        "TRANSITTRK": 0,
        "INDUSTRYTR": 0,
        "OTHRTRK": 0,
        "WDCODE": "All other Gates",
        "REVISIONDA": "1975/01/01 00:00:00",
        "LASTUPDATE": "4/29/2026",
        "AADT": "135",
        "AADTYEAR": "2019",
        "STATENAME": "TEXAS",
        "STATEAB": "TX",
        "COUNTYNAME": "REFUGIO",
        "CITYNAME": "REFUGIO",
        "LATDD": 28.302418,
        "LONGDD": -97.2717621,
        "gridlyProductionCertified": true,
        "gridlyClassification": "PUBLIC_ROADWAY",
        "gridlyDisplayName": "EAST KING STREET",
        "gridlyId": "FRA-427564S"
      }
    },
    {
      "type": "Feature",
      "id": 214317,
      "geometry": {
        "type": "Point",
        "coordinates": [
          -97.3112982003917,
          28.2630762002252
        ]
      },
      "properties": {
        "OBJECTID": 214317,
        "CROSSING": "427573R",
        "EFFDATE": 1777420800000,
        "REASON": "14",
        "StateCode": "48",
        "CountyCode": "48391",
        "STCYFIPS": "48391",
        "CITYCD": "483917590",
        "RAILROAD": "UP",
        "RRDIV": "GULF COAST",
        "RRSUBDIV": "BROWNSVILLE SUB",
        "HIGHWAY": "Cr4004",
        "STREET": "TOUP ROAD",
        "TTSTN": "688470",
        "MILEPOST": "0182.020",
        "TYPEXING": "Public",
        "POSXING": "At Grade",
        "PRVCAT": "14",
        "INIT": "2",
        "LATITUDE": 28.2630762,
        "LONGITUD": -97.3112982,
        "LLSOURCE": "1",
        "WHISTBAN": "0",
        "RRCONT": "4025443721",
        "POLCONT": "8008488715",
        "INV_LINK": "https://safetydata.fra.dot.gov/OfficeofSafety/PublicSite/Crossing/Crossing.aspx?phasetype=C&rpttype=I&txtcrossingnum=427573R",
        "ACC_LINK": "https://safetydata.fra.dot.gov/OfficeofSafety/PublicSite/Crossing/Crossing.aspx?phasetype=C&rpttype=A&txtcrossingnum=427573R",
        "TTSTNNAM": "",
        "XPURPOSE": "1",
        "OPERATINGR": "UP",
        "OPERATIN_1": "Primary",
        "DAYTHRU": 9,
        "NGHTTHRU": 9,
        "MAINTRK": 1,
        "SIDINGTRK": 1,
        "YARDTRK": 0,
        "TRANSITTRK": 0,
        "INDUSTRYTR": 0,
        "OTHRTRK": 0,
        "WDCODE": "All other Gates",
        "REVISIONDA": "1975/01/01 00:00:00",
        "LASTUPDATE": "4/29/2026",
        "AADT": "63",
        "AADTYEAR": "2019",
        "STATENAME": "TEXAS",
        "STATEAB": "TX",
        "COUNTYNAME": "REFUGIO",
        "CITYNAME": "WOODSBORO",
        "LATDD": 28.2630762,
        "LONGDD": -97.3112982,
        "gridlyProductionCertified": true,
        "gridlyClassification": "PUBLIC_ROADWAY",
        "gridlyDisplayName": "TOUP ROAD",
        "gridlyId": "FRA-427573R"
      }
    },
    {
      "type": "Feature",
      "id": 214713,
      "geometry": {
        "type": "Point",
        "coordinates": [
          -97.3278534997994,
          28.2439195999323
        ]
      },
      "properties": {
        "OBJECTID": 214713,
        "CROSSING": "427574X",
        "EFFDATE": 1775433600000,
        "REASON": "14",
        "StateCode": "48",
        "CountyCode": "48391",
        "STCYFIPS": "48391",
        "CITYCD": "483917590",
        "RAILROAD": "UP",
        "RRDIV": "GULF COAST",
        "RRSUBDIV": "BROWNSVILLE SUB",
        "HIGHWAY": "Cr4007",
        "STREET": "Second Street",
        "TTSTN": "688470",
        "MILEPOST": "0180.350",
        "TYPEXING": "Public",
        "POSXING": "At Grade",
        "PRVCAT": "14",
        "INIT": "1",
        "LATITUDE": 28.2439196,
        "LONGITUD": -97.3278535,
        "LLSOURCE": "1",
        "WHISTBAN": "0",
        "RRCONT": "4025443721",
        "POLCONT": "8008488715",
        "INV_LINK": "https://safetydata.fra.dot.gov/OfficeofSafety/PublicSite/Crossing/Crossing.aspx?phasetype=C&rpttype=I&txtcrossingnum=427574X",
        "ACC_LINK": "https://safetydata.fra.dot.gov/OfficeofSafety/PublicSite/Crossing/Crossing.aspx?phasetype=C&rpttype=A&txtcrossingnum=427574X",
        "TTSTNNAM": "",
        "XPURPOSE": "1",
        "OPERATINGR": "UP",
        "OPERATIN_1": "Primary",
        "DAYTHRU": 9,
        "NGHTTHRU": 9,
        "MAINTRK": 1,
        "SIDINGTRK": 1,
        "YARDTRK": 0,
        "TRANSITTRK": 0,
        "INDUSTRYTR": 0,
        "OTHRTRK": 1,
        "WDCODE": "All other Gates",
        "REVISIONDA": "1975/01/01 00:00:00",
        "LASTUPDATE": "4/6/2026",
        "AADT": "931",
        "AADTYEAR": "2021",
        "STATENAME": "TEXAS",
        "STATEAB": "TX",
        "COUNTYNAME": "REFUGIO",
        "CITYNAME": "WOODSBORO",
        "LATDD": 28.2439196,
        "LONGDD": -97.3278535,
        "gridlyProductionCertified": true,
        "gridlyClassification": "PUBLIC_ROADWAY",
        "gridlyDisplayName": "Second Street",
        "gridlyId": "FRA-427574X"
      }
    }
  ]
}
