{
  "type": "FeatureCollection",
  "features": [
    {
      "type": "Feature",
      "id": 204886,
      "geometry": {
        "type": "Point",
        "coordinates": [
          -97.8783409999067,
          31.1219540001924
        ]
      },
      "properties": {
        "OBJECTID": 204886,
        "CROSSING": "024545X",
        "EFFDATE": 1734393600000,
        "REASON": "14",
        "StateCode": "48",
        "CountyCode": "48099",
        "STCYFIPS": "48099",
        "CITYCD": "480991540",
        "RAILROAD": "BNSF",
        "RRDIV": "RED RIVER",
        "RRSUBDIV": "LAMPASAS",
        "HIGHWAY": "Not Yet Reported by State",
        "STREET": "PRIVATE ROAD",
        "TTSTN": "669997",
        "MILEPOST": "0252.700",
        "TYPEXING": "Private",
        "POSXING": "At Grade",
        "PRVCAT": "14",
        "INIT": "1",
        "LATITUDE": 31.121954,
        "LONGITUD": -97.878341,
        "LLSOURCE": "1",
        "WHISTBAN": "0",
        "RRCONT": "8173521549",
        "POLCONT": "8008325452",
        "INV_LINK": "https://safetydata.fra.dot.gov/OfficeofSafety/PublicSite/Crossing/Crossing.aspx?phasetype=C&rpttype=I&txtcrossingnum=024545X",
        "ACC_LINK": "https://safetydata.fra.dot.gov/OfficeofSafety/PublicSite/Crossing/Crossing.aspx?phasetype=C&rpttype=A&txtcrossingnum=024545X",
        "TTSTNNAM": "COPPERAS COVE",
        "XPURPOSE": "1",
        "OPERATINGR": "BNSF",
        "OPERATIN_1": "Primary",
        "DAYTHRU": 4,
        "NGHTTHRU": 3,
        "MAINTRK": 1,
        "SIDINGTRK": 0,
        "YARDTRK": 0,
        "TRANSITTRK": 0,
        "INDUSTRYTR": 0,
        "OTHRTRK": 0,
        "WDCODE": "",
        "REVISIONDA": "1996/01/01 00:00:00",
        "LASTUPDATE": "12/17/2024",
        "AADT": "",
        "AADTYEAR": "1970",
        "STATENAME": "TEXAS",
        "STATEAB": "TX",
        "COUNTYNAME": "CORYELL",
        "CITYNAME": "COPPERAS COVE",
        "LATDD": 31.121954,
        "LONGDD": -97.878341,
        "gridlyProductionCertified": true,
        "gridlyClassification": "PUBLIC_ROADWAY",
        "gridlyDisplayName": "PRIVATE ROAD",
        "gridlyId": "FRA-024545X"
      }
    },
    {
      "type": "Feature",
      "id": 204916,
      "geometry": {
        "type": "Point",
        "coordinates": [
          -97.8541719996639,
          31.1272693003571
        ]
      },
      "properties": {
        "OBJECTID": 204916,
        "CROSSING": "024684T",
        "EFFDATE": 1734393600000,
        "REASON": "14",
        "StateCode": "48",
        "CountyCode": "48099",
        "STCYFIPS": "48099",
        "CITYCD": "480991540",
        "RAILROAD": "BNSF",
        "RRDIV": "RED RIVER",
        "RRSUBDIV": "LAMPASAS",
        "HIGHWAY": "Not Yet Reported by State",
        "STREET": "AMMO RD",
        "TTSTN": "669997",
        "MILEPOST": "0251.170",
        "TYPEXING": "Private",
        "POSXING": "RR Under",
        "PRVCAT": "14",
        "INIT": "1",
        "LATITUDE": 31.1272693,
        "LONGITUD": -97.854172,
        "LLSOURCE": "1",
        "WHISTBAN": "0",
        "RRCONT": "8173521549",
        "POLCONT": "8008325452",
        "INV_LINK": "https://safetydata.fra.dot.gov/OfficeofSafety/PublicSite/Crossing/Crossing.aspx?phasetype=C&rpttype=I&txtcrossingnum=024684T",
        "ACC_LINK": "https://safetydata.fra.dot.gov/OfficeofSafety/PublicSite/Crossing/Crossing.aspx?phasetype=C&rpttype=A&txtcrossingnum=024684T",
        "TTSTNNAM": "COPPERAS COVE",
        "XPURPOSE": "1",
        "OPERATINGR": "BNSF",
        "OPERATIN_1": "Primary",
        "DAYTHRU": 4,
        "NGHTTHRU": 3,
        "MAINTRK": 1,
        "SIDINGTRK": 0,
        "YARDTRK": 0,
        "TRANSITTRK": 0,
        "INDUSTRYTR": 0,
        "OTHRTRK": 0,
        "WDCODE": "",
        "REVISIONDA": "1996/01/01 00:00:00",
        "LASTUPDATE": "12/17/2024",
        "AADT": "",
        "AADTYEAR": "",
        "STATENAME": "TEXAS",
        "STATEAB": "TX",
        "COUNTYNAME": "CORYELL",
        "CITYNAME": "COPPERAS COVE",
        "LATDD": 31.1272693,
        "LONGDD": -97.854172,
        "gridlyProductionCertified": true,
        "gridlyClassification": "PUBLIC_ROADWAY",
        "gridlyDisplayName": "AMMO RD",
        "gridlyId": "FRA-024684T"
      }
    },
    {
      "type": "Feature",
      "id": 204917,
      "geometry": {
        "type": "Point",
        "coordinates": [
          -97.8371560001611,
          31.1290238002436
        ]
      },
      "properties": {
        "OBJECTID": 204917,
        "CROSSING": "024690W",
        "EFFDATE": 1734393600000,
        "REASON": "14",
        "StateCode": "48",
        "CountyCode": "48099",
        "STCYFIPS": "48099",
        "CITYCD": "480991540",
        "RAILROAD": "BNSF",
        "RRDIV": "RED RIVER",
        "RRSUBDIV": "LAMPASAS",
        "HIGHWAY": "Not Yet Reported by State",
        "STREET": "CLARK RD",
        "TTSTN": "669997",
        "MILEPOST": "0250.120",
        "TYPEXING": "Private",
        "POSXING": "RR Under",
        "PRVCAT": "14",
        "INIT": "1",
        "LATITUDE": 31.1290238,
        "LONGITUD": -97.837156,
        "LLSOURCE": "1",
        "WHISTBAN": "0",
        "RRCONT": "8173521549",
        "POLCONT": "8008325452",
        "INV_LINK": "https://safetydata.fra.dot.gov/OfficeofSafety/PublicSite/Crossing/Crossing.aspx?phasetype=C&rpttype=I&txtcrossingnum=024690W",
        "ACC_LINK": "https://safetydata.fra.dot.gov/OfficeofSafety/PublicSite/Crossing/Crossing.aspx?phasetype=C&rpttype=A&txtcrossingnum=024690W",
        "TTSTNNAM": "COPPERAS COVE",
        "XPURPOSE": "1",
        "OPERATINGR": "BNSF",
        "OPERATIN_1": "Primary",
        "DAYTHRU": 4,
        "NGHTTHRU": 3,
        "MAINTRK": 1,
        "SIDINGTRK": 0,
        "YARDTRK": 0,
        "TRANSITTRK": 0,
        "INDUSTRYTR": 0,
        "OTHRTRK": 0,
        "WDCODE": "",
        "REVISIONDA": "1996/01/01 00:00:00",
        "LASTUPDATE": "12/17/2024",
        "AADT": "",
        "AADTYEAR": "1982",
        "STATENAME": "TEXAS",
        "STATEAB": "TX",
        "COUNTYNAME": "CORYELL",
        "CITYNAME": "COPPERAS COVE",
        "LATDD": 31.1290238,
        "LONGDD": -97.837156,
        "gridlyProductionCertified": true,
        "gridlyClassification": "PUBLIC_ROADWAY",
        "gridlyDisplayName": "CLARK RD",
        "gridlyId": "FRA-024690W"
      }
    },
    {
      "type": "Feature",
      "id": 211316,
      "geometry": {
        "type": "Point",
        "coordinates": [
          -97.8679322000483,
          31.1230459999434
        ]
      },
      "properties": {
        "OBJECTID": 211316,
        "CROSSING": "024094W",
        "EFFDATE": 1762128000000,
        "REASON": "14",
        "StateCode": "48",
        "CountyCode": "48099",
        "STCYFIPS": "48099",
        "CITYCD": "480991540",
        "RAILROAD": "BNSF",
        "RRDIV": "RED RIVER",
        "RRSUBDIV": "LAMPASAS",
        "HIGHWAY": "sh0009",
        "STREET": "sh0009",
        "TTSTN": "",
        "MILEPOST": "0252.026",
        "TYPEXING": "Public",
        "POSXING": "RR Under",
        "PRVCAT": "14",
        "INIT": "2",
        "LATITUDE": 31.123046,
        "LONGITUD": -97.8679322,
        "LLSOURCE": "1",
        "WHISTBAN": "",
        "RRCONT": "8173521549",
        "POLCONT": "8008325452",
        "INV_LINK": "https://safetydata.fra.dot.gov/OfficeofSafety/PublicSite/Crossing/Crossing.aspx?phasetype=C&rpttype=I&txtcrossingnum=024094W",
        "ACC_LINK": "https://safetydata.fra.dot.gov/OfficeofSafety/PublicSite/Crossing/Crossing.aspx?phasetype=C&rpttype=A&txtcrossingnum=024094W",
        "TTSTNNAM": "",
        "XPURPOSE": "1",
        "OPERATINGR": "BNSF",
        "OPERATIN_1": "Primary",
        "DAYTHRU": 4,
        "NGHTTHRU": 3,
        "MAINTRK": 1,
        "SIDINGTRK": 0,
        "YARDTRK": 0,
        "TRANSITTRK": 0,
        "INDUSTRYTR": 0,
        "OTHRTRK": 0,
        "WDCODE": "",
        "REVISIONDA": "1996/01/01 00:00:00",
        "LASTUPDATE": "11/3/2025",
        "AADT": "14194",
        "AADTYEAR": "2024",
        "STATENAME": "TEXAS",
        "STATEAB": "TX",
        "COUNTYNAME": "CORYELL",
        "CITYNAME": "COPPERAS COVE",
        "LATDD": 31.123046,
        "LONGDD": -97.8679322,
        "gridlyProductionCertified": true,
        "gridlyClassification": "PUBLIC_ROADWAY",
        "gridlyDisplayName": "sh0009",
        "gridlyId": "FRA-024094W"
      }
    },
    {
      "type": "Feature",
      "id": 211319,
      "geometry": {
        "type": "Point",
        "coordinates": [
          -97.8684796998578,
          31.1233784997702
        ]
      },
      "properties": {
        "OBJECTID": 211319,
        "CROSSING": "024097S",
        "EFFDATE": 1762128000000,
        "REASON": "14",
        "StateCode": "48",
        "CountyCode": "48099",
        "STCYFIPS": "48099",
        "CITYCD": "480991540",
        "RAILROAD": "BNSF",
        "RRDIV": "RED RIVER",
        "RRSUBDIV": "LAMPASAS",
        "HIGHWAY": "sh0009",
        "STREET": "sh0009",
        "TTSTN": "",
        "MILEPOST": "0252.036",
        "TYPEXING": "Public",
        "POSXING": "RR Under",
        "PRVCAT": "14",
        "INIT": "2",
        "LATITUDE": 31.1233785,
        "LONGITUD": -97.8684797,
        "LLSOURCE": "1",
        "WHISTBAN": "",
        "RRCONT": "8173521549",
        "POLCONT": "8008325452",
        "INV_LINK": "https://safetydata.fra.dot.gov/OfficeofSafety/PublicSite/Crossing/Crossing.aspx?phasetype=C&rpttype=I&txtcrossingnum=024097S",
        "ACC_LINK": "https://safetydata.fra.dot.gov/OfficeofSafety/PublicSite/Crossing/Crossing.aspx?phasetype=C&rpttype=A&txtcrossingnum=024097S",
        "TTSTNNAM": "",
        "XPURPOSE": "1",
        "OPERATINGR": "BNSF",
        "OPERATIN_1": "Primary",
        "DAYTHRU": 0,
        "NGHTTHRU": 0,
        "MAINTRK": 0,
        "SIDINGTRK": 0,
        "YARDTRK": 1,
        "TRANSITTRK": 0,
        "INDUSTRYTR": 0,
        "OTHRTRK": 0,
        "WDCODE": "",
        "REVISIONDA": "1996/01/01 00:00:00",
        "LASTUPDATE": "11/3/2025",
        "AADT": "14194",
        "AADTYEAR": "2024",
        "STATENAME": "TEXAS",
        "STATEAB": "TX",
        "COUNTYNAME": "CORYELL",
        "CITYNAME": "COPPERAS COVE",
        "LATDD": 31.1233785,
        "LONGDD": -97.8684797,
        "gridlyProductionCertified": true,
        "gridlyClassification": "PUBLIC_ROADWAY",
        "gridlyDisplayName": "sh0009",
        "gridlyId": "FRA-024097S"
      }
    },
    {
      "type": "Feature",
      "id": 214319,
      "geometry": {
        "type": "Point",
        "coordinates": [
          -97.9265702997511,
          31.1420076996669
        ]
      },
      "properties": {
        "OBJECTID": 214319,
        "CROSSING": "024132D",
        "EFFDATE": 1768262400000,
        "REASON": "14",
        "StateCode": "48",
        "CountyCode": "48099",
        "STCYFIPS": "48099",
        "CITYCD": "480991540",
        "RAILROAD": "BNSF",
        "RRDIV": "RED RIVER",
        "RRSUBDIV": "LAMPASAS",
        "HIGHWAY": "ls0000",
        "STREET": "BRADFORD DRive",
        "TTSTN": "",
        "MILEPOST": "0256.050",
        "TYPEXING": "Public",
        "POSXING": "At Grade",
        "PRVCAT": "14",
        "INIT": "2",
        "LATITUDE": 31.1420077,
        "LONGITUD": -97.9265703,
        "LLSOURCE": "1",
        "WHISTBAN": "",
        "RRCONT": "8173521549",
        "POLCONT": "8008325452",
        "INV_LINK": "https://safetydata.fra.dot.gov/OfficeofSafety/PublicSite/Crossing/Crossing.aspx?phasetype=C&rpttype=I&txtcrossingnum=024132D",
        "ACC_LINK": "https://safetydata.fra.dot.gov/OfficeofSafety/PublicSite/Crossing/Crossing.aspx?phasetype=C&rpttype=A&txtcrossingnum=024132D",
        "TTSTNNAM": "",
        "XPURPOSE": "1",
        "OPERATINGR": "BNSF",
        "OPERATIN_1": "Primary",
        "DAYTHRU": 4,
        "NGHTTHRU": 3,
        "MAINTRK": 1,
        "SIDINGTRK": 0,
        "YARDTRK": 0,
        "TRANSITTRK": 0,
        "INDUSTRYTR": 0,
        "OTHRTRK": 0,
        "WDCODE": "All other Gates",
        "REVISIONDA": "1996/01/01 00:00:00",
        "LASTUPDATE": "1/13/2026",
        "AADT": "85",
        "AADTYEAR": "2024",
        "STATENAME": "TEXAS",
        "STATEAB": "TX",
        "COUNTYNAME": "CORYELL",
        "CITYNAME": "COPPERAS COVE",
        "LATDD": 31.1420077,
        "LONGDD": -97.9265703,
        "gridlyProductionCertified": true,
        "gridlyClassification": "PUBLIC_ROADWAY",
        "gridlyDisplayName": "BRADFORD DRive",
        "gridlyId": "FRA-024132D"
      }
    },
    {
      "type": "Feature",
      "id": 215219,
      "geometry": {
        "type": "Point",
        "coordinates": [
          -97.9128561002958,
          31.1303499001506
        ]
      },
      "properties": {
        "OBJECTID": 215219,
        "CROSSING": "024550U",
        "EFFDATE": 1768176000000,
        "REASON": "14",
        "StateCode": "48",
        "CountyCode": "48099",
        "STCYFIPS": "48099",
        "CITYCD": "480991540",
        "RAILROAD": "BNSF",
        "RRDIV": "RED RIVER",
        "RRSUBDIV": "LAMPASAS",
        "HIGHWAY": "LS0000",
        "STREET": "NORTH SEVENTEETH STREET",
        "TTSTN": "669997",
        "MILEPOST": "0254.889",
        "TYPEXING": "Public",
        "POSXING": "At Grade",
        "PRVCAT": "14",
        "INIT": "2",
        "LATITUDE": 31.1303499,
        "LONGITUD": -97.9128561,
        "LLSOURCE": "1",
        "WHISTBAN": "0",
        "RRCONT": "8173521549",
        "POLCONT": "8008325452",
        "INV_LINK": "https://safetydata.fra.dot.gov/OfficeofSafety/PublicSite/Crossing/Crossing.aspx?phasetype=C&rpttype=I&txtcrossingnum=024550U",
        "ACC_LINK": "https://safetydata.fra.dot.gov/OfficeofSafety/PublicSite/Crossing/Crossing.aspx?phasetype=C&rpttype=A&txtcrossingnum=024550U",
        "TTSTNNAM": "COPPERAS COVE",
        "XPURPOSE": "1",
        "OPERATINGR": "BNSF",
        "OPERATIN_1": "Primary",
        "DAYTHRU": 4,
        "NGHTTHRU": 3,
        "MAINTRK": 1,
        "SIDINGTRK": 0,
        "YARDTRK": 0,
        "TRANSITTRK": 0,
        "INDUSTRYTR": 0,
        "OTHRTRK": 0,
        "WDCODE": "All other Gates",
        "REVISIONDA": "1996/01/01 00:00:00",
        "LASTUPDATE": "1/12/2026",
        "AADT": "378",
        "AADTYEAR": "2016",
        "STATENAME": "TEXAS",
        "STATEAB": "TX",
        "COUNTYNAME": "CORYELL",
        "CITYNAME": "COPPERAS COVE",
        "LATDD": 31.1303499,
        "LONGDD": -97.9128561,
        "gridlyProductionCertified": true,
        "gridlyClassification": "PUBLIC_ROADWAY",
        "gridlyDisplayName": "NORTH SEVENTEETH STREET",
        "gridlyId": "FRA-024550U"
      }
    },
    {
      "type": "Feature",
      "id": 215238,
      "geometry": {
        "type": "Point",
        "coordinates": [
          -97.9399171996463,
          31.1440908997616
        ]
      },
      "properties": {
        "OBJECTID": 215238,
        "CROSSING": "024553P",
        "EFFDATE": 1768176000000,
        "REASON": "14",
        "StateCode": "48",
        "CountyCode": "48099",
        "STCYFIPS": "48099",
        "CITYCD": "480991540",
        "RAILROAD": "BNSF",
        "RRDIV": "RED RIVER",
        "RRSUBDIV": "LAMPASAS",
        "HIGHWAY": "LS0000",
        "STREET": "GRIMES CROSSING ROAD",
        "TTSTN": "669997",
        "MILEPOST": "0256.993",
        "TYPEXING": "Public",
        "POSXING": "At Grade",
        "PRVCAT": "14",
        "INIT": "2",
        "LATITUDE": 31.1440909,
        "LONGITUD": -97.9399172,
        "LLSOURCE": "1",
        "WHISTBAN": "0",
        "RRCONT": "8173521549",
        "POLCONT": "8008325452",
        "INV_LINK": "https://safetydata.fra.dot.gov/OfficeofSafety/PublicSite/Crossing/Crossing.aspx?phasetype=C&rpttype=I&txtcrossingnum=024553P",
        "ACC_LINK": "https://safetydata.fra.dot.gov/OfficeofSafety/PublicSite/Crossing/Crossing.aspx?phasetype=C&rpttype=A&txtcrossingnum=024553P",
        "TTSTNNAM": "COPPERAS COVE",
        "XPURPOSE": "1",
        "OPERATINGR": "BNSF",
        "OPERATIN_1": "Primary",
        "DAYTHRU": 4,
        "NGHTTHRU": 3,
        "MAINTRK": 1,
        "SIDINGTRK": 0,
        "YARDTRK": 0,
        "TRANSITTRK": 0,
        "INDUSTRYTR": 0,
        "OTHRTRK": 0,
        "WDCODE": "All other Gates",
        "REVISIONDA": "1996/01/01 00:00:00",
        "LASTUPDATE": "1/12/2026",
        "AADT": "2327",
        "AADTYEAR": "2020",
        "STATENAME": "TEXAS",
        "STATEAB": "TX",
        "COUNTYNAME": "CORYELL",
        "CITYNAME": "COPPERAS COVE",
        "LATDD": 31.1440909,
        "LONGDD": -97.9399172,
        "gridlyProductionCertified": true,
        "gridlyClassification": "PUBLIC_ROADWAY",
        "gridlyDisplayName": "GRIMES CROSSING ROAD",
        "gridlyId": "FRA-024553P"
      }
    },
    {
      "type": "Feature",
      "id": 215324,
      "geometry": {
        "type": "Point",
        "coordinates": [
          -97.9022718001737,
          31.1243536997069
        ]
      },
      "properties": {
        "OBJECTID": 215324,
        "CROSSING": "024547L",
        "EFFDATE": 1768176000000,
        "REASON": "14",
        "StateCode": "48",
        "CountyCode": "48099",
        "STCYFIPS": "48099",
        "CITYCD": "480991540",
        "RAILROAD": "BNSF",
        "RRDIV": "RED RIVER",
        "RRSUBDIV": "LAMPASAS",
        "HIGHWAY": "LS0000",
        "STREET": "NORTH MAIN STREET",
        "TTSTN": "669997",
        "MILEPOST": "0254.138",
        "TYPEXING": "Public",
        "POSXING": "At Grade",
        "PRVCAT": "14",
        "INIT": "2",
        "LATITUDE": 31.1243537,
        "LONGITUD": -97.9022718,
        "LLSOURCE": "1",
        "WHISTBAN": "0",
        "RRCONT": "8173521549",
        "POLCONT": "8008325452",
        "INV_LINK": "https://safetydata.fra.dot.gov/OfficeofSafety/PublicSite/Crossing/Crossing.aspx?phasetype=C&rpttype=I&txtcrossingnum=024547L",
        "ACC_LINK": "https://safetydata.fra.dot.gov/OfficeofSafety/PublicSite/Crossing/Crossing.aspx?phasetype=C&rpttype=A&txtcrossingnum=024547L",
        "TTSTNNAM": "COPPERAS COVE",
        "XPURPOSE": "1",
        "OPERATINGR": "BNSF",
        "OPERATIN_1": "Primary",
        "DAYTHRU": 4,
        "NGHTTHRU": 3,
        "MAINTRK": 1,
        "SIDINGTRK": 0,
        "YARDTRK": 0,
        "TRANSITTRK": 0,
        "INDUSTRYTR": 0,
        "OTHRTRK": 0,
        "WDCODE": "All other Gates",
        "REVISIONDA": "1996/01/01 00:00:00",
        "LASTUPDATE": "1/12/2026",
        "AADT": "8925",
        "AADTYEAR": "2020",
        "STATENAME": "TEXAS",
        "STATEAB": "TX",
        "COUNTYNAME": "CORYELL",
        "CITYNAME": "COPPERAS COVE",
        "LATDD": 31.1243537,
        "LONGDD": -97.9022718,
        "gridlyProductionCertified": true,
        "gridlyClassification": "PUBLIC_ROADWAY",
        "gridlyDisplayName": "NORTH MAIN STREET",
        "gridlyId": "FRA-024547L"
      }
    },
    {
      "type": "Feature",
      "id": 215327,
      "geometry": {
        "type": "Point",
        "coordinates": [
          -97.8919616002992,
          31.1209940000378
        ]
      },
      "properties": {
        "OBJECTID": 215327,
        "CROSSING": "024546E",
        "EFFDATE": 1768176000000,
        "REASON": "14",
        "StateCode": "48",
        "CountyCode": "48099",
        "STCYFIPS": "48099",
        "CITYCD": "480991540",
        "RAILROAD": "BNSF",
        "RRDIV": "RED RIVER",
        "RRSUBDIV": "LAMPASAS",
        "HIGHWAY": "LS0000",
        "STREET": "WOLFE ROAD",
        "TTSTN": "669997",
        "MILEPOST": "0253.468",
        "TYPEXING": "Public",
        "POSXING": "At Grade",
        "PRVCAT": "14",
        "INIT": "2",
        "LATITUDE": 31.120994,
        "LONGITUD": -97.8919616,
        "LLSOURCE": "1",
        "WHISTBAN": "0",
        "RRCONT": "8173521549",
        "POLCONT": "8008325452",
        "INV_LINK": "https://safetydata.fra.dot.gov/OfficeofSafety/PublicSite/Crossing/Crossing.aspx?phasetype=C&rpttype=I&txtcrossingnum=024546E",
        "ACC_LINK": "https://safetydata.fra.dot.gov/OfficeofSafety/PublicSite/Crossing/Crossing.aspx?phasetype=C&rpttype=A&txtcrossingnum=024546E",
        "TTSTNNAM": "COPPERAS COVE",
        "XPURPOSE": "1",
        "OPERATINGR": "BNSF",
        "OPERATIN_1": "Primary",
        "DAYTHRU": 4,
        "NGHTTHRU": 3,
        "MAINTRK": 1,
        "SIDINGTRK": 0,
        "YARDTRK": 0,
        "TRANSITTRK": 0,
        "INDUSTRYTR": 0,
        "OTHRTRK": 0,
        "WDCODE": "All other Gates",
        "REVISIONDA": "1996/01/01 00:00:00",
        "LASTUPDATE": "1/12/2026",
        "AADT": "3042",
        "AADTYEAR": "2020",
        "STATENAME": "TEXAS",
        "STATEAB": "TX",
        "COUNTYNAME": "CORYELL",
        "CITYNAME": "COPPERAS COVE",
        "LATDD": 31.120994,
        "LONGDD": -97.8919616,
        "gridlyProductionCertified": true,
        "gridlyClassification": "PUBLIC_ROADWAY",
        "gridlyDisplayName": "WOLFE ROAD",
        "gridlyId": "FRA-024546E"
      }
    },
    {
      "type": "Feature",
      "id": 215332,
      "geometry": {
        "type": "Point",
        "coordinates": [
          -97.9033977997548,
          31.1247409998722
        ]
      },
      "properties": {
        "OBJECTID": 215332,
        "CROSSING": "024548T",
        "EFFDATE": 1768176000000,
        "REASON": "14",
        "StateCode": "48",
        "CountyCode": "48099",
        "STCYFIPS": "48099",
        "CITYCD": "480991540",
        "RAILROAD": "BNSF",
        "RRDIV": "RED RIVER",
        "RRSUBDIV": "LAMPASAS",
        "HIGHWAY": "FM0116",
        "STREET": "FM0116 / NORTH FIRST STREET",
        "TTSTN": "669997",
        "MILEPOST": "0254.206",
        "TYPEXING": "Public",
        "POSXING": "At Grade",
        "PRVCAT": "14",
        "INIT": "2",
        "LATITUDE": 31.124741,
        "LONGITUD": -97.9033978,
        "LLSOURCE": "1",
        "WHISTBAN": "0",
        "RRCONT": "8173521549",
        "POLCONT": "8008325452",
        "INV_LINK": "https://safetydata.fra.dot.gov/OfficeofSafety/PublicSite/Crossing/Crossing.aspx?phasetype=C&rpttype=I&txtcrossingnum=024548T",
        "ACC_LINK": "https://safetydata.fra.dot.gov/OfficeofSafety/PublicSite/Crossing/Crossing.aspx?phasetype=C&rpttype=A&txtcrossingnum=024548T",
        "TTSTNNAM": "COPPERAS COVE",
        "XPURPOSE": "1",
        "OPERATINGR": "BNSF",
        "OPERATIN_1": "Primary",
        "DAYTHRU": 4,
        "NGHTTHRU": 3,
        "MAINTRK": 1,
        "SIDINGTRK": 0,
        "YARDTRK": 0,
        "TRANSITTRK": 0,
        "INDUSTRYTR": 0,
        "OTHRTRK": 0,
        "WDCODE": "All other Gates",
        "REVISIONDA": "1996/01/01 00:00:00",
        "LASTUPDATE": "1/12/2026",
        "AADT": "13879",
        "AADTYEAR": "2023",
        "STATENAME": "TEXAS",
        "STATEAB": "TX",
        "COUNTYNAME": "CORYELL",
        "CITYNAME": "COPPERAS COVE",
        "LATDD": 31.124741,
        "LONGDD": -97.9033978,
        "gridlyProductionCertified": true,
        "gridlyClassification": "PUBLIC_ROADWAY",
        "gridlyDisplayName": "FM0116 / NORTH FIRST STREET",
        "gridlyId": "FRA-024548T"
      }
    },
    {
      "type": "Feature",
      "id": 215358,
      "geometry": {
        "type": "Point",
        "coordinates": [
          -97.9067871002026,
          31.125928199811
        ]
      },
      "properties": {
        "OBJECTID": 215358,
        "CROSSING": "024549A",
        "EFFDATE": 1768176000000,
        "REASON": "14",
        "StateCode": "48",
        "CountyCode": "48099",
        "STCYFIPS": "48099",
        "CITYCD": "480991540",
        "RAILROAD": "BNSF",
        "RRDIV": "RED RIVER",
        "RRSUBDIV": "LAMPASAS",
        "HIGHWAY": "LS0000",
        "STREET": "SOUTH SEVENTH STREET",
        "TTSTN": "669997",
        "MILEPOST": "0254.420",
        "TYPEXING": "Public",
        "POSXING": "At Grade",
        "PRVCAT": "14",
        "INIT": "2",
        "LATITUDE": 31.1259282,
        "LONGITUD": -97.9067871,
        "LLSOURCE": "1",
        "WHISTBAN": "0",
        "RRCONT": "8173521549",
        "POLCONT": "8008325452",
        "INV_LINK": "https://safetydata.fra.dot.gov/OfficeofSafety/PublicSite/Crossing/Crossing.aspx?phasetype=C&rpttype=I&txtcrossingnum=024549A",
        "ACC_LINK": "https://safetydata.fra.dot.gov/OfficeofSafety/PublicSite/Crossing/Crossing.aspx?phasetype=C&rpttype=A&txtcrossingnum=024549A",
        "TTSTNNAM": "COPPERAS COVE",
        "XPURPOSE": "1",
        "OPERATINGR": "BNSF",
        "OPERATIN_1": "Primary",
        "DAYTHRU": 4,
        "NGHTTHRU": 3,
        "MAINTRK": 1,
        "SIDINGTRK": 0,
        "YARDTRK": 0,
        "TRANSITTRK": 0,
        "INDUSTRYTR": 0,
        "OTHRTRK": 0,
        "WDCODE": "All other Gates",
        "REVISIONDA": "1996/01/01 00:00:00",
        "LASTUPDATE": "1/12/2026",
        "AADT": "2227",
        "AADTYEAR": "2020",
        "STATENAME": "TEXAS",
        "STATEAB": "TX",
        "COUNTYNAME": "CORYELL",
        "CITYNAME": "COPPERAS COVE",
        "LATDD": 31.1259282,
        "LONGDD": -97.9067871,
        "gridlyProductionCertified": true,
        "gridlyClassification": "PUBLIC_ROADWAY",
        "gridlyDisplayName": "SOUTH SEVENTH STREET",
        "gridlyId": "FRA-024549A"
      }
    }
  ]
}
