{
  "type": "FeatureCollection",
  "features": [
    {
      "type": "Feature",
      "id": 202477,
      "geometry": {
        "type": "Point",
        "coordinates": [
          -98.3486990003509,
          33.8672442000064
        ]
      },
      "properties": {
        "OBJECTID": 202477,
        "CROSSING": "274963C",
        "EFFDATE": 1702857600000,
        "REASON": "20",
        "StateCode": "48",
        "CountyCode": "48077",
        "STCYFIPS": "48077",
        "CITYCD": "480097490",
        "RAILROAD": "BNSF",
        "RRDIV": "RED RIVER",
        "RRSUBDIV": "WICHITA FALLS",
        "HIGHWAY": "CO 0000",
        "STREET": "MOWERY ST",
        "TTSTN": "664150",
        "MILEPOST": "0105.394",
        "TYPEXING": "Public",
        "POSXING": "At Grade",
        "PRVCAT": "20",
        "INIT": "1",
        "LATITUDE": 33.8672442,
        "LONGITUD": -98.348699,
        "LLSOURCE": "1",
        "WHISTBAN": "0",
        "RRCONT": "8173521549",
        "POLCONT": "8008325452",
        "INV_LINK": "https://safetydata.fra.dot.gov/OfficeofSafety/PublicSite/Crossing/Crossing.aspx?phasetype=C&rpttype=I&txtcrossingnum=274963C",
        "ACC_LINK": "https://safetydata.fra.dot.gov/OfficeofSafety/PublicSite/Crossing/Crossing.aspx?phasetype=C&rpttype=A&txtcrossingnum=274963C",
        "TTSTNNAM": "JOLLY",
        "XPURPOSE": "1",
        "OPERATINGR": "BNSF",
        "OPERATIN_1": "Primary",
        "DAYTHRU": 9,
        "NGHTTHRU": 9,
        "MAINTRK": 1,
        "SIDINGTRK": 0,
        "YARDTRK": 1,
        "TRANSITTRK": 0,
        "INDUSTRYTR": 0,
        "OTHRTRK": 1,
        "WDCODE": "All other Gates",
        "REVISIONDA": "1996/01/01 00:00:00",
        "LASTUPDATE": "12/18/2023",
        "AADT": "67",
        "AADTYEAR": "2019",
        "STATENAME": "TEXAS",
        "STATEAB": "TX",
        "COUNTYNAME": "CLAY",
        "CITYNAME": "WICHITA FALLS",
        "LATDD": 33.8672442,
        "LONGDD": -98.348699,
        "gridlyProductionCertified": true,
        "gridlyClassification": "PUBLIC_ROADWAY",
        "gridlyDisplayName": "MOWERY ST",
        "gridlyId": "FRA-274963C"
      }
    },
    {
      "type": "Feature",
      "id": 205520,
      "geometry": {
        "type": "Point",
        "coordinates": [
          -97.9896049996944,
          33.6249570001514
        ]
      },
      "properties": {
        "OBJECTID": 205520,
        "CROSSING": "274701V",
        "EFFDATE": 1736812800000,
        "REASON": "14",
        "StateCode": "48",
        "CountyCode": "48077",
        "STCYFIPS": "48077",
        "CITYCD": "480770540",
        "RAILROAD": "BNSF",
        "RRDIV": "RED RIVER",
        "RRSUBDIV": "WICHITA FALLS",
        "HIGHWAY": "Not Yet Reported by State",
        "STREET": "PRIVATE",
        "TTSTN": "664167",
        "MILEPOST": "0077.788",
        "TYPEXING": "Private",
        "POSXING": "At Grade",
        "PRVCAT": "14",
        "INIT": "1",
        "LATITUDE": 33.624957,
        "LONGITUD": -97.989605,
        "LLSOURCE": "1",
        "WHISTBAN": "0",
        "RRCONT": "8173521549",
        "POLCONT": "8008325452",
        "INV_LINK": "https://safetydata.fra.dot.gov/OfficeofSafety/PublicSite/Crossing/Crossing.aspx?phasetype=C&rpttype=I&txtcrossingnum=274701V",
        "ACC_LINK": "https://safetydata.fra.dot.gov/OfficeofSafety/PublicSite/Crossing/Crossing.aspx?phasetype=C&rpttype=A&txtcrossingnum=274701V",
        "TTSTNNAM": "BELLEVUE",
        "XPURPOSE": "1",
        "OPERATINGR": "BNSF",
        "OPERATIN_1": "Primary",
        "DAYTHRU": 7,
        "NGHTTHRU": 7,
        "MAINTRK": 1,
        "SIDINGTRK": 0,
        "YARDTRK": 0,
        "TRANSITTRK": 0,
        "INDUSTRYTR": 0,
        "OTHRTRK": 0,
        "WDCODE": "",
        "REVISIONDA": "1996/01/01 00:00:00",
        "LASTUPDATE": "1/14/2025",
        "AADT": "",
        "AADTYEAR": "1978",
        "STATENAME": "TEXAS",
        "STATEAB": "TX",
        "COUNTYNAME": "CLAY",
        "CITYNAME": "BELLEVUE",
        "LATDD": 33.624957,
        "LONGDD": -97.989605,
        "gridlyProductionCertified": true,
        "gridlyClassification": "PUBLIC_ROADWAY",
        "gridlyDisplayName": "PRIVATE",
        "gridlyId": "FRA-274701V"
      }
    },
    {
      "type": "Feature",
      "id": 205527,
      "geometry": {
        "type": "Point",
        "coordinates": [
          -98.1165850002251,
          33.7531659997288
        ]
      },
      "properties": {
        "OBJECTID": 205527,
        "CROSSING": "274712H",
        "EFFDATE": 1736812800000,
        "REASON": "14",
        "StateCode": "48",
        "CountyCode": "48077",
        "STCYFIPS": "48077",
        "CITYCD": "480773130",
        "RAILROAD": "BNSF",
        "RRDIV": "RED RIVER",
        "RRSUBDIV": "WICHITA FALLS",
        "HIGHWAY": "Not Yet Reported by State",
        "STREET": "PRIVATE",
        "TTSTN": "664163",
        "MILEPOST": "0089.689",
        "TYPEXING": "Private",
        "POSXING": "At Grade",
        "PRVCAT": "14",
        "INIT": "1",
        "LATITUDE": 33.753166,
        "LONGITUD": -98.116585,
        "LLSOURCE": "1",
        "WHISTBAN": "0",
        "RRCONT": "8173521549",
        "POLCONT": "8008325452",
        "INV_LINK": "https://safetydata.fra.dot.gov/OfficeofSafety/PublicSite/Crossing/Crossing.aspx?phasetype=C&rpttype=I&txtcrossingnum=274712H",
        "ACC_LINK": "https://safetydata.fra.dot.gov/OfficeofSafety/PublicSite/Crossing/Crossing.aspx?phasetype=C&rpttype=A&txtcrossingnum=274712H",
        "TTSTNNAM": "DICKWORSHAM",
        "XPURPOSE": "1",
        "OPERATINGR": "BNSF",
        "OPERATIN_1": "Primary",
        "DAYTHRU": 7,
        "NGHTTHRU": 7,
        "MAINTRK": 1,
        "SIDINGTRK": 1,
        "YARDTRK": 0,
        "TRANSITTRK": 0,
        "INDUSTRYTR": 0,
        "OTHRTRK": 1,
        "WDCODE": "",
        "REVISIONDA": "1996/01/01 00:00:00",
        "LASTUPDATE": "1/14/2025",
        "AADT": "",
        "AADTYEAR": "1978",
        "STATENAME": "TEXAS",
        "STATEAB": "TX",
        "COUNTYNAME": "CLAY",
        "CITYNAME": "HENRIETTA",
        "LATDD": 33.753166,
        "LONGDD": -98.116585,
        "gridlyProductionCertified": true,
        "gridlyClassification": "PUBLIC_ROADWAY",
        "gridlyDisplayName": "PRIVATE",
        "gridlyId": "FRA-274712H"
      }
    },
    {
      "type": "Feature",
      "id": 205635,
      "geometry": {
        "type": "Point",
        "coordinates": [
          -98.0501190000011,
          33.6577460002357
        ]
      },
      "properties": {
        "OBJECTID": 205635,
        "CROSSING": "274718Y",
        "EFFDATE": 1736812800000,
        "REASON": "14",
        "StateCode": "48",
        "CountyCode": "48077",
        "STCYFIPS": "48077",
        "CITYCD": "480770540",
        "RAILROAD": "BNSF",
        "RRDIV": "RED RIVER",
        "RRSUBDIV": "WICHITA FALLS",
        "HIGHWAY": "Not Yet Reported by State",
        "STREET": "PRIVATE",
        "TTSTN": "664167",
        "MILEPOST": "0081.966",
        "TYPEXING": "Private",
        "POSXING": "At Grade",
        "PRVCAT": "14",
        "INIT": "1",
        "LATITUDE": 33.657746,
        "LONGITUD": -98.050119,
        "LLSOURCE": "1",
        "WHISTBAN": "0",
        "RRCONT": "8173521549",
        "POLCONT": "8008325452",
        "INV_LINK": "https://safetydata.fra.dot.gov/OfficeofSafety/PublicSite/Crossing/Crossing.aspx?phasetype=C&rpttype=I&txtcrossingnum=274718Y",
        "ACC_LINK": "https://safetydata.fra.dot.gov/OfficeofSafety/PublicSite/Crossing/Crossing.aspx?phasetype=C&rpttype=A&txtcrossingnum=274718Y",
        "TTSTNNAM": "BELLEVUE",
        "XPURPOSE": "1",
        "OPERATINGR": "BNSF",
        "OPERATIN_1": "Primary",
        "DAYTHRU": 7,
        "NGHTTHRU": 7,
        "MAINTRK": 1,
        "SIDINGTRK": 0,
        "YARDTRK": 0,
        "TRANSITTRK": 0,
        "INDUSTRYTR": 0,
        "OTHRTRK": 0,
        "WDCODE": "",
        "REVISIONDA": "1996/01/01 00:00:00",
        "LASTUPDATE": "1/14/2025",
        "AADT": "",
        "AADTYEAR": "1978",
        "STATENAME": "TEXAS",
        "STATEAB": "TX",
        "COUNTYNAME": "CLAY",
        "CITYNAME": "BELLEVUE",
        "LATDD": 33.657746,
        "LONGDD": -98.050119,
        "gridlyProductionCertified": true,
        "gridlyClassification": "PUBLIC_ROADWAY",
        "gridlyDisplayName": "PRIVATE",
        "gridlyId": "FRA-274718Y"
      }
    },
    {
      "type": "Feature",
      "id": 205636,
      "geometry": {
        "type": "Point",
        "coordinates": [
          -98.3646520000219,
          33.870705700317
        ]
      },
      "properties": {
        "OBJECTID": 205636,
        "CROSSING": "274962V",
        "EFFDATE": 1736812800000,
        "REASON": "14",
        "StateCode": "48",
        "CountyCode": "48077",
        "STCYFIPS": "48077",
        "CITYCD": "480773130",
        "RAILROAD": "BNSF",
        "RRDIV": "RED RIVER",
        "RRSUBDIV": "WICHITA FALLS",
        "HIGHWAY": "Not Yet Reported by State",
        "STREET": "PRIVATE",
        "TTSTN": "664150",
        "MILEPOST": "0106.334",
        "TYPEXING": "Private",
        "POSXING": "At Grade",
        "PRVCAT": "14",
        "INIT": "1",
        "LATITUDE": 33.8707057,
        "LONGITUD": -98.364652,
        "LLSOURCE": "1",
        "WHISTBAN": "0",
        "RRCONT": "8173521549",
        "POLCONT": "8008325452",
        "INV_LINK": "https://safetydata.fra.dot.gov/OfficeofSafety/PublicSite/Crossing/Crossing.aspx?phasetype=C&rpttype=I&txtcrossingnum=274962V",
        "ACC_LINK": "https://safetydata.fra.dot.gov/OfficeofSafety/PublicSite/Crossing/Crossing.aspx?phasetype=C&rpttype=A&txtcrossingnum=274962V",
        "TTSTNNAM": "JOLLY",
        "XPURPOSE": "1",
        "OPERATINGR": "BNSF",
        "OPERATIN_1": "Primary",
        "DAYTHRU": 7,
        "NGHTTHRU": 7,
        "MAINTRK": 1,
        "SIDINGTRK": 0,
        "YARDTRK": 0,
        "TRANSITTRK": 0,
        "INDUSTRYTR": 0,
        "OTHRTRK": 0,
        "WDCODE": "",
        "REVISIONDA": "1996/01/01 00:00:00",
        "LASTUPDATE": "1/14/2025",
        "AADT": "",
        "AADTYEAR": "1978",
        "STATENAME": "TEXAS",
        "STATEAB": "TX",
        "COUNTYNAME": "CLAY",
        "CITYNAME": "HENRIETTA",
        "LATDD": 33.8707057,
        "LONGDD": -98.364652,
        "gridlyProductionCertified": true,
        "gridlyClassification": "PUBLIC_ROADWAY",
        "gridlyDisplayName": "PRIVATE",
        "gridlyId": "FRA-274962V"
      }
    },
    {
      "type": "Feature",
      "id": 205643,
      "geometry": {
        "type": "Point",
        "coordinates": [
          -98.3174969999173,
          33.8556130001993
        ]
      },
      "properties": {
        "OBJECTID": 205643,
        "CROSSING": "274964J",
        "EFFDATE": 1736812800000,
        "REASON": "14",
        "StateCode": "48",
        "CountyCode": "48077",
        "STCYFIPS": "48077",
        "CITYCD": "480773130",
        "RAILROAD": "BNSF",
        "RRDIV": "RED RIVER",
        "RRSUBDIV": "WICHITA FALLS",
        "HIGHWAY": "Not Yet Reported by State",
        "STREET": "BEAR CREEK RANCH",
        "TTSTN": "664150",
        "MILEPOST": "0103.425",
        "TYPEXING": "Private",
        "POSXING": "At Grade",
        "PRVCAT": "14",
        "INIT": "1",
        "LATITUDE": 33.855613,
        "LONGITUD": -98.317497,
        "LLSOURCE": "1",
        "WHISTBAN": "0",
        "RRCONT": "8173521549",
        "POLCONT": "8008325452",
        "INV_LINK": "https://safetydata.fra.dot.gov/OfficeofSafety/PublicSite/Crossing/Crossing.aspx?phasetype=C&rpttype=I&txtcrossingnum=274964J",
        "ACC_LINK": "https://safetydata.fra.dot.gov/OfficeofSafety/PublicSite/Crossing/Crossing.aspx?phasetype=C&rpttype=A&txtcrossingnum=274964J",
        "TTSTNNAM": "JOLLY",
        "XPURPOSE": "1",
        "OPERATINGR": "BNSF",
        "OPERATIN_1": "Primary",
        "DAYTHRU": 7,
        "NGHTTHRU": 7,
        "MAINTRK": 1,
        "SIDINGTRK": 0,
        "YARDTRK": 0,
        "TRANSITTRK": 0,
        "INDUSTRYTR": 0,
        "OTHRTRK": 0,
        "WDCODE": "",
        "REVISIONDA": "1996/01/01 00:00:00",
        "LASTUPDATE": "1/14/2025",
        "AADT": "",
        "AADTYEAR": "1978",
        "STATENAME": "TEXAS",
        "STATEAB": "TX",
        "COUNTYNAME": "CLAY",
        "CITYNAME": "HENRIETTA",
        "LATDD": 33.855613,
        "LONGDD": -98.317497,
        "gridlyProductionCertified": true,
        "gridlyClassification": "PUBLIC_ROADWAY",
        "gridlyDisplayName": "BEAR CREEK RANCH",
        "gridlyId": "FRA-274964J"
      }
    },
    {
      "type": "Feature",
      "id": 205646,
      "geometry": {
        "type": "Point",
        "coordinates": [
          -98.2027220004186,
          33.8092359999809
        ]
      },
      "properties": {
        "OBJECTID": 205646,
        "CROSSING": "275070A",
        "EFFDATE": 1736812800000,
        "REASON": "14",
        "StateCode": "48",
        "CountyCode": "48077",
        "STCYFIPS": "48077",
        "CITYCD": "480773130",
        "RAILROAD": "BNSF",
        "RRDIV": "RED RIVER",
        "RRSUBDIV": "WICHITA FALLS",
        "HIGHWAY": "Not Yet Reported by State",
        "STREET": "PRIVATE",
        "TTSTN": "664163",
        "MILEPOST": "0096.014",
        "TYPEXING": "Private",
        "POSXING": "At Grade",
        "PRVCAT": "14",
        "INIT": "1",
        "LATITUDE": 33.809236,
        "LONGITUD": -98.202722,
        "LLSOURCE": "1",
        "WHISTBAN": "0",
        "RRCONT": "8173521549",
        "POLCONT": "8008325452",
        "INV_LINK": "https://safetydata.fra.dot.gov/OfficeofSafety/PublicSite/Crossing/Crossing.aspx?phasetype=C&rpttype=I&txtcrossingnum=275070A",
        "ACC_LINK": "https://safetydata.fra.dot.gov/OfficeofSafety/PublicSite/Crossing/Crossing.aspx?phasetype=C&rpttype=A&txtcrossingnum=275070A",
        "TTSTNNAM": "DICKWORSHAM",
        "XPURPOSE": "1",
        "OPERATINGR": "BNSF",
        "OPERATIN_1": "Primary",
        "DAYTHRU": 7,
        "NGHTTHRU": 7,
        "MAINTRK": 1,
        "SIDINGTRK": 0,
        "YARDTRK": 0,
        "TRANSITTRK": 0,
        "INDUSTRYTR": 0,
        "OTHRTRK": 0,
        "WDCODE": "",
        "REVISIONDA": "1996/01/01 00:00:00",
        "LASTUPDATE": "1/14/2025",
        "AADT": "",
        "AADTYEAR": "1978",
        "STATENAME": "TEXAS",
        "STATEAB": "TX",
        "COUNTYNAME": "CLAY",
        "CITYNAME": "HENRIETTA",
        "LATDD": 33.809236,
        "LONGDD": -98.202722,
        "gridlyProductionCertified": true,
        "gridlyClassification": "PUBLIC_ROADWAY",
        "gridlyDisplayName": "PRIVATE",
        "gridlyId": "FRA-275070A"
      }
    },
    {
      "type": "Feature",
      "id": 205647,
      "geometry": {
        "type": "Point",
        "coordinates": [
          -98.1830730001904,
          33.7979772000295
        ]
      },
      "properties": {
        "OBJECTID": 205647,
        "CROSSING": "275074C",
        "EFFDATE": 1736812800000,
        "REASON": "14",
        "StateCode": "48",
        "CountyCode": "48077",
        "STCYFIPS": "48077",
        "CITYCD": "480773130",
        "RAILROAD": "BNSF",
        "RRDIV": "RED RIVER",
        "RRSUBDIV": "WICHITA FALLS",
        "HIGHWAY": "SS 0510",
        "STREET": "SPUR 510",
        "TTSTN": "664163",
        "MILEPOST": "0094.638",
        "TYPEXING": "Public",
        "POSXING": "RR Over",
        "PRVCAT": "14",
        "INIT": "1",
        "LATITUDE": 33.7979772,
        "LONGITUD": -98.183073,
        "LLSOURCE": "1",
        "WHISTBAN": "0",
        "RRCONT": "8173521549",
        "POLCONT": "8008325452",
        "INV_LINK": "https://safetydata.fra.dot.gov/OfficeofSafety/PublicSite/Crossing/Crossing.aspx?phasetype=C&rpttype=I&txtcrossingnum=275074C",
        "ACC_LINK": "https://safetydata.fra.dot.gov/OfficeofSafety/PublicSite/Crossing/Crossing.aspx?phasetype=C&rpttype=A&txtcrossingnum=275074C",
        "TTSTNNAM": "DICKWORSHAM",
        "XPURPOSE": "1",
        "OPERATINGR": "BNSF",
        "OPERATIN_1": "Primary",
        "DAYTHRU": 7,
        "NGHTTHRU": 7,
        "MAINTRK": 1,
        "SIDINGTRK": 0,
        "YARDTRK": 0,
        "TRANSITTRK": 0,
        "INDUSTRYTR": 0,
        "OTHRTRK": 0,
        "WDCODE": "",
        "REVISIONDA": "1996/01/01 00:00:00",
        "LASTUPDATE": "1/14/2025",
        "AADT": "000810",
        "AADTYEAR": "2010",
        "STATENAME": "TEXAS",
        "STATEAB": "TX",
        "COUNTYNAME": "CLAY",
        "CITYNAME": "HENRIETTA",
        "LATDD": 33.7979772,
        "LONGDD": -98.183073,
        "gridlyProductionCertified": true,
        "gridlyClassification": "PUBLIC_ROADWAY",
        "gridlyDisplayName": "SPUR 510",
        "gridlyId": "FRA-275074C"
      }
    },
    {
      "type": "Feature",
      "id": 205765,
      "geometry": {
        "type": "Point",
        "coordinates": [
          -98.3471050000664,
          33.8668977001102
        ]
      },
      "properties": {
        "OBJECTID": 205765,
        "CROSSING": "275328P",
        "EFFDATE": 1736812800000,
        "REASON": "14",
        "StateCode": "48",
        "CountyCode": "48077",
        "STCYFIPS": "48077",
        "CITYCD": "480773130",
        "RAILROAD": "BNSF",
        "RRDIV": "RED RIVER",
        "RRSUBDIV": "WICHITA FALLS",
        "HIGHWAY": "FM ROAD",
        "STREET": "FM 2393",
        "TTSTN": "664150",
        "MILEPOST": "0105.297",
        "TYPEXING": "Public",
        "POSXING": "At Grade",
        "PRVCAT": "14",
        "INIT": "1",
        "LATITUDE": 33.8668977,
        "LONGITUD": -98.347105,
        "LLSOURCE": "1",
        "WHISTBAN": "0",
        "RRCONT": "8173521549",
        "POLCONT": "8008325452",
        "INV_LINK": "https://safetydata.fra.dot.gov/OfficeofSafety/PublicSite/Crossing/Crossing.aspx?phasetype=C&rpttype=I&txtcrossingnum=275328P",
        "ACC_LINK": "https://safetydata.fra.dot.gov/OfficeofSafety/PublicSite/Crossing/Crossing.aspx?phasetype=C&rpttype=A&txtcrossingnum=275328P",
        "TTSTNNAM": "JOLLY",
        "XPURPOSE": "1",
        "OPERATINGR": "BNSF",
        "OPERATIN_1": "Primary",
        "DAYTHRU": 7,
        "NGHTTHRU": 7,
        "MAINTRK": 1,
        "SIDINGTRK": 0,
        "YARDTRK": 1,
        "TRANSITTRK": 0,
        "INDUSTRYTR": 0,
        "OTHRTRK": 1,
        "WDCODE": "All other Gates",
        "REVISIONDA": "1996/01/01 00:00:00",
        "LASTUPDATE": "1/14/2025",
        "AADT": "476",
        "AADTYEAR": "2019",
        "STATENAME": "TEXAS",
        "STATEAB": "TX",
        "COUNTYNAME": "CLAY",
        "CITYNAME": "HENRIETTA",
        "LATDD": 33.8668977,
        "LONGDD": -98.347105,
        "gridlyProductionCertified": true,
        "gridlyClassification": "PUBLIC_ROADWAY",
        "gridlyDisplayName": "FM 2393",
        "gridlyId": "FRA-275328P"
      }
    },
    {
      "type": "Feature",
      "id": 205766,
      "geometry": {
        "type": "Point",
        "coordinates": [
          -98.2943000001683,
          33.8450986996906
        ]
      },
      "properties": {
        "OBJECTID": 205766,
        "CROSSING": "274966X",
        "EFFDATE": 1736812800000,
        "REASON": "14",
        "StateCode": "48",
        "CountyCode": "48077",
        "STCYFIPS": "48077",
        "CITYCD": "480773130",
        "RAILROAD": "BNSF",
        "RRDIV": "RED RIVER",
        "RRSUBDIV": "WICHITA FALLS",
        "HIGHWAY": "CO 0000",
        "STREET": "BODDY RD",
        "TTSTN": "664150",
        "MILEPOST": "0101.860",
        "TYPEXING": "Public",
        "POSXING": "At Grade",
        "PRVCAT": "14",
        "INIT": "1",
        "LATITUDE": 33.8450987,
        "LONGITUD": -98.2943,
        "LLSOURCE": "1",
        "WHISTBAN": "0",
        "RRCONT": "8173521549",
        "POLCONT": "8008325452",
        "INV_LINK": "https://safetydata.fra.dot.gov/OfficeofSafety/PublicSite/Crossing/Crossing.aspx?phasetype=C&rpttype=I&txtcrossingnum=274966X",
        "ACC_LINK": "https://safetydata.fra.dot.gov/OfficeofSafety/PublicSite/Crossing/Crossing.aspx?phasetype=C&rpttype=A&txtcrossingnum=274966X",
        "TTSTNNAM": "JOLLY",
        "XPURPOSE": "1",
        "OPERATINGR": "BNSF",
        "OPERATIN_1": "Primary",
        "DAYTHRU": 7,
        "NGHTTHRU": 7,
        "MAINTRK": 1,
        "SIDINGTRK": 0,
        "YARDTRK": 0,
        "TRANSITTRK": 0,
        "INDUSTRYTR": 0,
        "OTHRTRK": 0,
        "WDCODE": "All other Gates",
        "REVISIONDA": "1996/01/01 00:00:00",
        "LASTUPDATE": "1/14/2025",
        "AADT": "46",
        "AADTYEAR": "2019",
        "STATENAME": "TEXAS",
        "STATEAB": "TX",
        "COUNTYNAME": "CLAY",
        "CITYNAME": "HENRIETTA",
        "LATDD": 33.8450987,
        "LONGDD": -98.2943,
        "gridlyProductionCertified": true,
        "gridlyClassification": "PUBLIC_ROADWAY",
        "gridlyDisplayName": "BODDY RD",
        "gridlyId": "FRA-274966X"
      }
    },
    {
      "type": "Feature",
      "id": 205777,
      "geometry": {
        "type": "Point",
        "coordinates": [
          -98.2571419996193,
          33.8306385997078
        ]
      },
      "properties": {
        "OBJECTID": 205777,
        "CROSSING": "274968L",
        "EFFDATE": 1736812800000,
        "REASON": "14",
        "StateCode": "48",
        "CountyCode": "48077",
        "STCYFIPS": "48077",
        "CITYCD": "480773130",
        "RAILROAD": "BNSF",
        "RRDIV": "RED RIVER",
        "RRSUBDIV": "WICHITA FALLS",
        "HIGHWAY": "Not Yet Reported by State",
        "STREET": "PRIVATE",
        "TTSTN": "664150",
        "MILEPOST": "0099.482",
        "TYPEXING": "Private",
        "POSXING": "At Grade",
        "PRVCAT": "14",
        "INIT": "1",
        "LATITUDE": 33.8306386,
        "LONGITUD": -98.257142,
        "LLSOURCE": "1",
        "WHISTBAN": "0",
        "RRCONT": "8173521549",
        "POLCONT": "8008325452",
        "INV_LINK": "https://safetydata.fra.dot.gov/OfficeofSafety/PublicSite/Crossing/Crossing.aspx?phasetype=C&rpttype=I&txtcrossingnum=274968L",
        "ACC_LINK": "https://safetydata.fra.dot.gov/OfficeofSafety/PublicSite/Crossing/Crossing.aspx?phasetype=C&rpttype=A&txtcrossingnum=274968L",
        "TTSTNNAM": "JOLLY",
        "XPURPOSE": "1",
        "OPERATINGR": "BNSF",
        "OPERATIN_1": "Primary",
        "DAYTHRU": 7,
        "NGHTTHRU": 7,
        "MAINTRK": 1,
        "SIDINGTRK": 0,
        "YARDTRK": 0,
        "TRANSITTRK": 0,
        "INDUSTRYTR": 0,
        "OTHRTRK": 0,
        "WDCODE": "",
        "REVISIONDA": "1996/01/01 00:00:00",
        "LASTUPDATE": "1/14/2025",
        "AADT": "",
        "AADTYEAR": "1978",
        "STATENAME": "TEXAS",
        "STATEAB": "TX",
        "COUNTYNAME": "CLAY",
        "CITYNAME": "HENRIETTA",
        "LATDD": 33.8306386,
        "LONGDD": -98.257142,
        "gridlyProductionCertified": true,
        "gridlyClassification": "PUBLIC_ROADWAY",
        "gridlyDisplayName": "PRIVATE",
        "gridlyId": "FRA-274968L"
      }
    },
    {
      "type": "Feature",
      "id": 205795,
      "geometry": {
        "type": "Point",
        "coordinates": [
          -98.2190409997875,
          33.8138102998343
        ]
      },
      "properties": {
        "OBJECTID": 205795,
        "CROSSING": "274970M",
        "EFFDATE": 1736812800000,
        "REASON": "14",
        "StateCode": "48",
        "CountyCode": "48077",
        "STCYFIPS": "48077",
        "CITYCD": "480773130",
        "RAILROAD": "BNSF",
        "RRDIV": "RED RIVER",
        "RRSUBDIV": "WICHITA FALLS",
        "HIGHWAY": "US 287",
        "STREET": "US HIGHWAY 287",
        "TTSTN": "664163",
        "MILEPOST": "0097.000",
        "TYPEXING": "Public",
        "POSXING": "RR Under",
        "PRVCAT": "14",
        "INIT": "1",
        "LATITUDE": 33.8138103,
        "LONGITUD": -98.219041,
        "LLSOURCE": "1",
        "WHISTBAN": "0",
        "RRCONT": "8173521549",
        "POLCONT": "8008325452",
        "INV_LINK": "https://safetydata.fra.dot.gov/OfficeofSafety/PublicSite/Crossing/Crossing.aspx?phasetype=C&rpttype=I&txtcrossingnum=274970M",
        "ACC_LINK": "https://safetydata.fra.dot.gov/OfficeofSafety/PublicSite/Crossing/Crossing.aspx?phasetype=C&rpttype=A&txtcrossingnum=274970M",
        "TTSTNNAM": "DICKWORSHAM",
        "XPURPOSE": "1",
        "OPERATINGR": "BNSF",
        "OPERATIN_1": "Primary",
        "DAYTHRU": 7,
        "NGHTTHRU": 7,
        "MAINTRK": 1,
        "SIDINGTRK": 0,
        "YARDTRK": 0,
        "TRANSITTRK": 0,
        "INDUSTRYTR": 0,
        "OTHRTRK": 0,
        "WDCODE": "",
        "REVISIONDA": "1996/01/01 00:00:00",
        "LASTUPDATE": "1/14/2025",
        "AADT": "014820",
        "AADTYEAR": "2010",
        "STATENAME": "TEXAS",
        "STATEAB": "TX",
        "COUNTYNAME": "CLAY",
        "CITYNAME": "HENRIETTA",
        "LATDD": 33.8138103,
        "LONGDD": -98.219041,
        "gridlyProductionCertified": true,
        "gridlyClassification": "PUBLIC_ROADWAY",
        "gridlyDisplayName": "US HIGHWAY 287",
        "gridlyId": "FRA-274970M"
      }
    },
    {
      "type": "Feature",
      "id": 205798,
      "geometry": {
        "type": "Point",
        "coordinates": [
          -98.3975780004364,
          33.8778430000114
        ]
      },
      "properties": {
        "OBJECTID": 205798,
        "CROSSING": "274995H",
        "EFFDATE": 1736812800000,
        "REASON": "14",
        "StateCode": "48",
        "CountyCode": "48077",
        "STCYFIPS": "48077",
        "CITYCD": "480773130",
        "RAILROAD": "BNSF",
        "RRDIV": "RED RIVER",
        "RRSUBDIV": "WICHITA FALLS",
        "HIGHWAY": "Not Yet Reported by State",
        "STREET": "PRIVATE",
        "TTSTN": "664150",
        "MILEPOST": "0108.259",
        "TYPEXING": "Private",
        "POSXING": "At Grade",
        "PRVCAT": "14",
        "INIT": "1",
        "LATITUDE": 33.877843,
        "LONGITUD": -98.397578,
        "LLSOURCE": "1",
        "WHISTBAN": "0",
        "RRCONT": "8173521549",
        "POLCONT": "8008325452",
        "INV_LINK": "https://safetydata.fra.dot.gov/OfficeofSafety/PublicSite/Crossing/Crossing.aspx?phasetype=C&rpttype=I&txtcrossingnum=274995H",
        "ACC_LINK": "https://safetydata.fra.dot.gov/OfficeofSafety/PublicSite/Crossing/Crossing.aspx?phasetype=C&rpttype=A&txtcrossingnum=274995H",
        "TTSTNNAM": "JOLLY",
        "XPURPOSE": "1",
        "OPERATINGR": "BNSF",
        "OPERATIN_1": "Primary",
        "DAYTHRU": 7,
        "NGHTTHRU": 7,
        "MAINTRK": 1,
        "SIDINGTRK": 0,
        "YARDTRK": 0,
        "TRANSITTRK": 0,
        "INDUSTRYTR": 0,
        "OTHRTRK": 0,
        "WDCODE": "",
        "REVISIONDA": "1996/01/01 00:00:00",
        "LASTUPDATE": "1/14/2025",
        "AADT": "",
        "AADTYEAR": "1978",
        "STATENAME": "TEXAS",
        "STATEAB": "TX",
        "COUNTYNAME": "CLAY",
        "CITYNAME": "HENRIETTA",
        "LATDD": 33.877843,
        "LONGDD": -98.397578,
        "gridlyProductionCertified": true,
        "gridlyClassification": "PUBLIC_ROADWAY",
        "gridlyDisplayName": "PRIVATE",
        "gridlyId": "FRA-274995H"
      }
    },
    {
      "type": "Feature",
      "id": 205802,
      "geometry": {
        "type": "Point",
        "coordinates": [
          -98.4103700002008,
          33.8806864000283
        ]
      },
      "properties": {
        "OBJECTID": 205802,
        "CROSSING": "274994B",
        "EFFDATE": 1736812800000,
        "REASON": "14",
        "StateCode": "48",
        "CountyCode": "48485",
        "STCYFIPS": "48485",
        "CITYCD": "480097490",
        "RAILROAD": "BNSF",
        "RRDIV": "RED RIVER",
        "RRSUBDIV": "WICHITA FALLS",
        "HIGHWAY": "US 287",
        "STREET": "HWY 287",
        "TTSTN": "664150",
        "MILEPOST": "0109.032",
        "TYPEXING": "Public",
        "POSXING": "RR Under",
        "PRVCAT": "14",
        "INIT": "1",
        "LATITUDE": 33.8806864,
        "LONGITUD": -98.41037,
        "LLSOURCE": "1",
        "WHISTBAN": "0",
        "RRCONT": "8173521549",
        "POLCONT": "8008325452",
        "INV_LINK": "https://safetydata.fra.dot.gov/OfficeofSafety/PublicSite/Crossing/Crossing.aspx?phasetype=C&rpttype=I&txtcrossingnum=274994B",
        "ACC_LINK": "https://safetydata.fra.dot.gov/OfficeofSafety/PublicSite/Crossing/Crossing.aspx?phasetype=C&rpttype=A&txtcrossingnum=274994B",
        "TTSTNNAM": "JOLLY",
        "XPURPOSE": "1",
        "OPERATINGR": "BNSF",
        "OPERATIN_1": "Primary",
        "DAYTHRU": 6,
        "NGHTTHRU": 6,
        "MAINTRK": 1,
        "SIDINGTRK": 0,
        "YARDTRK": 0,
        "TRANSITTRK": 0,
        "INDUSTRYTR": 0,
        "OTHRTRK": 0,
        "WDCODE": "",
        "REVISIONDA": "1996/01/01 00:00:00",
        "LASTUPDATE": "1/14/2025",
        "AADT": "020030",
        "AADTYEAR": "2010",
        "STATENAME": "TEXAS",
        "STATEAB": "TX",
        "COUNTYNAME": "WICHITA",
        "CITYNAME": "WICHITA FALLS",
        "LATDD": 33.8806864,
        "LONGDD": -98.41037,
        "gridlyProductionCertified": true,
        "gridlyClassification": "PUBLIC_ROADWAY",
        "gridlyDisplayName": "HWY 287",
        "gridlyId": "FRA-274994B"
      }
    },
    {
      "type": "Feature",
      "id": 205809,
      "geometry": {
        "type": "Point",
        "coordinates": [
          -98.4097469996867,
          33.8805082997458
        ]
      },
      "properties": {
        "OBJECTID": 205809,
        "CROSSING": "274993U",
        "EFFDATE": 1736812800000,
        "REASON": "14",
        "StateCode": "48",
        "CountyCode": "48077",
        "STCYFIPS": "48077",
        "CITYCD": "480097490",
        "RAILROAD": "BNSF",
        "RRDIV": "RED RIVER",
        "RRSUBDIV": "WICHITA FALLS",
        "HIGHWAY": "CO 0330",
        "STREET": "STEPHENS RANCH RD",
        "TTSTN": "664150",
        "MILEPOST": "0108.980",
        "TYPEXING": "Public",
        "POSXING": "At Grade",
        "PRVCAT": "14",
        "INIT": "1",
        "LATITUDE": 33.8805083,
        "LONGITUD": -98.409747,
        "LLSOURCE": "1",
        "WHISTBAN": "0",
        "RRCONT": "8173521549",
        "POLCONT": "8008325452",
        "INV_LINK": "https://safetydata.fra.dot.gov/OfficeofSafety/PublicSite/Crossing/Crossing.aspx?phasetype=C&rpttype=I&txtcrossingnum=274993U",
        "ACC_LINK": "https://safetydata.fra.dot.gov/OfficeofSafety/PublicSite/Crossing/Crossing.aspx?phasetype=C&rpttype=A&txtcrossingnum=274993U",
        "TTSTNNAM": "JOLLY",
        "XPURPOSE": "1",
        "OPERATINGR": "BNSF",
        "OPERATIN_1": "Primary",
        "DAYTHRU": 6,
        "NGHTTHRU": 6,
        "MAINTRK": 1,
        "SIDINGTRK": 0,
        "YARDTRK": 0,
        "TRANSITTRK": 0,
        "INDUSTRYTR": 0,
        "OTHRTRK": 0,
        "WDCODE": "All other Gates",
        "REVISIONDA": "1996/01/01 00:00:00",
        "LASTUPDATE": "1/14/2025",
        "AADT": "158",
        "AADTYEAR": "2019",
        "STATENAME": "TEXAS",
        "STATEAB": "TX",
        "COUNTYNAME": "CLAY",
        "CITYNAME": "WICHITA FALLS",
        "LATDD": 33.8805083,
        "LONGDD": -98.409747,
        "gridlyProductionCertified": true,
        "gridlyClassification": "PUBLIC_ROADWAY",
        "gridlyDisplayName": "STEPHENS RANCH RD",
        "gridlyId": "FRA-274993U"
      }
    },
    {
      "type": "Feature",
      "id": 205869,
      "geometry": {
        "type": "Point",
        "coordinates": [
          -98.3899629997392,
          33.8761940001164
        ]
      },
      "properties": {
        "OBJECTID": 205869,
        "CROSSING": "274998D",
        "EFFDATE": 1736812800000,
        "REASON": "14",
        "StateCode": "48",
        "CountyCode": "48077",
        "STCYFIPS": "48077",
        "CITYCD": "480773130",
        "RAILROAD": "BNSF",
        "RRDIV": "RED RIVER",
        "RRSUBDIV": "WICHITA FALLS",
        "HIGHWAY": "Not Yet Reported by State",
        "STREET": "PRIVATE",
        "TTSTN": "664150",
        "MILEPOST": "0107.807",
        "TYPEXING": "Private",
        "POSXING": "At Grade",
        "PRVCAT": "14",
        "INIT": "1",
        "LATITUDE": 33.876194,
        "LONGITUD": -98.389963,
        "LLSOURCE": "1",
        "WHISTBAN": "0",
        "RRCONT": "8173521549",
        "POLCONT": "8008325452",
        "INV_LINK": "https://safetydata.fra.dot.gov/OfficeofSafety/PublicSite/Crossing/Crossing.aspx?phasetype=C&rpttype=I&txtcrossingnum=274998D",
        "ACC_LINK": "https://safetydata.fra.dot.gov/OfficeofSafety/PublicSite/Crossing/Crossing.aspx?phasetype=C&rpttype=A&txtcrossingnum=274998D",
        "TTSTNNAM": "JOLLY",
        "XPURPOSE": "1",
        "OPERATINGR": "BNSF",
        "OPERATIN_1": "Primary",
        "DAYTHRU": 7,
        "NGHTTHRU": 7,
        "MAINTRK": 1,
        "SIDINGTRK": 0,
        "YARDTRK": 0,
        "TRANSITTRK": 0,
        "INDUSTRYTR": 0,
        "OTHRTRK": 0,
        "WDCODE": "",
        "REVISIONDA": "1996/01/01 00:00:00",
        "LASTUPDATE": "1/14/2025",
        "AADT": "",
        "AADTYEAR": "1970",
        "STATENAME": "TEXAS",
        "STATEAB": "TX",
        "COUNTYNAME": "CLAY",
        "CITYNAME": "HENRIETTA",
        "LATDD": 33.876194,
        "LONGDD": -98.389963,
        "gridlyProductionCertified": true,
        "gridlyClassification": "PUBLIC_ROADWAY",
        "gridlyDisplayName": "PRIVATE",
        "gridlyId": "FRA-274998D"
      }
    },
    {
      "type": "Feature",
      "id": 206083,
      "geometry": {
        "type": "Point",
        "coordinates": [
          -98.4112559995824,
          33.8810478997256
        ]
      },
      "properties": {
        "OBJECTID": 206083,
        "CROSSING": "415442D",
        "EFFDATE": 1736899200000,
        "REASON": "14",
        "StateCode": "48",
        "CountyCode": "48485",
        "STCYFIPS": "48485",
        "CITYCD": "480097490",
        "RAILROAD": "BNSF",
        "RRDIV": "RED RIVER",
        "RRSUBDIV": "WICHITA FALLS",
        "HIGHWAY": "US 287",
        "STREET": "US 0287",
        "TTSTN": "664150",
        "MILEPOST": "0109.069",
        "TYPEXING": "Public",
        "POSXING": "RR Under",
        "PRVCAT": "14",
        "INIT": "1",
        "LATITUDE": 33.8810479,
        "LONGITUD": -98.411256,
        "LLSOURCE": "1",
        "WHISTBAN": "0",
        "RRCONT": "8173521549",
        "POLCONT": "8008325452",
        "INV_LINK": "https://safetydata.fra.dot.gov/OfficeofSafety/PublicSite/Crossing/Crossing.aspx?phasetype=C&rpttype=I&txtcrossingnum=415442D",
        "ACC_LINK": "https://safetydata.fra.dot.gov/OfficeofSafety/PublicSite/Crossing/Crossing.aspx?phasetype=C&rpttype=A&txtcrossingnum=415442D",
        "TTSTNNAM": "JOLLY",
        "XPURPOSE": "1",
        "OPERATINGR": "BNSF",
        "OPERATIN_1": "Primary",
        "DAYTHRU": 1,
        "NGHTTHRU": 0,
        "MAINTRK": 1,
        "SIDINGTRK": 0,
        "YARDTRK": 0,
        "TRANSITTRK": 0,
        "INDUSTRYTR": 0,
        "OTHRTRK": 1,
        "WDCODE": "",
        "REVISIONDA": "1996/01/01 00:00:00",
        "LASTUPDATE": "1/15/2025",
        "AADT": "020530",
        "AADTYEAR": "2011",
        "STATENAME": "TEXAS",
        "STATEAB": "TX",
        "COUNTYNAME": "WICHITA",
        "CITYNAME": "WICHITA FALLS",
        "LATDD": 33.8810479,
        "LONGDD": -98.411256,
        "gridlyProductionCertified": true,
        "gridlyClassification": "PUBLIC_ROADWAY",
        "gridlyDisplayName": "US 0287",
        "gridlyId": "FRA-415442D"
      }
    },
    {
      "type": "Feature",
      "id": 206160,
      "geometry": {
        "type": "Point",
        "coordinates": [
          -98.4097290001433,
          33.8806214998541
        ]
      },
      "properties": {
        "OBJECTID": 206160,
        "CROSSING": "415441W",
        "EFFDATE": 1736899200000,
        "REASON": "14",
        "StateCode": "48",
        "CountyCode": "48077",
        "STCYFIPS": "48077",
        "CITYCD": "480097490",
        "RAILROAD": "BNSF",
        "RRDIV": "RED RIVER",
        "RRSUBDIV": "WICHITA FALLS",
        "HIGHWAY": "CO 0330",
        "STREET": "WILSON RD",
        "TTSTN": "664150",
        "MILEPOST": "0108.974",
        "TYPEXING": "Public",
        "POSXING": "At Grade",
        "PRVCAT": "14",
        "INIT": "1",
        "LATITUDE": 33.8806215,
        "LONGITUD": -98.409729,
        "LLSOURCE": "1",
        "WHISTBAN": "0",
        "RRCONT": "8173521549",
        "POLCONT": "8008325452",
        "INV_LINK": "https://safetydata.fra.dot.gov/OfficeofSafety/PublicSite/Crossing/Crossing.aspx?phasetype=C&rpttype=I&txtcrossingnum=415441W",
        "ACC_LINK": "https://safetydata.fra.dot.gov/OfficeofSafety/PublicSite/Crossing/Crossing.aspx?phasetype=C&rpttype=A&txtcrossingnum=415441W",
        "TTSTNNAM": "JOLLY",
        "XPURPOSE": "1",
        "OPERATINGR": "BNSF",
        "OPERATIN_1": "Primary",
        "DAYTHRU": 1,
        "NGHTTHRU": 0,
        "MAINTRK": 0,
        "SIDINGTRK": 1,
        "YARDTRK": 0,
        "TRANSITTRK": 0,
        "INDUSTRYTR": 0,
        "OTHRTRK": 1,
        "WDCODE": "Crossbucks",
        "REVISIONDA": "1996/01/01 00:00:00",
        "LASTUPDATE": "1/15/2025",
        "AADT": "70",
        "AADTYEAR": "2019",
        "STATENAME": "TEXAS",
        "STATEAB": "TX",
        "COUNTYNAME": "CLAY",
        "CITYNAME": "WICHITA FALLS",
        "LATDD": 33.8806215,
        "LONGDD": -98.409729,
        "gridlyProductionCertified": true,
        "gridlyClassification": "PUBLIC_ROADWAY",
        "gridlyDisplayName": "WILSON RD",
        "gridlyId": "FRA-415441W"
      }
    },
    {
      "type": "Feature",
      "id": 207882,
      "geometry": {
        "type": "Point",
        "coordinates": [
          -97.9991213996748,
          33.629511999641
        ]
      },
      "properties": {
        "OBJECTID": 207882,
        "CROSSING": "274700N",
        "EFFDATE": 1756857600000,
        "REASON": "14",
        "StateCode": "48",
        "CountyCode": "48077",
        "STCYFIPS": "48077",
        "CITYCD": "480770540",
        "RAILROAD": "BNSF",
        "RRDIV": "RED RIVER",
        "RRSUBDIV": "WICHITA FALLS",
        "HIGHWAY": "cr0000",
        "STREET": "TOM BATES ROAD / belnap creek road",
        "TTSTN": "664167",
        "MILEPOST": "0078.419",
        "TYPEXING": "Public",
        "POSXING": "At Grade",
        "PRVCAT": "14",
        "INIT": "2",
        "LATITUDE": 33.629512,
        "LONGITUD": -97.9991214,
        "LLSOURCE": "1",
        "WHISTBAN": "0",
        "RRCONT": "8173521549",
        "POLCONT": "8008325452",
        "INV_LINK": "https://safetydata.fra.dot.gov/OfficeofSafety/PublicSite/Crossing/Crossing.aspx?phasetype=C&rpttype=I&txtcrossingnum=274700N",
        "ACC_LINK": "https://safetydata.fra.dot.gov/OfficeofSafety/PublicSite/Crossing/Crossing.aspx?phasetype=C&rpttype=A&txtcrossingnum=274700N",
        "TTSTNNAM": "BELLEVUE",
        "XPURPOSE": "1",
        "OPERATINGR": "BNSF",
        "OPERATIN_1": "Primary",
        "DAYTHRU": 7,
        "NGHTTHRU": 7,
        "MAINTRK": 1,
        "SIDINGTRK": 0,
        "YARDTRK": 0,
        "TRANSITTRK": 0,
        "INDUSTRYTR": 0,
        "OTHRTRK": 0,
        "WDCODE": "All other Gates",
        "REVISIONDA": "1996/01/01 00:00:00",
        "LASTUPDATE": "9/3/2025",
        "AADT": "146",
        "AADTYEAR": "2020",
        "STATENAME": "TEXAS",
        "STATEAB": "TX",
        "COUNTYNAME": "CLAY",
        "CITYNAME": "BELLEVUE",
        "LATDD": 33.629512,
        "LONGDD": -97.9991214,
        "gridlyProductionCertified": true,
        "gridlyClassification": "PUBLIC_ROADWAY",
        "gridlyDisplayName": "TOM BATES ROAD / belnap creek road",
        "gridlyId": "FRA-274700N"
      }
    },
    {
      "type": "Feature",
      "id": 207883,
      "geometry": {
        "type": "Point",
        "coordinates": [
          -98.140567200296,
          33.7735934999514
        ]
      },
      "properties": {
        "OBJECTID": 207883,
        "CROSSING": "274710U",
        "EFFDATE": 1756857600000,
        "REASON": "14",
        "StateCode": "48",
        "CountyCode": "48077",
        "STCYFIPS": "48077",
        "CITYCD": "480773130",
        "RAILROAD": "BNSF",
        "RRDIV": "RED RIVER",
        "RRSUBDIV": "WICHITA FALLS",
        "HIGHWAY": "Cr0000",
        "STREET": "alcorn road",
        "TTSTN": "664163",
        "MILEPOST": "0091.678",
        "TYPEXING": "Public",
        "POSXING": "At Grade",
        "PRVCAT": "14",
        "INIT": "2",
        "LATITUDE": 33.7735935,
        "LONGITUD": -98.1405672,
        "LLSOURCE": "1",
        "WHISTBAN": "0",
        "RRCONT": "8173521549",
        "POLCONT": "8008325452",
        "INV_LINK": "https://safetydata.fra.dot.gov/OfficeofSafety/PublicSite/Crossing/Crossing.aspx?phasetype=C&rpttype=I&txtcrossingnum=274710U",
        "ACC_LINK": "https://safetydata.fra.dot.gov/OfficeofSafety/PublicSite/Crossing/Crossing.aspx?phasetype=C&rpttype=A&txtcrossingnum=274710U",
        "TTSTNNAM": "DICKWORSHAM",
        "XPURPOSE": "1",
        "OPERATINGR": "BNSF",
        "OPERATIN_1": "Primary",
        "DAYTHRU": 7,
        "NGHTTHRU": 7,
        "MAINTRK": 1,
        "SIDINGTRK": 0,
        "YARDTRK": 0,
        "TRANSITTRK": 0,
        "INDUSTRYTR": 0,
        "OTHRTRK": 0,
        "WDCODE": "Crossbucks",
        "REVISIONDA": "1996/01/01 00:00:00",
        "LASTUPDATE": "9/3/2025",
        "AADT": "23",
        "AADTYEAR": "2020",
        "STATENAME": "TEXAS",
        "STATEAB": "TX",
        "COUNTYNAME": "CLAY",
        "CITYNAME": "HENRIETTA",
        "LATDD": 33.7735935,
        "LONGDD": -98.1405672,
        "gridlyProductionCertified": true,
        "gridlyClassification": "PUBLIC_ROADWAY",
        "gridlyDisplayName": "alcorn road",
        "gridlyId": "FRA-274710U"
      }
    },
    {
      "type": "Feature",
      "id": 207885,
      "geometry": {
        "type": "Point",
        "coordinates": [
          -98.0976621998692,
          33.7156867999238
        ]
      },
      "properties": {
        "OBJECTID": 207885,
        "CROSSING": "274715D",
        "EFFDATE": 1756857600000,
        "REASON": "14",
        "StateCode": "48",
        "CountyCode": "48077",
        "STCYFIPS": "48077",
        "CITYCD": "480770540",
        "RAILROAD": "BNSF",
        "RRDIV": "RED RIVER",
        "RRSUBDIV": "WICHITA FALLS",
        "HIGHWAY": "Cr0000",
        "STREET": "e HAPGOOD drive",
        "TTSTN": "664163",
        "MILEPOST": "0086.854",
        "TYPEXING": "Public",
        "POSXING": "At Grade",
        "PRVCAT": "14",
        "INIT": "2",
        "LATITUDE": 33.7156868,
        "LONGITUD": -98.0976622,
        "LLSOURCE": "1",
        "WHISTBAN": "0",
        "RRCONT": "8173521549",
        "POLCONT": "8008325452",
        "INV_LINK": "https://safetydata.fra.dot.gov/OfficeofSafety/PublicSite/Crossing/Crossing.aspx?phasetype=C&rpttype=I&txtcrossingnum=274715D",
        "ACC_LINK": "https://safetydata.fra.dot.gov/OfficeofSafety/PublicSite/Crossing/Crossing.aspx?phasetype=C&rpttype=A&txtcrossingnum=274715D",
        "TTSTNNAM": "DICKWORSHAM",
        "XPURPOSE": "1",
        "OPERATINGR": "BNSF",
        "OPERATIN_1": "Primary",
        "DAYTHRU": 7,
        "NGHTTHRU": 7,
        "MAINTRK": 1,
        "SIDINGTRK": 0,
        "YARDTRK": 0,
        "TRANSITTRK": 0,
        "INDUSTRYTR": 0,
        "OTHRTRK": 0,
        "WDCODE": "All other Gates",
        "REVISIONDA": "1996/01/01 00:00:00",
        "LASTUPDATE": "9/3/2025",
        "AADT": "48",
        "AADTYEAR": "2020",
        "STATENAME": "TEXAS",
        "STATEAB": "TX",
        "COUNTYNAME": "CLAY",
        "CITYNAME": "BELLEVUE",
        "LATDD": 33.7156868,
        "LONGDD": -98.0976622,
        "gridlyProductionCertified": true,
        "gridlyClassification": "PUBLIC_ROADWAY",
        "gridlyDisplayName": "e HAPGOOD drive",
        "gridlyId": "FRA-274715D"
      }
    },
    {
      "type": "Feature",
      "id": 207887,
      "geometry": {
        "type": "Point",
        "coordinates": [
          -98.0767985004088,
          33.6842609996323
        ]
      },
      "properties": {
        "OBJECTID": 207887,
        "CROSSING": "274717S",
        "EFFDATE": 1756857600000,
        "REASON": "14",
        "StateCode": "48",
        "CountyCode": "48077",
        "STCYFIPS": "48077",
        "CITYCD": "480770540",
        "RAILROAD": "BNSF",
        "RRDIV": "RED RIVER",
        "RRSUBDIV": "WICHITA FALLS",
        "HIGHWAY": "Cr0000",
        "STREET": "E SCALING ranch rOAD",
        "TTSTN": "664167",
        "MILEPOST": "0084.360",
        "TYPEXING": "Public",
        "POSXING": "At Grade",
        "PRVCAT": "14",
        "INIT": "2",
        "LATITUDE": 33.684261,
        "LONGITUD": -98.0767985,
        "LLSOURCE": "1",
        "WHISTBAN": "0",
        "RRCONT": "8173521549",
        "POLCONT": "8008325452",
        "INV_LINK": "https://safetydata.fra.dot.gov/OfficeofSafety/PublicSite/Crossing/Crossing.aspx?phasetype=C&rpttype=I&txtcrossingnum=274717S",
        "ACC_LINK": "https://safetydata.fra.dot.gov/OfficeofSafety/PublicSite/Crossing/Crossing.aspx?phasetype=C&rpttype=A&txtcrossingnum=274717S",
        "TTSTNNAM": "BELLEVUE",
        "XPURPOSE": "1",
        "OPERATINGR": "BNSF",
        "OPERATIN_1": "Primary",
        "DAYTHRU": 7,
        "NGHTTHRU": 7,
        "MAINTRK": 1,
        "SIDINGTRK": 0,
        "YARDTRK": 0,
        "TRANSITTRK": 0,
        "INDUSTRYTR": 0,
        "OTHRTRK": 0,
        "WDCODE": "Crossbucks",
        "REVISIONDA": "1996/01/01 00:00:00",
        "LASTUPDATE": "9/3/2025",
        "AADT": "12",
        "AADTYEAR": "2020",
        "STATENAME": "TEXAS",
        "STATEAB": "TX",
        "COUNTYNAME": "CLAY",
        "CITYNAME": "BELLEVUE",
        "LATDD": 33.684261,
        "LONGDD": -98.0767985,
        "gridlyProductionCertified": true,
        "gridlyClassification": "PUBLIC_ROADWAY",
        "gridlyDisplayName": "E SCALING ranch rOAD",
        "gridlyId": "FRA-274717S"
      }
    },
    {
      "type": "Feature",
      "id": 207888,
      "geometry": {
        "type": "Point",
        "coordinates": [
          -98.0409065000813,
          33.6502138001084
        ]
      },
      "properties": {
        "OBJECTID": 207888,
        "CROSSING": "274719F",
        "EFFDATE": 1756857600000,
        "REASON": "14",
        "StateCode": "48",
        "CountyCode": "48077",
        "STCYFIPS": "48077",
        "CITYCD": "480770540",
        "RAILROAD": "BNSF",
        "RRDIV": "RED RIVER",
        "RRSUBDIV": "WICHITA FALLS",
        "HIGHWAY": "Cr0000",
        "STREET": "E SCALING RANCH RoaD",
        "TTSTN": "664167",
        "MILEPOST": "0081.220",
        "TYPEXING": "Public",
        "POSXING": "At Grade",
        "PRVCAT": "14",
        "INIT": "2",
        "LATITUDE": 33.6502138,
        "LONGITUD": -98.0409065,
        "LLSOURCE": "1",
        "WHISTBAN": "0",
        "RRCONT": "8173521549",
        "POLCONT": "8008325452",
        "INV_LINK": "https://safetydata.fra.dot.gov/OfficeofSafety/PublicSite/Crossing/Crossing.aspx?phasetype=C&rpttype=I&txtcrossingnum=274719F",
        "ACC_LINK": "https://safetydata.fra.dot.gov/OfficeofSafety/PublicSite/Crossing/Crossing.aspx?phasetype=C&rpttype=A&txtcrossingnum=274719F",
        "TTSTNNAM": "BELLEVUE",
        "XPURPOSE": "1",
        "OPERATINGR": "BNSF",
        "OPERATIN_1": "Primary",
        "DAYTHRU": 7,
        "NGHTTHRU": 7,
        "MAINTRK": 1,
        "SIDINGTRK": 0,
        "YARDTRK": 0,
        "TRANSITTRK": 0,
        "INDUSTRYTR": 0,
        "OTHRTRK": 0,
        "WDCODE": "Crossbucks",
        "REVISIONDA": "1996/01/01 00:00:00",
        "LASTUPDATE": "9/3/2025",
        "AADT": "1",
        "AADTYEAR": "2020",
        "STATENAME": "TEXAS",
        "STATEAB": "TX",
        "COUNTYNAME": "CLAY",
        "CITYNAME": "BELLEVUE",
        "LATDD": 33.6502138,
        "LONGDD": -98.0409065,
        "gridlyProductionCertified": true,
        "gridlyClassification": "PUBLIC_ROADWAY",
        "gridlyDisplayName": "E SCALING RANCH RoaD",
        "gridlyId": "FRA-274719F"
      }
    },
    {
      "type": "Feature",
      "id": 207889,
      "geometry": {
        "type": "Point",
        "coordinates": [
          -98.0195131000305,
          33.6392743997259
        ]
      },
      "properties": {
        "OBJECTID": 207889,
        "CROSSING": "274720A",
        "EFFDATE": 1756857600000,
        "REASON": "14",
        "StateCode": "48",
        "CountyCode": "48077",
        "STCYFIPS": "48077",
        "CITYCD": "480770540",
        "RAILROAD": "BNSF",
        "RRDIV": "RED RIVER",
        "RRSUBDIV": "WICHITA FALLS",
        "HIGHWAY": "FM1288",
        "STREET": "FM1288",
        "TTSTN": "664167",
        "MILEPOST": "0079.778",
        "TYPEXING": "Public",
        "POSXING": "At Grade",
        "PRVCAT": "14",
        "INIT": "2",
        "LATITUDE": 33.6392744,
        "LONGITUD": -98.0195131,
        "LLSOURCE": "1",
        "WHISTBAN": "0",
        "RRCONT": "8173521549",
        "POLCONT": "8008325452",
        "INV_LINK": "https://safetydata.fra.dot.gov/OfficeofSafety/PublicSite/Crossing/Crossing.aspx?phasetype=C&rpttype=I&txtcrossingnum=274720A",
        "ACC_LINK": "https://safetydata.fra.dot.gov/OfficeofSafety/PublicSite/Crossing/Crossing.aspx?phasetype=C&rpttype=A&txtcrossingnum=274720A",
        "TTSTNNAM": "BELLEVUE",
        "XPURPOSE": "1",
        "OPERATINGR": "BNSF",
        "OPERATIN_1": "Primary",
        "DAYTHRU": 7,
        "NGHTTHRU": 7,
        "MAINTRK": 1,
        "SIDINGTRK": 0,
        "YARDTRK": 0,
        "TRANSITTRK": 0,
        "INDUSTRYTR": 0,
        "OTHRTRK": 0,
        "WDCODE": "All other Gates",
        "REVISIONDA": "1996/01/01 00:00:00",
        "LASTUPDATE": "9/3/2025",
        "AADT": "123",
        "AADTYEAR": "2023",
        "STATENAME": "TEXAS",
        "STATEAB": "TX",
        "COUNTYNAME": "CLAY",
        "CITYNAME": "BELLEVUE",
        "LATDD": 33.6392744,
        "LONGDD": -98.0195131,
        "gridlyProductionCertified": true,
        "gridlyClassification": "PUBLIC_ROADWAY",
        "gridlyDisplayName": "FM1288",
        "gridlyId": "FRA-274720A"
      }
    },
    {
      "type": "Feature",
      "id": 207899,
      "geometry": {
        "type": "Point",
        "coordinates": [
          -98.1240810999113,
          33.7607224002284
        ]
      },
      "properties": {
        "OBJECTID": 207899,
        "CROSSING": "274711B",
        "EFFDATE": 1756857600000,
        "REASON": "14",
        "StateCode": "48",
        "CountyCode": "48077",
        "STCYFIPS": "48077",
        "CITYCD": "480773130",
        "RAILROAD": "BNSF",
        "RRDIV": "RED RIVER",
        "RRSUBDIV": "WICHITA FALLS",
        "HIGHWAY": "Cr0000",
        "STREET": "ANDERSON ROAD",
        "TTSTN": "664163",
        "MILEPOST": "0090.377",
        "TYPEXING": "Public",
        "POSXING": "At Grade",
        "PRVCAT": "14",
        "INIT": "2",
        "LATITUDE": 33.7607224,
        "LONGITUD": -98.1240811,
        "LLSOURCE": "1",
        "WHISTBAN": "0",
        "RRCONT": "8173521549",
        "POLCONT": "8008325452",
        "INV_LINK": "https://safetydata.fra.dot.gov/OfficeofSafety/PublicSite/Crossing/Crossing.aspx?phasetype=C&rpttype=I&txtcrossingnum=274711B",
        "ACC_LINK": "https://safetydata.fra.dot.gov/OfficeofSafety/PublicSite/Crossing/Crossing.aspx?phasetype=C&rpttype=A&txtcrossingnum=274711B",
        "TTSTNNAM": "DICKWORSHAM",
        "XPURPOSE": "1",
        "OPERATINGR": "BNSF",
        "OPERATIN_1": "Primary",
        "DAYTHRU": 7,
        "NGHTTHRU": 7,
        "MAINTRK": 1,
        "SIDINGTRK": 1,
        "YARDTRK": 0,
        "TRANSITTRK": 0,
        "INDUSTRYTR": 0,
        "OTHRTRK": 1,
        "WDCODE": "All other Gates",
        "REVISIONDA": "1996/01/01 00:00:00",
        "LASTUPDATE": "9/3/2025",
        "AADT": "18",
        "AADTYEAR": "2020",
        "STATENAME": "TEXAS",
        "STATEAB": "TX",
        "COUNTYNAME": "CLAY",
        "CITYNAME": "HENRIETTA",
        "LATDD": 33.7607224,
        "LONGDD": -98.1240811,
        "gridlyProductionCertified": true,
        "gridlyClassification": "PUBLIC_ROADWAY",
        "gridlyDisplayName": "ANDERSON ROAD",
        "gridlyId": "FRA-274711B"
      }
    },
    {
      "type": "Feature",
      "id": 207900,
      "geometry": {
        "type": "Point",
        "coordinates": [
          -98.2770015999844,
          33.8368000003554
        ]
      },
      "properties": {
        "OBJECTID": 207900,
        "CROSSING": "274967E",
        "EFFDATE": 1756857600000,
        "REASON": "14",
        "StateCode": "48",
        "CountyCode": "48077",
        "STCYFIPS": "48077",
        "CITYCD": "480773130",
        "RAILROAD": "BNSF",
        "RRDIV": "RED RIVER",
        "RRSUBDIV": "WICHITA FALLS",
        "HIGHWAY": "Cr0000",
        "STREET": "BROWN RoaD",
        "TTSTN": "664150",
        "MILEPOST": "0100.714",
        "TYPEXING": "Public",
        "POSXING": "At Grade",
        "PRVCAT": "14",
        "INIT": "2",
        "LATITUDE": 33.8368,
        "LONGITUD": -98.2770016,
        "LLSOURCE": "1",
        "WHISTBAN": "0",
        "RRCONT": "8173521549",
        "POLCONT": "8008325452",
        "INV_LINK": "https://safetydata.fra.dot.gov/OfficeofSafety/PublicSite/Crossing/Crossing.aspx?phasetype=C&rpttype=I&txtcrossingnum=274967E",
        "ACC_LINK": "https://safetydata.fra.dot.gov/OfficeofSafety/PublicSite/Crossing/Crossing.aspx?phasetype=C&rpttype=A&txtcrossingnum=274967E",
        "TTSTNNAM": "JOLLY",
        "XPURPOSE": "1",
        "OPERATINGR": "BNSF",
        "OPERATIN_1": "Primary",
        "DAYTHRU": 7,
        "NGHTTHRU": 7,
        "MAINTRK": 1,
        "SIDINGTRK": 0,
        "YARDTRK": 0,
        "TRANSITTRK": 0,
        "INDUSTRYTR": 0,
        "OTHRTRK": 0,
        "WDCODE": "All other Gates",
        "REVISIONDA": "1996/01/01 00:00:00",
        "LASTUPDATE": "9/3/2025",
        "AADT": "78",
        "AADTYEAR": "2020",
        "STATENAME": "TEXAS",
        "STATEAB": "TX",
        "COUNTYNAME": "CLAY",
        "CITYNAME": "HENRIETTA",
        "LATDD": 33.8368,
        "LONGDD": -98.2770016,
        "gridlyProductionCertified": true,
        "gridlyClassification": "PUBLIC_ROADWAY",
        "gridlyDisplayName": "BROWN RoaD",
        "gridlyId": "FRA-274967E"
      }
    },
    {
      "type": "Feature",
      "id": 207901,
      "geometry": {
        "type": "Point",
        "coordinates": [
          -98.1882607997023,
          33.8009427002636
        ]
      },
      "properties": {
        "OBJECTID": 207901,
        "CROSSING": "275072N",
        "EFFDATE": 1756857600000,
        "REASON": "14",
        "StateCode": "48",
        "CountyCode": "48077",
        "STCYFIPS": "48077",
        "CITYCD": "480773130",
        "RAILROAD": "BNSF",
        "RRDIV": "RED RIVER",
        "RRSUBDIV": "WICHITA FALLS",
        "HIGHWAY": "lS0000",
        "STREET": "HANCOCK STreet",
        "TTSTN": "664163",
        "MILEPOST": "0094.993",
        "TYPEXING": "Public",
        "POSXING": "At Grade",
        "PRVCAT": "14",
        "INIT": "2",
        "LATITUDE": 33.8009427,
        "LONGITUD": -98.1882608,
        "LLSOURCE": "1",
        "WHISTBAN": "0",
        "RRCONT": "8173521549",
        "POLCONT": "8008325452",
        "INV_LINK": "https://safetydata.fra.dot.gov/OfficeofSafety/PublicSite/Crossing/Crossing.aspx?phasetype=C&rpttype=I&txtcrossingnum=275072N",
        "ACC_LINK": "https://safetydata.fra.dot.gov/OfficeofSafety/PublicSite/Crossing/Crossing.aspx?phasetype=C&rpttype=A&txtcrossingnum=275072N",
        "TTSTNNAM": "DICKWORSHAM",
        "XPURPOSE": "1",
        "OPERATINGR": "BNSF",
        "OPERATIN_1": "Primary",
        "DAYTHRU": 7,
        "NGHTTHRU": 7,
        "MAINTRK": 1,
        "SIDINGTRK": 0,
        "YARDTRK": 0,
        "TRANSITTRK": 0,
        "INDUSTRYTR": 0,
        "OTHRTRK": 0,
        "WDCODE": "All other Gates",
        "REVISIONDA": "1996/01/01 00:00:00",
        "LASTUPDATE": "9/3/2025",
        "AADT": "51",
        "AADTYEAR": "2020",
        "STATENAME": "TEXAS",
        "STATEAB": "TX",
        "COUNTYNAME": "CLAY",
        "CITYNAME": "HENRIETTA",
        "LATDD": 33.8009427,
        "LONGDD": -98.1882608,
        "gridlyProductionCertified": true,
        "gridlyClassification": "PUBLIC_ROADWAY",
        "gridlyDisplayName": "HANCOCK STreet",
        "gridlyId": "FRA-275072N"
      }
    },
    {
      "type": "Feature",
      "id": 207966,
      "geometry": {
        "type": "Point",
        "coordinates": [
          -98.0139852998617,
          33.6365861002848
        ]
      },
      "properties": {
        "OBJECTID": 207966,
        "CROSSING": "274772S",
        "EFFDATE": 1756857600000,
        "REASON": "14",
        "StateCode": "48",
        "CountyCode": "48077",
        "STCYFIPS": "48077",
        "CITYCD": "480770540",
        "RAILROAD": "BNSF",
        "RRDIV": "RED RIVER",
        "RRSUBDIV": "WICHITA FALLS",
        "HIGHWAY": "lS0000",
        "STREET": "franklin street / HILLTOP RoaD",
        "TTSTN": "664167",
        "MILEPOST": "0079.403",
        "TYPEXING": "Public",
        "POSXING": "At Grade",
        "PRVCAT": "14",
        "INIT": "2",
        "LATITUDE": 33.6365861,
        "LONGITUD": -98.0139853,
        "LLSOURCE": "1",
        "WHISTBAN": "0",
        "RRCONT": "8173521549",
        "POLCONT": "8008325452",
        "INV_LINK": "https://safetydata.fra.dot.gov/OfficeofSafety/PublicSite/Crossing/Crossing.aspx?phasetype=C&rpttype=I&txtcrossingnum=274772S",
        "ACC_LINK": "https://safetydata.fra.dot.gov/OfficeofSafety/PublicSite/Crossing/Crossing.aspx?phasetype=C&rpttype=A&txtcrossingnum=274772S",
        "TTSTNNAM": "BELLEVUE",
        "XPURPOSE": "1",
        "OPERATINGR": "BNSF",
        "OPERATIN_1": "Primary",
        "DAYTHRU": 7,
        "NGHTTHRU": 7,
        "MAINTRK": 1,
        "SIDINGTRK": 0,
        "YARDTRK": 1,
        "TRANSITTRK": 0,
        "INDUSTRYTR": 0,
        "OTHRTRK": 1,
        "WDCODE": "All other Gates",
        "REVISIONDA": "1996/01/01 00:00:00",
        "LASTUPDATE": "9/3/2025",
        "AADT": "91",
        "AADTYEAR": "2020",
        "STATENAME": "TEXAS",
        "STATEAB": "TX",
        "COUNTYNAME": "CLAY",
        "CITYNAME": "BELLEVUE",
        "LATDD": 33.6365861,
        "LONGDD": -98.0139853,
        "gridlyProductionCertified": true,
        "gridlyClassification": "PUBLIC_ROADWAY",
        "gridlyDisplayName": "franklin street / HILLTOP RoaD",
        "gridlyId": "FRA-274772S"
      }
    },
    {
      "type": "Feature",
      "id": 208330,
      "geometry": {
        "type": "Point",
        "coordinates": [
          -98.1974791000438,
          33.8062425996381
        ]
      },
      "properties": {
        "OBJECTID": 208330,
        "CROSSING": "275071G",
        "EFFDATE": 1756857600000,
        "REASON": "14",
        "StateCode": "48",
        "CountyCode": "48077",
        "STCYFIPS": "48077",
        "CITYCD": "480773130",
        "RAILROAD": "BNSF",
        "RRDIV": "RED RIVER",
        "RRSUBDIV": "WICHITA FALLS",
        "HIGHWAY": "SH0148",
        "STREET": "sh0148 / GRAHAM STreet",
        "TTSTN": "664163",
        "MILEPOST": "0095.644",
        "TYPEXING": "Public",
        "POSXING": "At Grade",
        "PRVCAT": "14",
        "INIT": "2",
        "LATITUDE": 33.8062426,
        "LONGITUD": -98.1974791,
        "LLSOURCE": "1",
        "WHISTBAN": "0",
        "RRCONT": "8173521549",
        "POLCONT": "8008325452",
        "INV_LINK": "https://safetydata.fra.dot.gov/OfficeofSafety/PublicSite/Crossing/Crossing.aspx?phasetype=C&rpttype=I&txtcrossingnum=275071G",
        "ACC_LINK": "https://safetydata.fra.dot.gov/OfficeofSafety/PublicSite/Crossing/Crossing.aspx?phasetype=C&rpttype=A&txtcrossingnum=275071G",
        "TTSTNNAM": "DICKWORSHAM",
        "XPURPOSE": "1",
        "OPERATINGR": "BNSF",
        "OPERATIN_1": "Primary",
        "DAYTHRU": 7,
        "NGHTTHRU": 7,
        "MAINTRK": 1,
        "SIDINGTRK": 0,
        "YARDTRK": 0,
        "TRANSITTRK": 0,
        "INDUSTRYTR": 0,
        "OTHRTRK": 0,
        "WDCODE": "All other Gates",
        "REVISIONDA": "1996/01/01 00:00:00",
        "LASTUPDATE": "9/3/2025",
        "AADT": "1363",
        "AADTYEAR": "2023",
        "STATENAME": "TEXAS",
        "STATEAB": "TX",
        "COUNTYNAME": "CLAY",
        "CITYNAME": "HENRIETTA",
        "LATDD": 33.8062426,
        "LONGDD": -98.1974791,
        "gridlyProductionCertified": true,
        "gridlyClassification": "PUBLIC_ROADWAY",
        "gridlyDisplayName": "sh0148 / GRAHAM STreet",
        "gridlyId": "FRA-275071G"
      }
    }
  ]
}
