{
  "type": "FeatureCollection",
  "features": [
    {
      "type": "Feature",
      "id": 200705,
      "geometry": {
        "type": "Point",
        "coordinates": [
          -98.6790899996082,
          26.3131779997776
        ]
      },
      "properties": {
        "OBJECTID": 200705,
        "CROSSING": "450275Y",
        "EFFDATE": 1079395200000,
        "REASON": "14",
        "StateCode": "48",
        "CountyCode": "48427",
        "STCYFIPS": "48427",
        "CITYCD": "484272582",
        "RAILROAD": "BOP",
        "RRDIV": "KINGSVILL",
        "RRSUBDIV": "MISSION",
        "HIGHWAY": "PRIVATE",
        "STREET": "PRIVATE",
        "TTSTN": "699980",
        "MILEPOST": "0063.10",
        "TYPEXING": "Private",
        "POSXING": "At Grade",
        "PRVCAT": "14",
        "INIT": "2",
        "LATITUDE": 26.313178,
        "LONGITUD": -98.67909,
        "LLSOURCE": "",
        "WHISTBAN": "0",
        "RRCONT": "",
        "POLCONT": "",
        "INV_LINK": "https://safetydata.fra.dot.gov/OfficeofSafety/PublicSite/Crossing/Crossing.aspx?phasetype=C&rpttype=I&txtcrossingnum=450275Y",
        "ACC_LINK": "https://safetydata.fra.dot.gov/OfficeofSafety/PublicSite/Crossing/Crossing.aspx?phasetype=C&rpttype=A&txtcrossingnum=450275Y",
        "TTSTNNAM": "RIO GRANDECTY",
        "XPURPOSE": "1",
        "OPERATINGR": "BOP",
        "OPERATIN_1": "Primary",
        "DAYTHRU": 0,
        "NGHTTHRU": 2,
        "MAINTRK": 1,
        "SIDINGTRK": 0,
        "YARDTRK": 0,
        "TRANSITTRK": 0,
        "INDUSTRYTR": 0,
        "OTHRTRK": 0,
        "WDCODE": "No signs or signals",
        "REVISIONDA": "1988/01/01 00:00:00",
        "LASTUPDATE": "3/16/2004",
        "AADT": "000020",
        "AADTYEAR": "1992",
        "STATENAME": "TEXAS",
        "STATEAB": "TX",
        "COUNTYNAME": "STARR",
        "CITYNAME": "GARCIASVILLE",
        "LATDD": 26.313178,
        "LONGDD": -98.67909,
        "gridlyProductionCertified": true,
        "gridlyClassification": "PUBLIC_ROADWAY",
        "gridlyDisplayName": "PRIVATE",
        "gridlyId": "FRA-450275Y"
      }
    },
    {
      "type": "Feature",
      "id": 200740,
      "geometry": {
        "type": "Point",
        "coordinates": [
          -98.8060280003061,
          26.3790949999023
        ]
      },
      "properties": {
        "OBJECTID": 200740,
        "CROSSING": "450300E",
        "EFFDATE": 1230768000000,
        "REASON": "14",
        "StateCode": "48",
        "CountyCode": "48427",
        "STCYFIPS": "48427",
        "CITYCD": "484275780",
        "RAILROAD": "BOP",
        "RRDIV": "KINGSVILL",
        "RRSUBDIV": "MISSION",
        "HIGHWAY": "",
        "STREET": "PRIVATE CROSSING",
        "TTSTN": "699980",
        "MILEPOST": "0072.50",
        "TYPEXING": "Private",
        "POSXING": "At Grade",
        "PRVCAT": "14",
        "INIT": "2",
        "LATITUDE": 26.379095,
        "LONGITUD": -98.806028,
        "LLSOURCE": "",
        "WHISTBAN": "0",
        "RRCONT": "",
        "POLCONT": "",
        "INV_LINK": "https://safetydata.fra.dot.gov/OfficeofSafety/PublicSite/Crossing/Crossing.aspx?phasetype=C&rpttype=I&txtcrossingnum=450300E",
        "ACC_LINK": "https://safetydata.fra.dot.gov/OfficeofSafety/PublicSite/Crossing/Crossing.aspx?phasetype=C&rpttype=A&txtcrossingnum=450300E",
        "TTSTNNAM": "RIO GRANDECTY",
        "XPURPOSE": "1",
        "OPERATINGR": "BOP",
        "OPERATIN_1": "Primary",
        "DAYTHRU": 0,
        "NGHTTHRU": 0,
        "MAINTRK": 0,
        "SIDINGTRK": 0,
        "YARDTRK": 0,
        "TRANSITTRK": 0,
        "INDUSTRYTR": 0,
        "OTHRTRK": 0,
        "WDCODE": "No signs or signals",
        "REVISIONDA": "1988/01/01 00:00:00",
        "LASTUPDATE": "1/1/2009",
        "AADT": "",
        "AADTYEAR": "1970",
        "STATENAME": "TEXAS",
        "STATEAB": "TX",
        "COUNTYNAME": "STARR",
        "CITYNAME": "RIO GRANDE CITY",
        "LATDD": 26.379095,
        "LONGDD": -98.806028,
        "gridlyProductionCertified": true,
        "gridlyClassification": "PUBLIC_ROADWAY",
        "gridlyDisplayName": "PRIVATE CROSSING",
        "gridlyId": "FRA-450300E"
      }
    },
    {
      "type": "Feature",
      "id": 200741,
      "geometry": {
        "type": "Point",
        "coordinates": [
          -98.8056480003645,
          26.3789490003415
        ]
      },
      "properties": {
        "OBJECTID": 200741,
        "CROSSING": "450299M",
        "EFFDATE": 1230768000000,
        "REASON": "14",
        "StateCode": "48",
        "CountyCode": "48427",
        "STCYFIPS": "48427",
        "CITYCD": "484275780",
        "RAILROAD": "BOP",
        "RRDIV": "KINGSVILL",
        "RRSUBDIV": "MISSION",
        "HIGHWAY": "",
        "STREET": "E. SAN BENITO ST.",
        "TTSTN": "699980",
        "MILEPOST": "0072.40",
        "TYPEXING": "Private",
        "POSXING": "At Grade",
        "PRVCAT": "14",
        "INIT": "2",
        "LATITUDE": 26.378949,
        "LONGITUD": -98.805648,
        "LLSOURCE": "",
        "WHISTBAN": "0",
        "RRCONT": "",
        "POLCONT": "",
        "INV_LINK": "https://safetydata.fra.dot.gov/OfficeofSafety/PublicSite/Crossing/Crossing.aspx?phasetype=C&rpttype=I&txtcrossingnum=450299M",
        "ACC_LINK": "https://safetydata.fra.dot.gov/OfficeofSafety/PublicSite/Crossing/Crossing.aspx?phasetype=C&rpttype=A&txtcrossingnum=450299M",
        "TTSTNNAM": "RIO GRANDECTY",
        "XPURPOSE": "1",
        "OPERATINGR": "BOP",
        "OPERATIN_1": "Primary",
        "DAYTHRU": 0,
        "NGHTTHRU": 0,
        "MAINTRK": 0,
        "SIDINGTRK": 0,
        "YARDTRK": 0,
        "TRANSITTRK": 0,
        "INDUSTRYTR": 0,
        "OTHRTRK": 0,
        "WDCODE": "No signs or signals",
        "REVISIONDA": "1988/01/01 00:00:00",
        "LASTUPDATE": "1/1/2009",
        "AADT": "",
        "AADTYEAR": "1970",
        "STATENAME": "TEXAS",
        "STATEAB": "TX",
        "COUNTYNAME": "STARR",
        "CITYNAME": "RIO GRANDE CITY",
        "LATDD": 26.378949,
        "LONGDD": -98.805648,
        "gridlyProductionCertified": true,
        "gridlyClassification": "PUBLIC_ROADWAY",
        "gridlyDisplayName": "E. SAN BENITO ST.",
        "gridlyId": "FRA-450299M"
      }
    },
    {
      "type": "Feature",
      "id": 200742,
      "geometry": {
        "type": "Point",
        "coordinates": [
          -98.7978350001989,
          26.3716230003379
        ]
      },
      "properties": {
        "OBJECTID": 200742,
        "CROSSING": "450297Y",
        "EFFDATE": 1230768000000,
        "REASON": "14",
        "StateCode": "48",
        "CountyCode": "48427",
        "STCYFIPS": "48427",
        "CITYCD": "484275780",
        "RAILROAD": "BOP",
        "RRDIV": "KINGSVILL",
        "RRSUBDIV": "MISSION",
        "HIGHWAY": "",
        "STREET": "PINE AVE.",
        "TTSTN": "699980",
        "MILEPOST": "0071.90",
        "TYPEXING": "Private",
        "POSXING": "At Grade",
        "PRVCAT": "14",
        "INIT": "2",
        "LATITUDE": 26.371623,
        "LONGITUD": -98.797835,
        "LLSOURCE": "",
        "WHISTBAN": "0",
        "RRCONT": "",
        "POLCONT": "",
        "INV_LINK": "https://safetydata.fra.dot.gov/OfficeofSafety/PublicSite/Crossing/Crossing.aspx?phasetype=C&rpttype=I&txtcrossingnum=450297Y",
        "ACC_LINK": "https://safetydata.fra.dot.gov/OfficeofSafety/PublicSite/Crossing/Crossing.aspx?phasetype=C&rpttype=A&txtcrossingnum=450297Y",
        "TTSTNNAM": "RIO GRANDECTY",
        "XPURPOSE": "1",
        "OPERATINGR": "BOP",
        "OPERATIN_1": "Primary",
        "DAYTHRU": 0,
        "NGHTTHRU": 0,
        "MAINTRK": 0,
        "SIDINGTRK": 0,
        "YARDTRK": 0,
        "TRANSITTRK": 0,
        "INDUSTRYTR": 0,
        "OTHRTRK": 0,
        "WDCODE": "No signs or signals",
        "REVISIONDA": "1988/01/01 00:00:00",
        "LASTUPDATE": "1/1/2009",
        "AADT": "",
        "AADTYEAR": "1970",
        "STATENAME": "TEXAS",
        "STATEAB": "TX",
        "COUNTYNAME": "STARR",
        "CITYNAME": "RIO GRANDE CITY",
        "LATDD": 26.371623,
        "LONGDD": -98.797835,
        "gridlyProductionCertified": true,
        "gridlyClassification": "PUBLIC_ROADWAY",
        "gridlyDisplayName": "PINE AVE.",
        "gridlyId": "FRA-450297Y"
      }
    },
    {
      "type": "Feature",
      "id": 200743,
      "geometry": {
        "type": "Point",
        "coordinates": [
          -98.795666999804,
          26.3695890001547
        ]
      },
      "properties": {
        "OBJECTID": 200743,
        "CROSSING": "450296S",
        "EFFDATE": 1230768000000,
        "REASON": "14",
        "StateCode": "48",
        "CountyCode": "48427",
        "STCYFIPS": "48427",
        "CITYCD": "484275780",
        "RAILROAD": "BOP",
        "RRDIV": "KINGSVILL",
        "RRSUBDIV": "MISSION",
        "HIGHWAY": "",
        "STREET": "REDWOOD ST",
        "TTSTN": "699980",
        "MILEPOST": "0071.80",
        "TYPEXING": "Private",
        "POSXING": "At Grade",
        "PRVCAT": "14",
        "INIT": "2",
        "LATITUDE": 26.369589,
        "LONGITUD": -98.795667,
        "LLSOURCE": "",
        "WHISTBAN": "0",
        "RRCONT": "",
        "POLCONT": "",
        "INV_LINK": "https://safetydata.fra.dot.gov/OfficeofSafety/PublicSite/Crossing/Crossing.aspx?phasetype=C&rpttype=I&txtcrossingnum=450296S",
        "ACC_LINK": "https://safetydata.fra.dot.gov/OfficeofSafety/PublicSite/Crossing/Crossing.aspx?phasetype=C&rpttype=A&txtcrossingnum=450296S",
        "TTSTNNAM": "RIO GRANDECTY",
        "XPURPOSE": "1",
        "OPERATINGR": "BOP",
        "OPERATIN_1": "Primary",
        "DAYTHRU": 0,
        "NGHTTHRU": 0,
        "MAINTRK": 0,
        "SIDINGTRK": 0,
        "YARDTRK": 0,
        "TRANSITTRK": 0,
        "INDUSTRYTR": 0,
        "OTHRTRK": 0,
        "WDCODE": "No signs or signals",
        "REVISIONDA": "1988/01/01 00:00:00",
        "LASTUPDATE": "1/1/2009",
        "AADT": "",
        "AADTYEAR": "1970",
        "STATENAME": "TEXAS",
        "STATEAB": "TX",
        "COUNTYNAME": "STARR",
        "CITYNAME": "RIO GRANDE CITY",
        "LATDD": 26.369589,
        "LONGDD": -98.795667,
        "gridlyProductionCertified": true,
        "gridlyClassification": "PUBLIC_ROADWAY",
        "gridlyDisplayName": "REDWOOD ST",
        "gridlyId": "FRA-450296S"
      }
    },
    {
      "type": "Feature",
      "id": 200744,
      "geometry": {
        "type": "Point",
        "coordinates": [
          -98.7900160001855,
          26.3648999997627
        ]
      },
      "properties": {
        "OBJECTID": 200744,
        "CROSSING": "450295K",
        "EFFDATE": 1230768000000,
        "REASON": "14",
        "StateCode": "48",
        "CountyCode": "48427",
        "STCYFIPS": "48427",
        "CITYCD": "484275780",
        "RAILROAD": "BOP",
        "RRDIV": "KINGSVILL",
        "RRSUBDIV": "MISSION",
        "HIGHWAY": "",
        "STREET": "REYNALDO GOMEZ DR",
        "TTSTN": "699980",
        "MILEPOST": "0071.30",
        "TYPEXING": "Private",
        "POSXING": "At Grade",
        "PRVCAT": "14",
        "INIT": "2",
        "LATITUDE": 26.3649,
        "LONGITUD": -98.790016,
        "LLSOURCE": "",
        "WHISTBAN": "0",
        "RRCONT": "",
        "POLCONT": "",
        "INV_LINK": "https://safetydata.fra.dot.gov/OfficeofSafety/PublicSite/Crossing/Crossing.aspx?phasetype=C&rpttype=I&txtcrossingnum=450295K",
        "ACC_LINK": "https://safetydata.fra.dot.gov/OfficeofSafety/PublicSite/Crossing/Crossing.aspx?phasetype=C&rpttype=A&txtcrossingnum=450295K",
        "TTSTNNAM": "RIO GRANDECTY",
        "XPURPOSE": "1",
        "OPERATINGR": "BOP",
        "OPERATIN_1": "Primary",
        "DAYTHRU": 0,
        "NGHTTHRU": 0,
        "MAINTRK": 0,
        "SIDINGTRK": 0,
        "YARDTRK": 0,
        "TRANSITTRK": 0,
        "INDUSTRYTR": 0,
        "OTHRTRK": 0,
        "WDCODE": "No signs or signals",
        "REVISIONDA": "1988/01/01 00:00:00",
        "LASTUPDATE": "1/1/2009",
        "AADT": "",
        "AADTYEAR": "1970",
        "STATENAME": "TEXAS",
        "STATEAB": "TX",
        "COUNTYNAME": "STARR",
        "CITYNAME": "RIO GRANDE CITY",
        "LATDD": 26.3649,
        "LONGDD": -98.790016,
        "gridlyProductionCertified": true,
        "gridlyClassification": "PUBLIC_ROADWAY",
        "gridlyDisplayName": "REYNALDO GOMEZ DR",
        "gridlyId": "FRA-450295K"
      }
    },
    {
      "type": "Feature",
      "id": 200745,
      "geometry": {
        "type": "Point",
        "coordinates": [
          -98.7257760000827,
          26.3318800003943
        ]
      },
      "properties": {
        "OBJECTID": 200745,
        "CROSSING": "450286L",
        "EFFDATE": 1230768000000,
        "REASON": "14",
        "StateCode": "48",
        "CountyCode": "48427",
        "STCYFIPS": "48427",
        "CITYCD": "484272582",
        "RAILROAD": "BOP",
        "RRDIV": "KINGSVILL",
        "RRSUBDIV": "MISSION",
        "HIGHWAY": "",
        "STREET": "PRIVATE CROSSING",
        "TTSTN": "699980",
        "MILEPOST": "0066.60",
        "TYPEXING": "Private",
        "POSXING": "At Grade",
        "PRVCAT": "14",
        "INIT": "2",
        "LATITUDE": 26.33188,
        "LONGITUD": -98.725776,
        "LLSOURCE": "",
        "WHISTBAN": "0",
        "RRCONT": "",
        "POLCONT": "",
        "INV_LINK": "https://safetydata.fra.dot.gov/OfficeofSafety/PublicSite/Crossing/Crossing.aspx?phasetype=C&rpttype=I&txtcrossingnum=450286L",
        "ACC_LINK": "https://safetydata.fra.dot.gov/OfficeofSafety/PublicSite/Crossing/Crossing.aspx?phasetype=C&rpttype=A&txtcrossingnum=450286L",
        "TTSTNNAM": "RIO GRANDECTY",
        "XPURPOSE": "1",
        "OPERATINGR": "BOP",
        "OPERATIN_1": "Primary",
        "DAYTHRU": 0,
        "NGHTTHRU": 0,
        "MAINTRK": 0,
        "SIDINGTRK": 0,
        "YARDTRK": 0,
        "TRANSITTRK": 0,
        "INDUSTRYTR": 0,
        "OTHRTRK": 0,
        "WDCODE": "No signs or signals",
        "REVISIONDA": "1988/01/01 00:00:00",
        "LASTUPDATE": "1/1/2009",
        "AADT": "",
        "AADTYEAR": "1970",
        "STATENAME": "TEXAS",
        "STATEAB": "TX",
        "COUNTYNAME": "STARR",
        "CITYNAME": "GARCIASVILLE",
        "LATDD": 26.33188,
        "LONGDD": -98.725776,
        "gridlyProductionCertified": true,
        "gridlyClassification": "PUBLIC_ROADWAY",
        "gridlyDisplayName": "PRIVATE CROSSING",
        "gridlyId": "FRA-450286L"
      }
    },
    {
      "type": "Feature",
      "id": 200746,
      "geometry": {
        "type": "Point",
        "coordinates": [
          -98.7225859998638,
          26.3309230000929
        ]
      },
      "properties": {
        "OBJECTID": 200746,
        "CROSSING": "450285E",
        "EFFDATE": 1230768000000,
        "REASON": "14",
        "StateCode": "48",
        "CountyCode": "48427",
        "STCYFIPS": "48427",
        "CITYCD": "484272582",
        "RAILROAD": "BOP",
        "RRDIV": "KINGSVILL",
        "RRSUBDIV": "MISSION",
        "HIGHWAY": "",
        "STREET": "CHAPPARITO CIR.",
        "TTSTN": "699980",
        "MILEPOST": "0066.40",
        "TYPEXING": "Private",
        "POSXING": "At Grade",
        "PRVCAT": "14",
        "INIT": "2",
        "LATITUDE": 26.330923,
        "LONGITUD": -98.722586,
        "LLSOURCE": "",
        "WHISTBAN": "0",
        "RRCONT": "",
        "POLCONT": "",
        "INV_LINK": "https://safetydata.fra.dot.gov/OfficeofSafety/PublicSite/Crossing/Crossing.aspx?phasetype=C&rpttype=I&txtcrossingnum=450285E",
        "ACC_LINK": "https://safetydata.fra.dot.gov/OfficeofSafety/PublicSite/Crossing/Crossing.aspx?phasetype=C&rpttype=A&txtcrossingnum=450285E",
        "TTSTNNAM": "RIO GRANDECTY",
        "XPURPOSE": "1",
        "OPERATINGR": "BOP",
        "OPERATIN_1": "Primary",
        "DAYTHRU": 0,
        "NGHTTHRU": 0,
        "MAINTRK": 0,
        "SIDINGTRK": 0,
        "YARDTRK": 0,
        "TRANSITTRK": 0,
        "INDUSTRYTR": 0,
        "OTHRTRK": 0,
        "WDCODE": "No signs or signals",
        "REVISIONDA": "1988/01/01 00:00:00",
        "LASTUPDATE": "1/1/2009",
        "AADT": "",
        "AADTYEAR": "1970",
        "STATENAME": "TEXAS",
        "STATEAB": "TX",
        "COUNTYNAME": "STARR",
        "CITYNAME": "GARCIASVILLE",
        "LATDD": 26.330923,
        "LONGDD": -98.722586,
        "gridlyProductionCertified": true,
        "gridlyClassification": "PUBLIC_ROADWAY",
        "gridlyDisplayName": "CHAPPARITO CIR.",
        "gridlyId": "FRA-450285E"
      }
    },
    {
      "type": "Feature",
      "id": 200747,
      "geometry": {
        "type": "Point",
        "coordinates": [
          -98.7081520001343,
          26.3257069997107
        ]
      },
      "properties": {
        "OBJECTID": 200747,
        "CROSSING": "450282J",
        "EFFDATE": 1230768000000,
        "REASON": "14",
        "StateCode": "48",
        "CountyCode": "48427",
        "STCYFIPS": "48427",
        "CITYCD": "484272582",
        "RAILROAD": "BOP",
        "RRDIV": "KINGSVILL",
        "RRSUBDIV": "MISSION",
        "HIGHWAY": "",
        "STREET": "PRIVATE CROSSING",
        "TTSTN": "699980",
        "MILEPOST": "0065.40",
        "TYPEXING": "Private",
        "POSXING": "At Grade",
        "PRVCAT": "14",
        "INIT": "2",
        "LATITUDE": 26.325707,
        "LONGITUD": -98.708152,
        "LLSOURCE": "",
        "WHISTBAN": "0",
        "RRCONT": "",
        "POLCONT": "",
        "INV_LINK": "https://safetydata.fra.dot.gov/OfficeofSafety/PublicSite/Crossing/Crossing.aspx?phasetype=C&rpttype=I&txtcrossingnum=450282J",
        "ACC_LINK": "https://safetydata.fra.dot.gov/OfficeofSafety/PublicSite/Crossing/Crossing.aspx?phasetype=C&rpttype=A&txtcrossingnum=450282J",
        "TTSTNNAM": "RIO GRANDECTY",
        "XPURPOSE": "1",
        "OPERATINGR": "BOP",
        "OPERATIN_1": "Primary",
        "DAYTHRU": 0,
        "NGHTTHRU": 0,
        "MAINTRK": 0,
        "SIDINGTRK": 0,
        "YARDTRK": 0,
        "TRANSITTRK": 0,
        "INDUSTRYTR": 0,
        "OTHRTRK": 0,
        "WDCODE": "No signs or signals",
        "REVISIONDA": "1988/01/01 00:00:00",
        "LASTUPDATE": "1/1/2009",
        "AADT": "",
        "AADTYEAR": "1970",
        "STATENAME": "TEXAS",
        "STATEAB": "TX",
        "COUNTYNAME": "STARR",
        "CITYNAME": "GARCIASVILLE",
        "LATDD": 26.325707,
        "LONGDD": -98.708152,
        "gridlyProductionCertified": true,
        "gridlyClassification": "PUBLIC_ROADWAY",
        "gridlyDisplayName": "PRIVATE CROSSING",
        "gridlyId": "FRA-450282J"
      }
    },
    {
      "type": "Feature",
      "id": 200748,
      "geometry": {
        "type": "Point",
        "coordinates": [
          -98.6854859999396,
          26.3155069996107
        ]
      },
      "properties": {
        "OBJECTID": 200748,
        "CROSSING": "450276F",
        "EFFDATE": 1230768000000,
        "REASON": "14",
        "StateCode": "48",
        "CountyCode": "48427",
        "STCYFIPS": "48427",
        "CITYCD": "484272582",
        "RAILROAD": "BOP",
        "RRDIV": "KINGSVILL",
        "RRSUBDIV": "MISSION",
        "HIGHWAY": "",
        "STREET": "CORTINA ST",
        "TTSTN": "699980",
        "MILEPOST": "0063.70",
        "TYPEXING": "Private",
        "POSXING": "At Grade",
        "PRVCAT": "14",
        "INIT": "2",
        "LATITUDE": 26.315507,
        "LONGITUD": -98.685486,
        "LLSOURCE": "",
        "WHISTBAN": "0",
        "RRCONT": "",
        "POLCONT": "",
        "INV_LINK": "https://safetydata.fra.dot.gov/OfficeofSafety/PublicSite/Crossing/Crossing.aspx?phasetype=C&rpttype=I&txtcrossingnum=450276F",
        "ACC_LINK": "https://safetydata.fra.dot.gov/OfficeofSafety/PublicSite/Crossing/Crossing.aspx?phasetype=C&rpttype=A&txtcrossingnum=450276F",
        "TTSTNNAM": "RIO GRANDECTY",
        "XPURPOSE": "1",
        "OPERATINGR": "BOP",
        "OPERATIN_1": "Primary",
        "DAYTHRU": 0,
        "NGHTTHRU": 0,
        "MAINTRK": 0,
        "SIDINGTRK": 0,
        "YARDTRK": 0,
        "TRANSITTRK": 0,
        "INDUSTRYTR": 0,
        "OTHRTRK": 0,
        "WDCODE": "No signs or signals",
        "REVISIONDA": "1988/01/01 00:00:00",
        "LASTUPDATE": "1/1/2009",
        "AADT": "",
        "AADTYEAR": "1970",
        "STATENAME": "TEXAS",
        "STATEAB": "TX",
        "COUNTYNAME": "STARR",
        "CITYNAME": "GARCIASVILLE",
        "LATDD": 26.315507,
        "LONGDD": -98.685486,
        "gridlyProductionCertified": true,
        "gridlyClassification": "PUBLIC_ROADWAY",
        "gridlyDisplayName": "CORTINA ST",
        "gridlyId": "FRA-450276F"
      }
    },
    {
      "type": "Feature",
      "id": 200749,
      "geometry": {
        "type": "Point",
        "coordinates": [
          -98.6678059999146,
          26.3091940001115
        ]
      },
      "properties": {
        "OBJECTID": 200749,
        "CROSSING": "450273K",
        "EFFDATE": 1230768000000,
        "REASON": "14",
        "StateCode": "48",
        "CountyCode": "48427",
        "STCYFIPS": "48427",
        "CITYCD": "484272582",
        "RAILROAD": "BOP",
        "RRDIV": "KINGSVILL",
        "RRSUBDIV": "MISSION",
        "HIGHWAY": "",
        "STREET": "PRIVATE CROSSING",
        "TTSTN": "699980",
        "MILEPOST": "0062.50",
        "TYPEXING": "Private",
        "POSXING": "At Grade",
        "PRVCAT": "14",
        "INIT": "2",
        "LATITUDE": 26.309194,
        "LONGITUD": -98.667806,
        "LLSOURCE": "",
        "WHISTBAN": "0",
        "RRCONT": "",
        "POLCONT": "",
        "INV_LINK": "https://safetydata.fra.dot.gov/OfficeofSafety/PublicSite/Crossing/Crossing.aspx?phasetype=C&rpttype=I&txtcrossingnum=450273K",
        "ACC_LINK": "https://safetydata.fra.dot.gov/OfficeofSafety/PublicSite/Crossing/Crossing.aspx?phasetype=C&rpttype=A&txtcrossingnum=450273K",
        "TTSTNNAM": "RIO GRANDECTY",
        "XPURPOSE": "1",
        "OPERATINGR": "BOP",
        "OPERATIN_1": "Primary",
        "DAYTHRU": 0,
        "NGHTTHRU": 0,
        "MAINTRK": 0,
        "SIDINGTRK": 0,
        "YARDTRK": 0,
        "TRANSITTRK": 0,
        "INDUSTRYTR": 0,
        "OTHRTRK": 0,
        "WDCODE": "No signs or signals",
        "REVISIONDA": "1988/01/01 00:00:00",
        "LASTUPDATE": "1/1/2009",
        "AADT": "",
        "AADTYEAR": "1970",
        "STATENAME": "TEXAS",
        "STATEAB": "TX",
        "COUNTYNAME": "STARR",
        "CITYNAME": "GARCIASVILLE",
        "LATDD": 26.309194,
        "LONGDD": -98.667806,
        "gridlyProductionCertified": true,
        "gridlyClassification": "PUBLIC_ROADWAY",
        "gridlyDisplayName": "PRIVATE CROSSING",
        "gridlyId": "FRA-450273K"
      }
    },
    {
      "type": "Feature",
      "id": 200750,
      "geometry": {
        "type": "Point",
        "coordinates": [
          -98.7697359999456,
          26.3554769996378
        ]
      },
      "properties": {
        "OBJECTID": 200750,
        "CROSSING": "450293W",
        "EFFDATE": 1230768000000,
        "REASON": "14",
        "StateCode": "48",
        "CountyCode": "48427",
        "STCYFIPS": "48427",
        "CITYCD": "484275780",
        "RAILROAD": "BOP",
        "RRDIV": "KINGSVILL",
        "RRSUBDIV": "MISSION",
        "HIGHWAY": "",
        "STREET": "PRIVATE CROSSING",
        "TTSTN": "699980",
        "MILEPOST": "0069.95",
        "TYPEXING": "Private",
        "POSXING": "At Grade",
        "PRVCAT": "14",
        "INIT": "2",
        "LATITUDE": 26.355477,
        "LONGITUD": -98.769736,
        "LLSOURCE": "",
        "WHISTBAN": "0",
        "RRCONT": "",
        "POLCONT": "",
        "INV_LINK": "https://safetydata.fra.dot.gov/OfficeofSafety/PublicSite/Crossing/Crossing.aspx?phasetype=C&rpttype=I&txtcrossingnum=450293W",
        "ACC_LINK": "https://safetydata.fra.dot.gov/OfficeofSafety/PublicSite/Crossing/Crossing.aspx?phasetype=C&rpttype=A&txtcrossingnum=450293W",
        "TTSTNNAM": "RIO GRANDECTY",
        "XPURPOSE": "1",
        "OPERATINGR": "BOP",
        "OPERATIN_1": "Primary",
        "DAYTHRU": 0,
        "NGHTTHRU": 0,
        "MAINTRK": 0,
        "SIDINGTRK": 0,
        "YARDTRK": 0,
        "TRANSITTRK": 0,
        "INDUSTRYTR": 0,
        "OTHRTRK": 0,
        "WDCODE": "No signs or signals",
        "REVISIONDA": "1988/01/01 00:00:00",
        "LASTUPDATE": "1/1/2009",
        "AADT": "",
        "AADTYEAR": "1970",
        "STATENAME": "TEXAS",
        "STATEAB": "TX",
        "COUNTYNAME": "STARR",
        "CITYNAME": "RIO GRANDE CITY",
        "LATDD": 26.355477,
        "LONGDD": -98.769736,
        "gridlyProductionCertified": true,
        "gridlyClassification": "PUBLIC_ROADWAY",
        "gridlyDisplayName": "PRIVATE CROSSING",
        "gridlyId": "FRA-450293W"
      }
    },
    {
      "type": "Feature",
      "id": 200751,
      "geometry": {
        "type": "Point",
        "coordinates": [
          -98.7623150003154,
          26.3515079998505
        ]
      },
      "properties": {
        "OBJECTID": 200751,
        "CROSSING": "450291H",
        "EFFDATE": 1230768000000,
        "REASON": "14",
        "StateCode": "48",
        "CountyCode": "48427",
        "STCYFIPS": "48427",
        "CITYCD": "484275780",
        "RAILROAD": "BOP",
        "RRDIV": "KINGSVILL",
        "RRSUBDIV": "MISSION",
        "HIGHWAY": "",
        "STREET": "HIDALGO AVE",
        "TTSTN": "699980",
        "MILEPOST": "0069.40",
        "TYPEXING": "Private",
        "POSXING": "At Grade",
        "PRVCAT": "14",
        "INIT": "2",
        "LATITUDE": 26.351508,
        "LONGITUD": -98.762315,
        "LLSOURCE": "",
        "WHISTBAN": "0",
        "RRCONT": "",
        "POLCONT": "",
        "INV_LINK": "https://safetydata.fra.dot.gov/OfficeofSafety/PublicSite/Crossing/Crossing.aspx?phasetype=C&rpttype=I&txtcrossingnum=450291H",
        "ACC_LINK": "https://safetydata.fra.dot.gov/OfficeofSafety/PublicSite/Crossing/Crossing.aspx?phasetype=C&rpttype=A&txtcrossingnum=450291H",
        "TTSTNNAM": "RIO GRANDECTY",
        "XPURPOSE": "1",
        "OPERATINGR": "BOP",
        "OPERATIN_1": "Primary",
        "DAYTHRU": 0,
        "NGHTTHRU": 0,
        "MAINTRK": 0,
        "SIDINGTRK": 0,
        "YARDTRK": 0,
        "TRANSITTRK": 0,
        "INDUSTRYTR": 0,
        "OTHRTRK": 0,
        "WDCODE": "No signs or signals",
        "REVISIONDA": "1988/01/01 00:00:00",
        "LASTUPDATE": "1/1/2009",
        "AADT": "",
        "AADTYEAR": "1970",
        "STATENAME": "TEXAS",
        "STATEAB": "TX",
        "COUNTYNAME": "STARR",
        "CITYNAME": "RIO GRANDE CITY",
        "LATDD": 26.351508,
        "LONGDD": -98.762315,
        "gridlyProductionCertified": true,
        "gridlyClassification": "PUBLIC_ROADWAY",
        "gridlyDisplayName": "HIDALGO AVE",
        "gridlyId": "FRA-450291H"
      }
    },
    {
      "type": "Feature",
      "id": 200753,
      "geometry": {
        "type": "Point",
        "coordinates": [
          -98.7543799999511,
          26.3474389999273
        ]
      },
      "properties": {
        "OBJECTID": 200753,
        "CROSSING": "450290B",
        "EFFDATE": 1230768000000,
        "REASON": "14",
        "StateCode": "48",
        "CountyCode": "48427",
        "STCYFIPS": "48427",
        "CITYCD": "484275780",
        "RAILROAD": "BOP",
        "RRDIV": "KINGSVILL",
        "RRSUBDIV": "MISSION",
        "HIGHWAY": "",
        "STREET": "PRIVATE CROSSING",
        "TTSTN": "699980",
        "MILEPOST": "0068.80",
        "TYPEXING": "Private",
        "POSXING": "At Grade",
        "PRVCAT": "14",
        "INIT": "2",
        "LATITUDE": 26.347439,
        "LONGITUD": -98.75438,
        "LLSOURCE": "",
        "WHISTBAN": "0",
        "RRCONT": "",
        "POLCONT": "",
        "INV_LINK": "https://safetydata.fra.dot.gov/OfficeofSafety/PublicSite/Crossing/Crossing.aspx?phasetype=C&rpttype=I&txtcrossingnum=450290B",
        "ACC_LINK": "https://safetydata.fra.dot.gov/OfficeofSafety/PublicSite/Crossing/Crossing.aspx?phasetype=C&rpttype=A&txtcrossingnum=450290B",
        "TTSTNNAM": "RIO GRANDECTY",
        "XPURPOSE": "1",
        "OPERATINGR": "BOP",
        "OPERATIN_1": "Primary",
        "DAYTHRU": 0,
        "NGHTTHRU": 0,
        "MAINTRK": 0,
        "SIDINGTRK": 0,
        "YARDTRK": 0,
        "TRANSITTRK": 0,
        "INDUSTRYTR": 0,
        "OTHRTRK": 0,
        "WDCODE": "No signs or signals",
        "REVISIONDA": "1988/01/01 00:00:00",
        "LASTUPDATE": "1/1/2009",
        "AADT": "",
        "AADTYEAR": "1970",
        "STATENAME": "TEXAS",
        "STATEAB": "TX",
        "COUNTYNAME": "STARR",
        "CITYNAME": "RIO GRANDE CITY",
        "LATDD": 26.347439,
        "LONGDD": -98.75438,
        "gridlyProductionCertified": true,
        "gridlyClassification": "PUBLIC_ROADWAY",
        "gridlyDisplayName": "PRIVATE CROSSING",
        "gridlyId": "FRA-450290B"
      }
    },
    {
      "type": "Feature",
      "id": 200855,
      "geometry": {
        "type": "Point",
        "coordinates": [
          -98.6251509997331,
          26.2821699999086
        ]
      },
      "properties": {
        "OBJECTID": 200855,
        "CROSSING": "447846M",
        "EFFDATE": 1230768000000,
        "REASON": "14",
        "StateCode": "48",
        "CountyCode": "48427",
        "STCYFIPS": "48427",
        "CITYCD": "482255655",
        "RAILROAD": "BOP",
        "RRDIV": "KINGSVILL",
        "RRSUBDIV": "MISSION",
        "HIGHWAY": "",
        "STREET": "PRIVATE CROSSING",
        "TTSTN": "689962",
        "MILEPOST": "0059.40",
        "TYPEXING": "Private",
        "POSXING": "At Grade",
        "PRVCAT": "14",
        "INIT": "2",
        "LATITUDE": 26.28217,
        "LONGITUD": -98.625151,
        "LLSOURCE": "",
        "WHISTBAN": "0",
        "RRCONT": "",
        "POLCONT": "",
        "INV_LINK": "https://safetydata.fra.dot.gov/OfficeofSafety/PublicSite/Crossing/Crossing.aspx?phasetype=C&rpttype=I&txtcrossingnum=447846M",
        "ACC_LINK": "https://safetydata.fra.dot.gov/OfficeofSafety/PublicSite/Crossing/Crossing.aspx?phasetype=C&rpttype=A&txtcrossingnum=447846M",
        "TTSTNNAM": "",
        "XPURPOSE": "1",
        "OPERATINGR": "BOP",
        "OPERATIN_1": "Primary",
        "DAYTHRU": 0,
        "NGHTTHRU": 0,
        "MAINTRK": 0,
        "SIDINGTRK": 0,
        "YARDTRK": 0,
        "TRANSITTRK": 0,
        "INDUSTRYTR": 0,
        "OTHRTRK": 0,
        "WDCODE": "No signs or signals",
        "REVISIONDA": "1988/01/01 00:00:00",
        "LASTUPDATE": "1/1/2009",
        "AADT": "",
        "AADTYEAR": "1970",
        "STATENAME": "TEXAS",
        "STATEAB": "TX",
        "COUNTYNAME": "STARR",
        "CITYNAME": "RATCLIFF",
        "LATDD": 26.28217,
        "LONGDD": -98.625151,
        "gridlyProductionCertified": true,
        "gridlyClassification": "PUBLIC_ROADWAY",
        "gridlyDisplayName": "PRIVATE CROSSING",
        "gridlyId": "FRA-447846M"
      }
    },
    {
      "type": "Feature",
      "id": 201850,
      "geometry": {
        "type": "Point",
        "coordinates": [
          -98.686149599813,
          26.3155942000411
        ]
      },
      "properties": {
        "OBJECTID": 201850,
        "CROSSING": "450277M",
        "EFFDATE": 1774828800000,
        "REASON": "14",
        "StateCode": "48",
        "CountyCode": "48427",
        "STCYFIPS": "48427",
        "CITYCD": "484275780",
        "RAILROAD": "BOP",
        "RRDIV": "KINGSVILL",
        "RRSUBDIV": "MISSION",
        "HIGHWAY": "CR0325",
        "STREET": "MILITARY ROAD",
        "TTSTN": "699980",
        "MILEPOST": "0064.15",
        "TYPEXING": "Public",
        "POSXING": "At Grade",
        "PRVCAT": "14",
        "INIT": "2",
        "LATITUDE": 26.3155942,
        "LONGITUD": -98.6861496,
        "LLSOURCE": "",
        "WHISTBAN": "0",
        "RRCONT": "",
        "POLCONT": "",
        "INV_LINK": "https://safetydata.fra.dot.gov/OfficeofSafety/PublicSite/Crossing/Crossing.aspx?phasetype=C&rpttype=I&txtcrossingnum=450277M",
        "ACC_LINK": "https://safetydata.fra.dot.gov/OfficeofSafety/PublicSite/Crossing/Crossing.aspx?phasetype=C&rpttype=A&txtcrossingnum=450277M",
        "TTSTNNAM": "RIO GRANDECTY",
        "XPURPOSE": "1",
        "OPERATINGR": "BOP",
        "OPERATIN_1": "Primary",
        "DAYTHRU": 0,
        "NGHTTHRU": 2,
        "MAINTRK": 1,
        "SIDINGTRK": 0,
        "YARDTRK": 0,
        "TRANSITTRK": 0,
        "INDUSTRYTR": 0,
        "OTHRTRK": 0,
        "WDCODE": "Crossbucks",
        "REVISIONDA": "1988/01/01 00:00:00",
        "LASTUPDATE": "3/30/2026",
        "AADT": "36",
        "AADTYEAR": "2019",
        "STATENAME": "TEXAS",
        "STATEAB": "TX",
        "COUNTYNAME": "STARR",
        "CITYNAME": "RIO GRANDE CITY",
        "LATDD": 26.3155942,
        "LONGDD": -98.6861496,
        "gridlyProductionCertified": true,
        "gridlyClassification": "PUBLIC_ROADWAY",
        "gridlyDisplayName": "MILITARY ROAD",
        "gridlyId": "FRA-450277M"
      }
    },
    {
      "type": "Feature",
      "id": 202127,
      "geometry": {
        "type": "Point",
        "coordinates": [
          -98.7841460002839,
          26.3626977999379
        ]
      },
      "properties": {
        "OBJECTID": 202127,
        "CROSSING": "450294D",
        "EFFDATE": 1774310400000,
        "REASON": "14",
        "StateCode": "48",
        "CountyCode": "48427",
        "STCYFIPS": "48427",
        "CITYCD": "484275780",
        "RAILROAD": "BOP",
        "RRDIV": "KINGSVILL",
        "RRSUBDIV": "MISSION",
        "HIGHWAY": "LS0000",
        "STREET": "N garza road",
        "TTSTN": "699980",
        "MILEPOST": "0070.80",
        "TYPEXING": "Public",
        "POSXING": "At Grade",
        "PRVCAT": "14",
        "INIT": "2",
        "LATITUDE": 26.3626978,
        "LONGITUD": -98.784146,
        "LLSOURCE": "",
        "WHISTBAN": "0",
        "RRCONT": "",
        "POLCONT": "8007727677",
        "INV_LINK": "https://safetydata.fra.dot.gov/OfficeofSafety/PublicSite/Crossing/Crossing.aspx?phasetype=C&rpttype=I&txtcrossingnum=450294D",
        "ACC_LINK": "https://safetydata.fra.dot.gov/OfficeofSafety/PublicSite/Crossing/Crossing.aspx?phasetype=C&rpttype=A&txtcrossingnum=450294D",
        "TTSTNNAM": "RIO GRANDECTY",
        "XPURPOSE": "1",
        "OPERATINGR": "BOP",
        "OPERATIN_1": "Primary",
        "DAYTHRU": 0,
        "NGHTTHRU": 2,
        "MAINTRK": 1,
        "SIDINGTRK": 0,
        "YARDTRK": 0,
        "TRANSITTRK": 0,
        "INDUSTRYTR": 0,
        "OTHRTRK": 0,
        "WDCODE": "All other Gates",
        "REVISIONDA": "1988/01/01 00:00:00",
        "LASTUPDATE": "3/24/2026",
        "AADT": "2475",
        "AADTYEAR": "2024",
        "STATENAME": "TEXAS",
        "STATEAB": "TX",
        "COUNTYNAME": "STARR",
        "CITYNAME": "RIO GRANDE CITY",
        "LATDD": 26.3626978,
        "LONGDD": -98.784146,
        "gridlyProductionCertified": true,
        "gridlyClassification": "PUBLIC_ROADWAY",
        "gridlyDisplayName": "N garza road",
        "gridlyId": "FRA-450294D"
      }
    },
    {
      "type": "Feature",
      "id": 202443,
      "geometry": {
        "type": "Point",
        "coordinates": [
          -98.7159344998011,
          26.3294071001404
        ]
      },
      "properties": {
        "OBJECTID": 202443,
        "CROSSING": "450283R",
        "EFFDATE": 1774483200000,
        "REASON": "14",
        "StateCode": "48",
        "CountyCode": "48427",
        "STCYFIPS": "48427",
        "CITYCD": "484272582",
        "RAILROAD": "BOP",
        "RRDIV": "KINGSVILL",
        "RRSUBDIV": "MISSION",
        "HIGHWAY": "CR0000",
        "STREET": "MONTALVO HILL ROAD",
        "TTSTN": "699980",
        "MILEPOST": "0065.50",
        "TYPEXING": "Public",
        "POSXING": "At Grade",
        "PRVCAT": "14",
        "INIT": "2",
        "LATITUDE": 26.3294071,
        "LONGITUD": -98.7159345,
        "LLSOURCE": "",
        "WHISTBAN": "0",
        "RRCONT": "",
        "POLCONT": "8007727677",
        "INV_LINK": "https://safetydata.fra.dot.gov/OfficeofSafety/PublicSite/Crossing/Crossing.aspx?phasetype=C&rpttype=I&txtcrossingnum=450283R",
        "ACC_LINK": "https://safetydata.fra.dot.gov/OfficeofSafety/PublicSite/Crossing/Crossing.aspx?phasetype=C&rpttype=A&txtcrossingnum=450283R",
        "TTSTNNAM": "RIO GRANDECTY",
        "XPURPOSE": "1",
        "OPERATINGR": "BOP",
        "OPERATIN_1": "Primary",
        "DAYTHRU": 0,
        "NGHTTHRU": 2,
        "MAINTRK": 1,
        "SIDINGTRK": 0,
        "YARDTRK": 0,
        "TRANSITTRK": 0,
        "INDUSTRYTR": 0,
        "OTHRTRK": 0,
        "WDCODE": "Crossbucks",
        "REVISIONDA": "1988/01/01 00:00:00",
        "LASTUPDATE": "3/26/2026",
        "AADT": "372",
        "AADTYEAR": "2019",
        "STATENAME": "TEXAS",
        "STATEAB": "TX",
        "COUNTYNAME": "STARR",
        "CITYNAME": "GARCIASVILLE",
        "LATDD": 26.3294071,
        "LONGDD": -98.7159345,
        "gridlyProductionCertified": true,
        "gridlyClassification": "PUBLIC_ROADWAY",
        "gridlyDisplayName": "MONTALVO HILL ROAD",
        "gridlyId": "FRA-450283R"
      }
    },
    {
      "type": "Feature",
      "id": 202935,
      "geometry": {
        "type": "Point",
        "coordinates": [
          -98.6945875004295,
          26.3211243998042
        ]
      },
      "properties": {
        "OBJECTID": 202935,
        "CROSSING": "450278U",
        "EFFDATE": 1774828800000,
        "REASON": "14",
        "StateCode": "48",
        "CountyCode": "48427",
        "STCYFIPS": "48427",
        "CITYCD": "484272582",
        "RAILROAD": "BOP",
        "RRDIV": "KINGSVILL",
        "RRSUBDIV": "MISSION",
        "HIGHWAY": "CR0310",
        "STREET": "GARCIAVILLE CEMETRY ROAD",
        "TTSTN": "699980",
        "MILEPOST": "0064.50",
        "TYPEXING": "Public",
        "POSXING": "At Grade",
        "PRVCAT": "14",
        "INIT": "2",
        "LATITUDE": 26.3211244,
        "LONGITUD": -98.6945875,
        "LLSOURCE": "",
        "WHISTBAN": "0",
        "RRCONT": "",
        "POLCONT": "8007727677",
        "INV_LINK": "https://safetydata.fra.dot.gov/OfficeofSafety/PublicSite/Crossing/Crossing.aspx?phasetype=C&rpttype=I&txtcrossingnum=450278U",
        "ACC_LINK": "https://safetydata.fra.dot.gov/OfficeofSafety/PublicSite/Crossing/Crossing.aspx?phasetype=C&rpttype=A&txtcrossingnum=450278U",
        "TTSTNNAM": "RIO GRANDECTY",
        "XPURPOSE": "1",
        "OPERATINGR": "BOP",
        "OPERATIN_1": "Primary",
        "DAYTHRU": 0,
        "NGHTTHRU": 2,
        "MAINTRK": 1,
        "SIDINGTRK": 0,
        "YARDTRK": 0,
        "TRANSITTRK": 0,
        "INDUSTRYTR": 0,
        "OTHRTRK": 0,
        "WDCODE": "Crossbucks",
        "REVISIONDA": "1988/01/01 00:00:00",
        "LASTUPDATE": "3/30/2026",
        "AADT": "852",
        "AADTYEAR": "2024",
        "STATENAME": "TEXAS",
        "STATEAB": "TX",
        "COUNTYNAME": "STARR",
        "CITYNAME": "GARCIASVILLE",
        "LATDD": 26.3211244,
        "LONGDD": -98.6945875,
        "gridlyProductionCertified": true,
        "gridlyClassification": "PUBLIC_ROADWAY",
        "gridlyDisplayName": "GARCIAVILLE CEMETRY ROAD",
        "gridlyId": "FRA-450278U"
      }
    },
    {
      "type": "Feature",
      "id": 203403,
      "geometry": {
        "type": "Point",
        "coordinates": [
          -98.7511339996557,
          26.3462918001511
        ]
      },
      "properties": {
        "OBJECTID": 203403,
        "CROSSING": "450289G",
        "EFFDATE": 1774310400000,
        "REASON": "14",
        "StateCode": "48",
        "CountyCode": "48427",
        "STCYFIPS": "48427",
        "CITYCD": "484275780",
        "RAILROAD": "BOP",
        "RRDIV": "KINGSVILL",
        "RRSUBDIV": "MISSION",
        "HIGHWAY": "CR0218",
        "STREET": "GUEVARRA STREET",
        "TTSTN": "699980",
        "MILEPOST": "0068.70",
        "TYPEXING": "Public",
        "POSXING": "At Grade",
        "PRVCAT": "14",
        "INIT": "2",
        "LATITUDE": 26.3462918,
        "LONGITUD": -98.751134,
        "LLSOURCE": "",
        "WHISTBAN": "0",
        "RRCONT": "",
        "POLCONT": "8007727677",
        "INV_LINK": "https://safetydata.fra.dot.gov/OfficeofSafety/PublicSite/Crossing/Crossing.aspx?phasetype=C&rpttype=I&txtcrossingnum=450289G",
        "ACC_LINK": "https://safetydata.fra.dot.gov/OfficeofSafety/PublicSite/Crossing/Crossing.aspx?phasetype=C&rpttype=A&txtcrossingnum=450289G",
        "TTSTNNAM": "RIO GRANDECTY",
        "XPURPOSE": "1",
        "OPERATINGR": "BOP",
        "OPERATIN_1": "Primary",
        "DAYTHRU": 0,
        "NGHTTHRU": 2,
        "MAINTRK": 1,
        "SIDINGTRK": 0,
        "YARDTRK": 0,
        "TRANSITTRK": 0,
        "INDUSTRYTR": 0,
        "OTHRTRK": 0,
        "WDCODE": "Crossbucks",
        "REVISIONDA": "1988/01/01 00:00:00",
        "LASTUPDATE": "3/24/2026",
        "AADT": "1551",
        "AADTYEAR": "2024",
        "STATENAME": "TEXAS",
        "STATEAB": "TX",
        "COUNTYNAME": "STARR",
        "CITYNAME": "RIO GRANDE CITY",
        "LATDD": 26.3462918,
        "LONGDD": -98.751134,
        "gridlyProductionCertified": true,
        "gridlyClassification": "PUBLIC_ROADWAY",
        "gridlyDisplayName": "GUEVARRA STREET",
        "gridlyId": "FRA-450289G"
      }
    },
    {
      "type": "Feature",
      "id": 203404,
      "geometry": {
        "type": "Point",
        "coordinates": [
          -98.759498799866,
          26.3499424003893
        ]
      },
      "properties": {
        "OBJECTID": 203404,
        "CROSSING": "450292P",
        "EFFDATE": 1774310400000,
        "REASON": "14",
        "StateCode": "48",
        "CountyCode": "48427",
        "STCYFIPS": "48427",
        "CITYCD": "484275780",
        "RAILROAD": "BOP",
        "RRDIV": "KINGSVILL",
        "RRSUBDIV": "MISSION",
        "HIGHWAY": "CR0226",
        "STREET": "TAMPICO STREET",
        "TTSTN": "699980",
        "MILEPOST": "0069.60",
        "TYPEXING": "Public",
        "POSXING": "At Grade",
        "PRVCAT": "14",
        "INIT": "2",
        "LATITUDE": 26.3499424,
        "LONGITUD": -98.7594988,
        "LLSOURCE": "",
        "WHISTBAN": "0",
        "RRCONT": "",
        "POLCONT": "",
        "INV_LINK": "https://safetydata.fra.dot.gov/OfficeofSafety/PublicSite/Crossing/Crossing.aspx?phasetype=C&rpttype=I&txtcrossingnum=450292P",
        "ACC_LINK": "https://safetydata.fra.dot.gov/OfficeofSafety/PublicSite/Crossing/Crossing.aspx?phasetype=C&rpttype=A&txtcrossingnum=450292P",
        "TTSTNNAM": "RIO GRANDECTY",
        "XPURPOSE": "1",
        "OPERATINGR": "BOP",
        "OPERATIN_1": "Primary",
        "DAYTHRU": 0,
        "NGHTTHRU": 2,
        "MAINTRK": 1,
        "SIDINGTRK": 0,
        "YARDTRK": 0,
        "TRANSITTRK": 0,
        "INDUSTRYTR": 0,
        "OTHRTRK": 0,
        "WDCODE": "Crossbucks",
        "REVISIONDA": "1988/01/01 00:00:00",
        "LASTUPDATE": "3/24/2026",
        "AADT": "372",
        "AADTYEAR": "2019",
        "STATENAME": "TEXAS",
        "STATEAB": "TX",
        "COUNTYNAME": "STARR",
        "CITYNAME": "RIO GRANDE CITY",
        "LATDD": 26.3499424,
        "LONGDD": -98.7594988,
        "gridlyProductionCertified": true,
        "gridlyClassification": "PUBLIC_ROADWAY",
        "gridlyDisplayName": "TAMPICO STREET",
        "gridlyId": "FRA-450292P"
      }
    },
    {
      "type": "Feature",
      "id": 204257,
      "geometry": {
        "type": "Point",
        "coordinates": [
          -98.5991167996182,
          26.2716328003045
        ]
      },
      "properties": {
        "OBJECTID": 204257,
        "CROSSING": "447845F",
        "EFFDATE": 1773014400000,
        "REASON": "14",
        "StateCode": "48",
        "CountyCode": "48427",
        "STCYFIPS": "48427",
        "CITYCD": "482156666",
        "RAILROAD": "BOP",
        "RRDIV": "KINGSVILL",
        "RRSUBDIV": "MISSION",
        "HIGHWAY": "CR0325",
        "STREET": "OLD MILITARY ROAD",
        "TTSTN": "689962",
        "MILEPOST": "0057.90",
        "TYPEXING": "Public",
        "POSXING": "At Grade",
        "PRVCAT": "14",
        "INIT": "2",
        "LATITUDE": 26.2716328,
        "LONGITUD": -98.5991168,
        "LLSOURCE": "",
        "WHISTBAN": "0",
        "RRCONT": "",
        "POLCONT": "",
        "INV_LINK": "https://safetydata.fra.dot.gov/OfficeofSafety/PublicSite/Crossing/Crossing.aspx?phasetype=C&rpttype=I&txtcrossingnum=447845F",
        "ACC_LINK": "https://safetydata.fra.dot.gov/OfficeofSafety/PublicSite/Crossing/Crossing.aspx?phasetype=C&rpttype=A&txtcrossingnum=447845F",
        "TTSTNNAM": "",
        "XPURPOSE": "1",
        "OPERATINGR": "BOP",
        "OPERATIN_1": "Primary",
        "DAYTHRU": 0,
        "NGHTTHRU": 0,
        "MAINTRK": 1,
        "SIDINGTRK": 0,
        "YARDTRK": 0,
        "TRANSITTRK": 0,
        "INDUSTRYTR": 0,
        "OTHRTRK": 0,
        "WDCODE": "Crossbucks",
        "REVISIONDA": "1988/01/01 00:00:00",
        "LASTUPDATE": "3/9/2026",
        "AADT": "71",
        "AADTYEAR": "2022",
        "STATENAME": "TEXAS",
        "STATEAB": "TX",
        "COUNTYNAME": "STARR",
        "CITYNAME": "SULLIVAN CITY",
        "LATDD": 26.2716328,
        "LONGDD": -98.5991168,
        "gridlyProductionCertified": true,
        "gridlyClassification": "PUBLIC_ROADWAY",
        "gridlyDisplayName": "OLD MILITARY ROAD",
        "gridlyId": "FRA-447845F"
      }
    },
    {
      "type": "Feature",
      "id": 205000,
      "geometry": {
        "type": "Point",
        "coordinates": [
          -98.6358873999042,
          26.2852492999803
        ]
      },
      "properties": {
        "OBJECTID": 205000,
        "CROSSING": "447847U",
        "EFFDATE": 1773014400000,
        "REASON": "14",
        "StateCode": "48",
        "CountyCode": "48427",
        "STCYFIPS": "48427",
        "CITYCD": "482255655",
        "RAILROAD": "BOP",
        "RRDIV": "KINGSVILL",
        "RRSUBDIV": "MISSION",
        "HIGHWAY": "Cr0325",
        "STREET": "MILITARY ROAD",
        "TTSTN": "689962",
        "MILEPOST": "0060.30",
        "TYPEXING": "Public",
        "POSXING": "At Grade",
        "PRVCAT": "14",
        "INIT": "2",
        "LATITUDE": 26.2852493,
        "LONGITUD": -98.6358874,
        "LLSOURCE": "",
        "WHISTBAN": "0",
        "RRCONT": "",
        "POLCONT": "",
        "INV_LINK": "https://safetydata.fra.dot.gov/OfficeofSafety/PublicSite/Crossing/Crossing.aspx?phasetype=C&rpttype=I&txtcrossingnum=447847U",
        "ACC_LINK": "https://safetydata.fra.dot.gov/OfficeofSafety/PublicSite/Crossing/Crossing.aspx?phasetype=C&rpttype=A&txtcrossingnum=447847U",
        "TTSTNNAM": "",
        "XPURPOSE": "1",
        "OPERATINGR": "BOP",
        "OPERATIN_1": "Primary",
        "DAYTHRU": 0,
        "NGHTTHRU": 0,
        "MAINTRK": 1,
        "SIDINGTRK": 0,
        "YARDTRK": 0,
        "TRANSITTRK": 0,
        "INDUSTRYTR": 0,
        "OTHRTRK": 0,
        "WDCODE": "Crossbucks",
        "REVISIONDA": "1988/01/01 00:00:00",
        "LASTUPDATE": "3/9/2026",
        "AADT": "402",
        "AADTYEAR": "2024",
        "STATENAME": "TEXAS",
        "STATEAB": "TX",
        "COUNTYNAME": "STARR",
        "CITYNAME": "RATCLIFF",
        "LATDD": 26.2852493,
        "LONGDD": -98.6358874,
        "gridlyProductionCertified": true,
        "gridlyClassification": "PUBLIC_ROADWAY",
        "gridlyDisplayName": "MILITARY ROAD",
        "gridlyId": "FRA-447847U"
      }
    },
    {
      "type": "Feature",
      "id": 205043,
      "geometry": {
        "type": "Point",
        "coordinates": [
          -98.7196250996868,
          26.3304245997431
        ]
      },
      "properties": {
        "OBJECTID": 205043,
        "CROSSING": "450284X",
        "EFFDATE": 1774396800000,
        "REASON": "14",
        "StateCode": "48",
        "CountyCode": "48427",
        "STCYFIPS": "48427",
        "CITYCD": "484272582",
        "RAILROAD": "BOP",
        "RRDIV": "KINGSVILL",
        "RRSUBDIV": "MISSION",
        "HIGHWAY": "CR0280",
        "STREET": "CASITA CEMETERY ROAD",
        "TTSTN": "699980",
        "MILEPOST": "0066.10",
        "TYPEXING": "Public",
        "POSXING": "At Grade",
        "PRVCAT": "14",
        "INIT": "2",
        "LATITUDE": 26.3304246,
        "LONGITUD": -98.7196251,
        "LLSOURCE": "",
        "WHISTBAN": "0",
        "RRCONT": "",
        "POLCONT": "8007727677",
        "INV_LINK": "https://safetydata.fra.dot.gov/OfficeofSafety/PublicSite/Crossing/Crossing.aspx?phasetype=C&rpttype=I&txtcrossingnum=450284X",
        "ACC_LINK": "https://safetydata.fra.dot.gov/OfficeofSafety/PublicSite/Crossing/Crossing.aspx?phasetype=C&rpttype=A&txtcrossingnum=450284X",
        "TTSTNNAM": "RIO GRANDECTY",
        "XPURPOSE": "1",
        "OPERATINGR": "BOP",
        "OPERATIN_1": "Primary",
        "DAYTHRU": 0,
        "NGHTTHRU": 2,
        "MAINTRK": 1,
        "SIDINGTRK": 0,
        "YARDTRK": 0,
        "TRANSITTRK": 0,
        "INDUSTRYTR": 0,
        "OTHRTRK": 0,
        "WDCODE": "No signs or signals",
        "REVISIONDA": "1988/01/01 00:00:00",
        "LASTUPDATE": "3/25/2026",
        "AADT": "372",
        "AADTYEAR": "2019",
        "STATENAME": "TEXAS",
        "STATEAB": "TX",
        "COUNTYNAME": "STARR",
        "CITYNAME": "GARCIASVILLE",
        "LATDD": 26.3304246,
        "LONGDD": -98.7196251,
        "gridlyProductionCertified": true,
        "gridlyClassification": "PUBLIC_ROADWAY",
        "gridlyDisplayName": "CASITA CEMETERY ROAD",
        "gridlyId": "FRA-450284X"
      }
    },
    {
      "type": "Feature",
      "id": 211151,
      "geometry": {
        "type": "Point",
        "coordinates": [
          -98.7396860996436,
          26.3412651996257
        ]
      },
      "properties": {
        "OBJECTID": 211151,
        "CROSSING": "450287T",
        "EFFDATE": 1774396800000,
        "REASON": "14",
        "StateCode": "48",
        "CountyCode": "48427",
        "STCYFIPS": "48427",
        "CITYCD": "484275780",
        "RAILROAD": "BOP",
        "RRDIV": "KINGSVILL",
        "RRSUBDIV": "MISSION",
        "HIGHWAY": "CR0252",
        "STREET": "BIONAS STREET ",
        "TTSTN": "699980",
        "MILEPOST": "0067.60",
        "TYPEXING": "Public",
        "POSXING": "At Grade",
        "PRVCAT": "14",
        "INIT": "2",
        "LATITUDE": 26.3412652,
        "LONGITUD": -98.7396861,
        "LLSOURCE": "",
        "WHISTBAN": "0",
        "RRCONT": "",
        "POLCONT": "",
        "INV_LINK": "https://safetydata.fra.dot.gov/OfficeofSafety/PublicSite/Crossing/Crossing.aspx?phasetype=C&rpttype=I&txtcrossingnum=450287T",
        "ACC_LINK": "https://safetydata.fra.dot.gov/OfficeofSafety/PublicSite/Crossing/Crossing.aspx?phasetype=C&rpttype=A&txtcrossingnum=450287T",
        "TTSTNNAM": "RIO GRANDECTY",
        "XPURPOSE": "1",
        "OPERATINGR": "BOP",
        "OPERATIN_1": "Primary",
        "DAYTHRU": 0,
        "NGHTTHRU": 2,
        "MAINTRK": 1,
        "SIDINGTRK": 0,
        "YARDTRK": 0,
        "TRANSITTRK": 0,
        "INDUSTRYTR": 0,
        "OTHRTRK": 0,
        "WDCODE": "Crossbucks",
        "REVISIONDA": "1988/01/01 00:00:00",
        "LASTUPDATE": "3/25/2026",
        "AADT": "372",
        "AADTYEAR": "2019",
        "STATENAME": "TEXAS",
        "STATEAB": "TX",
        "COUNTYNAME": "STARR",
        "CITYNAME": "RIO GRANDE CITY",
        "LATDD": 26.3412652,
        "LONGDD": -98.7396861,
        "gridlyProductionCertified": true,
        "gridlyClassification": "PUBLIC_ROADWAY",
        "gridlyDisplayName": "BIONAS STREET",
        "gridlyId": "FRA-450287T"
      }
    },
    {
      "type": "Feature",
      "id": 215699,
      "geometry": {
        "type": "Point",
        "coordinates": [
          -98.6961038000353,
          26.3216221002266
        ]
      },
      "properties": {
        "OBJECTID": 215699,
        "CROSSING": "450279B",
        "EFFDATE": 1773705600000,
        "REASON": "14",
        "StateCode": "48",
        "CountyCode": "48427",
        "STCYFIPS": "48427",
        "CITYCD": "484272582",
        "RAILROAD": "BOP",
        "RRDIV": "KINGSVILL",
        "RRSUBDIV": "MISSION",
        "HIGHWAY": "FM1430",
        "STREET": "FM1430",
        "TTSTN": "699980",
        "MILEPOST": "0064.55",
        "TYPEXING": "Public",
        "POSXING": "At Grade",
        "PRVCAT": "14",
        "INIT": "2",
        "LATITUDE": 26.3216221,
        "LONGITUD": -98.6961038,
        "LLSOURCE": "",
        "WHISTBAN": "0",
        "RRCONT": "",
        "POLCONT": "",
        "INV_LINK": "https://safetydata.fra.dot.gov/OfficeofSafety/PublicSite/Crossing/Crossing.aspx?phasetype=C&rpttype=I&txtcrossingnum=450279B",
        "ACC_LINK": "https://safetydata.fra.dot.gov/OfficeofSafety/PublicSite/Crossing/Crossing.aspx?phasetype=C&rpttype=A&txtcrossingnum=450279B",
        "TTSTNNAM": "RIO GRANDECTY",
        "XPURPOSE": "1",
        "OPERATINGR": "BOP",
        "OPERATIN_1": "Primary",
        "DAYTHRU": 0,
        "NGHTTHRU": 0,
        "MAINTRK": 0,
        "SIDINGTRK": 0,
        "YARDTRK": 0,
        "TRANSITTRK": 0,
        "INDUSTRYTR": 0,
        "OTHRTRK": 0,
        "WDCODE": "Flashing lights",
        "REVISIONDA": "1988/01/01 00:00:00",
        "LASTUPDATE": "3/17/2026",
        "AADT": "2408",
        "AADTYEAR": "2024",
        "STATENAME": "TEXAS",
        "STATEAB": "TX",
        "COUNTYNAME": "STARR",
        "CITYNAME": "GARCIASVILLE",
        "LATDD": 26.3216221,
        "LONGDD": -98.6961038,
        "gridlyProductionCertified": true,
        "gridlyClassification": "PUBLIC_ROADWAY",
        "gridlyDisplayName": "FM1430",
        "gridlyId": "FRA-450279B"
      }
    },
    {
      "type": "Feature",
      "id": 215700,
      "geometry": {
        "type": "Point",
        "coordinates": [
          -98.7429994996365,
          26.3444547997649
        ]
      },
      "properties": {
        "OBJECTID": 215700,
        "CROSSING": "450288A",
        "EFFDATE": 1773705600000,
        "REASON": "14",
        "StateCode": "48",
        "CountyCode": "48427",
        "STCYFIPS": "48427",
        "CITYCD": "484272582",
        "RAILROAD": "BOP",
        "RRDIV": "KINGSVILL",
        "RRSUBDIV": "MISSION",
        "HIGHWAY": "US0083",
        "STREET": "US0083",
        "TTSTN": "699980",
        "MILEPOST": "0068.10",
        "TYPEXING": "Public",
        "POSXING": "At Grade",
        "PRVCAT": "14",
        "INIT": "2",
        "LATITUDE": 26.3444548,
        "LONGITUD": -98.7429995,
        "LLSOURCE": "",
        "WHISTBAN": "0",
        "RRCONT": "",
        "POLCONT": "",
        "INV_LINK": "https://safetydata.fra.dot.gov/OfficeofSafety/PublicSite/Crossing/Crossing.aspx?phasetype=C&rpttype=I&txtcrossingnum=450288A",
        "ACC_LINK": "https://safetydata.fra.dot.gov/OfficeofSafety/PublicSite/Crossing/Crossing.aspx?phasetype=C&rpttype=A&txtcrossingnum=450288A",
        "TTSTNNAM": "RIO GRANDECTY",
        "XPURPOSE": "1",
        "OPERATINGR": "BOP",
        "OPERATIN_1": "Primary",
        "DAYTHRU": 0,
        "NGHTTHRU": 2,
        "MAINTRK": 1,
        "SIDINGTRK": 0,
        "YARDTRK": 0,
        "TRANSITTRK": 0,
        "INDUSTRYTR": 0,
        "OTHRTRK": 0,
        "WDCODE": "Flashing lights",
        "REVISIONDA": "1988/01/01 00:00:00",
        "LASTUPDATE": "3/17/2026",
        "AADT": "28276",
        "AADTYEAR": "2021",
        "STATENAME": "TEXAS",
        "STATEAB": "TX",
        "COUNTYNAME": "STARR",
        "CITYNAME": "GARCIASVILLE",
        "LATDD": 26.3444548,
        "LONGDD": -98.7429995,
        "gridlyProductionCertified": true,
        "gridlyClassification": "PUBLIC_ROADWAY",
        "gridlyDisplayName": "US0083",
        "gridlyId": "FRA-450288A"
      }
    },
    {
      "type": "Feature",
      "id": 216290,
      "geometry": {
        "type": "Point",
        "coordinates": [
          -98.6440526995612,
          26.2878656998536
        ]
      },
      "properties": {
        "OBJECTID": 216290,
        "CROSSING": "447848B",
        "EFFDATE": 1773014400000,
        "REASON": "14",
        "StateCode": "48",
        "CountyCode": "48427",
        "STCYFIPS": "48427",
        "CITYCD": "484273788",
        "RAILROAD": "BOP",
        "RRDIV": "KINGSVILL",
        "RRSUBDIV": "MISSION",
        "HIGHWAY": "FM2360",
        "STREET": "FM2360",
        "TTSTN": "689962",
        "MILEPOST": "0060.80",
        "TYPEXING": "Public",
        "POSXING": "At Grade",
        "PRVCAT": "14",
        "INIT": "2",
        "LATITUDE": 26.2878657,
        "LONGITUD": -98.6440527,
        "LLSOURCE": "",
        "WHISTBAN": "0",
        "RRCONT": "",
        "POLCONT": "",
        "INV_LINK": "https://safetydata.fra.dot.gov/OfficeofSafety/PublicSite/Crossing/Crossing.aspx?phasetype=C&rpttype=I&txtcrossingnum=447848B",
        "ACC_LINK": "https://safetydata.fra.dot.gov/OfficeofSafety/PublicSite/Crossing/Crossing.aspx?phasetype=C&rpttype=A&txtcrossingnum=447848B",
        "TTSTNNAM": "",
        "XPURPOSE": "1",
        "OPERATINGR": "BOP",
        "OPERATIN_1": "Primary",
        "DAYTHRU": 0,
        "NGHTTHRU": 0,
        "MAINTRK": 1,
        "SIDINGTRK": 0,
        "YARDTRK": 0,
        "TRANSITTRK": 0,
        "INDUSTRYTR": 0,
        "OTHRTRK": 0,
        "WDCODE": "Flashing lights",
        "REVISIONDA": "1988/01/01 00:00:00",
        "LASTUPDATE": "3/9/2026",
        "AADT": "4811",
        "AADTYEAR": "2024",
        "STATENAME": "TEXAS",
        "STATEAB": "TX",
        "COUNTYNAME": "STARR",
        "CITYNAME": "LA GRULLA",
        "LATDD": 26.2878657,
        "LONGDD": -98.6440527,
        "gridlyProductionCertified": true,
        "gridlyClassification": "PUBLIC_ROADWAY",
        "gridlyDisplayName": "FM2360",
        "gridlyId": "FRA-447848B"
      }
    }
  ]
}
