{
  "type": "FeatureCollection",
  "features": [
    {
      "type": "Feature",
      "id": 203176,
      "geometry": {
        "type": "Point",
        "coordinates": [
          -103.118987000376,
          31.7886790000002
        ]
      },
      "properties": {
        "OBJECTID": 203176,
        "CROSSING": "864595U",
        "EFFDATE": 1708473600000,
        "REASON": "14",
        "StateCode": "48",
        "CountyCode": "48495",
        "STCYFIPS": "48495",
        "CITYCD": "484953660",
        "RAILROAD": "TXN",
        "RRDIV": "SOUTH PLAINS",
        "RRSUBDIV": "LOVINGTON",
        "HIGHWAY": "PRIVATE",
        "STREET": "PRIVATE",
        "TTSTN": "694450",
        "MILEPOST": "0018.87",
        "TYPEXING": "Private",
        "POSXING": "At Grade",
        "PRVCAT": "14",
        "INIT": "1",
        "LATITUDE": 31.788679,
        "LONGITUD": -103.118987,
        "LLSOURCE": "2",
        "WHISTBAN": "0",
        "RRCONT": "5753942117",
        "POLCONT": "8663869321",
        "INV_LINK": "https://safetydata.fra.dot.gov/OfficeofSafety/PublicSite/Crossing/Crossing.aspx?phasetype=C&rpttype=I&txtcrossingnum=864595U",
        "ACC_LINK": "https://safetydata.fra.dot.gov/OfficeofSafety/PublicSite/Crossing/Crossing.aspx?phasetype=C&rpttype=A&txtcrossingnum=864595U",
        "TTSTNNAM": "KERMIT",
        "XPURPOSE": "1",
        "OPERATINGR": "TXN",
        "OPERATIN_1": "Primary",
        "DAYTHRU": 1,
        "NGHTTHRU": 1,
        "MAINTRK": 1,
        "SIDINGTRK": 0,
        "YARDTRK": 0,
        "TRANSITTRK": 0,
        "INDUSTRYTR": 0,
        "OTHRTRK": 0,
        "WDCODE": "",
        "REVISIONDA": "2015/07/08 00:00:00",
        "LASTUPDATE": "2/21/2024",
        "AADT": "",
        "AADTYEAR": "1970",
        "STATENAME": "TEXAS",
        "STATEAB": "TX",
        "COUNTYNAME": "WINKLER",
        "CITYNAME": "KERMIT",
        "LATDD": 31.788679,
        "LONGDD": -103.118987,
        "gridlyProductionCertified": true,
        "gridlyClassification": "PUBLIC_ROADWAY",
        "gridlyDisplayName": "PRIVATE",
        "gridlyId": "FRA-864595U"
      }
    },
    {
      "type": "Feature",
      "id": 203177,
      "geometry": {
        "type": "Point",
        "coordinates": [
          -103.123047999907,
          31.9717588996975
        ]
      },
      "properties": {
        "OBJECTID": 203177,
        "CROSSING": "864623V",
        "EFFDATE": 1708473600000,
        "REASON": "14",
        "StateCode": "48",
        "CountyCode": "48495",
        "STCYFIPS": "48495",
        "CITYCD": "484953660",
        "RAILROAD": "TXN",
        "RRDIV": "SOUTH PLAINS",
        "RRSUBDIV": "LOVINGTON",
        "HIGHWAY": "PRIVATE",
        "STREET": "PRIVATE",
        "TTSTN": "694450",
        "MILEPOST": "0032.04",
        "TYPEXING": "Private",
        "POSXING": "At Grade",
        "PRVCAT": "14",
        "INIT": "1",
        "LATITUDE": 31.9717589,
        "LONGITUD": -103.123048,
        "LLSOURCE": "2",
        "WHISTBAN": "0",
        "RRCONT": "5753942117",
        "POLCONT": "8663869321",
        "INV_LINK": "https://safetydata.fra.dot.gov/OfficeofSafety/PublicSite/Crossing/Crossing.aspx?phasetype=C&rpttype=I&txtcrossingnum=864623V",
        "ACC_LINK": "https://safetydata.fra.dot.gov/OfficeofSafety/PublicSite/Crossing/Crossing.aspx?phasetype=C&rpttype=A&txtcrossingnum=864623V",
        "TTSTNNAM": "KERMIT",
        "XPURPOSE": "1",
        "OPERATINGR": "TXN",
        "OPERATIN_1": "Primary",
        "DAYTHRU": 1,
        "NGHTTHRU": 1,
        "MAINTRK": 1,
        "SIDINGTRK": 0,
        "YARDTRK": 0,
        "TRANSITTRK": 0,
        "INDUSTRYTR": 0,
        "OTHRTRK": 0,
        "WDCODE": "",
        "REVISIONDA": "2015/07/08 00:00:00",
        "LASTUPDATE": "2/21/2024",
        "AADT": "",
        "AADTYEAR": "1970",
        "STATENAME": "TEXAS",
        "STATEAB": "TX",
        "COUNTYNAME": "WINKLER",
        "CITYNAME": "KERMIT",
        "LATDD": 31.9717589,
        "LONGDD": -103.123048,
        "gridlyProductionCertified": true,
        "gridlyClassification": "PUBLIC_ROADWAY",
        "gridlyDisplayName": "PRIVATE",
        "gridlyId": "FRA-864623V"
      }
    },
    {
      "type": "Feature",
      "id": 203184,
      "geometry": {
        "type": "Point",
        "coordinates": [
          -103.131117000166,
          31.9935411997292
        ]
      },
      "properties": {
        "OBJECTID": 203184,
        "CROSSING": "864625J",
        "EFFDATE": 1708473600000,
        "REASON": "14",
        "StateCode": "48",
        "CountyCode": "48495",
        "STCYFIPS": "48495",
        "CITYCD": "484953660",
        "RAILROAD": "TXN",
        "RRDIV": "SOUTH PLAINS",
        "RRSUBDIV": "LOVINGTON",
        "HIGHWAY": "PRIVATE",
        "STREET": "PRIVATE",
        "TTSTN": "694450",
        "MILEPOST": "0033.60",
        "TYPEXING": "Private",
        "POSXING": "At Grade",
        "PRVCAT": "14",
        "INIT": "1",
        "LATITUDE": 31.9935412,
        "LONGITUD": -103.131117,
        "LLSOURCE": "2",
        "WHISTBAN": "0",
        "RRCONT": "5753942117",
        "POLCONT": "8663869321",
        "INV_LINK": "https://safetydata.fra.dot.gov/OfficeofSafety/PublicSite/Crossing/Crossing.aspx?phasetype=C&rpttype=I&txtcrossingnum=864625J",
        "ACC_LINK": "https://safetydata.fra.dot.gov/OfficeofSafety/PublicSite/Crossing/Crossing.aspx?phasetype=C&rpttype=A&txtcrossingnum=864625J",
        "TTSTNNAM": "KERMIT",
        "XPURPOSE": "1",
        "OPERATINGR": "TXN",
        "OPERATIN_1": "Primary",
        "DAYTHRU": 1,
        "NGHTTHRU": 1,
        "MAINTRK": 1,
        "SIDINGTRK": 0,
        "YARDTRK": 0,
        "TRANSITTRK": 0,
        "INDUSTRYTR": 0,
        "OTHRTRK": 0,
        "WDCODE": "",
        "REVISIONDA": "2015/07/08 00:00:00",
        "LASTUPDATE": "2/21/2024",
        "AADT": "",
        "AADTYEAR": "1970",
        "STATENAME": "TEXAS",
        "STATEAB": "TX",
        "COUNTYNAME": "WINKLER",
        "CITYNAME": "KERMIT",
        "LATDD": 31.9935412,
        "LONGDD": -103.131117,
        "gridlyProductionCertified": true,
        "gridlyClassification": "PUBLIC_ROADWAY",
        "gridlyDisplayName": "PRIVATE",
        "gridlyId": "FRA-864625J"
      }
    },
    {
      "type": "Feature",
      "id": 203185,
      "geometry": {
        "type": "Point",
        "coordinates": [
          -103.116505999986,
          31.9541026998669
        ]
      },
      "properties": {
        "OBJECTID": 203185,
        "CROSSING": "864621G",
        "EFFDATE": 1708473600000,
        "REASON": "14",
        "StateCode": "48",
        "CountyCode": "48495",
        "STCYFIPS": "48495",
        "CITYCD": "484953660",
        "RAILROAD": "TXN",
        "RRDIV": "SOUTH PLAINS",
        "RRSUBDIV": "LOVINGTON",
        "HIGHWAY": "PRIVATE",
        "STREET": "PRIVATE",
        "TTSTN": "694450",
        "MILEPOST": "0030.73",
        "TYPEXING": "Private",
        "POSXING": "At Grade",
        "PRVCAT": "14",
        "INIT": "1",
        "LATITUDE": 31.9541027,
        "LONGITUD": -103.116506,
        "LLSOURCE": "2",
        "WHISTBAN": "0",
        "RRCONT": "5753942117",
        "POLCONT": "8663869321",
        "INV_LINK": "https://safetydata.fra.dot.gov/OfficeofSafety/PublicSite/Crossing/Crossing.aspx?phasetype=C&rpttype=I&txtcrossingnum=864621G",
        "ACC_LINK": "https://safetydata.fra.dot.gov/OfficeofSafety/PublicSite/Crossing/Crossing.aspx?phasetype=C&rpttype=A&txtcrossingnum=864621G",
        "TTSTNNAM": "KERMIT",
        "XPURPOSE": "1",
        "OPERATINGR": "TXN",
        "OPERATIN_1": "Primary",
        "DAYTHRU": 1,
        "NGHTTHRU": 1,
        "MAINTRK": 1,
        "SIDINGTRK": 0,
        "YARDTRK": 0,
        "TRANSITTRK": 0,
        "INDUSTRYTR": 0,
        "OTHRTRK": 0,
        "WDCODE": "",
        "REVISIONDA": "2015/07/08 00:00:00",
        "LASTUPDATE": "2/21/2024",
        "AADT": "",
        "AADTYEAR": "1970",
        "STATENAME": "TEXAS",
        "STATEAB": "TX",
        "COUNTYNAME": "WINKLER",
        "CITYNAME": "KERMIT",
        "LATDD": 31.9541027,
        "LONGDD": -103.116506,
        "gridlyProductionCertified": true,
        "gridlyClassification": "PUBLIC_ROADWAY",
        "gridlyDisplayName": "PRIVATE",
        "gridlyId": "FRA-864621G"
      }
    },
    {
      "type": "Feature",
      "id": 203189,
      "geometry": {
        "type": "Point",
        "coordinates": [
          -103.116179999573,
          31.9199499997428
        ]
      },
      "properties": {
        "OBJECTID": 203189,
        "CROSSING": "864619F",
        "EFFDATE": 1708473600000,
        "REASON": "14",
        "StateCode": "48",
        "CountyCode": "48495",
        "STCYFIPS": "48495",
        "CITYCD": "484953660",
        "RAILROAD": "TXN",
        "RRDIV": "SOUTH PLAINS",
        "RRSUBDIV": "LOVINGTON",
        "HIGHWAY": "NA",
        "STREET": "PRIVATE",
        "TTSTN": "694450",
        "MILEPOST": "0028.32",
        "TYPEXING": "Private",
        "POSXING": "At Grade",
        "PRVCAT": "14",
        "INIT": "1",
        "LATITUDE": 31.91995,
        "LONGITUD": -103.11618,
        "LLSOURCE": "2",
        "WHISTBAN": "0",
        "RRCONT": "5753942117",
        "POLCONT": "8663869321",
        "INV_LINK": "https://safetydata.fra.dot.gov/OfficeofSafety/PublicSite/Crossing/Crossing.aspx?phasetype=C&rpttype=I&txtcrossingnum=864619F",
        "ACC_LINK": "https://safetydata.fra.dot.gov/OfficeofSafety/PublicSite/Crossing/Crossing.aspx?phasetype=C&rpttype=A&txtcrossingnum=864619F",
        "TTSTNNAM": "KERMIT",
        "XPURPOSE": "1",
        "OPERATINGR": "TXN",
        "OPERATIN_1": "Primary",
        "DAYTHRU": 2,
        "NGHTTHRU": 1,
        "MAINTRK": 1,
        "SIDINGTRK": 0,
        "YARDTRK": 0,
        "TRANSITTRK": 0,
        "INDUSTRYTR": 0,
        "OTHRTRK": 0,
        "WDCODE": "",
        "REVISIONDA": "2015/07/08 00:00:00",
        "LASTUPDATE": "2/21/2024",
        "AADT": "",
        "AADTYEAR": "1970",
        "STATENAME": "TEXAS",
        "STATEAB": "TX",
        "COUNTYNAME": "WINKLER",
        "CITYNAME": "KERMIT",
        "LATDD": 31.91995,
        "LONGDD": -103.11618,
        "gridlyProductionCertified": true,
        "gridlyClassification": "PUBLIC_ROADWAY",
        "gridlyDisplayName": "PRIVATE",
        "gridlyId": "FRA-864619F"
      }
    },
    {
      "type": "Feature",
      "id": 203190,
      "geometry": {
        "type": "Point",
        "coordinates": [
          -103.110210000112,
          31.8870500003178
        ]
      },
      "properties": {
        "OBJECTID": 203190,
        "CROSSING": "864616K",
        "EFFDATE": 1708473600000,
        "REASON": "14",
        "StateCode": "48",
        "CountyCode": "48495",
        "STCYFIPS": "48495",
        "CITYCD": "484953660",
        "RAILROAD": "TXN",
        "RRDIV": "SOUTH PLAINS",
        "RRSUBDIV": "LOVINGTON",
        "HIGHWAY": "NA",
        "STREET": "PRIVATE",
        "TTSTN": "694450",
        "MILEPOST": "0025.95",
        "TYPEXING": "Private",
        "POSXING": "At Grade",
        "PRVCAT": "14",
        "INIT": "1",
        "LATITUDE": 31.88705,
        "LONGITUD": -103.11021,
        "LLSOURCE": "2",
        "WHISTBAN": "0",
        "RRCONT": "5753942117",
        "POLCONT": "8663869321",
        "INV_LINK": "https://safetydata.fra.dot.gov/OfficeofSafety/PublicSite/Crossing/Crossing.aspx?phasetype=C&rpttype=I&txtcrossingnum=864616K",
        "ACC_LINK": "https://safetydata.fra.dot.gov/OfficeofSafety/PublicSite/Crossing/Crossing.aspx?phasetype=C&rpttype=A&txtcrossingnum=864616K",
        "TTSTNNAM": "KERMIT",
        "XPURPOSE": "1",
        "OPERATINGR": "TXN",
        "OPERATIN_1": "Primary",
        "DAYTHRU": 1,
        "NGHTTHRU": 1,
        "MAINTRK": 1,
        "SIDINGTRK": 0,
        "YARDTRK": 0,
        "TRANSITTRK": 0,
        "INDUSTRYTR": 0,
        "OTHRTRK": 0,
        "WDCODE": "",
        "REVISIONDA": "2015/07/08 00:00:00",
        "LASTUPDATE": "2/21/2024",
        "AADT": "",
        "AADTYEAR": "1970",
        "STATENAME": "TEXAS",
        "STATEAB": "TX",
        "COUNTYNAME": "WINKLER",
        "CITYNAME": "KERMIT",
        "LATDD": 31.88705,
        "LONGDD": -103.11021,
        "gridlyProductionCertified": true,
        "gridlyClassification": "PUBLIC_ROADWAY",
        "gridlyDisplayName": "PRIVATE",
        "gridlyId": "FRA-864616K"
      }
    },
    {
      "type": "Feature",
      "id": 203191,
      "geometry": {
        "type": "Point",
        "coordinates": [
          -103.101677000246,
          31.8621689996695
        ]
      },
      "properties": {
        "OBJECTID": 203191,
        "CROSSING": "864614W",
        "EFFDATE": 1708473600000,
        "REASON": "14",
        "StateCode": "48",
        "CountyCode": "48495",
        "STCYFIPS": "48495",
        "CITYCD": "484953660",
        "RAILROAD": "TXN",
        "RRDIV": "SOUTH PLAINS",
        "RRSUBDIV": "LOVINGTON",
        "HIGHWAY": "NA",
        "STREET": "PRIVATE",
        "TTSTN": "694450",
        "MILEPOST": "0024.19",
        "TYPEXING": "Private",
        "POSXING": "At Grade",
        "PRVCAT": "14",
        "INIT": "1",
        "LATITUDE": 31.862169,
        "LONGITUD": -103.101677,
        "LLSOURCE": "2",
        "WHISTBAN": "0",
        "RRCONT": "8887834316",
        "POLCONT": "8887834316",
        "INV_LINK": "https://safetydata.fra.dot.gov/OfficeofSafety/PublicSite/Crossing/Crossing.aspx?phasetype=C&rpttype=I&txtcrossingnum=864614W",
        "ACC_LINK": "https://safetydata.fra.dot.gov/OfficeofSafety/PublicSite/Crossing/Crossing.aspx?phasetype=C&rpttype=A&txtcrossingnum=864614W",
        "TTSTNNAM": "KERMIT",
        "XPURPOSE": "1",
        "OPERATINGR": "TXN",
        "OPERATIN_1": "Primary",
        "DAYTHRU": 1,
        "NGHTTHRU": 1,
        "MAINTRK": 1,
        "SIDINGTRK": 0,
        "YARDTRK": 0,
        "TRANSITTRK": 0,
        "INDUSTRYTR": 0,
        "OTHRTRK": 0,
        "WDCODE": "",
        "REVISIONDA": "2015/07/08 00:00:00",
        "LASTUPDATE": "2/21/2024",
        "AADT": "",
        "AADTYEAR": "1970",
        "STATENAME": "TEXAS",
        "STATEAB": "TX",
        "COUNTYNAME": "WINKLER",
        "CITYNAME": "KERMIT",
        "LATDD": 31.862169,
        "LONGDD": -103.101677,
        "gridlyProductionCertified": true,
        "gridlyClassification": "PUBLIC_ROADWAY",
        "gridlyDisplayName": "PRIVATE",
        "gridlyId": "FRA-864614W"
      }
    },
    {
      "type": "Feature",
      "id": 203192,
      "geometry": {
        "type": "Point",
        "coordinates": [
          -103.111559999999,
          31.8356500001926
        ]
      },
      "properties": {
        "OBJECTID": 203192,
        "CROSSING": "864599W",
        "EFFDATE": 1708473600000,
        "REASON": "14",
        "StateCode": "48",
        "CountyCode": "48495",
        "STCYFIPS": "48495",
        "CITYCD": "484953660",
        "RAILROAD": "TXN",
        "RRDIV": "SOUTH PLAINS",
        "RRSUBDIV": "LOVINGTON",
        "HIGHWAY": "NA",
        "STREET": "PRIVATE",
        "TTSTN": "694450",
        "MILEPOST": "0022.25",
        "TYPEXING": "Private",
        "POSXING": "At Grade",
        "PRVCAT": "14",
        "INIT": "1",
        "LATITUDE": 31.83565,
        "LONGITUD": -103.11156,
        "LLSOURCE": "2",
        "WHISTBAN": "0",
        "RRCONT": "5753942117",
        "POLCONT": "8663869321",
        "INV_LINK": "https://safetydata.fra.dot.gov/OfficeofSafety/PublicSite/Crossing/Crossing.aspx?phasetype=C&rpttype=I&txtcrossingnum=864599W",
        "ACC_LINK": "https://safetydata.fra.dot.gov/OfficeofSafety/PublicSite/Crossing/Crossing.aspx?phasetype=C&rpttype=A&txtcrossingnum=864599W",
        "TTSTNNAM": "KERMIT",
        "XPURPOSE": "1",
        "OPERATINGR": "TXN",
        "OPERATIN_1": "Primary",
        "DAYTHRU": 2,
        "NGHTTHRU": 1,
        "MAINTRK": 1,
        "SIDINGTRK": 0,
        "YARDTRK": 0,
        "TRANSITTRK": 0,
        "INDUSTRYTR": 0,
        "OTHRTRK": 0,
        "WDCODE": "",
        "REVISIONDA": "2015/07/08 00:00:00",
        "LASTUPDATE": "2/21/2024",
        "AADT": "",
        "AADTYEAR": "1970",
        "STATENAME": "TEXAS",
        "STATEAB": "TX",
        "COUNTYNAME": "WINKLER",
        "CITYNAME": "KERMIT",
        "LATDD": 31.83565,
        "LONGDD": -103.11156,
        "gridlyProductionCertified": true,
        "gridlyClassification": "PUBLIC_ROADWAY",
        "gridlyDisplayName": "PRIVATE",
        "gridlyId": "FRA-864599W"
      }
    },
    {
      "type": "Feature",
      "id": 203196,
      "geometry": {
        "type": "Point",
        "coordinates": [
          -103.027463000154,
          31.6667767003631
        ]
      },
      "properties": {
        "OBJECTID": 203196,
        "CROSSING": "864589R",
        "EFFDATE": 1708473600000,
        "REASON": "14",
        "StateCode": "48",
        "CountyCode": "48495",
        "STCYFIPS": "48495",
        "CITYCD": "484754660",
        "RAILROAD": "TXN",
        "RRDIV": "south plains",
        "RRSUBDIV": "LOVINGTON",
        "HIGHWAY": "CO 0000",
        "STREET": "CR 401",
        "TTSTN": "694910",
        "MILEPOST": "0008.73",
        "TYPEXING": "Private",
        "POSXING": "At Grade",
        "PRVCAT": "14",
        "INIT": "1",
        "LATITUDE": 31.6667767,
        "LONGITUD": -103.027463,
        "LLSOURCE": "2",
        "WHISTBAN": "0",
        "RRCONT": "5753942117",
        "POLCONT": "8663869321",
        "INV_LINK": "https://safetydata.fra.dot.gov/OfficeofSafety/PublicSite/Crossing/Crossing.aspx?phasetype=C&rpttype=I&txtcrossingnum=864589R",
        "ACC_LINK": "https://safetydata.fra.dot.gov/OfficeofSafety/PublicSite/Crossing/Crossing.aspx?phasetype=C&rpttype=A&txtcrossingnum=864589R",
        "TTSTNNAM": "MONAHANS",
        "XPURPOSE": "1",
        "OPERATINGR": "TXN",
        "OPERATIN_1": "Primary",
        "DAYTHRU": 2,
        "NGHTTHRU": 1,
        "MAINTRK": 1,
        "SIDINGTRK": 0,
        "YARDTRK": 0,
        "TRANSITTRK": 0,
        "INDUSTRYTR": 0,
        "OTHRTRK": 0,
        "WDCODE": "",
        "REVISIONDA": "2015/07/08 00:00:00",
        "LASTUPDATE": "2/21/2024",
        "AADT": "000025",
        "AADTYEAR": "1990",
        "STATENAME": "TEXAS",
        "STATEAB": "TX",
        "COUNTYNAME": "WINKLER",
        "CITYNAME": "MONAHANS",
        "LATDD": 31.6667767,
        "LONGDD": -103.027463,
        "gridlyProductionCertified": true,
        "gridlyClassification": "PUBLIC_ROADWAY",
        "gridlyDisplayName": "CR 401",
        "gridlyId": "FRA-864589R"
      }
    },
    {
      "type": "Feature",
      "id": 203415,
      "geometry": {
        "type": "Point",
        "coordinates": [
          -103.115675999783,
          31.8251090001454
        ]
      },
      "properties": {
        "OBJECTID": 203415,
        "CROSSING": "864597H",
        "EFFDATE": 1708473600000,
        "REASON": "14",
        "StateCode": "48",
        "CountyCode": "48495",
        "STCYFIPS": "48495",
        "CITYCD": "484953660",
        "RAILROAD": "TXN",
        "RRDIV": "SOUTH PLAINS",
        "RRSUBDIV": "LOVINGTON",
        "HIGHWAY": "NA",
        "STREET": "PRIVATE",
        "TTSTN": "694450",
        "MILEPOST": "0021.51",
        "TYPEXING": "Private",
        "POSXING": "At Grade",
        "PRVCAT": "14",
        "INIT": "1",
        "LATITUDE": 31.825109,
        "LONGITUD": -103.115676,
        "LLSOURCE": "2",
        "WHISTBAN": "0",
        "RRCONT": "5753942117",
        "POLCONT": "8663869321",
        "INV_LINK": "https://safetydata.fra.dot.gov/OfficeofSafety/PublicSite/Crossing/Crossing.aspx?phasetype=C&rpttype=I&txtcrossingnum=864597H",
        "ACC_LINK": "https://safetydata.fra.dot.gov/OfficeofSafety/PublicSite/Crossing/Crossing.aspx?phasetype=C&rpttype=A&txtcrossingnum=864597H",
        "TTSTNNAM": "KERMIT",
        "XPURPOSE": "1",
        "OPERATINGR": "TXN",
        "OPERATIN_1": "Primary",
        "DAYTHRU": 1,
        "NGHTTHRU": 1,
        "MAINTRK": 1,
        "SIDINGTRK": 0,
        "YARDTRK": 0,
        "TRANSITTRK": 0,
        "INDUSTRYTR": 0,
        "OTHRTRK": 0,
        "WDCODE": "",
        "REVISIONDA": "2015/07/08 00:00:00",
        "LASTUPDATE": "2/21/2024",
        "AADT": "",
        "AADTYEAR": "1970",
        "STATENAME": "TEXAS",
        "STATEAB": "TX",
        "COUNTYNAME": "WINKLER",
        "CITYNAME": "KERMIT",
        "LATDD": 31.825109,
        "LONGDD": -103.115676,
        "gridlyProductionCertified": true,
        "gridlyClassification": "PUBLIC_ROADWAY",
        "gridlyDisplayName": "PRIVATE",
        "gridlyId": "FRA-864597H"
      }
    },
    {
      "type": "Feature",
      "id": 212167,
      "geometry": {
        "type": "Point",
        "coordinates": [
          -103.117670399851,
          31.915323300144
        ]
      },
      "properties": {
        "OBJECTID": 212167,
        "CROSSING": "864618Y",
        "EFFDATE": 1761004800000,
        "REASON": "14",
        "StateCode": "48",
        "CountyCode": "48495",
        "STCYFIPS": "48495",
        "CITYCD": "484953660",
        "RAILROAD": "TXN",
        "RRDIV": "SOUTH PLAINS",
        "RRSUBDIV": "LOVINGTON",
        "HIGHWAY": "FM0874",
        "STREET": "fm0874",
        "TTSTN": "694450",
        "MILEPOST": "0027.98",
        "TYPEXING": "Public",
        "POSXING": "At Grade",
        "PRVCAT": "14",
        "INIT": "2",
        "LATITUDE": 31.9153233,
        "LONGITUD": -103.1176704,
        "LLSOURCE": "1",
        "WHISTBAN": "0",
        "RRCONT": "5753942117",
        "POLCONT": "8663869321",
        "INV_LINK": "https://safetydata.fra.dot.gov/OfficeofSafety/PublicSite/Crossing/Crossing.aspx?phasetype=C&rpttype=I&txtcrossingnum=864618Y",
        "ACC_LINK": "https://safetydata.fra.dot.gov/OfficeofSafety/PublicSite/Crossing/Crossing.aspx?phasetype=C&rpttype=A&txtcrossingnum=864618Y",
        "TTSTNNAM": "KERMIT",
        "XPURPOSE": "1",
        "OPERATINGR": "TXN",
        "OPERATIN_1": "Primary",
        "DAYTHRU": 1,
        "NGHTTHRU": 1,
        "MAINTRK": 1,
        "SIDINGTRK": 0,
        "YARDTRK": 0,
        "TRANSITTRK": 0,
        "INDUSTRYTR": 0,
        "OTHRTRK": 0,
        "WDCODE": "Crossbucks",
        "REVISIONDA": "2015/07/08 00:00:00",
        "LASTUPDATE": "10/21/2025",
        "AADT": "950",
        "AADTYEAR": "2023",
        "STATENAME": "TEXAS",
        "STATEAB": "TX",
        "COUNTYNAME": "WINKLER",
        "CITYNAME": "KERMIT",
        "LATDD": 31.9153233,
        "LONGDD": -103.1176704,
        "gridlyProductionCertified": true,
        "gridlyClassification": "PUBLIC_ROADWAY",
        "gridlyDisplayName": "fm0874",
        "gridlyId": "FRA-864618Y"
      }
    },
    {
      "type": "Feature",
      "id": 212168,
      "geometry": {
        "type": "Point",
        "coordinates": [
          -103.102859800303,
          31.8585099003211
        ]
      },
      "properties": {
        "OBJECTID": 212168,
        "CROSSING": "864613P",
        "EFFDATE": 1761004800000,
        "REASON": "14",
        "StateCode": "48",
        "CountyCode": "48495",
        "STCYFIPS": "48495",
        "CITYCD": "484953660",
        "RAILROAD": "TXN",
        "RRDIV": "SOUTH PLAINS",
        "RRSUBDIV": "LOVINGTON",
        "HIGHWAY": "ls0000",
        "STREET": "West DALLAS avenue",
        "TTSTN": "694450",
        "MILEPOST": "0023.90",
        "TYPEXING": "Public",
        "POSXING": "At Grade",
        "PRVCAT": "14",
        "INIT": "2",
        "LATITUDE": 31.8585099,
        "LONGITUD": -103.1028598,
        "LLSOURCE": "1",
        "WHISTBAN": "0",
        "RRCONT": "5753942117",
        "POLCONT": "8663869321",
        "INV_LINK": "https://safetydata.fra.dot.gov/OfficeofSafety/PublicSite/Crossing/Crossing.aspx?phasetype=C&rpttype=I&txtcrossingnum=864613P",
        "ACC_LINK": "https://safetydata.fra.dot.gov/OfficeofSafety/PublicSite/Crossing/Crossing.aspx?phasetype=C&rpttype=A&txtcrossingnum=864613P",
        "TTSTNNAM": "KERMIT",
        "XPURPOSE": "1",
        "OPERATINGR": "TXN",
        "OPERATIN_1": "Primary",
        "DAYTHRU": 2,
        "NGHTTHRU": 1,
        "MAINTRK": 1,
        "SIDINGTRK": 1,
        "YARDTRK": 0,
        "TRANSITTRK": 0,
        "INDUSTRYTR": 0,
        "OTHRTRK": 1,
        "WDCODE": "Crossbucks",
        "REVISIONDA": "2015/07/08 00:00:00",
        "LASTUPDATE": "10/21/2025",
        "AADT": "228",
        "AADTYEAR": "2022",
        "STATENAME": "TEXAS",
        "STATEAB": "TX",
        "COUNTYNAME": "WINKLER",
        "CITYNAME": "KERMIT",
        "LATDD": 31.8585099,
        "LONGDD": -103.1028598,
        "gridlyProductionCertified": true,
        "gridlyClassification": "PUBLIC_ROADWAY",
        "gridlyDisplayName": "West DALLAS avenue",
        "gridlyId": "FRA-864613P"
      }
    },
    {
      "type": "Feature",
      "id": 212169,
      "geometry": {
        "type": "Point",
        "coordinates": [
          -103.105020400377,
          31.8719962001597
        ]
      },
      "properties": {
        "OBJECTID": 212169,
        "CROSSING": "864615D",
        "EFFDATE": 1761004800000,
        "REASON": "14",
        "StateCode": "48",
        "CountyCode": "48495",
        "STCYFIPS": "48495",
        "CITYCD": "484953660",
        "RAILROAD": "TXN",
        "RRDIV": "SOUTH PLAINS",
        "RRSUBDIV": "LOVINGTON",
        "HIGHWAY": "cr0133",
        "STREET": "County Road 133",
        "TTSTN": "694450",
        "MILEPOST": "0024.94",
        "TYPEXING": "Public",
        "POSXING": "At Grade",
        "PRVCAT": "14",
        "INIT": "2",
        "LATITUDE": 31.8719962,
        "LONGITUD": -103.1050204,
        "LLSOURCE": "1",
        "WHISTBAN": "0",
        "RRCONT": "5753942117",
        "POLCONT": "8663869321",
        "INV_LINK": "https://safetydata.fra.dot.gov/OfficeofSafety/PublicSite/Crossing/Crossing.aspx?phasetype=C&rpttype=I&txtcrossingnum=864615D",
        "ACC_LINK": "https://safetydata.fra.dot.gov/OfficeofSafety/PublicSite/Crossing/Crossing.aspx?phasetype=C&rpttype=A&txtcrossingnum=864615D",
        "TTSTNNAM": "KERMIT",
        "XPURPOSE": "1",
        "OPERATINGR": "TXN",
        "OPERATIN_1": "Primary",
        "DAYTHRU": 1,
        "NGHTTHRU": 1,
        "MAINTRK": 1,
        "SIDINGTRK": 0,
        "YARDTRK": 0,
        "TRANSITTRK": 0,
        "INDUSTRYTR": 0,
        "OTHRTRK": 0,
        "WDCODE": "Crossbucks",
        "REVISIONDA": "2015/07/08 00:00:00",
        "LASTUPDATE": "10/21/2025",
        "AADT": "908",
        "AADTYEAR": "2022",
        "STATENAME": "TEXAS",
        "STATEAB": "TX",
        "COUNTYNAME": "WINKLER",
        "CITYNAME": "KERMIT",
        "LATDD": 31.8719962,
        "LONGDD": -103.1050204,
        "gridlyProductionCertified": true,
        "gridlyClassification": "PUBLIC_ROADWAY",
        "gridlyDisplayName": "County Road 133",
        "gridlyId": "FRA-864615D"
      }
    },
    {
      "type": "Feature",
      "id": 212170,
      "geometry": {
        "type": "Point",
        "coordinates": [
          -103.104318899683,
          31.8547857999511
        ]
      },
      "properties": {
        "OBJECTID": 212170,
        "CROSSING": "864612H",
        "EFFDATE": 1761004800000,
        "REASON": "14",
        "StateCode": "48",
        "CountyCode": "48495",
        "STCYFIPS": "48495",
        "CITYCD": "484953660",
        "RAILROAD": "TXN",
        "RRDIV": "SOUTH PLAINS",
        "RRSUBDIV": "LOVINGTON",
        "HIGHWAY": "ls0000",
        "STREET": "west AUSTIN STreet",
        "TTSTN": "694450",
        "MILEPOST": "0023.64",
        "TYPEXING": "Public",
        "POSXING": "At Grade",
        "PRVCAT": "14",
        "INIT": "2",
        "LATITUDE": 31.8547858,
        "LONGITUD": -103.1043189,
        "LLSOURCE": "1",
        "WHISTBAN": "0",
        "RRCONT": "5753942117",
        "POLCONT": "8663869321",
        "INV_LINK": "https://safetydata.fra.dot.gov/OfficeofSafety/PublicSite/Crossing/Crossing.aspx?phasetype=C&rpttype=I&txtcrossingnum=864612H",
        "ACC_LINK": "https://safetydata.fra.dot.gov/OfficeofSafety/PublicSite/Crossing/Crossing.aspx?phasetype=C&rpttype=A&txtcrossingnum=864612H",
        "TTSTNNAM": "KERMIT",
        "XPURPOSE": "1",
        "OPERATINGR": "TXN",
        "OPERATIN_1": "Primary",
        "DAYTHRU": 2,
        "NGHTTHRU": 1,
        "MAINTRK": 1,
        "SIDINGTRK": 1,
        "YARDTRK": 0,
        "TRANSITTRK": 0,
        "INDUSTRYTR": 0,
        "OTHRTRK": 1,
        "WDCODE": "Crossbucks",
        "REVISIONDA": "2015/07/08 00:00:00",
        "LASTUPDATE": "10/21/2025",
        "AADT": "844",
        "AADTYEAR": "2022",
        "STATENAME": "TEXAS",
        "STATEAB": "TX",
        "COUNTYNAME": "WINKLER",
        "CITYNAME": "KERMIT",
        "LATDD": 31.8547858,
        "LONGDD": -103.1043189,
        "gridlyProductionCertified": true,
        "gridlyClassification": "PUBLIC_ROADWAY",
        "gridlyDisplayName": "west AUSTIN STreet",
        "gridlyId": "FRA-864612H"
      }
    },
    {
      "type": "Feature",
      "id": 212171,
      "geometry": {
        "type": "Point",
        "coordinates": [
          -103.088588799882,
          31.7300463999907
        ]
      },
      "properties": {
        "OBJECTID": 212171,
        "CROSSING": "864591S",
        "EFFDATE": 1761004800000,
        "REASON": "14",
        "StateCode": "48",
        "CountyCode": "48495",
        "STCYFIPS": "48495",
        "CITYCD": "484957550",
        "RAILROAD": "TXN",
        "RRDIV": "SOUTH PLAINS",
        "RRSUBDIV": "LOVINGTON",
        "HIGHWAY": "Cr0210",
        "STREET": "County Road 210",
        "TTSTN": "694910",
        "MILEPOST": "0014.39",
        "TYPEXING": "Public",
        "POSXING": "At Grade",
        "PRVCAT": "14",
        "INIT": "2",
        "LATITUDE": 31.7300464,
        "LONGITUD": -103.0885888,
        "LLSOURCE": "2",
        "WHISTBAN": "0",
        "RRCONT": "5753942117",
        "POLCONT": "8663869321",
        "INV_LINK": "https://safetydata.fra.dot.gov/OfficeofSafety/PublicSite/Crossing/Crossing.aspx?phasetype=C&rpttype=I&txtcrossingnum=864591S",
        "ACC_LINK": "https://safetydata.fra.dot.gov/OfficeofSafety/PublicSite/Crossing/Crossing.aspx?phasetype=C&rpttype=A&txtcrossingnum=864591S",
        "TTSTNNAM": "WINK",
        "XPURPOSE": "1",
        "OPERATINGR": "TXN",
        "OPERATIN_1": "Primary",
        "DAYTHRU": 1,
        "NGHTTHRU": 1,
        "MAINTRK": 1,
        "SIDINGTRK": 0,
        "YARDTRK": 0,
        "TRANSITTRK": 0,
        "INDUSTRYTR": 0,
        "OTHRTRK": 0,
        "WDCODE": "Crossbucks",
        "REVISIONDA": "2015/07/08 00:00:00",
        "LASTUPDATE": "10/21/2025",
        "AADT": "28",
        "AADTYEAR": "2022",
        "STATENAME": "TEXAS",
        "STATEAB": "TX",
        "COUNTYNAME": "WINKLER",
        "CITYNAME": "WINK",
        "LATDD": 31.7300464,
        "LONGDD": -103.0885888,
        "gridlyProductionCertified": true,
        "gridlyClassification": "PUBLIC_ROADWAY",
        "gridlyDisplayName": "County Road 210",
        "gridlyId": "FRA-864591S"
      }
    },
    {
      "type": "Feature",
      "id": 212173,
      "geometry": {
        "type": "Point",
        "coordinates": [
          -103.115474399867,
          31.7780040000584
        ]
      },
      "properties": {
        "OBJECTID": 212173,
        "CROSSING": "864594M",
        "EFFDATE": 1761004800000,
        "REASON": "14",
        "StateCode": "48",
        "CountyCode": "48495",
        "STCYFIPS": "48495",
        "CITYCD": "484957550",
        "RAILROAD": "TXN",
        "RRDIV": "SOUTH PLAINS",
        "RRSUBDIV": "LOVINGTON",
        "HIGHWAY": "Cr0201",
        "STREET": "County Road 201",
        "TTSTN": "694450",
        "MILEPOST": "0018.22",
        "TYPEXING": "Public",
        "POSXING": "At Grade",
        "PRVCAT": "14",
        "INIT": "2",
        "LATITUDE": 31.778004,
        "LONGITUD": -103.1154744,
        "LLSOURCE": "1",
        "WHISTBAN": "0",
        "RRCONT": "5753942117",
        "POLCONT": "8663869321",
        "INV_LINK": "https://safetydata.fra.dot.gov/OfficeofSafety/PublicSite/Crossing/Crossing.aspx?phasetype=C&rpttype=I&txtcrossingnum=864594M",
        "ACC_LINK": "https://safetydata.fra.dot.gov/OfficeofSafety/PublicSite/Crossing/Crossing.aspx?phasetype=C&rpttype=A&txtcrossingnum=864594M",
        "TTSTNNAM": "KERMIT",
        "XPURPOSE": "1",
        "OPERATINGR": "TXN",
        "OPERATIN_1": "Primary",
        "DAYTHRU": 1,
        "NGHTTHRU": 1,
        "MAINTRK": 1,
        "SIDINGTRK": 0,
        "YARDTRK": 0,
        "TRANSITTRK": 0,
        "INDUSTRYTR": 0,
        "OTHRTRK": 0,
        "WDCODE": "Crossbucks",
        "REVISIONDA": "2015/07/08 00:00:00",
        "LASTUPDATE": "10/21/2025",
        "AADT": "37",
        "AADTYEAR": "2022",
        "STATENAME": "TEXAS",
        "STATEAB": "TX",
        "COUNTYNAME": "WINKLER",
        "CITYNAME": "WINK",
        "LATDD": 31.778004,
        "LONGDD": -103.1154744,
        "gridlyProductionCertified": true,
        "gridlyClassification": "PUBLIC_ROADWAY",
        "gridlyDisplayName": "County Road 201",
        "gridlyId": "FRA-864594M"
      }
    },
    {
      "type": "Feature",
      "id": 212174,
      "geometry": {
        "type": "Point",
        "coordinates": [
          -103.119034799732,
          31.8159738999731
        ]
      },
      "properties": {
        "OBJECTID": 212174,
        "CROSSING": "864596B",
        "EFFDATE": 1761004800000,
        "REASON": "14",
        "StateCode": "48",
        "CountyCode": "48495",
        "STCYFIPS": "48495",
        "CITYCD": "484953660",
        "RAILROAD": "TXN",
        "RRDIV": "SOUTH PLAINS",
        "RRSUBDIV": "LOVINGTON",
        "HIGHWAY": "cr0207",
        "STREET": "County Road 207",
        "TTSTN": "694450",
        "MILEPOST": "0020.82",
        "TYPEXING": "Public",
        "POSXING": "At Grade",
        "PRVCAT": "14",
        "INIT": "2",
        "LATITUDE": 31.8159739,
        "LONGITUD": -103.1190348,
        "LLSOURCE": "2",
        "WHISTBAN": "0",
        "RRCONT": "5753942117",
        "POLCONT": "8663869321",
        "INV_LINK": "https://safetydata.fra.dot.gov/OfficeofSafety/PublicSite/Crossing/Crossing.aspx?phasetype=C&rpttype=I&txtcrossingnum=864596B",
        "ACC_LINK": "https://safetydata.fra.dot.gov/OfficeofSafety/PublicSite/Crossing/Crossing.aspx?phasetype=C&rpttype=A&txtcrossingnum=864596B",
        "TTSTNNAM": "KERMIT",
        "XPURPOSE": "1",
        "OPERATINGR": "TXN",
        "OPERATIN_1": "Primary",
        "DAYTHRU": 1,
        "NGHTTHRU": 1,
        "MAINTRK": 1,
        "SIDINGTRK": 0,
        "YARDTRK": 0,
        "TRANSITTRK": 0,
        "INDUSTRYTR": 0,
        "OTHRTRK": 0,
        "WDCODE": "Crossbucks",
        "REVISIONDA": "2015/07/08 00:00:00",
        "LASTUPDATE": "10/21/2025",
        "AADT": "17",
        "AADTYEAR": "2022",
        "STATENAME": "TEXAS",
        "STATEAB": "TX",
        "COUNTYNAME": "WINKLER",
        "CITYNAME": "KERMIT",
        "LATDD": 31.8159739,
        "LONGDD": -103.1190348,
        "gridlyProductionCertified": true,
        "gridlyClassification": "PUBLIC_ROADWAY",
        "gridlyDisplayName": "County Road 207",
        "gridlyId": "FRA-864596B"
      }
    },
    {
      "type": "Feature",
      "id": 212175,
      "geometry": {
        "type": "Point",
        "coordinates": [
          -103.125833799571,
          31.9793546002518
        ]
      },
      "properties": {
        "OBJECTID": 212175,
        "CROSSING": "864624C",
        "EFFDATE": 1764806400000,
        "REASON": "14",
        "StateCode": "48",
        "CountyCode": "48495",
        "STCYFIPS": "48495",
        "CITYCD": "484953660",
        "RAILROAD": "TXN",
        "RRDIV": "SOUTH PLAINS",
        "RRSUBDIV": "LOVINGTON",
        "HIGHWAY": "CR0103",
        "STREET": "County Road 103",
        "TTSTN": "694450",
        "MILEPOST": "0032.60",
        "TYPEXING": "Public",
        "POSXING": "RR Over",
        "PRVCAT": "14",
        "INIT": "2",
        "LATITUDE": 31.9793546,
        "LONGITUD": -103.1258338,
        "LLSOURCE": "1",
        "WHISTBAN": "0",
        "RRCONT": "5753942117",
        "POLCONT": "8663869321",
        "INV_LINK": "https://safetydata.fra.dot.gov/OfficeofSafety/PublicSite/Crossing/Crossing.aspx?phasetype=C&rpttype=I&txtcrossingnum=864624C",
        "ACC_LINK": "https://safetydata.fra.dot.gov/OfficeofSafety/PublicSite/Crossing/Crossing.aspx?phasetype=C&rpttype=A&txtcrossingnum=864624C",
        "TTSTNNAM": "KERMIT",
        "XPURPOSE": "1",
        "OPERATINGR": "TXN",
        "OPERATIN_1": "Primary",
        "DAYTHRU": 1,
        "NGHTTHRU": 1,
        "MAINTRK": 1,
        "SIDINGTRK": 0,
        "YARDTRK": 0,
        "TRANSITTRK": 0,
        "INDUSTRYTR": 0,
        "OTHRTRK": 0,
        "WDCODE": "",
        "REVISIONDA": "2015/07/08 00:00:00",
        "LASTUPDATE": "12/4/2025",
        "AADT": "32",
        "AADTYEAR": "2022",
        "STATENAME": "TEXAS",
        "STATEAB": "TX",
        "COUNTYNAME": "WINKLER",
        "CITYNAME": "KERMIT",
        "LATDD": 31.9793546,
        "LONGDD": -103.1258338,
        "gridlyProductionCertified": true,
        "gridlyClassification": "PUBLIC_ROADWAY",
        "gridlyDisplayName": "County Road 103",
        "gridlyId": "FRA-864624C"
      }
    },
    {
      "type": "Feature",
      "id": 214105,
      "geometry": {
        "type": "Point",
        "coordinates": [
          -103.109428299627,
          31.84120309981
        ]
      },
      "properties": {
        "OBJECTID": 214105,
        "CROSSING": "864610U",
        "EFFDATE": 1767830400000,
        "REASON": "14",
        "StateCode": "48",
        "CountyCode": "48495",
        "STCYFIPS": "48495",
        "CITYCD": "484953660",
        "RAILROAD": "TXN",
        "RRDIV": "SOUTH PLAINS",
        "RRSUBDIV": "LOVINGTON",
        "HIGHWAY": "SH0302",
        "STREET": "SH0302",
        "TTSTN": "694450",
        "MILEPOST": "0022.66",
        "TYPEXING": "Public",
        "POSXING": "At Grade",
        "PRVCAT": "14",
        "INIT": "2",
        "LATITUDE": 31.8412031,
        "LONGITUD": -103.1094283,
        "LLSOURCE": "1",
        "WHISTBAN": "0",
        "RRCONT": "5753942117",
        "POLCONT": "8663869321",
        "INV_LINK": "https://safetydata.fra.dot.gov/OfficeofSafety/PublicSite/Crossing/Crossing.aspx?phasetype=C&rpttype=I&txtcrossingnum=864610U",
        "ACC_LINK": "https://safetydata.fra.dot.gov/OfficeofSafety/PublicSite/Crossing/Crossing.aspx?phasetype=C&rpttype=A&txtcrossingnum=864610U",
        "TTSTNNAM": "KERMIT",
        "XPURPOSE": "1",
        "OPERATINGR": "TXN",
        "OPERATIN_1": "Primary",
        "DAYTHRU": 1,
        "NGHTTHRU": 1,
        "MAINTRK": 1,
        "SIDINGTRK": 0,
        "YARDTRK": 0,
        "TRANSITTRK": 0,
        "INDUSTRYTR": 0,
        "OTHRTRK": 0,
        "WDCODE": "All other Gates",
        "REVISIONDA": "2015/07/08 00:00:00",
        "LASTUPDATE": "1/8/2026",
        "AADT": "8314",
        "AADTYEAR": "2024",
        "STATENAME": "TEXAS",
        "STATEAB": "TX",
        "COUNTYNAME": "WINKLER",
        "CITYNAME": "KERMIT",
        "LATDD": 31.8412031,
        "LONGDD": -103.1094283,
        "gridlyProductionCertified": true,
        "gridlyClassification": "PUBLIC_ROADWAY",
        "gridlyDisplayName": "SH0302",
        "gridlyId": "FRA-864610U"
      }
    },
    {
      "type": "Feature",
      "id": 214106,
      "geometry": {
        "type": "Point",
        "coordinates": [
          -103.106796799986,
          31.8480966996752
        ]
      },
      "properties": {
        "OBJECTID": 214106,
        "CROSSING": "864611B",
        "EFFDATE": 1767830400000,
        "REASON": "14",
        "StateCode": "48",
        "CountyCode": "48495",
        "STCYFIPS": "48495",
        "CITYCD": "484953660",
        "RAILROAD": "TXN",
        "RRDIV": "SOUTH PLAINS",
        "RRSUBDIV": "LOVINGTON",
        "HIGHWAY": "SH0115",
        "STREET": "SH0115",
        "TTSTN": "694450",
        "MILEPOST": "0023.15",
        "TYPEXING": "Public",
        "POSXING": "At Grade",
        "PRVCAT": "14",
        "INIT": "2",
        "LATITUDE": 31.8480967,
        "LONGITUD": -103.1067968,
        "LLSOURCE": "2",
        "WHISTBAN": "0",
        "RRCONT": "5753942117",
        "POLCONT": "8663869321",
        "INV_LINK": "https://safetydata.fra.dot.gov/OfficeofSafety/PublicSite/Crossing/Crossing.aspx?phasetype=C&rpttype=I&txtcrossingnum=864611B",
        "ACC_LINK": "https://safetydata.fra.dot.gov/OfficeofSafety/PublicSite/Crossing/Crossing.aspx?phasetype=C&rpttype=A&txtcrossingnum=864611B",
        "TTSTNNAM": "KERMIT",
        "XPURPOSE": "1",
        "OPERATINGR": "TXN",
        "OPERATIN_1": "Primary",
        "DAYTHRU": 1,
        "NGHTTHRU": 1,
        "MAINTRK": 1,
        "SIDINGTRK": 0,
        "YARDTRK": 0,
        "TRANSITTRK": 0,
        "INDUSTRYTR": 0,
        "OTHRTRK": 0,
        "WDCODE": "All other Gates",
        "REVISIONDA": "2015/07/08 00:00:00",
        "LASTUPDATE": "1/8/2026",
        "AADT": "4746",
        "AADTYEAR": "2023",
        "STATENAME": "TEXAS",
        "STATEAB": "TX",
        "COUNTYNAME": "WINKLER",
        "CITYNAME": "KERMIT",
        "LATDD": 31.8480967,
        "LONGDD": -103.1067968,
        "gridlyProductionCertified": true,
        "gridlyClassification": "PUBLIC_ROADWAY",
        "gridlyDisplayName": "SH0115",
        "gridlyId": "FRA-864611B"
      }
    },
    {
      "type": "Feature",
      "id": 214107,
      "geometry": {
        "type": "Point",
        "coordinates": [
          -103.109796500197,
          31.7647694996964
        ]
      },
      "properties": {
        "OBJECTID": 214107,
        "CROSSING": "864593F",
        "EFFDATE": 1767830400000,
        "REASON": "14",
        "StateCode": "48",
        "CountyCode": "48495",
        "STCYFIPS": "48495",
        "CITYCD": "484957550",
        "RAILROAD": "TXN",
        "RRDIV": "SOUTH PLAINS",
        "RRSUBDIV": "LOVINGTON",
        "HIGHWAY": "FM1232",
        "STREET": "fm1232",
        "TTSTN": "694450",
        "MILEPOST": "0017.13",
        "TYPEXING": "Public",
        "POSXING": "At Grade",
        "PRVCAT": "14",
        "INIT": "2",
        "LATITUDE": 31.7647695,
        "LONGITUD": -103.1097965,
        "LLSOURCE": "1",
        "WHISTBAN": "0",
        "RRCONT": "5753942117",
        "POLCONT": "8663869321",
        "INV_LINK": "https://safetydata.fra.dot.gov/OfficeofSafety/PublicSite/Crossing/Crossing.aspx?phasetype=C&rpttype=I&txtcrossingnum=864593F",
        "ACC_LINK": "https://safetydata.fra.dot.gov/OfficeofSafety/PublicSite/Crossing/Crossing.aspx?phasetype=C&rpttype=A&txtcrossingnum=864593F",
        "TTSTNNAM": "KERMIT",
        "XPURPOSE": "1",
        "OPERATINGR": "TXN",
        "OPERATIN_1": "Primary",
        "DAYTHRU": 1,
        "NGHTTHRU": 1,
        "MAINTRK": 1,
        "SIDINGTRK": 0,
        "YARDTRK": 0,
        "TRANSITTRK": 0,
        "INDUSTRYTR": 0,
        "OTHRTRK": 0,
        "WDCODE": "All other Gates",
        "REVISIONDA": "2015/07/08 00:00:00",
        "LASTUPDATE": "1/8/2026",
        "AADT": "703",
        "AADTYEAR": "2022",
        "STATENAME": "TEXAS",
        "STATEAB": "TX",
        "COUNTYNAME": "WINKLER",
        "CITYNAME": "WINK",
        "LATDD": 31.7647695,
        "LONGDD": -103.1097965,
        "gridlyProductionCertified": true,
        "gridlyClassification": "PUBLIC_ROADWAY",
        "gridlyDisplayName": "fm1232",
        "gridlyId": "FRA-864593F"
      }
    }
  ]
}
