{
  "type": "FeatureCollection",
  "features": [
    {
      "type": "Feature",
      "id": 202499,
      "geometry": {
        "type": "Point",
        "coordinates": [
          -100.794466999826,
          34.9110405997423
        ]
      },
      "properties": {
        "OBJECTID": 202499,
        "CROSSING": "274844T",
        "EFFDATE": 1702857600000,
        "REASON": "20",
        "StateCode": "48",
        "CountyCode": "48129",
        "STCYFIPS": "48129",
        "CITYCD": "481293933",
        "RAILROAD": "BNSF",
        "RRDIV": "RED RIVER",
        "RRSUBDIV": "RED RIVER VALLEY",
        "HIGHWAY": "CR 314",
        "STREET": "CR-17",
        "TTSTN": "673280",
        "MILEPOST": "0272.197",
        "TYPEXING": "Public",
        "POSXING": "At Grade",
        "PRVCAT": "20",
        "INIT": "1",
        "LATITUDE": 34.9110406,
        "LONGITUD": -100.794467,
        "LLSOURCE": "1",
        "WHISTBAN": "0",
        "RRCONT": "8173521549",
        "POLCONT": "8008325452",
        "INV_LINK": "https://safetydata.fra.dot.gov/OfficeofSafety/PublicSite/Crossing/Crossing.aspx?phasetype=C&rpttype=I&txtcrossingnum=274844T",
        "ACC_LINK": "https://safetydata.fra.dot.gov/OfficeofSafety/PublicSite/Crossing/Crossing.aspx?phasetype=C&rpttype=A&txtcrossingnum=274844T",
        "TTSTNNAM": "LELIA LAKE",
        "XPURPOSE": "1",
        "OPERATINGR": "BNSF",
        "OPERATIN_1": "Primary",
        "DAYTHRU": 9,
        "NGHTTHRU": 9,
        "MAINTRK": 1,
        "SIDINGTRK": 0,
        "YARDTRK": 0,
        "TRANSITTRK": 0,
        "INDUSTRYTR": 0,
        "OTHRTRK": 0,
        "WDCODE": "Crossbucks",
        "REVISIONDA": "1996/01/01 00:00:00",
        "LASTUPDATE": "12/18/2023",
        "AADT": "000020",
        "AADTYEAR": "2002",
        "STATENAME": "TEXAS",
        "STATEAB": "TX",
        "COUNTYNAME": "DONLEY",
        "CITYNAME": "LELIA LAKE",
        "LATDD": 34.9110406,
        "LONGDD": -100.794467,
        "gridlyProductionCertified": true,
        "gridlyClassification": "PUBLIC_ROADWAY",
        "gridlyDisplayName": "CR-17",
        "gridlyId": "FRA-274844T"
      }
    },
    {
      "type": "Feature",
      "id": 202500,
      "geometry": {
        "type": "Point",
        "coordinates": [
          -100.75485100025,
          34.8909351001008
        ]
      },
      "properties": {
        "OBJECTID": 202500,
        "CROSSING": "274851D",
        "EFFDATE": 1702857600000,
        "REASON": "20",
        "StateCode": "48",
        "CountyCode": "48129",
        "STCYFIPS": "48129",
        "CITYCD": "481293933",
        "RAILROAD": "BNSF",
        "RRDIV": "RED RIVER",
        "RRSUBDIV": "RED RIVER VALLEY",
        "HIGHWAY": "Not Yet Reported by State",
        "STREET": "PRIVATE",
        "TTSTN": "677280",
        "MILEPOST": "0269.528",
        "TYPEXING": "Private",
        "POSXING": "At Grade",
        "PRVCAT": "20",
        "INIT": "1",
        "LATITUDE": 34.8909351,
        "LONGITUD": -100.754851,
        "LLSOURCE": "1",
        "WHISTBAN": "0",
        "RRCONT": "8173521549",
        "POLCONT": "8008325452",
        "INV_LINK": "https://safetydata.fra.dot.gov/OfficeofSafety/PublicSite/Crossing/Crossing.aspx?phasetype=C&rpttype=I&txtcrossingnum=274851D",
        "ACC_LINK": "https://safetydata.fra.dot.gov/OfficeofSafety/PublicSite/Crossing/Crossing.aspx?phasetype=C&rpttype=A&txtcrossingnum=274851D",
        "TTSTNNAM": "",
        "XPURPOSE": "1",
        "OPERATINGR": "BNSF",
        "OPERATIN_1": "Primary",
        "DAYTHRU": 9,
        "NGHTTHRU": 9,
        "MAINTRK": 1,
        "SIDINGTRK": 0,
        "YARDTRK": 0,
        "TRANSITTRK": 0,
        "INDUSTRYTR": 0,
        "OTHRTRK": 0,
        "WDCODE": "",
        "REVISIONDA": "1996/01/01 00:00:00",
        "LASTUPDATE": "12/18/2023",
        "AADT": "",
        "AADTYEAR": "1970",
        "STATENAME": "TEXAS",
        "STATEAB": "TX",
        "COUNTYNAME": "DONLEY",
        "CITYNAME": "LELIA LAKE",
        "LATDD": 34.8909351,
        "LONGDD": -100.754851,
        "gridlyProductionCertified": true,
        "gridlyClassification": "PUBLIC_ROADWAY",
        "gridlyDisplayName": "PRIVATE",
        "gridlyId": "FRA-274851D"
      }
    },
    {
      "type": "Feature",
      "id": 205054,
      "geometry": {
        "type": "Point",
        "coordinates": [
          -101.010918999635,
          34.9907290003051
        ]
      },
      "properties": {
        "OBJECTID": 205054,
        "CROSSING": "675157V",
        "EFFDATE": 1736985600000,
        "REASON": "14",
        "StateCode": "48",
        "CountyCode": "48129",
        "STCYFIPS": "48129",
        "CITYCD": "481291340",
        "RAILROAD": "BNSF",
        "RRDIV": "RED RIVER",
        "RRSUBDIV": "RED RIVER VALLEY",
        "HIGHWAY": "NOT YET REPORTED BY STATE",
        "STREET": "CO RD 5",
        "TTSTN": "",
        "MILEPOST": "0285.801",
        "TYPEXING": "Public",
        "POSXING": "At Grade",
        "PRVCAT": "14",
        "INIT": "1",
        "LATITUDE": 34.990729,
        "LONGITUD": -101.010919,
        "LLSOURCE": "1",
        "WHISTBAN": "",
        "RRCONT": "8173521549",
        "POLCONT": "8008325452",
        "INV_LINK": "https://safetydata.fra.dot.gov/OfficeofSafety/PublicSite/Crossing/Crossing.aspx?phasetype=C&rpttype=I&txtcrossingnum=675157V",
        "ACC_LINK": "https://safetydata.fra.dot.gov/OfficeofSafety/PublicSite/Crossing/Crossing.aspx?phasetype=C&rpttype=A&txtcrossingnum=675157V",
        "TTSTNNAM": "",
        "XPURPOSE": "1",
        "OPERATINGR": "BNSF",
        "OPERATIN_1": "Primary",
        "DAYTHRU": 7,
        "NGHTTHRU": 7,
        "MAINTRK": 1,
        "SIDINGTRK": 0,
        "YARDTRK": 0,
        "TRANSITTRK": 0,
        "INDUSTRYTR": 0,
        "OTHRTRK": 0,
        "WDCODE": "All other Gates",
        "REVISIONDA": "1996/01/01 00:00:00",
        "LASTUPDATE": "1/16/2025",
        "AADT": "40",
        "AADTYEAR": "2019",
        "STATENAME": "TEXAS",
        "STATEAB": "TX",
        "COUNTYNAME": "DONLEY",
        "CITYNAME": "CLARENDON",
        "LATDD": 34.990729,
        "LONGDD": -101.010919,
        "gridlyProductionCertified": true,
        "gridlyClassification": "PUBLIC_ROADWAY",
        "gridlyDisplayName": "CO RD 5",
        "gridlyId": "FRA-675157V"
      }
    },
    {
      "type": "Feature",
      "id": 205549,
      "geometry": {
        "type": "Point",
        "coordinates": [
          -100.740994999931,
          34.8831195997606
        ]
      },
      "properties": {
        "OBJECTID": 205549,
        "CROSSING": "274752F",
        "EFFDATE": 1736812800000,
        "REASON": "14",
        "StateCode": "48",
        "CountyCode": "48129",
        "STCYFIPS": "48129",
        "CITYCD": "481293933",
        "RAILROAD": "BNSF",
        "RRDIV": "RED RIVER",
        "RRSUBDIV": "RED RIVER VALLEY",
        "HIGHWAY": "CO 0329",
        "STREET": "CR-20",
        "TTSTN": "673280",
        "MILEPOST": "0268.576",
        "TYPEXING": "Public",
        "POSXING": "At Grade",
        "PRVCAT": "14",
        "INIT": "1",
        "LATITUDE": 34.8831196,
        "LONGITUD": -100.740995,
        "LLSOURCE": "1",
        "WHISTBAN": "0",
        "RRCONT": "8173521549",
        "POLCONT": "8008325452",
        "INV_LINK": "https://safetydata.fra.dot.gov/OfficeofSafety/PublicSite/Crossing/Crossing.aspx?phasetype=C&rpttype=I&txtcrossingnum=274752F",
        "ACC_LINK": "https://safetydata.fra.dot.gov/OfficeofSafety/PublicSite/Crossing/Crossing.aspx?phasetype=C&rpttype=A&txtcrossingnum=274752F",
        "TTSTNNAM": "LELIA LAKE",
        "XPURPOSE": "1",
        "OPERATINGR": "BNSF",
        "OPERATIN_1": "Primary",
        "DAYTHRU": 7,
        "NGHTTHRU": 7,
        "MAINTRK": 1,
        "SIDINGTRK": 0,
        "YARDTRK": 0,
        "TRANSITTRK": 0,
        "INDUSTRYTR": 0,
        "OTHRTRK": 0,
        "WDCODE": "Crossbucks",
        "REVISIONDA": "1996/01/01 00:00:00",
        "LASTUPDATE": "1/14/2025",
        "AADT": "11",
        "AADTYEAR": "2019",
        "STATENAME": "TEXAS",
        "STATEAB": "TX",
        "COUNTYNAME": "DONLEY",
        "CITYNAME": "LELIA LAKE",
        "LATDD": 34.8831196,
        "LONGDD": -100.740995,
        "gridlyProductionCertified": true,
        "gridlyClassification": "PUBLIC_ROADWAY",
        "gridlyDisplayName": "CR-20",
        "gridlyId": "FRA-274752F"
      }
    },
    {
      "type": "Feature",
      "id": 205554,
      "geometry": {
        "type": "Point",
        "coordinates": [
          -100.70138199983,
          34.871776500356
        ]
      },
      "properties": {
        "OBJECTID": 205554,
        "CROSSING": "274754U",
        "EFFDATE": 1736812800000,
        "REASON": "14",
        "StateCode": "48",
        "CountyCode": "48129",
        "STCYFIPS": "48129",
        "CITYCD": "481293090",
        "RAILROAD": "BNSF",
        "RRDIV": "RED RIVER",
        "RRSUBDIV": "RED RIVER VALLEY",
        "HIGHWAY": "CO 0337",
        "STREET": "CR-23",
        "TTSTN": "673273",
        "MILEPOST": "0266.156",
        "TYPEXING": "Public",
        "POSXING": "At Grade",
        "PRVCAT": "14",
        "INIT": "1",
        "LATITUDE": 34.8717765,
        "LONGITUD": -100.701382,
        "LLSOURCE": "1",
        "WHISTBAN": "0",
        "RRCONT": "8173521549",
        "POLCONT": "8008325452",
        "INV_LINK": "https://safetydata.fra.dot.gov/OfficeofSafety/PublicSite/Crossing/Crossing.aspx?phasetype=C&rpttype=I&txtcrossingnum=274754U",
        "ACC_LINK": "https://safetydata.fra.dot.gov/OfficeofSafety/PublicSite/Crossing/Crossing.aspx?phasetype=C&rpttype=A&txtcrossingnum=274754U",
        "TTSTNNAM": "HEDLEY",
        "XPURPOSE": "1",
        "OPERATINGR": "BNSF",
        "OPERATIN_1": "Primary",
        "DAYTHRU": 7,
        "NGHTTHRU": 7,
        "MAINTRK": 1,
        "SIDINGTRK": 0,
        "YARDTRK": 0,
        "TRANSITTRK": 0,
        "INDUSTRYTR": 0,
        "OTHRTRK": 0,
        "WDCODE": "All other Gates",
        "REVISIONDA": "1996/01/01 00:00:00",
        "LASTUPDATE": "1/14/2025",
        "AADT": "30",
        "AADTYEAR": "2019",
        "STATENAME": "TEXAS",
        "STATEAB": "TX",
        "COUNTYNAME": "DONLEY",
        "CITYNAME": "HEDLEY",
        "LATDD": 34.8717765,
        "LONGDD": -100.701382,
        "gridlyProductionCertified": true,
        "gridlyClassification": "PUBLIC_ROADWAY",
        "gridlyDisplayName": "CR-23",
        "gridlyId": "FRA-274754U"
      }
    },
    {
      "type": "Feature",
      "id": 205555,
      "geometry": {
        "type": "Point",
        "coordinates": [
          -100.681720999906,
          34.8744523996496
        ]
      },
      "properties": {
        "OBJECTID": 205555,
        "CROSSING": "274755B",
        "EFFDATE": 1736812800000,
        "REASON": "14",
        "StateCode": "48",
        "CountyCode": "48129",
        "STCYFIPS": "48129",
        "CITYCD": "481293090",
        "RAILROAD": "BNSF",
        "RRDIV": "RED RIVER",
        "RRSUBDIV": "RED RIVER VALLEY",
        "HIGHWAY": "CO 0000",
        "STREET": "CR-V",
        "TTSTN": "673273",
        "MILEPOST": "0265.007",
        "TYPEXING": "Public",
        "POSXING": "At Grade",
        "PRVCAT": "14",
        "INIT": "1",
        "LATITUDE": 34.8744524,
        "LONGITUD": -100.681721,
        "LLSOURCE": "1",
        "WHISTBAN": "0",
        "RRCONT": "8173521549",
        "POLCONT": "8008325452",
        "INV_LINK": "https://safetydata.fra.dot.gov/OfficeofSafety/PublicSite/Crossing/Crossing.aspx?phasetype=C&rpttype=I&txtcrossingnum=274755B",
        "ACC_LINK": "https://safetydata.fra.dot.gov/OfficeofSafety/PublicSite/Crossing/Crossing.aspx?phasetype=C&rpttype=A&txtcrossingnum=274755B",
        "TTSTNNAM": "HEDLEY",
        "XPURPOSE": "1",
        "OPERATINGR": "BNSF",
        "OPERATIN_1": "Primary",
        "DAYTHRU": 7,
        "NGHTTHRU": 7,
        "MAINTRK": 1,
        "SIDINGTRK": 0,
        "YARDTRK": 0,
        "TRANSITTRK": 0,
        "INDUSTRYTR": 0,
        "OTHRTRK": 0,
        "WDCODE": "Crossbucks",
        "REVISIONDA": "1996/01/01 00:00:00",
        "LASTUPDATE": "1/14/2025",
        "AADT": "50",
        "AADTYEAR": "2019",
        "STATENAME": "TEXAS",
        "STATEAB": "TX",
        "COUNTYNAME": "DONLEY",
        "CITYNAME": "HEDLEY",
        "LATDD": 34.8744524,
        "LONGDD": -100.681721,
        "gridlyProductionCertified": true,
        "gridlyClassification": "PUBLIC_ROADWAY",
        "gridlyDisplayName": "CR-V",
        "gridlyId": "FRA-274755B"
      }
    },
    {
      "type": "Feature",
      "id": 205556,
      "geometry": {
        "type": "Point",
        "coordinates": [
          -100.665032999568,
          34.868286999775
        ]
      },
      "properties": {
        "OBJECTID": 205556,
        "CROSSING": "274756H",
        "EFFDATE": 1736812800000,
        "REASON": "14",
        "StateCode": "48",
        "CountyCode": "48129",
        "STCYFIPS": "48129",
        "CITYCD": "481293090",
        "RAILROAD": "BNSF",
        "RRDIV": "RED RIVER",
        "RRSUBDIV": "RED RIVER VALLEY",
        "HIGHWAY": "ST 0000",
        "STREET": "BAILEY ST",
        "TTSTN": "673273",
        "MILEPOST": "0263.963",
        "TYPEXING": "Public",
        "POSXING": "At Grade",
        "PRVCAT": "14",
        "INIT": "1",
        "LATITUDE": 34.868287,
        "LONGITUD": -100.665033,
        "LLSOURCE": "1",
        "WHISTBAN": "0",
        "RRCONT": "8173521549",
        "POLCONT": "8008325452",
        "INV_LINK": "https://safetydata.fra.dot.gov/OfficeofSafety/PublicSite/Crossing/Crossing.aspx?phasetype=C&rpttype=I&txtcrossingnum=274756H",
        "ACC_LINK": "https://safetydata.fra.dot.gov/OfficeofSafety/PublicSite/Crossing/Crossing.aspx?phasetype=C&rpttype=A&txtcrossingnum=274756H",
        "TTSTNNAM": "HEDLEY",
        "XPURPOSE": "1",
        "OPERATINGR": "BNSF",
        "OPERATIN_1": "Primary",
        "DAYTHRU": 7,
        "NGHTTHRU": 6,
        "MAINTRK": 1,
        "SIDINGTRK": 1,
        "YARDTRK": 0,
        "TRANSITTRK": 0,
        "INDUSTRYTR": 0,
        "OTHRTRK": 1,
        "WDCODE": "All other Gates",
        "REVISIONDA": "1996/01/01 00:00:00",
        "LASTUPDATE": "1/14/2025",
        "AADT": "000069",
        "AADTYEAR": "2002",
        "STATENAME": "TEXAS",
        "STATEAB": "TX",
        "COUNTYNAME": "DONLEY",
        "CITYNAME": "HEDLEY",
        "LATDD": 34.868287,
        "LONGDD": -100.665033,
        "gridlyProductionCertified": true,
        "gridlyClassification": "PUBLIC_ROADWAY",
        "gridlyDisplayName": "BAILEY ST",
        "gridlyId": "FRA-274756H"
      }
    },
    {
      "type": "Feature",
      "id": 205557,
      "geometry": {
        "type": "Point",
        "coordinates": [
          -100.660864000081,
          34.8664461003528
        ]
      },
      "properties": {
        "OBJECTID": 205557,
        "CROSSING": "274757P",
        "EFFDATE": 1736812800000,
        "REASON": "14",
        "StateCode": "48",
        "CountyCode": "48129",
        "STCYFIPS": "48129",
        "CITYCD": "481293090",
        "RAILROAD": "BNSF",
        "RRDIV": "RED RIVER",
        "RRSUBDIV": "RED RIVER VALLEY",
        "HIGHWAY": "SH 0203",
        "STREET": "MAIN ST",
        "TTSTN": "673273",
        "MILEPOST": "0263.703",
        "TYPEXING": "Public",
        "POSXING": "At Grade",
        "PRVCAT": "14",
        "INIT": "1",
        "LATITUDE": 34.8664461,
        "LONGITUD": -100.660864,
        "LLSOURCE": "1",
        "WHISTBAN": "0",
        "RRCONT": "8173521549",
        "POLCONT": "8008325452",
        "INV_LINK": "https://safetydata.fra.dot.gov/OfficeofSafety/PublicSite/Crossing/Crossing.aspx?phasetype=C&rpttype=I&txtcrossingnum=274757P",
        "ACC_LINK": "https://safetydata.fra.dot.gov/OfficeofSafety/PublicSite/Crossing/Crossing.aspx?phasetype=C&rpttype=A&txtcrossingnum=274757P",
        "TTSTNNAM": "HEDLEY",
        "XPURPOSE": "1",
        "OPERATINGR": "BNSF",
        "OPERATIN_1": "Primary",
        "DAYTHRU": 7,
        "NGHTTHRU": 6,
        "MAINTRK": 1,
        "SIDINGTRK": 1,
        "YARDTRK": 0,
        "TRANSITTRK": 0,
        "INDUSTRYTR": 0,
        "OTHRTRK": 1,
        "WDCODE": "All other Gates",
        "REVISIONDA": "1996/01/01 00:00:00",
        "LASTUPDATE": "1/14/2025",
        "AADT": "700",
        "AADTYEAR": "2019",
        "STATENAME": "TEXAS",
        "STATEAB": "TX",
        "COUNTYNAME": "DONLEY",
        "CITYNAME": "HEDLEY",
        "LATDD": 34.8664461,
        "LONGDD": -100.660864,
        "gridlyProductionCertified": true,
        "gridlyClassification": "PUBLIC_ROADWAY",
        "gridlyDisplayName": "MAIN ST",
        "gridlyId": "FRA-274757P"
      }
    },
    {
      "type": "Feature",
      "id": 205561,
      "geometry": {
        "type": "Point",
        "coordinates": [
          -100.580179000213,
          34.7840373001087
        ]
      },
      "properties": {
        "OBJECTID": 205561,
        "CROSSING": "274761E",
        "EFFDATE": 1736812800000,
        "REASON": "14",
        "StateCode": "48",
        "CountyCode": "48191",
        "STCYFIPS": "48191",
        "CITYCD": "481914460",
        "RAILROAD": "BNSF",
        "RRDIV": "RED RIVER",
        "RRSUBDIV": "RED RIVER VALLEY",
        "HIGHWAY": "CO 000",
        "STREET": "COUNTY ROAD",
        "TTSTN": "673513",
        "MILEPOST": "0255.725",
        "TYPEXING": "Public",
        "POSXING": "At Grade",
        "PRVCAT": "14",
        "INIT": "1",
        "LATITUDE": 34.7840373,
        "LONGITUD": -100.580179,
        "LLSOURCE": "1",
        "WHISTBAN": "0",
        "RRCONT": "8173521549",
        "POLCONT": "8008325452",
        "INV_LINK": "https://safetydata.fra.dot.gov/OfficeofSafety/PublicSite/Crossing/Crossing.aspx?phasetype=C&rpttype=I&txtcrossingnum=274761E",
        "ACC_LINK": "https://safetydata.fra.dot.gov/OfficeofSafety/PublicSite/Crossing/Crossing.aspx?phasetype=C&rpttype=A&txtcrossingnum=274761E",
        "TTSTNNAM": "MEMPHIS",
        "XPURPOSE": "1",
        "OPERATINGR": "BNSF",
        "OPERATIN_1": "Primary",
        "DAYTHRU": 7,
        "NGHTTHRU": 7,
        "MAINTRK": 1,
        "SIDINGTRK": 0,
        "YARDTRK": 0,
        "TRANSITTRK": 0,
        "INDUSTRYTR": 0,
        "OTHRTRK": 0,
        "WDCODE": "Crossbucks",
        "REVISIONDA": "1996/01/01 00:00:00",
        "LASTUPDATE": "1/14/2025",
        "AADT": "26490",
        "AADTYEAR": "2005",
        "STATENAME": "TEXAS",
        "STATEAB": "TX",
        "COUNTYNAME": "HALL",
        "CITYNAME": "MEMPHIS",
        "LATDD": 34.7840373,
        "LONGDD": -100.580179,
        "gridlyProductionCertified": true,
        "gridlyClassification": "PUBLIC_ROADWAY",
        "gridlyDisplayName": "COUNTY ROAD",
        "gridlyId": "FRA-274761E"
      }
    },
    {
      "type": "Feature",
      "id": 205562,
      "geometry": {
        "type": "Point",
        "coordinates": [
          -100.655001999677,
          34.863864799661
        ]
      },
      "properties": {
        "OBJECTID": 205562,
        "CROSSING": "274758W",
        "EFFDATE": 1736812800000,
        "REASON": "14",
        "StateCode": "48",
        "CountyCode": "48129",
        "STCYFIPS": "48129",
        "CITYCD": "481293090",
        "RAILROAD": "BNSF",
        "RRDIV": "RED RIVER",
        "RRSUBDIV": "RED RIVER VALLEY",
        "HIGHWAY": "ST 0000",
        "STREET": "RAILROAD ST",
        "TTSTN": "673273",
        "MILEPOST": "0263.336",
        "TYPEXING": "Public",
        "POSXING": "At Grade",
        "PRVCAT": "14",
        "INIT": "1",
        "LATITUDE": 34.8638648,
        "LONGITUD": -100.655002,
        "LLSOURCE": "1",
        "WHISTBAN": "0",
        "RRCONT": "8173521549",
        "POLCONT": "8008325452",
        "INV_LINK": "https://safetydata.fra.dot.gov/OfficeofSafety/PublicSite/Crossing/Crossing.aspx?phasetype=C&rpttype=I&txtcrossingnum=274758W",
        "ACC_LINK": "https://safetydata.fra.dot.gov/OfficeofSafety/PublicSite/Crossing/Crossing.aspx?phasetype=C&rpttype=A&txtcrossingnum=274758W",
        "TTSTNNAM": "HEDLEY",
        "XPURPOSE": "1",
        "OPERATINGR": "BNSF",
        "OPERATIN_1": "Primary",
        "DAYTHRU": 7,
        "NGHTTHRU": 6,
        "MAINTRK": 1,
        "SIDINGTRK": 1,
        "YARDTRK": 0,
        "TRANSITTRK": 0,
        "INDUSTRYTR": 0,
        "OTHRTRK": 1,
        "WDCODE": "All other Gates",
        "REVISIONDA": "1996/01/01 00:00:00",
        "LASTUPDATE": "1/14/2025",
        "AADT": "000069",
        "AADTYEAR": "2002",
        "STATENAME": "TEXAS",
        "STATEAB": "TX",
        "COUNTYNAME": "DONLEY",
        "CITYNAME": "HEDLEY",
        "LATDD": 34.8638648,
        "LONGDD": -100.655002,
        "gridlyProductionCertified": true,
        "gridlyClassification": "PUBLIC_ROADWAY",
        "gridlyDisplayName": "RAILROAD ST",
        "gridlyId": "FRA-274758W"
      }
    },
    {
      "type": "Feature",
      "id": 205592,
      "geometry": {
        "type": "Point",
        "coordinates": [
          -100.724501999586,
          34.8788032998733
        ]
      },
      "properties": {
        "OBJECTID": 205592,
        "CROSSING": "274753M",
        "EFFDATE": 1736812800000,
        "REASON": "14",
        "StateCode": "48",
        "CountyCode": "48129",
        "STCYFIPS": "48129",
        "CITYCD": "481293933",
        "RAILROAD": "BNSF",
        "RRDIV": "RED RIVER",
        "RRSUBDIV": "RED RIVER VALLEY",
        "HIGHWAY": "CO 0000",
        "STREET": "CR-21",
        "TTSTN": "673280",
        "MILEPOST": "0267.578",
        "TYPEXING": "Public",
        "POSXING": "At Grade",
        "PRVCAT": "14",
        "INIT": "1",
        "LATITUDE": 34.8788033,
        "LONGITUD": -100.724502,
        "LLSOURCE": "1",
        "WHISTBAN": "0",
        "RRCONT": "8173521549",
        "POLCONT": "8008325452",
        "INV_LINK": "https://safetydata.fra.dot.gov/OfficeofSafety/PublicSite/Crossing/Crossing.aspx?phasetype=C&rpttype=I&txtcrossingnum=274753M",
        "ACC_LINK": "https://safetydata.fra.dot.gov/OfficeofSafety/PublicSite/Crossing/Crossing.aspx?phasetype=C&rpttype=A&txtcrossingnum=274753M",
        "TTSTNNAM": "LELIA LAKE",
        "XPURPOSE": "1",
        "OPERATINGR": "BNSF",
        "OPERATIN_1": "Primary",
        "DAYTHRU": 7,
        "NGHTTHRU": 7,
        "MAINTRK": 1,
        "SIDINGTRK": 0,
        "YARDTRK": 0,
        "TRANSITTRK": 0,
        "INDUSTRYTR": 0,
        "OTHRTRK": 0,
        "WDCODE": "Crossbucks",
        "REVISIONDA": "1996/01/01 00:00:00",
        "LASTUPDATE": "1/14/2025",
        "AADT": "1",
        "AADTYEAR": "2019",
        "STATENAME": "TEXAS",
        "STATEAB": "TX",
        "COUNTYNAME": "DONLEY",
        "CITYNAME": "LELIA LAKE",
        "LATDD": 34.8788033,
        "LONGDD": -100.724502,
        "gridlyProductionCertified": true,
        "gridlyClassification": "PUBLIC_ROADWAY",
        "gridlyDisplayName": "CR-21",
        "gridlyId": "FRA-274753M"
      }
    },
    {
      "type": "Feature",
      "id": 205593,
      "geometry": {
        "type": "Point",
        "coordinates": [
          -100.776632999815,
          34.9040269999862
        ]
      },
      "properties": {
        "OBJECTID": 205593,
        "CROSSING": "274847N",
        "EFFDATE": 1736812800000,
        "REASON": "14",
        "StateCode": "48",
        "CountyCode": "48129",
        "STCYFIPS": "48129",
        "CITYCD": "481293933",
        "RAILROAD": "BNSF",
        "RRDIV": "RED RIVER",
        "RRSUBDIV": "RED RIVER VALLEY",
        "HIGHWAY": "FM 1755",
        "STREET": "FM 1755",
        "TTSTN": "673280",
        "MILEPOST": "0271.068",
        "TYPEXING": "Public",
        "POSXING": "At Grade",
        "PRVCAT": "14",
        "INIT": "1",
        "LATITUDE": 34.904027,
        "LONGITUD": -100.776633,
        "LLSOURCE": "1",
        "WHISTBAN": "0",
        "RRCONT": "8173521549",
        "POLCONT": "8008325452",
        "INV_LINK": "https://safetydata.fra.dot.gov/OfficeofSafety/PublicSite/Crossing/Crossing.aspx?phasetype=C&rpttype=I&txtcrossingnum=274847N",
        "ACC_LINK": "https://safetydata.fra.dot.gov/OfficeofSafety/PublicSite/Crossing/Crossing.aspx?phasetype=C&rpttype=A&txtcrossingnum=274847N",
        "TTSTNNAM": "LELIA LAKE",
        "XPURPOSE": "1",
        "OPERATINGR": "BNSF",
        "OPERATIN_1": "Primary",
        "DAYTHRU": 7,
        "NGHTTHRU": 7,
        "MAINTRK": 1,
        "SIDINGTRK": 0,
        "YARDTRK": 0,
        "TRANSITTRK": 0,
        "INDUSTRYTR": 0,
        "OTHRTRK": 0,
        "WDCODE": "All other Gates",
        "REVISIONDA": "1996/01/01 00:00:00",
        "LASTUPDATE": "1/14/2025",
        "AADT": "000060",
        "AADTYEAR": "2011",
        "STATENAME": "TEXAS",
        "STATEAB": "TX",
        "COUNTYNAME": "DONLEY",
        "CITYNAME": "LELIA LAKE",
        "LATDD": 34.904027,
        "LONGDD": -100.776633,
        "gridlyProductionCertified": true,
        "gridlyClassification": "PUBLIC_ROADWAY",
        "gridlyDisplayName": "FM 1755",
        "gridlyId": "FRA-274847N"
      }
    },
    {
      "type": "Feature",
      "id": 205594,
      "geometry": {
        "type": "Point",
        "coordinates": [
          -100.770946000211,
          34.9013822001211
        ]
      },
      "properties": {
        "OBJECTID": 205594,
        "CROSSING": "274848V",
        "EFFDATE": 1736812800000,
        "REASON": "14",
        "StateCode": "48",
        "CountyCode": "48129",
        "STCYFIPS": "48129",
        "CITYCD": "481293933",
        "RAILROAD": "BNSF",
        "RRDIV": "RED RIVER",
        "RRSUBDIV": "RED RIVER VALLEY",
        "HIGHWAY": "CO 0000",
        "STREET": "FRONT ST",
        "TTSTN": "673280",
        "MILEPOST": "0270.696",
        "TYPEXING": "Public",
        "POSXING": "At Grade",
        "PRVCAT": "14",
        "INIT": "1",
        "LATITUDE": 34.9013822,
        "LONGITUD": -100.770946,
        "LLSOURCE": "1",
        "WHISTBAN": "0",
        "RRCONT": "8173521549",
        "POLCONT": "8008325452",
        "INV_LINK": "https://safetydata.fra.dot.gov/OfficeofSafety/PublicSite/Crossing/Crossing.aspx?phasetype=C&rpttype=I&txtcrossingnum=274848V",
        "ACC_LINK": "https://safetydata.fra.dot.gov/OfficeofSafety/PublicSite/Crossing/Crossing.aspx?phasetype=C&rpttype=A&txtcrossingnum=274848V",
        "TTSTNNAM": "LELIA LAKE",
        "XPURPOSE": "1",
        "OPERATINGR": "BNSF",
        "OPERATIN_1": "Primary",
        "DAYTHRU": 7,
        "NGHTTHRU": 7,
        "MAINTRK": 1,
        "SIDINGTRK": 0,
        "YARDTRK": 0,
        "TRANSITTRK": 0,
        "INDUSTRYTR": 0,
        "OTHRTRK": 0,
        "WDCODE": "All other Gates",
        "REVISIONDA": "1996/01/01 00:00:00",
        "LASTUPDATE": "1/14/2025",
        "AADT": "4",
        "AADTYEAR": "2019",
        "STATENAME": "TEXAS",
        "STATEAB": "TX",
        "COUNTYNAME": "DONLEY",
        "CITYNAME": "LELIA LAKE",
        "LATDD": 34.9013822,
        "LONGDD": -100.770946,
        "gridlyProductionCertified": true,
        "gridlyClassification": "PUBLIC_ROADWAY",
        "gridlyDisplayName": "FRONT ST",
        "gridlyId": "FRA-274848V"
      }
    },
    {
      "type": "Feature",
      "id": 205595,
      "geometry": {
        "type": "Point",
        "coordinates": [
          -100.7625249996,
          34.8957577000561
        ]
      },
      "properties": {
        "OBJECTID": 205595,
        "CROSSING": "274849C",
        "EFFDATE": 1736812800000,
        "REASON": "14",
        "StateCode": "48",
        "CountyCode": "48129",
        "STCYFIPS": "48129",
        "CITYCD": "481293933",
        "RAILROAD": "BNSF",
        "RRDIV": "RED RIVER",
        "RRSUBDIV": "RED RIVER VALLEY",
        "HIGHWAY": "CO 0000",
        "STREET": "CR-19",
        "TTSTN": "673280",
        "MILEPOST": "0270.079",
        "TYPEXING": "Public",
        "POSXING": "At Grade",
        "PRVCAT": "14",
        "INIT": "1",
        "LATITUDE": 34.8957577,
        "LONGITUD": -100.762525,
        "LLSOURCE": "1",
        "WHISTBAN": "0",
        "RRCONT": "8173521549",
        "POLCONT": "8008325452",
        "INV_LINK": "https://safetydata.fra.dot.gov/OfficeofSafety/PublicSite/Crossing/Crossing.aspx?phasetype=C&rpttype=I&txtcrossingnum=274849C",
        "ACC_LINK": "https://safetydata.fra.dot.gov/OfficeofSafety/PublicSite/Crossing/Crossing.aspx?phasetype=C&rpttype=A&txtcrossingnum=274849C",
        "TTSTNNAM": "LELIA LAKE",
        "XPURPOSE": "1",
        "OPERATINGR": "BNSF",
        "OPERATIN_1": "Primary",
        "DAYTHRU": 7,
        "NGHTTHRU": 7,
        "MAINTRK": 1,
        "SIDINGTRK": 0,
        "YARDTRK": 0,
        "TRANSITTRK": 0,
        "INDUSTRYTR": 0,
        "OTHRTRK": 0,
        "WDCODE": "All other Gates",
        "REVISIONDA": "1996/01/01 00:00:00",
        "LASTUPDATE": "1/14/2025",
        "AADT": "31",
        "AADTYEAR": "2019",
        "STATENAME": "TEXAS",
        "STATEAB": "TX",
        "COUNTYNAME": "DONLEY",
        "CITYNAME": "LELIA LAKE",
        "LATDD": 34.8957577,
        "LONGDD": -100.762525,
        "gridlyProductionCertified": true,
        "gridlyClassification": "PUBLIC_ROADWAY",
        "gridlyDisplayName": "CR-19",
        "gridlyId": "FRA-274849C"
      }
    },
    {
      "type": "Feature",
      "id": 205596,
      "geometry": {
        "type": "Point",
        "coordinates": [
          -100.758878000345,
          34.8932552999175
        ]
      },
      "properties": {
        "OBJECTID": 205596,
        "CROSSING": "274850W",
        "EFFDATE": 1736812800000,
        "REASON": "14",
        "StateCode": "48",
        "CountyCode": "48129",
        "STCYFIPS": "48129",
        "CITYCD": "481293933",
        "RAILROAD": "BNSF",
        "RRDIV": "RED RIVER",
        "RRSUBDIV": "RED RIVER VALLEY",
        "HIGHWAY": "Not Yet Reported by State",
        "STREET": "PRIVATE",
        "TTSTN": "673280",
        "MILEPOST": "0269.810",
        "TYPEXING": "Private",
        "POSXING": "At Grade",
        "PRVCAT": "14",
        "INIT": "1",
        "LATITUDE": 34.8932553,
        "LONGITUD": -100.758878,
        "LLSOURCE": "1",
        "WHISTBAN": "0",
        "RRCONT": "8173521549",
        "POLCONT": "8008325452",
        "INV_LINK": "https://safetydata.fra.dot.gov/OfficeofSafety/PublicSite/Crossing/Crossing.aspx?phasetype=C&rpttype=I&txtcrossingnum=274850W",
        "ACC_LINK": "https://safetydata.fra.dot.gov/OfficeofSafety/PublicSite/Crossing/Crossing.aspx?phasetype=C&rpttype=A&txtcrossingnum=274850W",
        "TTSTNNAM": "LELIA LAKE",
        "XPURPOSE": "1",
        "OPERATINGR": "BNSF",
        "OPERATIN_1": "Primary",
        "DAYTHRU": 7,
        "NGHTTHRU": 7,
        "MAINTRK": 1,
        "SIDINGTRK": 0,
        "YARDTRK": 0,
        "TRANSITTRK": 0,
        "INDUSTRYTR": 0,
        "OTHRTRK": 0,
        "WDCODE": "",
        "REVISIONDA": "1996/01/01 00:00:00",
        "LASTUPDATE": "1/14/2025",
        "AADT": "000010",
        "AADTYEAR": "1988",
        "STATENAME": "TEXAS",
        "STATEAB": "TX",
        "COUNTYNAME": "DONLEY",
        "CITYNAME": "LELIA LAKE",
        "LATDD": 34.8932553,
        "LONGDD": -100.758878,
        "gridlyProductionCertified": true,
        "gridlyClassification": "PUBLIC_ROADWAY",
        "gridlyDisplayName": "PRIVATE",
        "gridlyId": "FRA-274850W"
      }
    },
    {
      "type": "Feature",
      "id": 205600,
      "geometry": {
        "type": "Point",
        "coordinates": [
          -100.572315999819,
          34.769021700094
        ]
      },
      "properties": {
        "OBJECTID": 205600,
        "CROSSING": "274762L",
        "EFFDATE": 1736812800000,
        "REASON": "14",
        "StateCode": "48",
        "CountyCode": "48191",
        "STCYFIPS": "48191",
        "CITYCD": "481914460",
        "RAILROAD": "BNSF",
        "RRDIV": "RED RIVER",
        "RRSUBDIV": "RED RIVER VALLEY",
        "HIGHWAY": "CO 0031",
        "STREET": "CR-31",
        "TTSTN": "673513",
        "MILEPOST": "0254.585",
        "TYPEXING": "Public",
        "POSXING": "At Grade",
        "PRVCAT": "14",
        "INIT": "1",
        "LATITUDE": 34.7690217,
        "LONGITUD": -100.572316,
        "LLSOURCE": "1",
        "WHISTBAN": "0",
        "RRCONT": "8173521549",
        "POLCONT": "8008325452",
        "INV_LINK": "https://safetydata.fra.dot.gov/OfficeofSafety/PublicSite/Crossing/Crossing.aspx?phasetype=C&rpttype=I&txtcrossingnum=274762L",
        "ACC_LINK": "https://safetydata.fra.dot.gov/OfficeofSafety/PublicSite/Crossing/Crossing.aspx?phasetype=C&rpttype=A&txtcrossingnum=274762L",
        "TTSTNNAM": "MEMPHIS",
        "XPURPOSE": "1",
        "OPERATINGR": "BNSF",
        "OPERATIN_1": "Primary",
        "DAYTHRU": 7,
        "NGHTTHRU": 7,
        "MAINTRK": 1,
        "SIDINGTRK": 0,
        "YARDTRK": 0,
        "TRANSITTRK": 0,
        "INDUSTRYTR": 0,
        "OTHRTRK": 0,
        "WDCODE": "Crossbucks",
        "REVISIONDA": "1996/01/01 00:00:00",
        "LASTUPDATE": "1/14/2025",
        "AADT": "30",
        "AADTYEAR": "2019",
        "STATENAME": "TEXAS",
        "STATEAB": "TX",
        "COUNTYNAME": "HALL",
        "CITYNAME": "MEMPHIS",
        "LATDD": 34.7690217,
        "LONGDD": -100.572316,
        "gridlyProductionCertified": true,
        "gridlyClassification": "PUBLIC_ROADWAY",
        "gridlyDisplayName": "CR-31",
        "gridlyId": "FRA-274762L"
      }
    },
    {
      "type": "Feature",
      "id": 205622,
      "geometry": {
        "type": "Point",
        "coordinates": [
          -100.610832999577,
          34.8353117001446
        ]
      },
      "properties": {
        "OBJECTID": 205622,
        "CROSSING": "274759D",
        "EFFDATE": 1736812800000,
        "REASON": "14",
        "StateCode": "48",
        "CountyCode": "48129",
        "STCYFIPS": "48129",
        "CITYCD": "481293090",
        "RAILROAD": "BNSF",
        "RRDIV": "RED RIVER",
        "RRSUBDIV": "RED RIVER VALLEY",
        "HIGHWAY": "CO 0000",
        "STREET": "CR-28",
        "TTSTN": "673273",
        "MILEPOST": "0259.984",
        "TYPEXING": "Public",
        "POSXING": "At Grade",
        "PRVCAT": "14",
        "INIT": "1",
        "LATITUDE": 34.8353117,
        "LONGITUD": -100.610833,
        "LLSOURCE": "1",
        "WHISTBAN": "0",
        "RRCONT": "8173521549",
        "POLCONT": "8008325452",
        "INV_LINK": "https://safetydata.fra.dot.gov/OfficeofSafety/PublicSite/Crossing/Crossing.aspx?phasetype=C&rpttype=I&txtcrossingnum=274759D",
        "ACC_LINK": "https://safetydata.fra.dot.gov/OfficeofSafety/PublicSite/Crossing/Crossing.aspx?phasetype=C&rpttype=A&txtcrossingnum=274759D",
        "TTSTNNAM": "HEDLEY",
        "XPURPOSE": "1",
        "OPERATINGR": "BNSF",
        "OPERATIN_1": "Primary",
        "DAYTHRU": 7,
        "NGHTTHRU": 7,
        "MAINTRK": 1,
        "SIDINGTRK": 0,
        "YARDTRK": 0,
        "TRANSITTRK": 0,
        "INDUSTRYTR": 0,
        "OTHRTRK": 0,
        "WDCODE": "All other Gates",
        "REVISIONDA": "1996/01/01 00:00:00",
        "LASTUPDATE": "1/14/2025",
        "AADT": "80",
        "AADTYEAR": "2019",
        "STATENAME": "TEXAS",
        "STATEAB": "TX",
        "COUNTYNAME": "DONLEY",
        "CITYNAME": "HEDLEY",
        "LATDD": 34.8353117,
        "LONGDD": -100.610833,
        "gridlyProductionCertified": true,
        "gridlyClassification": "PUBLIC_ROADWAY",
        "gridlyDisplayName": "CR-28",
        "gridlyId": "FRA-274759D"
      }
    },
    {
      "type": "Feature",
      "id": 205623,
      "geometry": {
        "type": "Point",
        "coordinates": [
          -100.588370999597,
          34.8179164002657
        ]
      },
      "properties": {
        "OBJECTID": 205623,
        "CROSSING": "274760X",
        "EFFDATE": 1736812800000,
        "REASON": "14",
        "StateCode": "48",
        "CountyCode": "48129",
        "STCYFIPS": "48129",
        "CITYCD": "481293090",
        "RAILROAD": "BNSF",
        "RRDIV": "RED RIVER",
        "RRSUBDIV": "RED RIVER VALLEY",
        "HIGHWAY": "CO 0000",
        "STREET": "CO RD Z",
        "TTSTN": "673273",
        "MILEPOST": "0258.142",
        "TYPEXING": "Public",
        "POSXING": "At Grade",
        "PRVCAT": "14",
        "INIT": "1",
        "LATITUDE": 34.8179164,
        "LONGITUD": -100.588371,
        "LLSOURCE": "1",
        "WHISTBAN": "0",
        "RRCONT": "8173521549",
        "POLCONT": "8008325452",
        "INV_LINK": "https://safetydata.fra.dot.gov/OfficeofSafety/PublicSite/Crossing/Crossing.aspx?phasetype=C&rpttype=I&txtcrossingnum=274760X",
        "ACC_LINK": "https://safetydata.fra.dot.gov/OfficeofSafety/PublicSite/Crossing/Crossing.aspx?phasetype=C&rpttype=A&txtcrossingnum=274760X",
        "TTSTNNAM": "HEDLEY",
        "XPURPOSE": "1",
        "OPERATINGR": "BNSF",
        "OPERATIN_1": "Primary",
        "DAYTHRU": 7,
        "NGHTTHRU": 7,
        "MAINTRK": 1,
        "SIDINGTRK": 0,
        "YARDTRK": 0,
        "TRANSITTRK": 0,
        "INDUSTRYTR": 0,
        "OTHRTRK": 0,
        "WDCODE": "All other Gates",
        "REVISIONDA": "1996/01/01 00:00:00",
        "LASTUPDATE": "1/14/2025",
        "AADT": "150",
        "AADTYEAR": "2019",
        "STATENAME": "TEXAS",
        "STATEAB": "TX",
        "COUNTYNAME": "DONLEY",
        "CITYNAME": "HEDLEY",
        "LATDD": 34.8179164,
        "LONGDD": -100.588371,
        "gridlyProductionCertified": true,
        "gridlyClassification": "PUBLIC_ROADWAY",
        "gridlyDisplayName": "CO RD Z",
        "gridlyId": "FRA-274760X"
      }
    },
    {
      "type": "Feature",
      "id": 205660,
      "geometry": {
        "type": "Point",
        "coordinates": [
          -100.921587000098,
          34.9568608997849
        ]
      },
      "properties": {
        "OBJECTID": 205660,
        "CROSSING": "275178J",
        "EFFDATE": 1736812800000,
        "REASON": "14",
        "StateCode": "48",
        "CountyCode": "48129",
        "STCYFIPS": "48129",
        "CITYCD": "481291340",
        "RAILROAD": "BNSF",
        "RRDIV": "RED RIVER",
        "RRSUBDIV": "RED RIVER VALLEY",
        "HIGHWAY": "PRIVATE",
        "STREET": "CR-P",
        "TTSTN": "673250",
        "MILEPOST": "0280.169",
        "TYPEXING": "Public",
        "POSXING": "At Grade",
        "PRVCAT": "14",
        "INIT": "1",
        "LATITUDE": 34.9568609,
        "LONGITUD": -100.921587,
        "LLSOURCE": "1",
        "WHISTBAN": "0",
        "RRCONT": "8173521549",
        "POLCONT": "8008325452",
        "INV_LINK": "https://safetydata.fra.dot.gov/OfficeofSafety/PublicSite/Crossing/Crossing.aspx?phasetype=C&rpttype=I&txtcrossingnum=275178J",
        "ACC_LINK": "https://safetydata.fra.dot.gov/OfficeofSafety/PublicSite/Crossing/Crossing.aspx?phasetype=C&rpttype=A&txtcrossingnum=275178J",
        "TTSTNNAM": "CLARENDON",
        "XPURPOSE": "1",
        "OPERATINGR": "BNSF",
        "OPERATIN_1": "Primary",
        "DAYTHRU": 7,
        "NGHTTHRU": 7,
        "MAINTRK": 1,
        "SIDINGTRK": 0,
        "YARDTRK": 0,
        "TRANSITTRK": 0,
        "INDUSTRYTR": 0,
        "OTHRTRK": 0,
        "WDCODE": "Crossbucks",
        "REVISIONDA": "1996/01/01 00:00:00",
        "LASTUPDATE": "1/14/2025",
        "AADT": "000021",
        "AADTYEAR": "1998",
        "STATENAME": "TEXAS",
        "STATEAB": "TX",
        "COUNTYNAME": "DONLEY",
        "CITYNAME": "CLARENDON",
        "LATDD": 34.9568609,
        "LONGDD": -100.921587,
        "gridlyProductionCertified": true,
        "gridlyClassification": "PUBLIC_ROADWAY",
        "gridlyDisplayName": "CR-P",
        "gridlyId": "FRA-275178J"
      }
    },
    {
      "type": "Feature",
      "id": 205661,
      "geometry": {
        "type": "Point",
        "coordinates": [
          -100.954463000284,
          34.968247800171
        ]
      },
      "properties": {
        "OBJECTID": 205661,
        "CROSSING": "275179R",
        "EFFDATE": 1736812800000,
        "REASON": "14",
        "StateCode": "48",
        "CountyCode": "48129",
        "STCYFIPS": "48129",
        "CITYCD": "481291340",
        "RAILROAD": "BNSF",
        "RRDIV": "RED RIVER",
        "RRSUBDIV": "RED RIVER VALLEY",
        "HIGHWAY": "CO 0000",
        "STREET": "CR-8",
        "TTSTN": "673250",
        "MILEPOST": "0282.202",
        "TYPEXING": "Public",
        "POSXING": "At Grade",
        "PRVCAT": "14",
        "INIT": "1",
        "LATITUDE": 34.9682478,
        "LONGITUD": -100.954463,
        "LLSOURCE": "1",
        "WHISTBAN": "0",
        "RRCONT": "8173521549",
        "POLCONT": "8008325452",
        "INV_LINK": "https://safetydata.fra.dot.gov/OfficeofSafety/PublicSite/Crossing/Crossing.aspx?phasetype=C&rpttype=I&txtcrossingnum=275179R",
        "ACC_LINK": "https://safetydata.fra.dot.gov/OfficeofSafety/PublicSite/Crossing/Crossing.aspx?phasetype=C&rpttype=A&txtcrossingnum=275179R",
        "TTSTNNAM": "CLARENDON",
        "XPURPOSE": "1",
        "OPERATINGR": "BNSF",
        "OPERATIN_1": "Primary",
        "DAYTHRU": 7,
        "NGHTTHRU": 7,
        "MAINTRK": 1,
        "SIDINGTRK": 0,
        "YARDTRK": 0,
        "TRANSITTRK": 0,
        "INDUSTRYTR": 0,
        "OTHRTRK": 0,
        "WDCODE": "Crossbucks",
        "REVISIONDA": "1996/01/01 00:00:00",
        "LASTUPDATE": "1/14/2025",
        "AADT": "73",
        "AADTYEAR": "2019",
        "STATENAME": "TEXAS",
        "STATEAB": "TX",
        "COUNTYNAME": "DONLEY",
        "CITYNAME": "CLARENDON",
        "LATDD": 34.9682478,
        "LONGDD": -100.954463,
        "gridlyProductionCertified": true,
        "gridlyClassification": "PUBLIC_ROADWAY",
        "gridlyDisplayName": "CR-8",
        "gridlyId": "FRA-275179R"
      }
    },
    {
      "type": "Feature",
      "id": 205662,
      "geometry": {
        "type": "Point",
        "coordinates": [
          -100.911117999641,
          34.9514640997289
        ]
      },
      "properties": {
        "OBJECTID": 205662,
        "CROSSING": "275180K",
        "EFFDATE": 1736812800000,
        "REASON": "14",
        "StateCode": "48",
        "CountyCode": "48129",
        "STCYFIPS": "48129",
        "CITYCD": "481291340",
        "RAILROAD": "BNSF",
        "RRDIV": "RED RIVER",
        "RRSUBDIV": "RED RIVER VALLEY",
        "HIGHWAY": "COUNTY ROAD P",
        "STREET": "CO RD P",
        "TTSTN": "673250",
        "MILEPOST": "0279.467",
        "TYPEXING": "Public",
        "POSXING": "At Grade",
        "PRVCAT": "14",
        "INIT": "1",
        "LATITUDE": 34.9514641,
        "LONGITUD": -100.911118,
        "LLSOURCE": "1",
        "WHISTBAN": "0",
        "RRCONT": "8173521549",
        "POLCONT": "8008325452",
        "INV_LINK": "https://safetydata.fra.dot.gov/OfficeofSafety/PublicSite/Crossing/Crossing.aspx?phasetype=C&rpttype=I&txtcrossingnum=275180K",
        "ACC_LINK": "https://safetydata.fra.dot.gov/OfficeofSafety/PublicSite/Crossing/Crossing.aspx?phasetype=C&rpttype=A&txtcrossingnum=275180K",
        "TTSTNNAM": "CLARENDON",
        "XPURPOSE": "1",
        "OPERATINGR": "BNSF",
        "OPERATIN_1": "Primary",
        "DAYTHRU": 7,
        "NGHTTHRU": 7,
        "MAINTRK": 1,
        "SIDINGTRK": 0,
        "YARDTRK": 0,
        "TRANSITTRK": 0,
        "INDUSTRYTR": 0,
        "OTHRTRK": 0,
        "WDCODE": "Crossbucks",
        "REVISIONDA": "1996/01/01 00:00:00",
        "LASTUPDATE": "1/14/2025",
        "AADT": "",
        "AADTYEAR": "1978",
        "STATENAME": "TEXAS",
        "STATEAB": "TX",
        "COUNTYNAME": "DONLEY",
        "CITYNAME": "CLARENDON",
        "LATDD": 34.9514641,
        "LONGDD": -100.911118,
        "gridlyProductionCertified": true,
        "gridlyClassification": "PUBLIC_ROADWAY",
        "gridlyDisplayName": "CO RD P",
        "gridlyId": "FRA-275180K"
      }
    },
    {
      "type": "Feature",
      "id": 205668,
      "geometry": {
        "type": "Point",
        "coordinates": [
          -100.898203999678,
          34.944435099652
        ]
      },
      "properties": {
        "OBJECTID": 205668,
        "CROSSING": "275181S",
        "EFFDATE": 1736812800000,
        "REASON": "14",
        "StateCode": "48",
        "CountyCode": "48129",
        "STCYFIPS": "48129",
        "CITYCD": "481291340",
        "RAILROAD": "BNSF",
        "RRDIV": "RED RIVER",
        "RRSUBDIV": "RED RIVER VALLEY",
        "HIGHWAY": "US 83",
        "STREET": "US HIGHWAY",
        "TTSTN": "673250",
        "MILEPOST": "0278.599",
        "TYPEXING": "Public",
        "POSXING": "RR Under",
        "PRVCAT": "14",
        "INIT": "1",
        "LATITUDE": 34.9444351,
        "LONGITUD": -100.898204,
        "LLSOURCE": "1",
        "WHISTBAN": "0",
        "RRCONT": "8173521549",
        "POLCONT": "8008325452",
        "INV_LINK": "https://safetydata.fra.dot.gov/OfficeofSafety/PublicSite/Crossing/Crossing.aspx?phasetype=C&rpttype=I&txtcrossingnum=275181S",
        "ACC_LINK": "https://safetydata.fra.dot.gov/OfficeofSafety/PublicSite/Crossing/Crossing.aspx?phasetype=C&rpttype=A&txtcrossingnum=275181S",
        "TTSTNNAM": "CLARENDON",
        "XPURPOSE": "1",
        "OPERATINGR": "BNSF",
        "OPERATIN_1": "Primary",
        "DAYTHRU": 7,
        "NGHTTHRU": 7,
        "MAINTRK": 1,
        "SIDINGTRK": 0,
        "YARDTRK": 0,
        "TRANSITTRK": 0,
        "INDUSTRYTR": 0,
        "OTHRTRK": 0,
        "WDCODE": "",
        "REVISIONDA": "1996/01/01 00:00:00",
        "LASTUPDATE": "1/14/2025",
        "AADT": "001500",
        "AADTYEAR": "2010",
        "STATENAME": "TEXAS",
        "STATEAB": "TX",
        "COUNTYNAME": "DONLEY",
        "CITYNAME": "CLARENDON",
        "LATDD": 34.9444351,
        "LONGDD": -100.898204,
        "gridlyProductionCertified": true,
        "gridlyClassification": "PUBLIC_ROADWAY",
        "gridlyDisplayName": "US HIGHWAY",
        "gridlyId": "FRA-275181S"
      }
    },
    {
      "type": "Feature",
      "id": 205669,
      "geometry": {
        "type": "Point",
        "coordinates": [
          -100.887247000223,
          34.9394598998318
        ]
      },
      "properties": {
        "OBJECTID": 205669,
        "CROSSING": "275183F",
        "EFFDATE": 1736812800000,
        "REASON": "14",
        "StateCode": "48",
        "CountyCode": "48129",
        "STCYFIPS": "48129",
        "CITYCD": "481291340",
        "RAILROAD": "BNSF",
        "RRDIV": "RED RIVER",
        "RRSUBDIV": "RED RIVER VALLEY",
        "HIGHWAY": "ST 0000",
        "STREET": "KEARNEY ST",
        "TTSTN": "673250",
        "MILEPOST": "0277.882",
        "TYPEXING": "Public",
        "POSXING": "At Grade",
        "PRVCAT": "14",
        "INIT": "1",
        "LATITUDE": 34.9394599,
        "LONGITUD": -100.887247,
        "LLSOURCE": "1",
        "WHISTBAN": "0",
        "RRCONT": "8173521549",
        "POLCONT": "8008325452",
        "INV_LINK": "https://safetydata.fra.dot.gov/OfficeofSafety/PublicSite/Crossing/Crossing.aspx?phasetype=C&rpttype=I&txtcrossingnum=275183F",
        "ACC_LINK": "https://safetydata.fra.dot.gov/OfficeofSafety/PublicSite/Crossing/Crossing.aspx?phasetype=C&rpttype=A&txtcrossingnum=275183F",
        "TTSTNNAM": "CLARENDON",
        "XPURPOSE": "1",
        "OPERATINGR": "BNSF",
        "OPERATIN_1": "Primary",
        "DAYTHRU": 7,
        "NGHTTHRU": 7,
        "MAINTRK": 1,
        "SIDINGTRK": 0,
        "YARDTRK": 0,
        "TRANSITTRK": 0,
        "INDUSTRYTR": 0,
        "OTHRTRK": 0,
        "WDCODE": "All other Gates",
        "REVISIONDA": "1996/01/01 00:00:00",
        "LASTUPDATE": "1/14/2025",
        "AADT": "716",
        "AADTYEAR": "2019",
        "STATENAME": "TEXAS",
        "STATEAB": "TX",
        "COUNTYNAME": "DONLEY",
        "CITYNAME": "CLARENDON",
        "LATDD": 34.9394599,
        "LONGDD": -100.887247,
        "gridlyProductionCertified": true,
        "gridlyClassification": "PUBLIC_ROADWAY",
        "gridlyDisplayName": "KEARNEY ST",
        "gridlyId": "FRA-275183F"
      }
    },
    {
      "type": "Feature",
      "id": 205670,
      "geometry": {
        "type": "Point",
        "coordinates": [
          -100.873991999778,
          34.9334637998851
        ]
      },
      "properties": {
        "OBJECTID": 205670,
        "CROSSING": "275185U",
        "EFFDATE": 1736812800000,
        "REASON": "14",
        "StateCode": "48",
        "CountyCode": "48129",
        "STCYFIPS": "48129",
        "CITYCD": "481291340",
        "RAILROAD": "BNSF",
        "RRDIV": "RED RIVER",
        "RRSUBDIV": "RED RIVER VALLEY",
        "HIGHWAY": "ST 0000",
        "STREET": "N AYERS ST",
        "TTSTN": "673250",
        "MILEPOST": "0277.024",
        "TYPEXING": "Public",
        "POSXING": "At Grade",
        "PRVCAT": "14",
        "INIT": "1",
        "LATITUDE": 34.9334638,
        "LONGITUD": -100.873992,
        "LLSOURCE": "1",
        "WHISTBAN": "0",
        "RRCONT": "8173521549",
        "POLCONT": "8008325452",
        "INV_LINK": "https://safetydata.fra.dot.gov/OfficeofSafety/PublicSite/Crossing/Crossing.aspx?phasetype=C&rpttype=I&txtcrossingnum=275185U",
        "ACC_LINK": "https://safetydata.fra.dot.gov/OfficeofSafety/PublicSite/Crossing/Crossing.aspx?phasetype=C&rpttype=A&txtcrossingnum=275185U",
        "TTSTNNAM": "CLARENDON",
        "XPURPOSE": "1",
        "OPERATINGR": "BNSF",
        "OPERATIN_1": "Primary",
        "DAYTHRU": 7,
        "NGHTTHRU": 7,
        "MAINTRK": 1,
        "SIDINGTRK": 0,
        "YARDTRK": 0,
        "TRANSITTRK": 0,
        "INDUSTRYTR": 0,
        "OTHRTRK": 0,
        "WDCODE": "All other Gates",
        "REVISIONDA": "1996/01/01 00:00:00",
        "LASTUPDATE": "1/14/2025",
        "AADT": "40",
        "AADTYEAR": "2019",
        "STATENAME": "TEXAS",
        "STATEAB": "TX",
        "COUNTYNAME": "DONLEY",
        "CITYNAME": "CLARENDON",
        "LATDD": 34.9334638,
        "LONGDD": -100.873992,
        "gridlyProductionCertified": true,
        "gridlyClassification": "PUBLIC_ROADWAY",
        "gridlyDisplayName": "N AYERS ST",
        "gridlyId": "FRA-275185U"
      }
    },
    {
      "type": "Feature",
      "id": 205671,
      "geometry": {
        "type": "Point",
        "coordinates": [
          -100.829831999898,
          34.9163258996775
        ]
      },
      "properties": {
        "OBJECTID": 205671,
        "CROSSING": "275188P",
        "EFFDATE": 1736812800000,
        "REASON": "14",
        "StateCode": "48",
        "CountyCode": "48129",
        "STCYFIPS": "48129",
        "CITYCD": "481293933",
        "RAILROAD": "BNSF",
        "RRDIV": "RED RIVER",
        "RRSUBDIV": "RED RIVER VALLEY",
        "HIGHWAY": "FM 1260",
        "STREET": "FM 1260",
        "TTSTN": "673280",
        "MILEPOST": "0274.250",
        "TYPEXING": "Public",
        "POSXING": "At Grade",
        "PRVCAT": "14",
        "INIT": "1",
        "LATITUDE": 34.9163259,
        "LONGITUD": -100.829832,
        "LLSOURCE": "1",
        "WHISTBAN": "0",
        "RRCONT": "8173521549",
        "POLCONT": "8008325452",
        "INV_LINK": "https://safetydata.fra.dot.gov/OfficeofSafety/PublicSite/Crossing/Crossing.aspx?phasetype=C&rpttype=I&txtcrossingnum=275188P",
        "ACC_LINK": "https://safetydata.fra.dot.gov/OfficeofSafety/PublicSite/Crossing/Crossing.aspx?phasetype=C&rpttype=A&txtcrossingnum=275188P",
        "TTSTNNAM": "LELIA LAKE",
        "XPURPOSE": "1",
        "OPERATINGR": "BNSF",
        "OPERATIN_1": "Primary",
        "DAYTHRU": 7,
        "NGHTTHRU": 7,
        "MAINTRK": 1,
        "SIDINGTRK": 0,
        "YARDTRK": 0,
        "TRANSITTRK": 0,
        "INDUSTRYTR": 0,
        "OTHRTRK": 0,
        "WDCODE": "All other Gates",
        "REVISIONDA": "1996/01/01 00:00:00",
        "LASTUPDATE": "1/14/2025",
        "AADT": "250",
        "AADTYEAR": "2019",
        "STATENAME": "TEXAS",
        "STATEAB": "TX",
        "COUNTYNAME": "DONLEY",
        "CITYNAME": "LELIA LAKE",
        "LATDD": 34.9163259,
        "LONGDD": -100.829832,
        "gridlyProductionCertified": true,
        "gridlyClassification": "PUBLIC_ROADWAY",
        "gridlyDisplayName": "FM 1260",
        "gridlyId": "FRA-275188P"
      }
    },
    {
      "type": "Feature",
      "id": 205677,
      "geometry": {
        "type": "Point",
        "coordinates": [
          -100.812212000148,
          34.9131439000174
        ]
      },
      "properties": {
        "OBJECTID": 205677,
        "CROSSING": "275190R",
        "EFFDATE": 1736812800000,
        "REASON": "14",
        "StateCode": "48",
        "CountyCode": "48129",
        "STCYFIPS": "48129",
        "CITYCD": "481293933",
        "RAILROAD": "BNSF",
        "RRDIV": "RED RIVER",
        "RRSUBDIV": "RED RIVER VALLEY",
        "HIGHWAY": "CO 0000",
        "STREET": "CR-16",
        "TTSTN": "673280",
        "MILEPOST": "0273.215",
        "TYPEXING": "Public",
        "POSXING": "At Grade",
        "PRVCAT": "14",
        "INIT": "1",
        "LATITUDE": 34.9131439,
        "LONGITUD": -100.812212,
        "LLSOURCE": "1",
        "WHISTBAN": "0",
        "RRCONT": "8173521549",
        "POLCONT": "8008325452",
        "INV_LINK": "https://safetydata.fra.dot.gov/OfficeofSafety/PublicSite/Crossing/Crossing.aspx?phasetype=C&rpttype=I&txtcrossingnum=275190R",
        "ACC_LINK": "https://safetydata.fra.dot.gov/OfficeofSafety/PublicSite/Crossing/Crossing.aspx?phasetype=C&rpttype=A&txtcrossingnum=275190R",
        "TTSTNNAM": "LELIA LAKE",
        "XPURPOSE": "1",
        "OPERATINGR": "BNSF",
        "OPERATIN_1": "Primary",
        "DAYTHRU": 7,
        "NGHTTHRU": 7,
        "MAINTRK": 1,
        "SIDINGTRK": 0,
        "YARDTRK": 0,
        "TRANSITTRK": 0,
        "INDUSTRYTR": 0,
        "OTHRTRK": 0,
        "WDCODE": "Crossbucks",
        "REVISIONDA": "1996/01/01 00:00:00",
        "LASTUPDATE": "1/14/2025",
        "AADT": "40",
        "AADTYEAR": "2019",
        "STATENAME": "TEXAS",
        "STATEAB": "TX",
        "COUNTYNAME": "DONLEY",
        "CITYNAME": "LELIA LAKE",
        "LATDD": 34.9131439,
        "LONGDD": -100.812212,
        "gridlyProductionCertified": true,
        "gridlyClassification": "PUBLIC_ROADWAY",
        "gridlyDisplayName": "CR-16",
        "gridlyId": "FRA-275190R"
      }
    },
    {
      "type": "Feature",
      "id": 205684,
      "geometry": {
        "type": "Point",
        "coordinates": [
          -100.865484999851,
          34.9296156000179
        ]
      },
      "properties": {
        "OBJECTID": 205684,
        "CROSSING": "275186B",
        "EFFDATE": 1736812800000,
        "REASON": "14",
        "StateCode": "48",
        "CountyCode": "48129",
        "STCYFIPS": "48129",
        "CITYCD": "481291340",
        "RAILROAD": "BNSF",
        "RRDIV": "RED RIVER",
        "RRSUBDIV": "RED RIVER VALLEY",
        "HIGHWAY": "CO 0000",
        "STREET": "CO RD 13",
        "TTSTN": "673250",
        "MILEPOST": "0276.514",
        "TYPEXING": "Public",
        "POSXING": "At Grade",
        "PRVCAT": "14",
        "INIT": "1",
        "LATITUDE": 34.9296156,
        "LONGITUD": -100.865485,
        "LLSOURCE": "1",
        "WHISTBAN": "0",
        "RRCONT": "8173521549",
        "POLCONT": "8008325452",
        "INV_LINK": "https://safetydata.fra.dot.gov/OfficeofSafety/PublicSite/Crossing/Crossing.aspx?phasetype=C&rpttype=I&txtcrossingnum=275186B",
        "ACC_LINK": "https://safetydata.fra.dot.gov/OfficeofSafety/PublicSite/Crossing/Crossing.aspx?phasetype=C&rpttype=A&txtcrossingnum=275186B",
        "TTSTNNAM": "CLARENDON",
        "XPURPOSE": "1",
        "OPERATINGR": "BNSF",
        "OPERATIN_1": "Primary",
        "DAYTHRU": 7,
        "NGHTTHRU": 6,
        "MAINTRK": 1,
        "SIDINGTRK": 1,
        "YARDTRK": 0,
        "TRANSITTRK": 0,
        "INDUSTRYTR": 0,
        "OTHRTRK": 1,
        "WDCODE": "All other Gates",
        "REVISIONDA": "1996/01/01 00:00:00",
        "LASTUPDATE": "1/14/2025",
        "AADT": "123",
        "AADTYEAR": "2019",
        "STATENAME": "TEXAS",
        "STATEAB": "TX",
        "COUNTYNAME": "DONLEY",
        "CITYNAME": "CLARENDON",
        "LATDD": 34.9296156,
        "LONGDD": -100.865485,
        "gridlyProductionCertified": true,
        "gridlyClassification": "PUBLIC_ROADWAY",
        "gridlyDisplayName": "CO RD 13",
        "gridlyId": "FRA-275186B"
      }
    },
    {
      "type": "Feature",
      "id": 205685,
      "geometry": {
        "type": "Point",
        "coordinates": [
          -101.077613000363,
          35.0232086996815
        ]
      },
      "properties": {
        "OBJECTID": 205685,
        "CROSSING": "275282D",
        "EFFDATE": 1736812800000,
        "REASON": "14",
        "StateCode": "48",
        "CountyCode": "48129",
        "STCYFIPS": "48129",
        "CITYCD": "481291340",
        "RAILROAD": "BNSF",
        "RRDIV": "RED RIVER",
        "RRSUBDIV": "RED RIVER VALLEY",
        "HIGHWAY": "CO 0282",
        "STREET": "CR-1",
        "TTSTN": "673250",
        "MILEPOST": "0290.202",
        "TYPEXING": "Public",
        "POSXING": "At Grade",
        "PRVCAT": "14",
        "INIT": "1",
        "LATITUDE": 35.0232087,
        "LONGITUD": -101.077613,
        "LLSOURCE": "1",
        "WHISTBAN": "0",
        "RRCONT": "8173521549",
        "POLCONT": "8008325452",
        "INV_LINK": "https://safetydata.fra.dot.gov/OfficeofSafety/PublicSite/Crossing/Crossing.aspx?phasetype=C&rpttype=I&txtcrossingnum=275282D",
        "ACC_LINK": "https://safetydata.fra.dot.gov/OfficeofSafety/PublicSite/Crossing/Crossing.aspx?phasetype=C&rpttype=A&txtcrossingnum=275282D",
        "TTSTNNAM": "CLARENDON",
        "XPURPOSE": "1",
        "OPERATINGR": "BNSF",
        "OPERATIN_1": "Primary",
        "DAYTHRU": 7,
        "NGHTTHRU": 7,
        "MAINTRK": 1,
        "SIDINGTRK": 0,
        "YARDTRK": 0,
        "TRANSITTRK": 0,
        "INDUSTRYTR": 0,
        "OTHRTRK": 0,
        "WDCODE": "Crossbucks",
        "REVISIONDA": "1996/01/01 00:00:00",
        "LASTUPDATE": "1/14/2025",
        "AADT": "57",
        "AADTYEAR": "2019",
        "STATENAME": "TEXAS",
        "STATEAB": "TX",
        "COUNTYNAME": "DONLEY",
        "CITYNAME": "CLARENDON",
        "LATDD": 35.0232087,
        "LONGDD": -101.077613,
        "gridlyProductionCertified": true,
        "gridlyClassification": "PUBLIC_ROADWAY",
        "gridlyDisplayName": "CR-1",
        "gridlyId": "FRA-275282D"
      }
    },
    {
      "type": "Feature",
      "id": 205686,
      "geometry": {
        "type": "Point",
        "coordinates": [
          -100.805897999832,
          34.9123942998999
        ]
      },
      "properties": {
        "OBJECTID": 205686,
        "CROSSING": "275191X",
        "EFFDATE": 1736812800000,
        "REASON": "14",
        "StateCode": "48",
        "CountyCode": "48129",
        "STCYFIPS": "48129",
        "CITYCD": "481293933",
        "RAILROAD": "BNSF",
        "RRDIV": "RED RIVER",
        "RRSUBDIV": "RED RIVER VALLEY",
        "HIGHWAY": "Not Yet Reported by State",
        "STREET": "PRIVATE",
        "TTSTN": "673280",
        "MILEPOST": "0272.853",
        "TYPEXING": "Private",
        "POSXING": "At Grade",
        "PRVCAT": "14",
        "INIT": "1",
        "LATITUDE": 34.9123943,
        "LONGITUD": -100.805898,
        "LLSOURCE": "1",
        "WHISTBAN": "0",
        "RRCONT": "8173521549",
        "POLCONT": "8008325452",
        "INV_LINK": "https://safetydata.fra.dot.gov/OfficeofSafety/PublicSite/Crossing/Crossing.aspx?phasetype=C&rpttype=I&txtcrossingnum=275191X",
        "ACC_LINK": "https://safetydata.fra.dot.gov/OfficeofSafety/PublicSite/Crossing/Crossing.aspx?phasetype=C&rpttype=A&txtcrossingnum=275191X",
        "TTSTNNAM": "LELIA LAKE",
        "XPURPOSE": "1",
        "OPERATINGR": "BNSF",
        "OPERATIN_1": "Primary",
        "DAYTHRU": 7,
        "NGHTTHRU": 7,
        "MAINTRK": 1,
        "SIDINGTRK": 0,
        "YARDTRK": 0,
        "TRANSITTRK": 0,
        "INDUSTRYTR": 0,
        "OTHRTRK": 0,
        "WDCODE": "",
        "REVISIONDA": "1996/01/01 00:00:00",
        "LASTUPDATE": "1/14/2025",
        "AADT": "",
        "AADTYEAR": "1978",
        "STATENAME": "TEXAS",
        "STATEAB": "TX",
        "COUNTYNAME": "DONLEY",
        "CITYNAME": "LELIA LAKE",
        "LATDD": 34.9123943,
        "LONGDD": -100.805898,
        "gridlyProductionCertified": true,
        "gridlyClassification": "PUBLIC_ROADWAY",
        "gridlyDisplayName": "PRIVATE",
        "gridlyId": "FRA-275191X"
      }
    },
    {
      "type": "Feature",
      "id": 205687,
      "geometry": {
        "type": "Point",
        "coordinates": [
          -101.043490000223,
          35.0066007999823
        ]
      },
      "properties": {
        "OBJECTID": 205687,
        "CROSSING": "275284S",
        "EFFDATE": 1736812800000,
        "REASON": "14",
        "StateCode": "48",
        "CountyCode": "48129",
        "STCYFIPS": "48129",
        "CITYCD": "481291340",
        "RAILROAD": "BNSF",
        "RRDIV": "RED RIVER",
        "RRSUBDIV": "RED RIVER VALLEY",
        "HIGHWAY": "CO 0003",
        "STREET": "COUNTY ROAD",
        "TTSTN": "673250",
        "MILEPOST": "0287.952",
        "TYPEXING": "Public",
        "POSXING": "At Grade",
        "PRVCAT": "14",
        "INIT": "1",
        "LATITUDE": 35.0066008,
        "LONGITUD": -101.04349,
        "LLSOURCE": "1",
        "WHISTBAN": "0",
        "RRCONT": "8173521549",
        "POLCONT": "8008325452",
        "INV_LINK": "https://safetydata.fra.dot.gov/OfficeofSafety/PublicSite/Crossing/Crossing.aspx?phasetype=C&rpttype=I&txtcrossingnum=275284S",
        "ACC_LINK": "https://safetydata.fra.dot.gov/OfficeofSafety/PublicSite/Crossing/Crossing.aspx?phasetype=C&rpttype=A&txtcrossingnum=275284S",
        "TTSTNNAM": "CLARENDON",
        "XPURPOSE": "1",
        "OPERATINGR": "BNSF",
        "OPERATIN_1": "Primary",
        "DAYTHRU": 7,
        "NGHTTHRU": 6,
        "MAINTRK": 1,
        "SIDINGTRK": 1,
        "YARDTRK": 0,
        "TRANSITTRK": 0,
        "INDUSTRYTR": 0,
        "OTHRTRK": 1,
        "WDCODE": "All other Gates",
        "REVISIONDA": "1996/01/01 00:00:00",
        "LASTUPDATE": "1/14/2025",
        "AADT": "24",
        "AADTYEAR": "2019",
        "STATENAME": "TEXAS",
        "STATEAB": "TX",
        "COUNTYNAME": "DONLEY",
        "CITYNAME": "CLARENDON",
        "LATDD": 35.0066008,
        "LONGDD": -101.04349,
        "gridlyProductionCertified": true,
        "gridlyClassification": "PUBLIC_ROADWAY",
        "gridlyDisplayName": "COUNTY ROAD",
        "gridlyId": "FRA-275284S"
      }
    },
    {
      "type": "Feature",
      "id": 205690,
      "geometry": {
        "type": "Point",
        "coordinates": [
          -101.019125999986,
          34.9947312997902
        ]
      },
      "properties": {
        "OBJECTID": 205690,
        "CROSSING": "275286F",
        "EFFDATE": 1736812800000,
        "REASON": "14",
        "StateCode": "48",
        "CountyCode": "48129",
        "STCYFIPS": "48129",
        "CITYCD": "481291340",
        "RAILROAD": "BNSF",
        "RRDIV": "RED RIVER",
        "RRSUBDIV": "RED RIVER VALLEY",
        "HIGHWAY": "CO 0000",
        "STREET": "COUNTY ROAD",
        "TTSTN": "673250",
        "MILEPOST": "0286.340",
        "TYPEXING": "Public",
        "POSXING": "At Grade",
        "PRVCAT": "14",
        "INIT": "1",
        "LATITUDE": 34.9947313,
        "LONGITUD": -101.019126,
        "LLSOURCE": "1",
        "WHISTBAN": "0",
        "RRCONT": "8173521549",
        "POLCONT": "8008325452",
        "INV_LINK": "https://safetydata.fra.dot.gov/OfficeofSafety/PublicSite/Crossing/Crossing.aspx?phasetype=C&rpttype=I&txtcrossingnum=275286F",
        "ACC_LINK": "https://safetydata.fra.dot.gov/OfficeofSafety/PublicSite/Crossing/Crossing.aspx?phasetype=C&rpttype=A&txtcrossingnum=275286F",
        "TTSTNNAM": "CLARENDON",
        "XPURPOSE": "1",
        "OPERATINGR": "BNSF",
        "OPERATIN_1": "Primary",
        "DAYTHRU": 7,
        "NGHTTHRU": 7,
        "MAINTRK": 1,
        "SIDINGTRK": 0,
        "YARDTRK": 0,
        "TRANSITTRK": 0,
        "INDUSTRYTR": 0,
        "OTHRTRK": 0,
        "WDCODE": "All other Gates",
        "REVISIONDA": "1996/01/01 00:00:00",
        "LASTUPDATE": "1/14/2025",
        "AADT": "000085",
        "AADTYEAR": "1978",
        "STATENAME": "TEXAS",
        "STATEAB": "TX",
        "COUNTYNAME": "DONLEY",
        "CITYNAME": "CLARENDON",
        "LATDD": 34.9947313,
        "LONGDD": -101.019126,
        "gridlyProductionCertified": true,
        "gridlyClassification": "PUBLIC_ROADWAY",
        "gridlyDisplayName": "COUNTY ROAD",
        "gridlyId": "FRA-275286F"
      }
    },
    {
      "type": "Feature",
      "id": 205691,
      "geometry": {
        "type": "Point",
        "coordinates": [
          -100.995885999681,
          34.9826970999385
        ]
      },
      "properties": {
        "OBJECTID": 205691,
        "CROSSING": "275288U",
        "EFFDATE": 1736812800000,
        "REASON": "14",
        "StateCode": "48",
        "CountyCode": "48129",
        "STCYFIPS": "48129",
        "CITYCD": "481291340",
        "RAILROAD": "BNSF",
        "RRDIV": "RED RIVER",
        "RRSUBDIV": "RED RIVER VALLEY",
        "HIGHWAY": "Not Yet Reported by State",
        "STREET": "CO RD 6",
        "TTSTN": "673250",
        "MILEPOST": "0284.786",
        "TYPEXING": "Public",
        "POSXING": "At Grade",
        "PRVCAT": "14",
        "INIT": "1",
        "LATITUDE": 34.9826971,
        "LONGITUD": -100.995886,
        "LLSOURCE": "1",
        "WHISTBAN": "0",
        "RRCONT": "8173521549",
        "POLCONT": "8008325452",
        "INV_LINK": "https://safetydata.fra.dot.gov/OfficeofSafety/PublicSite/Crossing/Crossing.aspx?phasetype=C&rpttype=I&txtcrossingnum=275288U",
        "ACC_LINK": "https://safetydata.fra.dot.gov/OfficeofSafety/PublicSite/Crossing/Crossing.aspx?phasetype=C&rpttype=A&txtcrossingnum=275288U",
        "TTSTNNAM": "CLARENDON",
        "XPURPOSE": "1",
        "OPERATINGR": "BNSF",
        "OPERATIN_1": "Primary",
        "DAYTHRU": 7,
        "NGHTTHRU": 7,
        "MAINTRK": 1,
        "SIDINGTRK": 0,
        "YARDTRK": 0,
        "TRANSITTRK": 0,
        "INDUSTRYTR": 0,
        "OTHRTRK": 0,
        "WDCODE": "Crossbucks",
        "REVISIONDA": "1996/01/01 00:00:00",
        "LASTUPDATE": "1/14/2025",
        "AADT": "40",
        "AADTYEAR": "2019",
        "STATENAME": "TEXAS",
        "STATEAB": "TX",
        "COUNTYNAME": "DONLEY",
        "CITYNAME": "CLARENDON",
        "LATDD": 34.9826971,
        "LONGDD": -100.995886,
        "gridlyProductionCertified": true,
        "gridlyClassification": "PUBLIC_ROADWAY",
        "gridlyDisplayName": "CO RD 6",
        "gridlyId": "FRA-275288U"
      }
    },
    {
      "type": "Feature",
      "id": 205698,
      "geometry": {
        "type": "Point",
        "coordinates": [
          -100.98047000031,
          34.9743679000171
        ]
      },
      "properties": {
        "OBJECTID": 205698,
        "CROSSING": "275289B",
        "EFFDATE": 1736812800000,
        "REASON": "14",
        "StateCode": "48",
        "CountyCode": "48129",
        "STCYFIPS": "48129",
        "CITYCD": "481291340",
        "RAILROAD": "BNSF",
        "RRDIV": "RED RIVER",
        "RRSUBDIV": "RED RIVER VALLEY",
        "HIGHWAY": "CO 0000",
        "STREET": "CR 7",
        "TTSTN": "673250",
        "MILEPOST": "0283.738",
        "TYPEXING": "Public",
        "POSXING": "At Grade",
        "PRVCAT": "14",
        "INIT": "1",
        "LATITUDE": 34.9743679,
        "LONGITUD": -100.98047,
        "LLSOURCE": "1",
        "WHISTBAN": "0",
        "RRCONT": "8173521549",
        "POLCONT": "8008325452",
        "INV_LINK": "https://safetydata.fra.dot.gov/OfficeofSafety/PublicSite/Crossing/Crossing.aspx?phasetype=C&rpttype=I&txtcrossingnum=275289B",
        "ACC_LINK": "https://safetydata.fra.dot.gov/OfficeofSafety/PublicSite/Crossing/Crossing.aspx?phasetype=C&rpttype=A&txtcrossingnum=275289B",
        "TTSTNNAM": "CLARENDON",
        "XPURPOSE": "1",
        "OPERATINGR": "BNSF",
        "OPERATIN_1": "Primary",
        "DAYTHRU": 7,
        "NGHTTHRU": 7,
        "MAINTRK": 1,
        "SIDINGTRK": 0,
        "YARDTRK": 0,
        "TRANSITTRK": 0,
        "INDUSTRYTR": 0,
        "OTHRTRK": 0,
        "WDCODE": "Crossbucks",
        "REVISIONDA": "1996/01/01 00:00:00",
        "LASTUPDATE": "1/14/2025",
        "AADT": "16",
        "AADTYEAR": "2019",
        "STATENAME": "TEXAS",
        "STATEAB": "TX",
        "COUNTYNAME": "DONLEY",
        "CITYNAME": "CLARENDON",
        "LATDD": 34.9743679,
        "LONGDD": -100.98047,
        "gridlyProductionCertified": true,
        "gridlyClassification": "PUBLIC_ROADWAY",
        "gridlyDisplayName": "CR 7",
        "gridlyId": "FRA-275289B"
      }
    },
    {
      "type": "Feature",
      "id": 205752,
      "geometry": {
        "type": "Point",
        "coordinates": [
          -100.971596999788,
          34.9722007002434
        ]
      },
      "properties": {
        "OBJECTID": 205752,
        "CROSSING": "275290V",
        "EFFDATE": 1736812800000,
        "REASON": "14",
        "StateCode": "48",
        "CountyCode": "48129",
        "STCYFIPS": "48129",
        "CITYCD": "481291340",
        "RAILROAD": "BNSF",
        "RRDIV": "RED RIVER",
        "RRSUBDIV": "RED RIVER VALLEY",
        "HIGHWAY": "CO 0296",
        "STREET": "CR-7A",
        "TTSTN": "673250",
        "MILEPOST": "0283.211",
        "TYPEXING": "Public",
        "POSXING": "At Grade",
        "PRVCAT": "14",
        "INIT": "1",
        "LATITUDE": 34.9722007,
        "LONGITUD": -100.971597,
        "LLSOURCE": "1",
        "WHISTBAN": "0",
        "RRCONT": "8173521549",
        "POLCONT": "8008325452",
        "INV_LINK": "https://safetydata.fra.dot.gov/OfficeofSafety/PublicSite/Crossing/Crossing.aspx?phasetype=C&rpttype=I&txtcrossingnum=275290V",
        "ACC_LINK": "https://safetydata.fra.dot.gov/OfficeofSafety/PublicSite/Crossing/Crossing.aspx?phasetype=C&rpttype=A&txtcrossingnum=275290V",
        "TTSTNNAM": "CLARENDON",
        "XPURPOSE": "1",
        "OPERATINGR": "BNSF",
        "OPERATIN_1": "Primary",
        "DAYTHRU": 7,
        "NGHTTHRU": 7,
        "MAINTRK": 1,
        "SIDINGTRK": 0,
        "YARDTRK": 0,
        "TRANSITTRK": 0,
        "INDUSTRYTR": 0,
        "OTHRTRK": 0,
        "WDCODE": "Crossbucks",
        "REVISIONDA": "1996/01/01 00:00:00",
        "LASTUPDATE": "1/14/2025",
        "AADT": "2",
        "AADTYEAR": "2019",
        "STATENAME": "TEXAS",
        "STATEAB": "TX",
        "COUNTYNAME": "DONLEY",
        "CITYNAME": "CLARENDON",
        "LATDD": 34.9722007,
        "LONGDD": -100.971597,
        "gridlyProductionCertified": true,
        "gridlyClassification": "PUBLIC_ROADWAY",
        "gridlyDisplayName": "CR-7A",
        "gridlyId": "FRA-275290V"
      }
    },
    {
      "type": "Feature",
      "id": 205753,
      "geometry": {
        "type": "Point",
        "coordinates": [
          -100.928322000363,
          34.9596496001297
        ]
      },
      "properties": {
        "OBJECTID": 205753,
        "CROSSING": "275294X",
        "EFFDATE": 1736812800000,
        "REASON": "14",
        "StateCode": "48",
        "CountyCode": "48129",
        "STCYFIPS": "48129",
        "CITYCD": "481291340",
        "RAILROAD": "BNSF",
        "RRDIV": "RED RIVER",
        "RRSUBDIV": "RED RIVER VALLEY",
        "HIGHWAY": "FM 3257",
        "STREET": "FM ROAD 3257",
        "TTSTN": "673250",
        "MILEPOST": "0280.597",
        "TYPEXING": "Public",
        "POSXING": "At Grade",
        "PRVCAT": "14",
        "INIT": "1",
        "LATITUDE": 34.9596496,
        "LONGITUD": -100.928322,
        "LLSOURCE": "1",
        "WHISTBAN": "0",
        "RRCONT": "8173521549",
        "POLCONT": "8008325452",
        "INV_LINK": "https://safetydata.fra.dot.gov/OfficeofSafety/PublicSite/Crossing/Crossing.aspx?phasetype=C&rpttype=I&txtcrossingnum=275294X",
        "ACC_LINK": "https://safetydata.fra.dot.gov/OfficeofSafety/PublicSite/Crossing/Crossing.aspx?phasetype=C&rpttype=A&txtcrossingnum=275294X",
        "TTSTNNAM": "CLARENDON",
        "XPURPOSE": "1",
        "OPERATINGR": "BNSF",
        "OPERATIN_1": "Primary",
        "DAYTHRU": 7,
        "NGHTTHRU": 7,
        "MAINTRK": 1,
        "SIDINGTRK": 0,
        "YARDTRK": 0,
        "TRANSITTRK": 0,
        "INDUSTRYTR": 0,
        "OTHRTRK": 0,
        "WDCODE": "All other Gates",
        "REVISIONDA": "1996/01/01 00:00:00",
        "LASTUPDATE": "1/14/2025",
        "AADT": "153",
        "AADTYEAR": "2019",
        "STATENAME": "TEXAS",
        "STATEAB": "TX",
        "COUNTYNAME": "DONLEY",
        "CITYNAME": "CLARENDON",
        "LATDD": 34.9596496,
        "LONGDD": -100.928322,
        "gridlyProductionCertified": true,
        "gridlyClassification": "PUBLIC_ROADWAY",
        "gridlyDisplayName": "FM ROAD 3257",
        "gridlyId": "FRA-275294X"
      }
    },
    {
      "type": "Feature",
      "id": 205866,
      "geometry": {
        "type": "Point",
        "coordinates": [
          -100.891983999972,
          34.9416070000101
        ]
      },
      "properties": {
        "OBJECTID": 205866,
        "CROSSING": "967568J",
        "EFFDATE": 1736985600000,
        "REASON": "14",
        "StateCode": "48",
        "CountyCode": "48129",
        "STCYFIPS": "48129",
        "CITYCD": "481291340",
        "RAILROAD": "BNSF",
        "RRDIV": "RED RIVER",
        "RRSUBDIV": "RED RIVER VALLEY",
        "HIGHWAY": "NOT YET REPORTED BY STATE",
        "STREET": "ELLERBIE",
        "TTSTN": "",
        "MILEPOST": "0278.186",
        "TYPEXING": "Public",
        "POSXING": "RR Over",
        "PRVCAT": "14",
        "INIT": "1",
        "LATITUDE": 34.941607,
        "LONGITUD": -100.891984,
        "LLSOURCE": "1",
        "WHISTBAN": "",
        "RRCONT": "8173521549",
        "POLCONT": "8008325452",
        "INV_LINK": "https://safetydata.fra.dot.gov/OfficeofSafety/PublicSite/Crossing/Crossing.aspx?phasetype=C&rpttype=I&txtcrossingnum=967568J",
        "ACC_LINK": "https://safetydata.fra.dot.gov/OfficeofSafety/PublicSite/Crossing/Crossing.aspx?phasetype=C&rpttype=A&txtcrossingnum=967568J",
        "TTSTNNAM": "",
        "XPURPOSE": "1",
        "OPERATINGR": "BNSF",
        "OPERATIN_1": "Primary",
        "DAYTHRU": 7,
        "NGHTTHRU": 7,
        "MAINTRK": 1,
        "SIDINGTRK": 0,
        "YARDTRK": 0,
        "TRANSITTRK": 0,
        "INDUSTRYTR": 0,
        "OTHRTRK": 0,
        "WDCODE": "",
        "REVISIONDA": "1996/01/01 00:00:00",
        "LASTUPDATE": "1/16/2025",
        "AADT": "",
        "AADTYEAR": "",
        "STATENAME": "TEXAS",
        "STATEAB": "TX",
        "COUNTYNAME": "DONLEY",
        "CITYNAME": "CLARENDON",
        "LATDD": 34.941607,
        "LONGDD": -100.891984,
        "gridlyProductionCertified": true,
        "gridlyClassification": "PUBLIC_ROADWAY",
        "gridlyDisplayName": "ELLERBIE",
        "gridlyId": "FRA-967568J"
      }
    }
  ]
}
