{
  "type": "FeatureCollection",
  "features": [
    {
      "type": "Feature",
      "id": 200545,
      "geometry": {
        "type": "Point",
        "coordinates": [
          -101.398575000327,
          35.6459899998254
        ]
      },
      "properties": {
        "OBJECTID": 200545,
        "CROSSING": "016965G",
        "EFFDATE": 1766016000000,
        "REASON": "14",
        "StateCode": "48",
        "CountyCode": "48233",
        "STCYFIPS": "48233",
        "CITYCD": "482330780",
        "RAILROAD": "PNR",
        "RRDIV": "EASTERN",
        "RRSUBDIV": "BORGER",
        "HIGHWAY": "sh0207",
        "STREET": "SH0207 texas plains trail",
        "TTSTN": "671685",
        "MILEPOST": "0026.46",
        "TYPEXING": "Public",
        "POSXING": "RR Under",
        "PRVCAT": "14",
        "INIT": "2",
        "LATITUDE": 35.64599,
        "LONGITUD": -101.398575,
        "LLSOURCE": "1",
        "WHISTBAN": "0",
        "RRCONT": "",
        "POLCONT": "",
        "INV_LINK": "https://safetydata.fra.dot.gov/OfficeofSafety/PublicSite/Crossing/Crossing.aspx?phasetype=C&rpttype=I&txtcrossingnum=016965G",
        "ACC_LINK": "https://safetydata.fra.dot.gov/OfficeofSafety/PublicSite/Crossing/Crossing.aspx?phasetype=C&rpttype=A&txtcrossingnum=016965G",
        "TTSTNNAM": "BORGER",
        "XPURPOSE": "1",
        "OPERATINGR": "PNR",
        "OPERATIN_1": "Primary",
        "DAYTHRU": 0,
        "NGHTTHRU": 0,
        "MAINTRK": 0,
        "SIDINGTRK": 0,
        "YARDTRK": 0,
        "TRANSITTRK": 0,
        "INDUSTRYTR": 0,
        "OTHRTRK": 0,
        "WDCODE": "",
        "REVISIONDA": "1994/01/01 00:00:00",
        "LASTUPDATE": "12/18/2025",
        "AADT": "3067",
        "AADTYEAR": "2024",
        "STATENAME": "TEXAS",
        "STATEAB": "TX",
        "COUNTYNAME": "HUTCHINSON",
        "CITYNAME": "BORGER",
        "LATDD": 35.64599,
        "LONGDD": -101.398575,
        "gridlyProductionCertified": true,
        "gridlyClassification": "PUBLIC_ROADWAY",
        "gridlyDisplayName": "SH0207 texas plains trail",
        "gridlyId": "FRA-016965G"
      }
    },
    {
      "type": "Feature",
      "id": 200584,
      "geometry": {
        "type": "Point",
        "coordinates": [
          -101.508079999974,
          35.7514109997966
        ]
      },
      "properties": {
        "OBJECTID": 200584,
        "CROSSING": "016996F",
        "EFFDATE": 713664000000,
        "REASON": "14",
        "StateCode": "48",
        "CountyCode": "48233",
        "STCYFIPS": "48233",
        "CITYCD": "482330780",
        "RAILROAD": "PNR",
        "RRDIV": "EASTERN",
        "RRSUBDIV": "BORGER",
        "HIGHWAY": "NONE",
        "STREET": "NONE",
        "TTSTN": "671685",
        "MILEPOST": "0030.65",
        "TYPEXING": "Private",
        "POSXING": "At Grade",
        "PRVCAT": "14",
        "INIT": "1",
        "LATITUDE": 35.751411,
        "LONGITUD": -101.50808,
        "LLSOURCE": "",
        "WHISTBAN": "0",
        "RRCONT": "",
        "POLCONT": "",
        "INV_LINK": "https://safetydata.fra.dot.gov/OfficeofSafety/PublicSite/Crossing/Crossing.aspx?phasetype=C&rpttype=I&txtcrossingnum=016996F",
        "ACC_LINK": "https://safetydata.fra.dot.gov/OfficeofSafety/PublicSite/Crossing/Crossing.aspx?phasetype=C&rpttype=A&txtcrossingnum=016996F",
        "TTSTNNAM": "BORGER",
        "XPURPOSE": "1",
        "OPERATINGR": "PNR",
        "OPERATIN_1": "Primary",
        "DAYTHRU": 0,
        "NGHTTHRU": 0,
        "MAINTRK": 0,
        "SIDINGTRK": 0,
        "YARDTRK": 0,
        "TRANSITTRK": 0,
        "INDUSTRYTR": 0,
        "OTHRTRK": 0,
        "WDCODE": "",
        "REVISIONDA": "1994/01/01 00:00:00",
        "LASTUPDATE": "8/13/1992",
        "AADT": "",
        "AADTYEAR": "1981",
        "STATENAME": "TEXAS",
        "STATEAB": "TX",
        "COUNTYNAME": "HUTCHINSON",
        "CITYNAME": "BORGER",
        "LATDD": 35.751411,
        "LONGDD": -101.50808,
        "gridlyProductionCertified": true,
        "gridlyClassification": "PUBLIC_ROADWAY",
        "gridlyDisplayName": "NONE",
        "gridlyId": "FRA-016996F"
      }
    },
    {
      "type": "Feature",
      "id": 200585,
      "geometry": {
        "type": "Point",
        "coordinates": [
          -101.399825999582,
          35.6392900002306
        ]
      },
      "properties": {
        "OBJECTID": 200585,
        "CROSSING": "016986A",
        "EFFDATE": 713664000000,
        "REASON": "14",
        "StateCode": "48",
        "CountyCode": "48233",
        "STCYFIPS": "48233",
        "CITYCD": "482330780",
        "RAILROAD": "PNR",
        "RRDIV": "EASTERN",
        "RRSUBDIV": "BORGER",
        "HIGHWAY": "",
        "STREET": "PRIVATE ROAD",
        "TTSTN": "671685",
        "MILEPOST": "0001.63",
        "TYPEXING": "Private",
        "POSXING": "At Grade",
        "PRVCAT": "14",
        "INIT": "1",
        "LATITUDE": 35.63929,
        "LONGITUD": -101.399826,
        "LLSOURCE": "",
        "WHISTBAN": "0",
        "RRCONT": "",
        "POLCONT": "",
        "INV_LINK": "https://safetydata.fra.dot.gov/OfficeofSafety/PublicSite/Crossing/Crossing.aspx?phasetype=C&rpttype=I&txtcrossingnum=016986A",
        "ACC_LINK": "https://safetydata.fra.dot.gov/OfficeofSafety/PublicSite/Crossing/Crossing.aspx?phasetype=C&rpttype=A&txtcrossingnum=016986A",
        "TTSTNNAM": "BORGER",
        "XPURPOSE": "1",
        "OPERATINGR": "PNR",
        "OPERATIN_1": "Primary",
        "DAYTHRU": 0,
        "NGHTTHRU": 0,
        "MAINTRK": 0,
        "SIDINGTRK": 0,
        "YARDTRK": 0,
        "TRANSITTRK": 0,
        "INDUSTRYTR": 0,
        "OTHRTRK": 0,
        "WDCODE": "",
        "REVISIONDA": "1994/01/01 00:00:00",
        "LASTUPDATE": "8/13/1992",
        "AADT": "",
        "AADTYEAR": "1970",
        "STATENAME": "TEXAS",
        "STATEAB": "TX",
        "COUNTYNAME": "HUTCHINSON",
        "CITYNAME": "BORGER",
        "LATDD": 35.63929,
        "LONGDD": -101.399826,
        "gridlyProductionCertified": true,
        "gridlyClassification": "PUBLIC_ROADWAY",
        "gridlyDisplayName": "PRIVATE ROAD",
        "gridlyId": "FRA-016986A"
      }
    },
    {
      "type": "Feature",
      "id": 200586,
      "geometry": {
        "type": "Point",
        "coordinates": [
          -101.398010000438,
          35.6464690001351
        ]
      },
      "properties": {
        "OBJECTID": 200586,
        "CROSSING": "016985T",
        "EFFDATE": 713664000000,
        "REASON": "14",
        "StateCode": "48",
        "CountyCode": "48233",
        "STCYFIPS": "48233",
        "CITYCD": "482330780",
        "RAILROAD": "PNR",
        "RRDIV": "EASTERN",
        "RRSUBDIV": "BORGER",
        "HIGHWAY": "",
        "STREET": "PRIVATE ROAD",
        "TTSTN": "671685",
        "MILEPOST": "0001.11",
        "TYPEXING": "Private",
        "POSXING": "At Grade",
        "PRVCAT": "14",
        "INIT": "1",
        "LATITUDE": 35.646469,
        "LONGITUD": -101.39801,
        "LLSOURCE": "",
        "WHISTBAN": "0",
        "RRCONT": "",
        "POLCONT": "",
        "INV_LINK": "https://safetydata.fra.dot.gov/OfficeofSafety/PublicSite/Crossing/Crossing.aspx?phasetype=C&rpttype=I&txtcrossingnum=016985T",
        "ACC_LINK": "https://safetydata.fra.dot.gov/OfficeofSafety/PublicSite/Crossing/Crossing.aspx?phasetype=C&rpttype=A&txtcrossingnum=016985T",
        "TTSTNNAM": "BORGER",
        "XPURPOSE": "1",
        "OPERATINGR": "PNR",
        "OPERATIN_1": "Primary",
        "DAYTHRU": 0,
        "NGHTTHRU": 0,
        "MAINTRK": 0,
        "SIDINGTRK": 0,
        "YARDTRK": 0,
        "TRANSITTRK": 0,
        "INDUSTRYTR": 0,
        "OTHRTRK": 0,
        "WDCODE": "",
        "REVISIONDA": "1994/01/01 00:00:00",
        "LASTUPDATE": "8/13/1992",
        "AADT": "",
        "AADTYEAR": "1970",
        "STATENAME": "TEXAS",
        "STATEAB": "TX",
        "COUNTYNAME": "HUTCHINSON",
        "CITYNAME": "BORGER",
        "LATDD": 35.646469,
        "LONGDD": -101.39801,
        "gridlyProductionCertified": true,
        "gridlyClassification": "PUBLIC_ROADWAY",
        "gridlyDisplayName": "PRIVATE ROAD",
        "gridlyId": "FRA-016985T"
      }
    },
    {
      "type": "Feature",
      "id": 200600,
      "geometry": {
        "type": "Point",
        "coordinates": [
          -101.509932999826,
          35.7503430002531
        ]
      },
      "properties": {
        "OBJECTID": 200600,
        "CROSSING": "016991W",
        "EFFDATE": 713664000000,
        "REASON": "14",
        "StateCode": "48",
        "CountyCode": "48233",
        "STCYFIPS": "48233",
        "CITYCD": "482330780",
        "RAILROAD": "PNR",
        "RRDIV": "EASTERN",
        "RRSUBDIV": "BORGER",
        "HIGHWAY": "",
        "STREET": "MARLANDST",
        "TTSTN": "671685",
        "MILEPOST": "0031.07",
        "TYPEXING": "Private",
        "POSXING": "At Grade",
        "PRVCAT": "14",
        "INIT": "1",
        "LATITUDE": 35.750343,
        "LONGITUD": -101.509933,
        "LLSOURCE": "",
        "WHISTBAN": "0",
        "RRCONT": "",
        "POLCONT": "",
        "INV_LINK": "https://safetydata.fra.dot.gov/OfficeofSafety/PublicSite/Crossing/Crossing.aspx?phasetype=C&rpttype=I&txtcrossingnum=016991W",
        "ACC_LINK": "https://safetydata.fra.dot.gov/OfficeofSafety/PublicSite/Crossing/Crossing.aspx?phasetype=C&rpttype=A&txtcrossingnum=016991W",
        "TTSTNNAM": "BORGER",
        "XPURPOSE": "1",
        "OPERATINGR": "PNR",
        "OPERATIN_1": "Primary",
        "DAYTHRU": 0,
        "NGHTTHRU": 0,
        "MAINTRK": 0,
        "SIDINGTRK": 0,
        "YARDTRK": 0,
        "TRANSITTRK": 0,
        "INDUSTRYTR": 0,
        "OTHRTRK": 0,
        "WDCODE": "",
        "REVISIONDA": "1994/01/01 00:00:00",
        "LASTUPDATE": "8/13/1992",
        "AADT": "",
        "AADTYEAR": "1976",
        "STATENAME": "TEXAS",
        "STATEAB": "TX",
        "COUNTYNAME": "HUTCHINSON",
        "CITYNAME": "BORGER",
        "LATDD": 35.750343,
        "LONGDD": -101.509933,
        "gridlyProductionCertified": true,
        "gridlyClassification": "PUBLIC_ROADWAY",
        "gridlyDisplayName": "MARLANDST",
        "gridlyId": "FRA-016991W"
      }
    },
    {
      "type": "Feature",
      "id": 200602,
      "geometry": {
        "type": "Point",
        "coordinates": [
          -101.508040999616,
          35.7514310001784
        ]
      },
      "properties": {
        "OBJECTID": 200602,
        "CROSSING": "016974F",
        "EFFDATE": 713664000000,
        "REASON": "14",
        "StateCode": "48",
        "CountyCode": "48233",
        "STCYFIPS": "48233",
        "CITYCD": "482330780",
        "RAILROAD": "PNR",
        "RRDIV": "EASTERN",
        "RRSUBDIV": "BORGER",
        "HIGHWAY": "",
        "STREET": "PRIVATE ROAD",
        "TTSTN": "671685",
        "MILEPOST": "0029.88",
        "TYPEXING": "Private",
        "POSXING": "At Grade",
        "PRVCAT": "14",
        "INIT": "1",
        "LATITUDE": 35.751431,
        "LONGITUD": -101.508041,
        "LLSOURCE": "",
        "WHISTBAN": "0",
        "RRCONT": "",
        "POLCONT": "",
        "INV_LINK": "https://safetydata.fra.dot.gov/OfficeofSafety/PublicSite/Crossing/Crossing.aspx?phasetype=C&rpttype=I&txtcrossingnum=016974F",
        "ACC_LINK": "https://safetydata.fra.dot.gov/OfficeofSafety/PublicSite/Crossing/Crossing.aspx?phasetype=C&rpttype=A&txtcrossingnum=016974F",
        "TTSTNNAM": "BORGER",
        "XPURPOSE": "1",
        "OPERATINGR": "PNR",
        "OPERATIN_1": "Primary",
        "DAYTHRU": 0,
        "NGHTTHRU": 0,
        "MAINTRK": 0,
        "SIDINGTRK": 0,
        "YARDTRK": 0,
        "TRANSITTRK": 0,
        "INDUSTRYTR": 0,
        "OTHRTRK": 0,
        "WDCODE": "",
        "REVISIONDA": "1994/01/01 00:00:00",
        "LASTUPDATE": "8/13/1992",
        "AADT": "",
        "AADTYEAR": "1970",
        "STATENAME": "TEXAS",
        "STATEAB": "TX",
        "COUNTYNAME": "HUTCHINSON",
        "CITYNAME": "BORGER",
        "LATDD": 35.751431,
        "LONGDD": -101.508041,
        "gridlyProductionCertified": true,
        "gridlyClassification": "PUBLIC_ROADWAY",
        "gridlyDisplayName": "PRIVATE ROAD",
        "gridlyId": "FRA-016974F"
      }
    },
    {
      "type": "Feature",
      "id": 200607,
      "geometry": {
        "type": "Point",
        "coordinates": [
          -101.42232500027,
          35.6464649997543
        ]
      },
      "properties": {
        "OBJECTID": 200607,
        "CROSSING": "016998U",
        "EFFDATE": 713664000000,
        "REASON": "14",
        "StateCode": "48",
        "CountyCode": "48065",
        "STCYFIPS": "48065",
        "CITYCD": "482330780",
        "RAILROAD": "PNR",
        "RRDIV": "EASTERN",
        "RRSUBDIV": "BORGER",
        "HIGHWAY": "",
        "STREET": "PRIVATE ROAD",
        "TTSTN": "671685",
        "MILEPOST": "0022.75",
        "TYPEXING": "Private",
        "POSXING": "At Grade",
        "PRVCAT": "14",
        "INIT": "1",
        "LATITUDE": 35.646465,
        "LONGITUD": -101.422325,
        "LLSOURCE": "",
        "WHISTBAN": "0",
        "RRCONT": "",
        "POLCONT": "",
        "INV_LINK": "https://safetydata.fra.dot.gov/OfficeofSafety/PublicSite/Crossing/Crossing.aspx?phasetype=C&rpttype=I&txtcrossingnum=016998U",
        "ACC_LINK": "https://safetydata.fra.dot.gov/OfficeofSafety/PublicSite/Crossing/Crossing.aspx?phasetype=C&rpttype=A&txtcrossingnum=016998U",
        "TTSTNNAM": "BORGER",
        "XPURPOSE": "1",
        "OPERATINGR": "PNR",
        "OPERATIN_1": "Primary",
        "DAYTHRU": 0,
        "NGHTTHRU": 0,
        "MAINTRK": 0,
        "SIDINGTRK": 0,
        "YARDTRK": 0,
        "TRANSITTRK": 0,
        "INDUSTRYTR": 0,
        "OTHRTRK": 0,
        "WDCODE": "",
        "REVISIONDA": "1994/01/01 00:00:00",
        "LASTUPDATE": "8/13/1992",
        "AADT": "",
        "AADTYEAR": "1984",
        "STATENAME": "TEXAS",
        "STATEAB": "TX",
        "COUNTYNAME": "CARSON",
        "CITYNAME": "BORGER",
        "LATDD": 35.646465,
        "LONGDD": -101.422325,
        "gridlyProductionCertified": true,
        "gridlyClassification": "PUBLIC_ROADWAY",
        "gridlyDisplayName": "PRIVATE ROAD",
        "gridlyId": "FRA-016998U"
      }
    },
    {
      "type": "Feature",
      "id": 200644,
      "geometry": {
        "type": "Point",
        "coordinates": [
          -101.497474999973,
          35.7568700003233
        ]
      },
      "properties": {
        "OBJECTID": 200644,
        "CROSSING": "016978H",
        "EFFDATE": 1045699200000,
        "REASON": "14",
        "StateCode": "48",
        "CountyCode": "48233",
        "STCYFIPS": "48233",
        "CITYCD": "482330780",
        "RAILROAD": "PNR",
        "RRDIV": "EASTERN",
        "RRSUBDIV": "BORGER",
        "HIGHWAY": "CO 0000",
        "STREET": "PRAIRIE ST",
        "TTSTN": "671685",
        "MILEPOST": "0030.90",
        "TYPEXING": "Private",
        "POSXING": "At Grade",
        "PRVCAT": "14",
        "INIT": "2",
        "LATITUDE": 35.75687,
        "LONGITUD": -101.497475,
        "LLSOURCE": "",
        "WHISTBAN": "0",
        "RRCONT": "",
        "POLCONT": "",
        "INV_LINK": "https://safetydata.fra.dot.gov/OfficeofSafety/PublicSite/Crossing/Crossing.aspx?phasetype=C&rpttype=I&txtcrossingnum=016978H",
        "ACC_LINK": "https://safetydata.fra.dot.gov/OfficeofSafety/PublicSite/Crossing/Crossing.aspx?phasetype=C&rpttype=A&txtcrossingnum=016978H",
        "TTSTNNAM": "BORGER",
        "XPURPOSE": "1",
        "OPERATINGR": "PNR",
        "OPERATIN_1": "Primary",
        "DAYTHRU": 0,
        "NGHTTHRU": 0,
        "MAINTRK": 1,
        "SIDINGTRK": 0,
        "YARDTRK": 0,
        "TRANSITTRK": 0,
        "INDUSTRYTR": 0,
        "OTHRTRK": 0,
        "WDCODE": "Crossbucks",
        "REVISIONDA": "1994/01/01 00:00:00",
        "LASTUPDATE": "2/20/2003",
        "AADT": "001680",
        "AADTYEAR": "1993",
        "STATENAME": "TEXAS",
        "STATEAB": "TX",
        "COUNTYNAME": "HUTCHINSON",
        "CITYNAME": "BORGER",
        "LATDD": 35.75687,
        "LONGDD": -101.497475,
        "gridlyProductionCertified": true,
        "gridlyClassification": "PUBLIC_ROADWAY",
        "gridlyDisplayName": "PRAIRIE ST",
        "gridlyId": "FRA-016978H"
      }
    },
    {
      "type": "Feature",
      "id": 200645,
      "geometry": {
        "type": "Point",
        "coordinates": [
          -101.382811999729,
          35.6640660001395
        ]
      },
      "properties": {
        "OBJECTID": 200645,
        "CROSSING": "016979P",
        "EFFDATE": 1045699200000,
        "REASON": "14",
        "StateCode": "48",
        "CountyCode": "48233",
        "STCYFIPS": "48233",
        "CITYCD": "482330780",
        "RAILROAD": "PNR",
        "RRDIV": "EASTERN",
        "RRSUBDIV": "BORGER",
        "HIGHWAY": "CO 0000",
        "STREET": "PRIVATE",
        "TTSTN": "671685",
        "MILEPOST": "0000.06",
        "TYPEXING": "Private",
        "POSXING": "At Grade",
        "PRVCAT": "14",
        "INIT": "2",
        "LATITUDE": 35.664066,
        "LONGITUD": -101.382812,
        "LLSOURCE": "",
        "WHISTBAN": "0",
        "RRCONT": "",
        "POLCONT": "",
        "INV_LINK": "https://safetydata.fra.dot.gov/OfficeofSafety/PublicSite/Crossing/Crossing.aspx?phasetype=C&rpttype=I&txtcrossingnum=016979P",
        "ACC_LINK": "https://safetydata.fra.dot.gov/OfficeofSafety/PublicSite/Crossing/Crossing.aspx?phasetype=C&rpttype=A&txtcrossingnum=016979P",
        "TTSTNNAM": "BORGER",
        "XPURPOSE": "1",
        "OPERATINGR": "PNR",
        "OPERATIN_1": "Primary",
        "DAYTHRU": 0,
        "NGHTTHRU": 0,
        "MAINTRK": 0,
        "SIDINGTRK": 0,
        "YARDTRK": 0,
        "TRANSITTRK": 0,
        "INDUSTRYTR": 1,
        "OTHRTRK": 1,
        "WDCODE": "Crossbucks",
        "REVISIONDA": "1994/01/01 00:00:00",
        "LASTUPDATE": "2/20/2003",
        "AADT": "000940",
        "AADTYEAR": "1987",
        "STATENAME": "TEXAS",
        "STATEAB": "TX",
        "COUNTYNAME": "HUTCHINSON",
        "CITYNAME": "BORGER",
        "LATDD": 35.664066,
        "LONGDD": -101.382812,
        "gridlyProductionCertified": true,
        "gridlyClassification": "PUBLIC_ROADWAY",
        "gridlyDisplayName": "PRIVATE",
        "gridlyId": "FRA-016979P"
      }
    },
    {
      "type": "Feature",
      "id": 200728,
      "geometry": {
        "type": "Point",
        "coordinates": [
          -101.46770500034,
          35.7564389998116
        ]
      },
      "properties": {
        "OBJECTID": 200728,
        "CROSSING": "016970D",
        "EFFDATE": 1106092800000,
        "REASON": "14",
        "StateCode": "48",
        "CountyCode": "48233",
        "STCYFIPS": "48233",
        "CITYCD": "482330780",
        "RAILROAD": "PNR",
        "RRDIV": "EASTERN",
        "RRSUBDIV": "BORGER",
        "HIGHWAY": "ST 0000",
        "STREET": "NINTH ST",
        "TTSTN": "671685",
        "MILEPOST": "0028.71",
        "TYPEXING": "Private",
        "POSXING": "At Grade",
        "PRVCAT": "14",
        "INIT": "1",
        "LATITUDE": 35.756439,
        "LONGITUD": -101.467705,
        "LLSOURCE": "",
        "WHISTBAN": "0",
        "RRCONT": "",
        "POLCONT": "",
        "INV_LINK": "https://safetydata.fra.dot.gov/OfficeofSafety/PublicSite/Crossing/Crossing.aspx?phasetype=C&rpttype=I&txtcrossingnum=016970D",
        "ACC_LINK": "https://safetydata.fra.dot.gov/OfficeofSafety/PublicSite/Crossing/Crossing.aspx?phasetype=C&rpttype=A&txtcrossingnum=016970D",
        "TTSTNNAM": "BORGER",
        "XPURPOSE": "1",
        "OPERATINGR": "PNR",
        "OPERATIN_1": "Primary",
        "DAYTHRU": 0,
        "NGHTTHRU": 0,
        "MAINTRK": 1,
        "SIDINGTRK": 0,
        "YARDTRK": 0,
        "TRANSITTRK": 0,
        "INDUSTRYTR": 0,
        "OTHRTRK": 0,
        "WDCODE": "Crossbucks",
        "REVISIONDA": "1994/01/01 00:00:00",
        "LASTUPDATE": "1/19/2005",
        "AADT": "000010",
        "AADTYEAR": "1987",
        "STATENAME": "TEXAS",
        "STATEAB": "TX",
        "COUNTYNAME": "HUTCHINSON",
        "CITYNAME": "BORGER",
        "LATDD": 35.756439,
        "LONGDD": -101.467705,
        "gridlyProductionCertified": true,
        "gridlyClassification": "PUBLIC_ROADWAY",
        "gridlyDisplayName": "NINTH ST",
        "gridlyId": "FRA-016970D"
      }
    },
    {
      "type": "Feature",
      "id": 200729,
      "geometry": {
        "type": "Point",
        "coordinates": [
          -101.496322999554,
          35.7572329997193
        ]
      },
      "properties": {
        "OBJECTID": 200729,
        "CROSSING": "016977B",
        "EFFDATE": 1106092800000,
        "REASON": "14",
        "StateCode": "48",
        "CountyCode": "48233",
        "STCYFIPS": "48233",
        "CITYCD": "482330780",
        "RAILROAD": "PNR",
        "RRDIV": "EASTERN",
        "RRSUBDIV": "BORGER",
        "HIGHWAY": "ST 0000",
        "STREET": "PRIVATE",
        "TTSTN": "671685",
        "MILEPOST": "0030.71",
        "TYPEXING": "Private",
        "POSXING": "At Grade",
        "PRVCAT": "14",
        "INIT": "2",
        "LATITUDE": 35.757233,
        "LONGITUD": -101.496323,
        "LLSOURCE": "",
        "WHISTBAN": "0",
        "RRCONT": "",
        "POLCONT": "",
        "INV_LINK": "https://safetydata.fra.dot.gov/OfficeofSafety/PublicSite/Crossing/Crossing.aspx?phasetype=C&rpttype=I&txtcrossingnum=016977B",
        "ACC_LINK": "https://safetydata.fra.dot.gov/OfficeofSafety/PublicSite/Crossing/Crossing.aspx?phasetype=C&rpttype=A&txtcrossingnum=016977B",
        "TTSTNNAM": "BORGER",
        "XPURPOSE": "1",
        "OPERATINGR": "PNR",
        "OPERATIN_1": "Primary",
        "DAYTHRU": 0,
        "NGHTTHRU": 0,
        "MAINTRK": 1,
        "SIDINGTRK": 0,
        "YARDTRK": 1,
        "TRANSITTRK": 0,
        "INDUSTRYTR": 0,
        "OTHRTRK": 1,
        "WDCODE": "Crossbucks",
        "REVISIONDA": "1994/01/01 00:00:00",
        "LASTUPDATE": "1/19/2005",
        "AADT": "000020",
        "AADTYEAR": "1991",
        "STATENAME": "TEXAS",
        "STATEAB": "TX",
        "COUNTYNAME": "HUTCHINSON",
        "CITYNAME": "BORGER",
        "LATDD": 35.757233,
        "LONGDD": -101.496323,
        "gridlyProductionCertified": true,
        "gridlyClassification": "PUBLIC_ROADWAY",
        "gridlyDisplayName": "PRIVATE",
        "gridlyId": "FRA-016977B"
      }
    },
    {
      "type": "Feature",
      "id": 200872,
      "geometry": {
        "type": "Point",
        "coordinates": [
          -101.616799999623,
          36.0378640000382
        ]
      },
      "properties": {
        "OBJECTID": 200872,
        "CROSSING": "595863J",
        "EFFDATE": 1280793600000,
        "REASON": "14",
        "StateCode": "48",
        "CountyCode": "48233",
        "STCYFIPS": "48233",
        "CITYCD": "481954709",
        "RAILROAD": "TXNW",
        "RRDIV": "MO-KAN",
        "RRSUBDIV": "SUB-DIVN 35B",
        "HIGHWAY": "",
        "STREET": "PRIVATE CROSSING",
        "TTSTN": "672310",
        "MILEPOST": "0008.17",
        "TYPEXING": "Private",
        "POSXING": "At Grade",
        "PRVCAT": "14",
        "INIT": "1",
        "LATITUDE": 36.037864,
        "LONGITUD": -101.6168,
        "LLSOURCE": "",
        "WHISTBAN": "0",
        "RRCONT": "8069307963",
        "POLCONT": "",
        "INV_LINK": "https://safetydata.fra.dot.gov/OfficeofSafety/PublicSite/Crossing/Crossing.aspx?phasetype=C&rpttype=I&txtcrossingnum=595863J",
        "ACC_LINK": "https://safetydata.fra.dot.gov/OfficeofSafety/PublicSite/Crossing/Crossing.aspx?phasetype=C&rpttype=A&txtcrossingnum=595863J",
        "TTSTNNAM": "CAPPS",
        "XPURPOSE": "1",
        "OPERATINGR": "TXNW",
        "OPERATIN_1": "Primary",
        "DAYTHRU": 0,
        "NGHTTHRU": 0,
        "MAINTRK": 0,
        "SIDINGTRK": 0,
        "YARDTRK": 0,
        "TRANSITTRK": 0,
        "INDUSTRYTR": 0,
        "OTHRTRK": 0,
        "WDCODE": "No signs or signals",
        "REVISIONDA": "1983/01/01 00:00:00",
        "LASTUPDATE": "8/3/2010",
        "AADT": "",
        "AADTYEAR": "1970",
        "STATENAME": "TEXAS",
        "STATEAB": "TX",
        "COUNTYNAME": "HUTCHINSON",
        "CITYNAME": "MORSE",
        "LATDD": 36.037864,
        "LONGDD": -101.6168,
        "gridlyProductionCertified": true,
        "gridlyClassification": "PUBLIC_ROADWAY",
        "gridlyDisplayName": "PRIVATE CROSSING",
        "gridlyId": "FRA-595863J"
      }
    },
    {
      "type": "Feature",
      "id": 200873,
      "geometry": {
        "type": "Point",
        "coordinates": [
          -101.59019599992,
          36.0377279998021
        ]
      },
      "properties": {
        "OBJECTID": 200873,
        "CROSSING": "595862C",
        "EFFDATE": 1280793600000,
        "REASON": "14",
        "StateCode": "48",
        "CountyCode": "48233",
        "STCYFIPS": "48233",
        "CITYCD": "481954709",
        "RAILROAD": "TXNW",
        "RRDIV": "MO-KAN",
        "RRSUBDIV": "SUB-DIVN 35B",
        "HIGHWAY": "",
        "STREET": "PRIVATE CROSSING",
        "TTSTN": "672310",
        "MILEPOST": "0006.71",
        "TYPEXING": "Private",
        "POSXING": "At Grade",
        "PRVCAT": "14",
        "INIT": "1",
        "LATITUDE": 36.037728,
        "LONGITUD": -101.590196,
        "LLSOURCE": "",
        "WHISTBAN": "0",
        "RRCONT": "8069307963",
        "POLCONT": "",
        "INV_LINK": "https://safetydata.fra.dot.gov/OfficeofSafety/PublicSite/Crossing/Crossing.aspx?phasetype=C&rpttype=I&txtcrossingnum=595862C",
        "ACC_LINK": "https://safetydata.fra.dot.gov/OfficeofSafety/PublicSite/Crossing/Crossing.aspx?phasetype=C&rpttype=A&txtcrossingnum=595862C",
        "TTSTNNAM": "CAPPS",
        "XPURPOSE": "1",
        "OPERATINGR": "TXNW",
        "OPERATIN_1": "Primary",
        "DAYTHRU": 0,
        "NGHTTHRU": 0,
        "MAINTRK": 0,
        "SIDINGTRK": 0,
        "YARDTRK": 0,
        "TRANSITTRK": 0,
        "INDUSTRYTR": 0,
        "OTHRTRK": 0,
        "WDCODE": "No signs or signals",
        "REVISIONDA": "1983/01/01 00:00:00",
        "LASTUPDATE": "8/3/2010",
        "AADT": "",
        "AADTYEAR": "1970",
        "STATENAME": "TEXAS",
        "STATEAB": "TX",
        "COUNTYNAME": "HUTCHINSON",
        "CITYNAME": "MORSE",
        "LATDD": 36.037728,
        "LONGDD": -101.590196,
        "gridlyProductionCertified": true,
        "gridlyClassification": "PUBLIC_ROADWAY",
        "gridlyDisplayName": "PRIVATE CROSSING",
        "gridlyId": "FRA-595862C"
      }
    },
    {
      "type": "Feature",
      "id": 200874,
      "geometry": {
        "type": "Point",
        "coordinates": [
          -101.581232999884,
          36.037707000172
        ]
      },
      "properties": {
        "OBJECTID": 200874,
        "CROSSING": "595861V",
        "EFFDATE": 1280793600000,
        "REASON": "14",
        "StateCode": "48",
        "CountyCode": "48233",
        "STCYFIPS": "48233",
        "CITYCD": "481954709",
        "RAILROAD": "TXNW",
        "RRDIV": "MO-KAN",
        "RRSUBDIV": "SUB-DIVN 35B",
        "HIGHWAY": "",
        "STREET": "PRIVATE CROSSING",
        "TTSTN": "671627",
        "MILEPOST": "0006.20",
        "TYPEXING": "Private",
        "POSXING": "At Grade",
        "PRVCAT": "14",
        "INIT": "1",
        "LATITUDE": 36.037707,
        "LONGITUD": -101.581233,
        "LLSOURCE": "",
        "WHISTBAN": "0",
        "RRCONT": "8069307963",
        "POLCONT": "",
        "INV_LINK": "https://safetydata.fra.dot.gov/OfficeofSafety/PublicSite/Crossing/Crossing.aspx?phasetype=C&rpttype=I&txtcrossingnum=595861V",
        "ACC_LINK": "https://safetydata.fra.dot.gov/OfficeofSafety/PublicSite/Crossing/Crossing.aspx?phasetype=C&rpttype=A&txtcrossingnum=595861V",
        "TTSTNNAM": "PRINGLE",
        "XPURPOSE": "1",
        "OPERATINGR": "TXNW",
        "OPERATIN_1": "Primary",
        "DAYTHRU": 0,
        "NGHTTHRU": 0,
        "MAINTRK": 0,
        "SIDINGTRK": 0,
        "YARDTRK": 0,
        "TRANSITTRK": 0,
        "INDUSTRYTR": 0,
        "OTHRTRK": 0,
        "WDCODE": "No signs or signals",
        "REVISIONDA": "1983/01/01 00:00:00",
        "LASTUPDATE": "8/3/2010",
        "AADT": "",
        "AADTYEAR": "1970",
        "STATENAME": "TEXAS",
        "STATEAB": "TX",
        "COUNTYNAME": "HUTCHINSON",
        "CITYNAME": "MORSE",
        "LATDD": 36.037707,
        "LONGDD": -101.581233,
        "gridlyProductionCertified": true,
        "gridlyClassification": "PUBLIC_ROADWAY",
        "gridlyDisplayName": "PRIVATE CROSSING",
        "gridlyId": "FRA-595861V"
      }
    },
    {
      "type": "Feature",
      "id": 200875,
      "geometry": {
        "type": "Point",
        "coordinates": [
          -101.515569000275,
          36.0377929999015
        ]
      },
      "properties": {
        "OBJECTID": 200875,
        "CROSSING": "595858M",
        "EFFDATE": 1280793600000,
        "REASON": "14",
        "StateCode": "48",
        "CountyCode": "48233",
        "STCYFIPS": "48233",
        "CITYCD": "481954709",
        "RAILROAD": "TXNW",
        "RRDIV": "MO-KAN",
        "RRSUBDIV": "SUB-DIVN 35B",
        "HIGHWAY": "",
        "STREET": "PRIVATE CROSSING",
        "TTSTN": "672310",
        "MILEPOST": "0002.49",
        "TYPEXING": "Private",
        "POSXING": "At Grade",
        "PRVCAT": "14",
        "INIT": "1",
        "LATITUDE": 36.037793,
        "LONGITUD": -101.515569,
        "LLSOURCE": "",
        "WHISTBAN": "0",
        "RRCONT": "8069307963",
        "POLCONT": "",
        "INV_LINK": "https://safetydata.fra.dot.gov/OfficeofSafety/PublicSite/Crossing/Crossing.aspx?phasetype=C&rpttype=I&txtcrossingnum=595858M",
        "ACC_LINK": "https://safetydata.fra.dot.gov/OfficeofSafety/PublicSite/Crossing/Crossing.aspx?phasetype=C&rpttype=A&txtcrossingnum=595858M",
        "TTSTNNAM": "CAPPS",
        "XPURPOSE": "1",
        "OPERATINGR": "TXNW",
        "OPERATIN_1": "Primary",
        "DAYTHRU": 0,
        "NGHTTHRU": 0,
        "MAINTRK": 0,
        "SIDINGTRK": 0,
        "YARDTRK": 0,
        "TRANSITTRK": 0,
        "INDUSTRYTR": 0,
        "OTHRTRK": 0,
        "WDCODE": "No signs or signals",
        "REVISIONDA": "1983/01/01 00:00:00",
        "LASTUPDATE": "8/3/2010",
        "AADT": "",
        "AADTYEAR": "1970",
        "STATENAME": "TEXAS",
        "STATEAB": "TX",
        "COUNTYNAME": "HUTCHINSON",
        "CITYNAME": "MORSE",
        "LATDD": 36.037793,
        "LONGDD": -101.515569,
        "gridlyProductionCertified": true,
        "gridlyClassification": "PUBLIC_ROADWAY",
        "gridlyDisplayName": "PRIVATE CROSSING",
        "gridlyId": "FRA-595858M"
      }
    },
    {
      "type": "Feature",
      "id": 200876,
      "geometry": {
        "type": "Point",
        "coordinates": [
          -101.47585900009,
          36.0093350001171
        ]
      },
      "properties": {
        "OBJECTID": 200876,
        "CROSSING": "595855S",
        "EFFDATE": 1280793600000,
        "REASON": "14",
        "StateCode": "48",
        "CountyCode": "48233",
        "STCYFIPS": "48233",
        "CITYCD": "482335531",
        "RAILROAD": "TXNW",
        "RRDIV": "MO-KAN",
        "RRSUBDIV": "SUB-DIVN 35A",
        "HIGHWAY": "",
        "STREET": "PRIVATE CROSSING",
        "TTSTN": "671397",
        "MILEPOST": "0071.83",
        "TYPEXING": "Private",
        "POSXING": "At Grade",
        "PRVCAT": "14",
        "INIT": "1",
        "LATITUDE": 36.009335,
        "LONGITUD": -101.475859,
        "LLSOURCE": "",
        "WHISTBAN": "0",
        "RRCONT": "8069307963",
        "POLCONT": "",
        "INV_LINK": "https://safetydata.fra.dot.gov/OfficeofSafety/PublicSite/Crossing/Crossing.aspx?phasetype=C&rpttype=I&txtcrossingnum=595855S",
        "ACC_LINK": "https://safetydata.fra.dot.gov/OfficeofSafety/PublicSite/Crossing/Crossing.aspx?phasetype=C&rpttype=A&txtcrossingnum=595855S",
        "TTSTNNAM": "MORSE",
        "XPURPOSE": "1",
        "OPERATINGR": "TXNW",
        "OPERATIN_1": "Primary",
        "DAYTHRU": 0,
        "NGHTTHRU": 0,
        "MAINTRK": 0,
        "SIDINGTRK": 0,
        "YARDTRK": 0,
        "TRANSITTRK": 0,
        "INDUSTRYTR": 0,
        "OTHRTRK": 0,
        "WDCODE": "No signs or signals",
        "REVISIONDA": "1983/01/01 00:00:00",
        "LASTUPDATE": "8/3/2010",
        "AADT": "",
        "AADTYEAR": "1970",
        "STATENAME": "TEXAS",
        "STATEAB": "TX",
        "COUNTYNAME": "HUTCHINSON",
        "CITYNAME": "PRINGLE",
        "LATDD": 36.009335,
        "LONGDD": -101.475859,
        "gridlyProductionCertified": true,
        "gridlyClassification": "PUBLIC_ROADWAY",
        "gridlyDisplayName": "PRIVATE CROSSING",
        "gridlyId": "FRA-595855S"
      }
    },
    {
      "type": "Feature",
      "id": 200879,
      "geometry": {
        "type": "Point",
        "coordinates": [
          -101.394178000336,
          35.6533119999662
        ]
      },
      "properties": {
        "OBJECTID": 200879,
        "CROSSING": "934120W",
        "EFFDATE": 1289865600000,
        "REASON": "15",
        "StateCode": "48",
        "CountyCode": "48233",
        "STCYFIPS": "48233",
        "CITYCD": "482330780",
        "RAILROAD": "PNR",
        "RRDIV": "",
        "RRSUBDIV": "6119 TRACK",
        "HIGHWAY": "",
        "STREET": "RR ONLY",
        "TTSTN": "",
        "MILEPOST": "0027.02",
        "TYPEXING": "Private",
        "POSXING": "At Grade",
        "PRVCAT": "15",
        "INIT": "1",
        "LATITUDE": 35.653312,
        "LONGITUD": -101.394178,
        "LLSOURCE": "1",
        "WHISTBAN": "0",
        "RRCONT": "8062733513",
        "POLCONT": "5044391184",
        "INV_LINK": "https://safetydata.fra.dot.gov/OfficeofSafety/PublicSite/Crossing/Crossing.aspx?phasetype=C&rpttype=I&txtcrossingnum=934120W",
        "ACC_LINK": "https://safetydata.fra.dot.gov/OfficeofSafety/PublicSite/Crossing/Crossing.aspx?phasetype=C&rpttype=A&txtcrossingnum=934120W",
        "TTSTNNAM": "",
        "XPURPOSE": "1",
        "OPERATINGR": "PNR",
        "OPERATIN_1": "Primary",
        "DAYTHRU": 0,
        "NGHTTHRU": 0,
        "MAINTRK": 0,
        "SIDINGTRK": 0,
        "YARDTRK": 0,
        "TRANSITTRK": 0,
        "INDUSTRYTR": 0,
        "OTHRTRK": 0,
        "WDCODE": "No signs or signals",
        "REVISIONDA": "1994/01/01 00:00:00",
        "LASTUPDATE": "11/16/2010",
        "AADT": "",
        "AADTYEAR": "",
        "STATENAME": "TEXAS",
        "STATEAB": "TX",
        "COUNTYNAME": "HUTCHINSON",
        "CITYNAME": "BORGER",
        "LATDD": 35.653312,
        "LONGDD": -101.394178,
        "gridlyProductionCertified": true,
        "gridlyClassification": "PUBLIC_ROADWAY",
        "gridlyDisplayName": "RR ONLY",
        "gridlyId": "FRA-934120W"
      }
    },
    {
      "type": "Feature",
      "id": 200880,
      "geometry": {
        "type": "Point",
        "coordinates": [
          -101.394350999691,
          35.653117000062
        ]
      },
      "properties": {
        "OBJECTID": 200880,
        "CROSSING": "934119C",
        "EFFDATE": 1289865600000,
        "REASON": "15",
        "StateCode": "48",
        "CountyCode": "48233",
        "STCYFIPS": "48233",
        "CITYCD": "482330780",
        "RAILROAD": "PNR",
        "RRDIV": "",
        "RRSUBDIV": "6119 TRACK",
        "HIGHWAY": "",
        "STREET": "RR ONLY",
        "TTSTN": "",
        "MILEPOST": "0027.01",
        "TYPEXING": "Private",
        "POSXING": "At Grade",
        "PRVCAT": "15",
        "INIT": "1",
        "LATITUDE": 35.653117,
        "LONGITUD": -101.394351,
        "LLSOURCE": "1",
        "WHISTBAN": "0",
        "RRCONT": "8062733513",
        "POLCONT": "5044391184",
        "INV_LINK": "https://safetydata.fra.dot.gov/OfficeofSafety/PublicSite/Crossing/Crossing.aspx?phasetype=C&rpttype=I&txtcrossingnum=934119C",
        "ACC_LINK": "https://safetydata.fra.dot.gov/OfficeofSafety/PublicSite/Crossing/Crossing.aspx?phasetype=C&rpttype=A&txtcrossingnum=934119C",
        "TTSTNNAM": "",
        "XPURPOSE": "1",
        "OPERATINGR": "PNR",
        "OPERATIN_1": "Primary",
        "DAYTHRU": 0,
        "NGHTTHRU": 0,
        "MAINTRK": 0,
        "SIDINGTRK": 0,
        "YARDTRK": 0,
        "TRANSITTRK": 0,
        "INDUSTRYTR": 0,
        "OTHRTRK": 0,
        "WDCODE": "No signs or signals",
        "REVISIONDA": "1994/01/01 00:00:00",
        "LASTUPDATE": "11/16/2010",
        "AADT": "",
        "AADTYEAR": "",
        "STATENAME": "TEXAS",
        "STATEAB": "TX",
        "COUNTYNAME": "HUTCHINSON",
        "CITYNAME": "BORGER",
        "LATDD": 35.653117,
        "LONGDD": -101.394351,
        "gridlyProductionCertified": true,
        "gridlyClassification": "PUBLIC_ROADWAY",
        "gridlyDisplayName": "RR ONLY",
        "gridlyId": "FRA-934119C"
      }
    },
    {
      "type": "Feature",
      "id": 203016,
      "geometry": {
        "type": "Point",
        "coordinates": [
          -101.489852999603,
          35.7582400003275
        ]
      },
      "properties": {
        "OBJECTID": 203016,
        "CROSSING": "016976U",
        "EFFDATE": 1708473600000,
        "REASON": "20",
        "StateCode": "48",
        "CountyCode": "48233",
        "STCYFIPS": "48233",
        "CITYCD": "482330780",
        "RAILROAD": "PNR",
        "RRDIV": "EASTERN",
        "RRSUBDIV": "BORGER",
        "HIGHWAY": "PRIVATE",
        "STREET": "PRIVATE 119",
        "TTSTN": "671685",
        "MILEPOST": "0030.36",
        "TYPEXING": "Private",
        "POSXING": "At Grade",
        "PRVCAT": "20",
        "INIT": "1",
        "LATITUDE": 35.75824,
        "LONGITUD": -101.489853,
        "LLSOURCE": "1",
        "WHISTBAN": "0",
        "RRCONT": "8062733513",
        "POLCONT": "8005339416",
        "INV_LINK": "https://safetydata.fra.dot.gov/OfficeofSafety/PublicSite/Crossing/Crossing.aspx?phasetype=C&rpttype=I&txtcrossingnum=016976U",
        "ACC_LINK": "https://safetydata.fra.dot.gov/OfficeofSafety/PublicSite/Crossing/Crossing.aspx?phasetype=C&rpttype=A&txtcrossingnum=016976U",
        "TTSTNNAM": "BORGER",
        "XPURPOSE": "1",
        "OPERATINGR": "PNR",
        "OPERATIN_1": "Primary",
        "DAYTHRU": 0,
        "NGHTTHRU": 0,
        "MAINTRK": 1,
        "SIDINGTRK": 0,
        "YARDTRK": 0,
        "TRANSITTRK": 0,
        "INDUSTRYTR": 0,
        "OTHRTRK": 0,
        "WDCODE": "",
        "REVISIONDA": "1994/01/01 00:00:00",
        "LASTUPDATE": "2/21/2024",
        "AADT": "000140",
        "AADTYEAR": "1993",
        "STATENAME": "TEXAS",
        "STATEAB": "TX",
        "COUNTYNAME": "HUTCHINSON",
        "CITYNAME": "BORGER",
        "LATDD": 35.75824,
        "LONGDD": -101.489853,
        "gridlyProductionCertified": true,
        "gridlyClassification": "PUBLIC_ROADWAY",
        "gridlyDisplayName": "PRIVATE 119",
        "gridlyId": "FRA-016976U"
      }
    },
    {
      "type": "Feature",
      "id": 211400,
      "geometry": {
        "type": "Point",
        "coordinates": [
          -101.388037300311,
          35.660215800124
        ]
      },
      "properties": {
        "OBJECTID": 211400,
        "CROSSING": "934121D",
        "EFFDATE": 1766361600000,
        "REASON": "14",
        "StateCode": "48",
        "CountyCode": "48233",
        "STCYFIPS": "48233",
        "CITYCD": "482330780",
        "RAILROAD": "PNR",
        "RRDIV": "Panhandle Northern",
        "RRSUBDIV": "Yard",
        "HIGHWAY": "ls0000",
        "STREET": "e WILSON STreet",
        "TTSTN": "",
        "MILEPOST": "0027.62",
        "TYPEXING": "Public",
        "POSXING": "At Grade",
        "PRVCAT": "14",
        "INIT": "2",
        "LATITUDE": 35.6602158,
        "LONGITUD": -101.3880373,
        "LLSOURCE": "1",
        "WHISTBAN": "0",
        "RRCONT": "8062733513",
        "POLCONT": "8005339416",
        "INV_LINK": "https://safetydata.fra.dot.gov/OfficeofSafety/PublicSite/Crossing/Crossing.aspx?phasetype=C&rpttype=I&txtcrossingnum=934121D",
        "ACC_LINK": "https://safetydata.fra.dot.gov/OfficeofSafety/PublicSite/Crossing/Crossing.aspx?phasetype=C&rpttype=A&txtcrossingnum=934121D",
        "TTSTNNAM": "",
        "XPURPOSE": "1",
        "OPERATINGR": "PNR",
        "OPERATIN_1": "Primary",
        "DAYTHRU": 0,
        "NGHTTHRU": 0,
        "MAINTRK": 0,
        "SIDINGTRK": 0,
        "YARDTRK": 1,
        "TRANSITTRK": 0,
        "INDUSTRYTR": 0,
        "OTHRTRK": 0,
        "WDCODE": "Crossbucks",
        "REVISIONDA": "1994/01/01 00:00:00",
        "LASTUPDATE": "12/22/2025",
        "AADT": "3414",
        "AADTYEAR": "2020",
        "STATENAME": "TEXAS",
        "STATEAB": "TX",
        "COUNTYNAME": "HUTCHINSON",
        "CITYNAME": "BORGER",
        "LATDD": 35.6602158,
        "LONGDD": -101.3880373,
        "gridlyProductionCertified": true,
        "gridlyClassification": "PUBLIC_ROADWAY",
        "gridlyDisplayName": "e WILSON STreet",
        "gridlyId": "FRA-934121D"
      }
    },
    {
      "type": "Feature",
      "id": 213798,
      "geometry": {
        "type": "Point",
        "coordinates": [
          -101.433314499874,
          35.6547882996434
        ]
      },
      "properties": {
        "OBJECTID": 213798,
        "CROSSING": "016987G",
        "EFFDATE": 1766016000000,
        "REASON": "14",
        "StateCode": "48",
        "CountyCode": "48233",
        "STCYFIPS": "48233",
        "CITYCD": "482330780",
        "RAILROAD": "PNR",
        "RRDIV": "EASTERN",
        "RRSUBDIV": "BORGER",
        "HIGHWAY": "SH0136",
        "STREET": "SH0136 / west wilson street",
        "TTSTN": "671685",
        "MILEPOST": "0002.42",
        "TYPEXING": "Public",
        "POSXING": "RR Under",
        "PRVCAT": "14",
        "INIT": "2",
        "LATITUDE": 35.6547883,
        "LONGITUD": -101.4333145,
        "LLSOURCE": "",
        "WHISTBAN": "0",
        "RRCONT": "",
        "POLCONT": "",
        "INV_LINK": "https://safetydata.fra.dot.gov/OfficeofSafety/PublicSite/Crossing/Crossing.aspx?phasetype=C&rpttype=I&txtcrossingnum=016987G",
        "ACC_LINK": "https://safetydata.fra.dot.gov/OfficeofSafety/PublicSite/Crossing/Crossing.aspx?phasetype=C&rpttype=A&txtcrossingnum=016987G",
        "TTSTNNAM": "BORGER",
        "XPURPOSE": "1",
        "OPERATINGR": "PNR",
        "OPERATIN_1": "Primary",
        "DAYTHRU": 0,
        "NGHTTHRU": 0,
        "MAINTRK": 0,
        "SIDINGTRK": 0,
        "YARDTRK": 0,
        "TRANSITTRK": 0,
        "INDUSTRYTR": 1,
        "OTHRTRK": 1,
        "WDCODE": "",
        "REVISIONDA": "1994/01/01 00:00:00",
        "LASTUPDATE": "12/18/2025",
        "AADT": "11111",
        "AADTYEAR": "2024",
        "STATENAME": "TEXAS",
        "STATEAB": "TX",
        "COUNTYNAME": "HUTCHINSON",
        "CITYNAME": "BORGER",
        "LATDD": 35.6547883,
        "LONGDD": -101.4333145,
        "gridlyProductionCertified": true,
        "gridlyClassification": "PUBLIC_ROADWAY",
        "gridlyDisplayName": "SH0136 / west wilson street",
        "gridlyId": "FRA-016987G"
      }
    },
    {
      "type": "Feature",
      "id": 213875,
      "geometry": {
        "type": "Point",
        "coordinates": [
          -101.385198100295,
          35.6716612998591
        ]
      },
      "properties": {
        "OBJECTID": 213875,
        "CROSSING": "016969J",
        "EFFDATE": 1767830400000,
        "REASON": "14",
        "StateCode": "48",
        "CountyCode": "48233",
        "STCYFIPS": "48233",
        "CITYCD": "482330780",
        "RAILROAD": "PNR",
        "RRDIV": "EASTERN",
        "RRSUBDIV": "BORGER",
        "HIGHWAY": "ls0000",
        "STREET": "east SIXTH STreet",
        "TTSTN": "671685",
        "MILEPOST": "0028.44",
        "TYPEXING": "Public",
        "POSXING": "At Grade",
        "PRVCAT": "14",
        "INIT": "2",
        "LATITUDE": 35.6716613,
        "LONGITUD": -101.3851981,
        "LLSOURCE": "1",
        "WHISTBAN": "0",
        "RRCONT": "8062733513",
        "POLCONT": "8005339416",
        "INV_LINK": "https://safetydata.fra.dot.gov/OfficeofSafety/PublicSite/Crossing/Crossing.aspx?phasetype=C&rpttype=I&txtcrossingnum=016969J",
        "ACC_LINK": "https://safetydata.fra.dot.gov/OfficeofSafety/PublicSite/Crossing/Crossing.aspx?phasetype=C&rpttype=A&txtcrossingnum=016969J",
        "TTSTNNAM": "BORGER",
        "XPURPOSE": "1",
        "OPERATINGR": "PNR",
        "OPERATIN_1": "Primary",
        "DAYTHRU": 1,
        "NGHTTHRU": 1,
        "MAINTRK": 1,
        "SIDINGTRK": 0,
        "YARDTRK": 0,
        "TRANSITTRK": 0,
        "INDUSTRYTR": 0,
        "OTHRTRK": 0,
        "WDCODE": "All other Gates",
        "REVISIONDA": "1994/01/01 00:00:00",
        "LASTUPDATE": "1/8/2026",
        "AADT": "1764",
        "AADTYEAR": "2019",
        "STATENAME": "TEXAS",
        "STATEAB": "TX",
        "COUNTYNAME": "HUTCHINSON",
        "CITYNAME": "BORGER",
        "LATDD": 35.6716613,
        "LONGDD": -101.3851981,
        "gridlyProductionCertified": true,
        "gridlyClassification": "PUBLIC_ROADWAY",
        "gridlyDisplayName": "east SIXTH STreet",
        "gridlyId": "FRA-016969J"
      }
    },
    {
      "type": "Feature",
      "id": 213876,
      "geometry": {
        "type": "Point",
        "coordinates": [
          -101.385182999615,
          35.6679616000085
        ]
      },
      "properties": {
        "OBJECTID": 213876,
        "CROSSING": "016968C",
        "EFFDATE": 1767830400000,
        "REASON": "14",
        "StateCode": "48",
        "CountyCode": "48233",
        "STCYFIPS": "48233",
        "CITYCD": "482330780",
        "RAILROAD": "PNR",
        "RRDIV": "EASTERN",
        "RRSUBDIV": "BORGER",
        "HIGHWAY": "SH0152",
        "STREET": "SH0152 / east third street",
        "TTSTN": "671685",
        "MILEPOST": "0028.19",
        "TYPEXING": "Public",
        "POSXING": "At Grade",
        "PRVCAT": "14",
        "INIT": "2",
        "LATITUDE": 35.6679616,
        "LONGITUD": -101.385183,
        "LLSOURCE": "1",
        "WHISTBAN": "0",
        "RRCONT": "8062733513",
        "POLCONT": "8005339416",
        "INV_LINK": "https://safetydata.fra.dot.gov/OfficeofSafety/PublicSite/Crossing/Crossing.aspx?phasetype=C&rpttype=I&txtcrossingnum=016968C",
        "ACC_LINK": "https://safetydata.fra.dot.gov/OfficeofSafety/PublicSite/Crossing/Crossing.aspx?phasetype=C&rpttype=A&txtcrossingnum=016968C",
        "TTSTNNAM": "BORGER",
        "XPURPOSE": "1",
        "OPERATINGR": "PNR",
        "OPERATIN_1": "Primary",
        "DAYTHRU": 1,
        "NGHTTHRU": 1,
        "MAINTRK": 1,
        "SIDINGTRK": 0,
        "YARDTRK": 0,
        "TRANSITTRK": 0,
        "INDUSTRYTR": 0,
        "OTHRTRK": 0,
        "WDCODE": "All other Gates",
        "REVISIONDA": "1994/01/01 00:00:00",
        "LASTUPDATE": "1/8/2026",
        "AADT": "2646",
        "AADTYEAR": "2023",
        "STATENAME": "TEXAS",
        "STATEAB": "TX",
        "COUNTYNAME": "HUTCHINSON",
        "CITYNAME": "BORGER",
        "LATDD": 35.6679616,
        "LONGDD": -101.385183,
        "gridlyProductionCertified": true,
        "gridlyClassification": "PUBLIC_ROADWAY",
        "gridlyDisplayName": "SH0152 / east third street",
        "gridlyId": "FRA-016968C"
      }
    },
    {
      "type": "Feature",
      "id": 213877,
      "geometry": {
        "type": "Point",
        "coordinates": [
          -101.399769299718,
          35.6412246997157
        ]
      },
      "properties": {
        "OBJECTID": 213877,
        "CROSSING": "016964A",
        "EFFDATE": 1767830400000,
        "REASON": "14",
        "StateCode": "48",
        "CountyCode": "48233",
        "STCYFIPS": "48233",
        "CITYCD": "482330780",
        "RAILROAD": "PNR",
        "RRDIV": "EASTERN",
        "RRSUBDIV": "BORGER",
        "HIGHWAY": "FM1551",
        "STREET": "FM1551",
        "TTSTN": "671685",
        "MILEPOST": "0026.14",
        "TYPEXING": "Public",
        "POSXING": "At Grade",
        "PRVCAT": "14",
        "INIT": "2",
        "LATITUDE": 35.6412247,
        "LONGITUD": -101.3997693,
        "LLSOURCE": "1",
        "WHISTBAN": "0",
        "RRCONT": "8062733513",
        "POLCONT": "8005339416",
        "INV_LINK": "https://safetydata.fra.dot.gov/OfficeofSafety/PublicSite/Crossing/Crossing.aspx?phasetype=C&rpttype=I&txtcrossingnum=016964A",
        "ACC_LINK": "https://safetydata.fra.dot.gov/OfficeofSafety/PublicSite/Crossing/Crossing.aspx?phasetype=C&rpttype=A&txtcrossingnum=016964A",
        "TTSTNNAM": "BORGER",
        "XPURPOSE": "1",
        "OPERATINGR": "PNR",
        "OPERATIN_1": "Primary",
        "DAYTHRU": 1,
        "NGHTTHRU": 1,
        "MAINTRK": 1,
        "SIDINGTRK": 1,
        "YARDTRK": 0,
        "TRANSITTRK": 0,
        "INDUSTRYTR": 0,
        "OTHRTRK": 1,
        "WDCODE": "All other Gates",
        "REVISIONDA": "1994/01/01 00:00:00",
        "LASTUPDATE": "1/8/2026",
        "AADT": "3349",
        "AADTYEAR": "2024",
        "STATENAME": "TEXAS",
        "STATEAB": "TX",
        "COUNTYNAME": "HUTCHINSON",
        "CITYNAME": "BORGER",
        "LATDD": 35.6412247,
        "LONGDD": -101.3997693,
        "gridlyProductionCertified": true,
        "gridlyClassification": "PUBLIC_ROADWAY",
        "gridlyDisplayName": "FM1551",
        "gridlyId": "FRA-016964A"
      }
    },
    {
      "type": "Feature",
      "id": 213878,
      "geometry": {
        "type": "Point",
        "coordinates": [
          -101.37966919969,
          35.6789219997916
        ]
      },
      "properties": {
        "OBJECTID": 213878,
        "CROSSING": "016971K",
        "EFFDATE": 1767830400000,
        "REASON": "14",
        "StateCode": "48",
        "CountyCode": "48233",
        "STCYFIPS": "48233",
        "CITYCD": "482330780",
        "RAILROAD": "PNR",
        "RRDIV": "EASTERN",
        "RRSUBDIV": "BORGER",
        "HIGHWAY": "ss0246",
        "STREET": "ss0246",
        "TTSTN": "671685",
        "MILEPOST": "0029.07",
        "TYPEXING": "Public",
        "POSXING": "At Grade",
        "PRVCAT": "14",
        "INIT": "2",
        "LATITUDE": 35.678922,
        "LONGITUD": -101.3796692,
        "LLSOURCE": "1",
        "WHISTBAN": "0",
        "RRCONT": "8062733513",
        "POLCONT": "8005339416",
        "INV_LINK": "https://safetydata.fra.dot.gov/OfficeofSafety/PublicSite/Crossing/Crossing.aspx?phasetype=C&rpttype=I&txtcrossingnum=016971K",
        "ACC_LINK": "https://safetydata.fra.dot.gov/OfficeofSafety/PublicSite/Crossing/Crossing.aspx?phasetype=C&rpttype=A&txtcrossingnum=016971K",
        "TTSTNNAM": "BORGER",
        "XPURPOSE": "1",
        "OPERATINGR": "PNR",
        "OPERATIN_1": "Primary",
        "DAYTHRU": 1,
        "NGHTTHRU": 1,
        "MAINTRK": 1,
        "SIDINGTRK": 0,
        "YARDTRK": 1,
        "TRANSITTRK": 0,
        "INDUSTRYTR": 0,
        "OTHRTRK": 1,
        "WDCODE": "All other Gates",
        "REVISIONDA": "1994/01/01 00:00:00",
        "LASTUPDATE": "1/8/2026",
        "AADT": "4399",
        "AADTYEAR": "2023",
        "STATENAME": "TEXAS",
        "STATEAB": "TX",
        "COUNTYNAME": "HUTCHINSON",
        "CITYNAME": "BORGER",
        "LATDD": 35.678922,
        "LONGDD": -101.3796692,
        "gridlyProductionCertified": true,
        "gridlyClassification": "PUBLIC_ROADWAY",
        "gridlyDisplayName": "ss0246",
        "gridlyId": "FRA-016971K"
      }
    },
    {
      "type": "Feature",
      "id": 213879,
      "geometry": {
        "type": "Point",
        "coordinates": [
          -101.400778600059,
          35.6412393998884
        ]
      },
      "properties": {
        "OBJECTID": 213879,
        "CROSSING": "016983E",
        "EFFDATE": 1767830400000,
        "REASON": "14",
        "StateCode": "48",
        "CountyCode": "48233",
        "STCYFIPS": "48233",
        "CITYCD": "482330780",
        "RAILROAD": "PNR",
        "RRDIV": "EASTERN",
        "RRSUBDIV": "BORGER",
        "HIGHWAY": "fm1551",
        "STREET": "FM1551 / fairlanes boulevard",
        "TTSTN": "671685",
        "MILEPOST": "0000.23",
        "TYPEXING": "Public",
        "POSXING": "At Grade",
        "PRVCAT": "14",
        "INIT": "2",
        "LATITUDE": 35.6412394,
        "LONGITUD": -101.4007786,
        "LLSOURCE": "1",
        "WHISTBAN": "0",
        "RRCONT": "8062733513",
        "POLCONT": "8005339416",
        "INV_LINK": "https://safetydata.fra.dot.gov/OfficeofSafety/PublicSite/Crossing/Crossing.aspx?phasetype=C&rpttype=I&txtcrossingnum=016983E",
        "ACC_LINK": "https://safetydata.fra.dot.gov/OfficeofSafety/PublicSite/Crossing/Crossing.aspx?phasetype=C&rpttype=A&txtcrossingnum=016983E",
        "TTSTNNAM": "BORGER",
        "XPURPOSE": "1",
        "OPERATINGR": "PNR",
        "OPERATIN_1": "Primary",
        "DAYTHRU": 1,
        "NGHTTHRU": 1,
        "MAINTRK": 1,
        "SIDINGTRK": 0,
        "YARDTRK": 0,
        "TRANSITTRK": 0,
        "INDUSTRYTR": 0,
        "OTHRTRK": 1,
        "WDCODE": "Flashing lights",
        "REVISIONDA": "1994/01/01 00:00:00",
        "LASTUPDATE": "1/8/2026",
        "AADT": "3349",
        "AADTYEAR": "2024",
        "STATENAME": "TEXAS",
        "STATEAB": "TX",
        "COUNTYNAME": "HUTCHINSON",
        "CITYNAME": "BORGER",
        "LATDD": 35.6412394,
        "LONGDD": -101.4007786,
        "gridlyProductionCertified": true,
        "gridlyClassification": "PUBLIC_ROADWAY",
        "gridlyDisplayName": "FM1551 / fairlanes boulevard",
        "gridlyId": "FRA-016983E"
      }
    },
    {
      "type": "Feature",
      "id": 213880,
      "geometry": {
        "type": "Point",
        "coordinates": [
          -101.388829699731,
          35.660580099734
        ]
      },
      "properties": {
        "OBJECTID": 213880,
        "CROSSING": "016967V",
        "EFFDATE": 1767830400000,
        "REASON": "14",
        "StateCode": "48",
        "CountyCode": "48233",
        "STCYFIPS": "48233",
        "CITYCD": "482330780",
        "RAILROAD": "PNR",
        "RRDIV": "EASTERN",
        "RRSUBDIV": "BORGER",
        "HIGHWAY": "ls0000",
        "STREET": "WILSON STreet",
        "TTSTN": "671685",
        "MILEPOST": "0027.62",
        "TYPEXING": "Public",
        "POSXING": "At Grade",
        "PRVCAT": "14",
        "INIT": "2",
        "LATITUDE": 35.6605801,
        "LONGITUD": -101.3888297,
        "LLSOURCE": "1",
        "WHISTBAN": "0",
        "RRCONT": "8062733513",
        "POLCONT": "8005339416",
        "INV_LINK": "https://safetydata.fra.dot.gov/OfficeofSafety/PublicSite/Crossing/Crossing.aspx?phasetype=C&rpttype=I&txtcrossingnum=016967V",
        "ACC_LINK": "https://safetydata.fra.dot.gov/OfficeofSafety/PublicSite/Crossing/Crossing.aspx?phasetype=C&rpttype=A&txtcrossingnum=016967V",
        "TTSTNNAM": "BORGER",
        "XPURPOSE": "1",
        "OPERATINGR": "PNR",
        "OPERATIN_1": "Primary",
        "DAYTHRU": 1,
        "NGHTTHRU": 1,
        "MAINTRK": 1,
        "SIDINGTRK": 0,
        "YARDTRK": 2,
        "TRANSITTRK": 0,
        "INDUSTRYTR": 0,
        "OTHRTRK": 2,
        "WDCODE": "All other Gates",
        "REVISIONDA": "1994/01/01 00:00:00",
        "LASTUPDATE": "1/8/2026",
        "AADT": "3414",
        "AADTYEAR": "2020",
        "STATENAME": "TEXAS",
        "STATEAB": "TX",
        "COUNTYNAME": "HUTCHINSON",
        "CITYNAME": "BORGER",
        "LATDD": 35.6605801,
        "LONGDD": -101.3888297,
        "gridlyProductionCertified": true,
        "gridlyClassification": "PUBLIC_ROADWAY",
        "gridlyDisplayName": "WILSON STreet",
        "gridlyId": "FRA-016967V"
      }
    },
    {
      "type": "Feature",
      "id": 213881,
      "geometry": {
        "type": "Point",
        "coordinates": [
          -101.434523100444,
          35.6642095002988
        ]
      },
      "properties": {
        "OBJECTID": 213881,
        "CROSSING": "016990P",
        "EFFDATE": 1767830400000,
        "REASON": "14",
        "StateCode": "48",
        "CountyCode": "48233",
        "STCYFIPS": "48233",
        "CITYCD": "482330780",
        "RAILROAD": "PNR",
        "RRDIV": "EASTERN",
        "RRSUBDIV": "BORGER",
        "HIGHWAY": "FM1559",
        "STREET": "FM1559",
        "TTSTN": "671685",
        "MILEPOST": "0003.10",
        "TYPEXING": "Public",
        "POSXING": "At Grade",
        "PRVCAT": "14",
        "INIT": "2",
        "LATITUDE": 35.6642095,
        "LONGITUD": -101.4345231,
        "LLSOURCE": "1",
        "WHISTBAN": "0",
        "RRCONT": "8062733513",
        "POLCONT": "8005339416",
        "INV_LINK": "https://safetydata.fra.dot.gov/OfficeofSafety/PublicSite/Crossing/Crossing.aspx?phasetype=C&rpttype=I&txtcrossingnum=016990P",
        "ACC_LINK": "https://safetydata.fra.dot.gov/OfficeofSafety/PublicSite/Crossing/Crossing.aspx?phasetype=C&rpttype=A&txtcrossingnum=016990P",
        "TTSTNNAM": "BORGER",
        "XPURPOSE": "1",
        "OPERATINGR": "PNR",
        "OPERATIN_1": "Primary",
        "DAYTHRU": 0,
        "NGHTTHRU": 0,
        "MAINTRK": 0,
        "SIDINGTRK": 0,
        "YARDTRK": 0,
        "TRANSITTRK": 0,
        "INDUSTRYTR": 1,
        "OTHRTRK": 1,
        "WDCODE": "All other Gates",
        "REVISIONDA": "1994/01/01 00:00:00",
        "LASTUPDATE": "1/8/2026",
        "AADT": "1370",
        "AADTYEAR": "2021",
        "STATENAME": "TEXAS",
        "STATEAB": "TX",
        "COUNTYNAME": "HUTCHINSON",
        "CITYNAME": "BORGER",
        "LATDD": 35.6642095,
        "LONGDD": -101.4345231,
        "gridlyProductionCertified": true,
        "gridlyClassification": "PUBLIC_ROADWAY",
        "gridlyDisplayName": "FM1559",
        "gridlyId": "FRA-016990P"
      }
    },
    {
      "type": "Feature",
      "id": 213882,
      "geometry": {
        "type": "Point",
        "coordinates": [
          -101.37287869971,
          35.6854418999177
        ]
      },
      "properties": {
        "OBJECTID": 213882,
        "CROSSING": "016973Y",
        "EFFDATE": 1767830400000,
        "REASON": "14",
        "StateCode": "48",
        "CountyCode": "48233",
        "STCYFIPS": "48233",
        "CITYCD": "482330780",
        "RAILROAD": "PNR",
        "RRDIV": "PLAINS",
        "RRSUBDIV": "BORGER",
        "HIGHWAY": "ss0119",
        "STREET": "ss0119 / phillips road",
        "TTSTN": "671685",
        "MILEPOST": "0029.67",
        "TYPEXING": "Public",
        "POSXING": "At Grade",
        "PRVCAT": "14",
        "INIT": "2",
        "LATITUDE": 35.6854419,
        "LONGITUD": -101.3728787,
        "LLSOURCE": "1",
        "WHISTBAN": "0",
        "RRCONT": "8062733513",
        "POLCONT": "8005339416",
        "INV_LINK": "https://safetydata.fra.dot.gov/OfficeofSafety/PublicSite/Crossing/Crossing.aspx?phasetype=C&rpttype=I&txtcrossingnum=016973Y",
        "ACC_LINK": "https://safetydata.fra.dot.gov/OfficeofSafety/PublicSite/Crossing/Crossing.aspx?phasetype=C&rpttype=A&txtcrossingnum=016973Y",
        "TTSTNNAM": "BORGER",
        "XPURPOSE": "1",
        "OPERATINGR": "PNR",
        "OPERATIN_1": "Primary",
        "DAYTHRU": 2,
        "NGHTTHRU": 2,
        "MAINTRK": 1,
        "SIDINGTRK": 0,
        "YARDTRK": 1,
        "TRANSITTRK": 0,
        "INDUSTRYTR": 0,
        "OTHRTRK": 1,
        "WDCODE": "Flashing lights",
        "REVISIONDA": "1994/01/01 00:00:00",
        "LASTUPDATE": "1/8/2026",
        "AADT": "4310",
        "AADTYEAR": "2023",
        "STATENAME": "TEXAS",
        "STATEAB": "TX",
        "COUNTYNAME": "HUTCHINSON",
        "CITYNAME": "BORGER",
        "LATDD": 35.6854419,
        "LONGDD": -101.3728787,
        "gridlyProductionCertified": true,
        "gridlyClassification": "PUBLIC_ROADWAY",
        "gridlyDisplayName": "ss0119 / phillips road",
        "gridlyId": "FRA-016973Y"
      }
    },
    {
      "type": "Feature",
      "id": 213883,
      "geometry": {
        "type": "Point",
        "coordinates": [
          -101.364925000015,
          35.6913760998858
        ]
      },
      "properties": {
        "OBJECTID": 213883,
        "CROSSING": "016975M",
        "EFFDATE": 1767830400000,
        "REASON": "14",
        "StateCode": "48",
        "CountyCode": "48233",
        "STCYFIPS": "48233",
        "CITYCD": "482330780",
        "RAILROAD": "PNR",
        "RRDIV": "EASTERN",
        "RRSUBDIV": "BORGER",
        "HIGHWAY": "cr0173",
        "STREET": "WHITTENBURG avenue",
        "TTSTN": "671685",
        "MILEPOST": "0030.28",
        "TYPEXING": "Public",
        "POSXING": "At Grade",
        "PRVCAT": "14",
        "INIT": "2",
        "LATITUDE": 35.6913761,
        "LONGITUD": -101.364925,
        "LLSOURCE": "1",
        "WHISTBAN": "0",
        "RRCONT": "8062733513",
        "POLCONT": "8005339416",
        "INV_LINK": "https://safetydata.fra.dot.gov/OfficeofSafety/PublicSite/Crossing/Crossing.aspx?phasetype=C&rpttype=I&txtcrossingnum=016975M",
        "ACC_LINK": "https://safetydata.fra.dot.gov/OfficeofSafety/PublicSite/Crossing/Crossing.aspx?phasetype=C&rpttype=A&txtcrossingnum=016975M",
        "TTSTNNAM": "BORGER",
        "XPURPOSE": "1",
        "OPERATINGR": "PNR",
        "OPERATIN_1": "Primary",
        "DAYTHRU": 1,
        "NGHTTHRU": 1,
        "MAINTRK": 1,
        "SIDINGTRK": 0,
        "YARDTRK": 1,
        "TRANSITTRK": 0,
        "INDUSTRYTR": 0,
        "OTHRTRK": 0,
        "WDCODE": "Flashing lights",
        "REVISIONDA": "1994/01/01 00:00:00",
        "LASTUPDATE": "1/8/2026",
        "AADT": "2190",
        "AADTYEAR": "2016",
        "STATENAME": "TEXAS",
        "STATEAB": "TX",
        "COUNTYNAME": "HUTCHINSON",
        "CITYNAME": "BORGER",
        "LATDD": 35.6913761,
        "LONGDD": -101.364925,
        "gridlyProductionCertified": true,
        "gridlyClassification": "PUBLIC_ROADWAY",
        "gridlyDisplayName": "WHITTENBURG avenue",
        "gridlyId": "FRA-016975M"
      }
    },
    {
      "type": "Feature",
      "id": 213884,
      "geometry": {
        "type": "Point",
        "coordinates": [
          -101.434261200216,
          35.6638485000574
        ]
      },
      "properties": {
        "OBJECTID": 213884,
        "CROSSING": "016988N",
        "EFFDATE": 1767830400000,
        "REASON": "14",
        "StateCode": "48",
        "CountyCode": "48233",
        "STCYFIPS": "48233",
        "CITYCD": "482330780",
        "RAILROAD": "PNR",
        "RRDIV": "EASTERN",
        "RRSUBDIV": "BORGER",
        "HIGHWAY": "FM1559",
        "STREET": "FM1559",
        "TTSTN": "671685",
        "MILEPOST": "0003.09",
        "TYPEXING": "Public",
        "POSXING": "At Grade",
        "PRVCAT": "14",
        "INIT": "2",
        "LATITUDE": 35.6638485,
        "LONGITUD": -101.4342612,
        "LLSOURCE": "1",
        "WHISTBAN": "0",
        "RRCONT": "8062733513",
        "POLCONT": "8005339416",
        "INV_LINK": "https://safetydata.fra.dot.gov/OfficeofSafety/PublicSite/Crossing/Crossing.aspx?phasetype=C&rpttype=I&txtcrossingnum=016988N",
        "ACC_LINK": "https://safetydata.fra.dot.gov/OfficeofSafety/PublicSite/Crossing/Crossing.aspx?phasetype=C&rpttype=A&txtcrossingnum=016988N",
        "TTSTNNAM": "BORGER",
        "XPURPOSE": "1",
        "OPERATINGR": "PNR",
        "OPERATIN_1": "Primary",
        "DAYTHRU": 0,
        "NGHTTHRU": 0,
        "MAINTRK": 0,
        "SIDINGTRK": 0,
        "YARDTRK": 0,
        "TRANSITTRK": 0,
        "INDUSTRYTR": 3,
        "OTHRTRK": 3,
        "WDCODE": "All other Gates",
        "REVISIONDA": "1994/01/01 00:00:00",
        "LASTUPDATE": "1/8/2026",
        "AADT": "1152",
        "AADTYEAR": "2023",
        "STATENAME": "TEXAS",
        "STATEAB": "TX",
        "COUNTYNAME": "HUTCHINSON",
        "CITYNAME": "BORGER",
        "LATDD": 35.6638485,
        "LONGDD": -101.4342612,
        "gridlyProductionCertified": true,
        "gridlyClassification": "PUBLIC_ROADWAY",
        "gridlyDisplayName": "FM1559",
        "gridlyId": "FRA-016988N"
      }
    },
    {
      "type": "Feature",
      "id": 214173,
      "geometry": {
        "type": "Point",
        "coordinates": [
          -101.395771500259,
          35.651073299842
        ]
      },
      "properties": {
        "OBJECTID": 214173,
        "CROSSING": "016966N",
        "EFFDATE": 1766102400000,
        "REASON": "14",
        "StateCode": "48",
        "CountyCode": "48233",
        "STCYFIPS": "48233",
        "CITYCD": "482330780",
        "RAILROAD": "PNR",
        "RRDIV": "EASTERN",
        "RRSUBDIV": "BORGER",
        "HIGHWAY": "ls0000",
        "STREET": "TRISTAM STreet",
        "TTSTN": "671685",
        "MILEPOST": "0026.85",
        "TYPEXING": "Public",
        "POSXING": "RR Over",
        "PRVCAT": "14",
        "INIT": "2",
        "LATITUDE": 35.6510733,
        "LONGITUD": -101.3957715,
        "LLSOURCE": "1",
        "WHISTBAN": "0",
        "RRCONT": "",
        "POLCONT": "",
        "INV_LINK": "https://safetydata.fra.dot.gov/OfficeofSafety/PublicSite/Crossing/Crossing.aspx?phasetype=C&rpttype=I&txtcrossingnum=016966N",
        "ACC_LINK": "https://safetydata.fra.dot.gov/OfficeofSafety/PublicSite/Crossing/Crossing.aspx?phasetype=C&rpttype=A&txtcrossingnum=016966N",
        "TTSTNNAM": "BORGER",
        "XPURPOSE": "1",
        "OPERATINGR": "PNR",
        "OPERATIN_1": "Primary",
        "DAYTHRU": 0,
        "NGHTTHRU": 0,
        "MAINTRK": 0,
        "SIDINGTRK": 0,
        "YARDTRK": 0,
        "TRANSITTRK": 0,
        "INDUSTRYTR": 0,
        "OTHRTRK": 0,
        "WDCODE": "",
        "REVISIONDA": "1994/01/01 00:00:00",
        "LASTUPDATE": "12/19/2025",
        "AADT": "3098",
        "AADTYEAR": "2020",
        "STATENAME": "TEXAS",
        "STATEAB": "TX",
        "COUNTYNAME": "HUTCHINSON",
        "CITYNAME": "BORGER",
        "LATDD": 35.6510733,
        "LONGDD": -101.3957715,
        "gridlyProductionCertified": true,
        "gridlyClassification": "PUBLIC_ROADWAY",
        "gridlyDisplayName": "TRISTAM STreet",
        "gridlyId": "FRA-016966N"
      }
    },
    {
      "type": "Feature",
      "id": 214866,
      "geometry": {
        "type": "Point",
        "coordinates": [
          -101.40150070002,
          35.632404599906
        ]
      },
      "properties": {
        "OBJECTID": 214866,
        "CROSSING": "016963T",
        "EFFDATE": 1766016000000,
        "REASON": "14",
        "StateCode": "48",
        "CountyCode": "48233",
        "STCYFIPS": "48233",
        "CITYCD": "482330780",
        "RAILROAD": "PNR",
        "RRDIV": "EASTERN",
        "RRSUBDIV": "BORGER",
        "HIGHWAY": "cr0173",
        "STREET": "INDUSTRIAL BouLeVarD",
        "TTSTN": "671685",
        "MILEPOST": "0025.52",
        "TYPEXING": "Public",
        "POSXING": "At Grade",
        "PRVCAT": "14",
        "INIT": "2",
        "LATITUDE": 35.6324046,
        "LONGITUD": -101.4015007,
        "LLSOURCE": "1",
        "WHISTBAN": "0",
        "RRCONT": "",
        "POLCONT": "",
        "INV_LINK": "https://safetydata.fra.dot.gov/OfficeofSafety/PublicSite/Crossing/Crossing.aspx?phasetype=C&rpttype=I&txtcrossingnum=016963T",
        "ACC_LINK": "https://safetydata.fra.dot.gov/OfficeofSafety/PublicSite/Crossing/Crossing.aspx?phasetype=C&rpttype=A&txtcrossingnum=016963T",
        "TTSTNNAM": "BORGER",
        "XPURPOSE": "1",
        "OPERATINGR": "PNR",
        "OPERATIN_1": "Primary",
        "DAYTHRU": 1,
        "NGHTTHRU": 1,
        "MAINTRK": 1,
        "SIDINGTRK": 0,
        "YARDTRK": 0,
        "TRANSITTRK": 0,
        "INDUSTRYTR": 0,
        "OTHRTRK": 3,
        "WDCODE": "Crossbucks",
        "REVISIONDA": "1994/01/01 00:00:00",
        "LASTUPDATE": "12/18/2025",
        "AADT": "475",
        "AADTYEAR": "2020",
        "STATENAME": "TEXAS",
        "STATEAB": "TX",
        "COUNTYNAME": "HUTCHINSON",
        "CITYNAME": "BORGER",
        "LATDD": 35.6324046,
        "LONGDD": -101.4015007,
        "gridlyProductionCertified": true,
        "gridlyClassification": "PUBLIC_ROADWAY",
        "gridlyDisplayName": "INDUSTRIAL BouLeVarD",
        "gridlyId": "FRA-016963T"
      }
    },
    {
      "type": "Feature",
      "id": 214867,
      "geometry": {
        "type": "Point",
        "coordinates": [
          -101.403148800444,
          35.6425605997175
        ]
      },
      "properties": {
        "OBJECTID": 214867,
        "CROSSING": "016984L",
        "EFFDATE": 1766016000000,
        "REASON": "14",
        "StateCode": "48",
        "CountyCode": "48233",
        "STCYFIPS": "48233",
        "CITYCD": "482330780",
        "RAILROAD": "PNR",
        "RRDIV": "EASTERN",
        "RRSUBDIV": "BORGER",
        "HIGHWAY": "ls0000",
        "STREET": "HUBER AVEnue",
        "TTSTN": "671685",
        "MILEPOST": "0000.39",
        "TYPEXING": "Public",
        "POSXING": "At Grade",
        "PRVCAT": "14",
        "INIT": "2",
        "LATITUDE": 35.6425606,
        "LONGITUD": -101.4031488,
        "LLSOURCE": "",
        "WHISTBAN": "0",
        "RRCONT": "",
        "POLCONT": "8007727677",
        "INV_LINK": "https://safetydata.fra.dot.gov/OfficeofSafety/PublicSite/Crossing/Crossing.aspx?phasetype=C&rpttype=I&txtcrossingnum=016984L",
        "ACC_LINK": "https://safetydata.fra.dot.gov/OfficeofSafety/PublicSite/Crossing/Crossing.aspx?phasetype=C&rpttype=A&txtcrossingnum=016984L",
        "TTSTNNAM": "BORGER",
        "XPURPOSE": "1",
        "OPERATINGR": "PNR",
        "OPERATIN_1": "Primary",
        "DAYTHRU": 0,
        "NGHTTHRU": 0,
        "MAINTRK": 0,
        "SIDINGTRK": 0,
        "YARDTRK": 0,
        "TRANSITTRK": 0,
        "INDUSTRYTR": 1,
        "OTHRTRK": 1,
        "WDCODE": "Crossbucks",
        "REVISIONDA": "1994/01/01 00:00:00",
        "LASTUPDATE": "12/18/2025",
        "AADT": "893",
        "AADTYEAR": "2020",
        "STATENAME": "TEXAS",
        "STATEAB": "TX",
        "COUNTYNAME": "HUTCHINSON",
        "CITYNAME": "BORGER",
        "LATDD": 35.6425606,
        "LONGDD": -101.4031488,
        "gridlyProductionCertified": true,
        "gridlyClassification": "PUBLIC_ROADWAY",
        "gridlyDisplayName": "HUBER AVEnue",
        "gridlyId": "FRA-016984L"
      }
    }
  ]
}
