{
  "type": "FeatureCollection",
  "features": [
    {
      "type": "Feature",
      "id": 200547,
      "geometry": {
        "type": "Point",
        "coordinates": [
          -101.378890999939,
          36.3404689997002
        ]
      },
      "properties": {
        "OBJECTID": 200547,
        "CROSSING": "016501C",
        "EFFDATE": 645321600000,
        "REASON": "14",
        "StateCode": "48",
        "CountyCode": "48357",
        "STCYFIPS": "48357",
        "CITYCD": "481956530",
        "RAILROAD": "SW",
        "RRDIV": "PLAINS",
        "RRSUBDIV": "SHATTUCK",
        "HIGHWAY": "",
        "STREET": "PRIVATE ROAD",
        "TTSTN": "671255",
        "MILEPOST": "0070.68",
        "TYPEXING": "Private",
        "POSXING": "At Grade",
        "PRVCAT": "14",
        "INIT": "1",
        "LATITUDE": 36.340469,
        "LONGITUD": -101.378891,
        "LLSOURCE": "",
        "WHISTBAN": "0",
        "RRCONT": "",
        "POLCONT": "",
        "INV_LINK": "https://safetydata.fra.dot.gov/OfficeofSafety/PublicSite/Crossing/Crossing.aspx?phasetype=C&rpttype=I&txtcrossingnum=016501C",
        "ACC_LINK": "https://safetydata.fra.dot.gov/OfficeofSafety/PublicSite/Crossing/Crossing.aspx?phasetype=C&rpttype=A&txtcrossingnum=016501C",
        "TTSTNNAM": "FARNSWORTH",
        "XPURPOSE": "1",
        "OPERATINGR": "SW",
        "OPERATIN_1": "Primary",
        "DAYTHRU": 0,
        "NGHTTHRU": 0,
        "MAINTRK": 0,
        "SIDINGTRK": 0,
        "YARDTRK": 0,
        "TRANSITTRK": 0,
        "INDUSTRYTR": 0,
        "OTHRTRK": 0,
        "WDCODE": "",
        "REVISIONDA": "1990/01/01 00:00:00",
        "LASTUPDATE": "6/14/1990",
        "AADT": "",
        "AADTYEAR": "1970",
        "STATENAME": "TEXAS",
        "STATEAB": "TX",
        "COUNTYNAME": "OCHILTREE",
        "CITYNAME": "SPEARMAN",
        "LATDD": 36.340469,
        "LONGDD": -101.378891,
        "gridlyProductionCertified": true,
        "gridlyClassification": "PUBLIC_ROADWAY",
        "gridlyDisplayName": "PRIVATE ROAD",
        "gridlyId": "FRA-016501C"
      }
    },
    {
      "type": "Feature",
      "id": 200550,
      "geometry": {
        "type": "Point",
        "coordinates": [
          -101.362166999616,
          36.3827170002072
        ]
      },
      "properties": {
        "OBJECTID": 200550,
        "CROSSING": "016498W",
        "EFFDATE": 645321600000,
        "REASON": "14",
        "StateCode": "48",
        "CountyCode": "48357",
        "STCYFIPS": "48357",
        "CITYCD": "483575300",
        "RAILROAD": "SW",
        "RRDIV": "PLAINS",
        "RRSUBDIV": "SHATTUCK",
        "HIGHWAY": "",
        "STREET": "PRIVATE ROAD",
        "TTSTN": "671255",
        "MILEPOST": "0067.90",
        "TYPEXING": "Private",
        "POSXING": "At Grade",
        "PRVCAT": "14",
        "INIT": "1",
        "LATITUDE": 36.382717,
        "LONGITUD": -101.362167,
        "LLSOURCE": "",
        "WHISTBAN": "0",
        "RRCONT": "",
        "POLCONT": "",
        "INV_LINK": "https://safetydata.fra.dot.gov/OfficeofSafety/PublicSite/Crossing/Crossing.aspx?phasetype=C&rpttype=I&txtcrossingnum=016498W",
        "ACC_LINK": "https://safetydata.fra.dot.gov/OfficeofSafety/PublicSite/Crossing/Crossing.aspx?phasetype=C&rpttype=A&txtcrossingnum=016498W",
        "TTSTNNAM": "FARNSWORTH",
        "XPURPOSE": "1",
        "OPERATINGR": "SW",
        "OPERATIN_1": "Primary",
        "DAYTHRU": 0,
        "NGHTTHRU": 0,
        "MAINTRK": 0,
        "SIDINGTRK": 0,
        "YARDTRK": 0,
        "TRANSITTRK": 0,
        "INDUSTRYTR": 0,
        "OTHRTRK": 0,
        "WDCODE": "",
        "REVISIONDA": "1990/01/01 00:00:00",
        "LASTUPDATE": "6/14/1990",
        "AADT": "",
        "AADTYEAR": "1970",
        "STATENAME": "TEXAS",
        "STATEAB": "TX",
        "COUNTYNAME": "OCHILTREE",
        "CITYNAME": "PERRYTON",
        "LATDD": 36.382717,
        "LONGDD": -101.362167,
        "gridlyProductionCertified": true,
        "gridlyClassification": "PUBLIC_ROADWAY",
        "gridlyDisplayName": "PRIVATE ROAD",
        "gridlyId": "FRA-016498W"
      }
    },
    {
      "type": "Feature",
      "id": 200553,
      "geometry": {
        "type": "Point",
        "coordinates": [
          -101.47065700001,
          36.1833950000224
        ]
      },
      "properties": {
        "OBJECTID": 200553,
        "CROSSING": "016492F",
        "EFFDATE": 645321600000,
        "REASON": "14",
        "StateCode": "48",
        "CountyCode": "48357",
        "STCYFIPS": "48357",
        "CITYCD": "483575300",
        "RAILROAD": "SW",
        "RRDIV": "PLAINS",
        "RRSUBDIV": "SHATTUCK",
        "HIGHWAY": "",
        "STREET": "PRIVATE ROAD",
        "TTSTN": "671252",
        "MILEPOST": "0062.54",
        "TYPEXING": "Private",
        "POSXING": "At Grade",
        "PRVCAT": "14",
        "INIT": "1",
        "LATITUDE": 36.183395,
        "LONGITUD": -101.470657,
        "LLSOURCE": "",
        "WHISTBAN": "0",
        "RRCONT": "",
        "POLCONT": "",
        "INV_LINK": "https://safetydata.fra.dot.gov/OfficeofSafety/PublicSite/Crossing/Crossing.aspx?phasetype=C&rpttype=I&txtcrossingnum=016492F",
        "ACC_LINK": "https://safetydata.fra.dot.gov/OfficeofSafety/PublicSite/Crossing/Crossing.aspx?phasetype=C&rpttype=A&txtcrossingnum=016492F",
        "TTSTNNAM": "LORD",
        "XPURPOSE": "1",
        "OPERATINGR": "SW",
        "OPERATIN_1": "Primary",
        "DAYTHRU": 0,
        "NGHTTHRU": 0,
        "MAINTRK": 0,
        "SIDINGTRK": 0,
        "YARDTRK": 0,
        "TRANSITTRK": 0,
        "INDUSTRYTR": 0,
        "OTHRTRK": 0,
        "WDCODE": "",
        "REVISIONDA": "1990/01/01 00:00:00",
        "LASTUPDATE": "6/14/1990",
        "AADT": "",
        "AADTYEAR": "1970",
        "STATENAME": "TEXAS",
        "STATEAB": "TX",
        "COUNTYNAME": "OCHILTREE",
        "CITYNAME": "PERRYTON",
        "LATDD": 36.183395,
        "LONGDD": -101.470657,
        "gridlyProductionCertified": true,
        "gridlyClassification": "PUBLIC_ROADWAY",
        "gridlyDisplayName": "PRIVATE ROAD",
        "gridlyId": "FRA-016492F"
      }
    },
    {
      "type": "Feature",
      "id": 200569,
      "geometry": {
        "type": "Point",
        "coordinates": [
          -101.146925999776,
          36.2342109998472
        ]
      },
      "properties": {
        "OBJECTID": 200569,
        "CROSSING": "016513W",
        "EFFDATE": 645321600000,
        "REASON": "14",
        "StateCode": "48",
        "CountyCode": "48195",
        "STCYFIPS": "48195",
        "CITYCD": "481956530",
        "RAILROAD": "SW",
        "RRDIV": "PLAINS",
        "RRSUBDIV": "SHATTUCK",
        "HIGHWAY": "",
        "STREET": "PRIVATE ROAD",
        "TTSTN": "671350",
        "MILEPOST": "0080.26",
        "TYPEXING": "Private",
        "POSXING": "At Grade",
        "PRVCAT": "14",
        "INIT": "1",
        "LATITUDE": 36.234211,
        "LONGITUD": -101.146926,
        "LLSOURCE": "",
        "WHISTBAN": "0",
        "RRCONT": "",
        "POLCONT": "",
        "INV_LINK": "https://safetydata.fra.dot.gov/OfficeofSafety/PublicSite/Crossing/Crossing.aspx?phasetype=C&rpttype=I&txtcrossingnum=016513W",
        "ACC_LINK": "https://safetydata.fra.dot.gov/OfficeofSafety/PublicSite/Crossing/Crossing.aspx?phasetype=C&rpttype=A&txtcrossingnum=016513W",
        "TTSTNNAM": "SPEARMAN",
        "XPURPOSE": "1",
        "OPERATINGR": "SW",
        "OPERATIN_1": "Primary",
        "DAYTHRU": 0,
        "NGHTTHRU": 0,
        "MAINTRK": 0,
        "SIDINGTRK": 0,
        "YARDTRK": 0,
        "TRANSITTRK": 0,
        "INDUSTRYTR": 0,
        "OTHRTRK": 0,
        "WDCODE": "No signs or signals",
        "REVISIONDA": "1990/01/01 00:00:00",
        "LASTUPDATE": "6/14/1990",
        "AADT": "",
        "AADTYEAR": "1970",
        "STATENAME": "TEXAS",
        "STATEAB": "TX",
        "COUNTYNAME": "HANSFORD",
        "CITYNAME": "SPEARMAN",
        "LATDD": 36.234211,
        "LONGDD": -101.146926,
        "gridlyProductionCertified": true,
        "gridlyClassification": "PUBLIC_ROADWAY",
        "gridlyDisplayName": "PRIVATE ROAD",
        "gridlyId": "FRA-016513W"
      }
    },
    {
      "type": "Feature",
      "id": 200571,
      "geometry": {
        "type": "Point",
        "coordinates": [
          -101.396759000285,
          36.2953300002337
        ]
      },
      "properties": {
        "OBJECTID": 200571,
        "CROSSING": "016506L",
        "EFFDATE": 645321600000,
        "REASON": "14",
        "StateCode": "48",
        "CountyCode": "48357",
        "STCYFIPS": "48357",
        "CITYCD": "481956530",
        "RAILROAD": "SW",
        "RRDIV": "PLAINS",
        "RRSUBDIV": "SHATTUCK",
        "HIGHWAY": "",
        "STREET": "PRIVATE ROAD",
        "TTSTN": "671258",
        "MILEPOST": "0073.57",
        "TYPEXING": "Private",
        "POSXING": "At Grade",
        "PRVCAT": "14",
        "INIT": "1",
        "LATITUDE": 36.29533,
        "LONGITUD": -101.396759,
        "LLSOURCE": "",
        "WHISTBAN": "0",
        "RRCONT": "",
        "POLCONT": "",
        "INV_LINK": "https://safetydata.fra.dot.gov/OfficeofSafety/PublicSite/Crossing/Crossing.aspx?phasetype=C&rpttype=I&txtcrossingnum=016506L",
        "ACC_LINK": "https://safetydata.fra.dot.gov/OfficeofSafety/PublicSite/Crossing/Crossing.aspx?phasetype=C&rpttype=A&txtcrossingnum=016506L",
        "TTSTNNAM": "WAKA",
        "XPURPOSE": "1",
        "OPERATINGR": "SW",
        "OPERATIN_1": "Primary",
        "DAYTHRU": 1,
        "NGHTTHRU": 0,
        "MAINTRK": 1,
        "SIDINGTRK": 0,
        "YARDTRK": 0,
        "TRANSITTRK": 0,
        "INDUSTRYTR": 0,
        "OTHRTRK": 2,
        "WDCODE": "Stop signs",
        "REVISIONDA": "1990/01/01 00:00:00",
        "LASTUPDATE": "6/14/1990",
        "AADT": "000010",
        "AADTYEAR": "1975",
        "STATENAME": "TEXAS",
        "STATEAB": "TX",
        "COUNTYNAME": "OCHILTREE",
        "CITYNAME": "SPEARMAN",
        "LATDD": 36.29533,
        "LONGDD": -101.396759,
        "gridlyProductionCertified": true,
        "gridlyClassification": "PUBLIC_ROADWAY",
        "gridlyDisplayName": "PRIVATE ROAD",
        "gridlyId": "FRA-016506L"
      }
    },
    {
      "type": "Feature",
      "id": 200572,
      "geometry": {
        "type": "Point",
        "coordinates": [
          -101.388336000024,
          36.316601000058
        ]
      },
      "properties": {
        "OBJECTID": 200572,
        "CROSSING": "016504X",
        "EFFDATE": 645321600000,
        "REASON": "14",
        "StateCode": "48",
        "CountyCode": "48357",
        "STCYFIPS": "48357",
        "CITYCD": "481956530",
        "RAILROAD": "SW",
        "RRDIV": "PLAINS",
        "RRSUBDIV": "SHATTUCK",
        "HIGHWAY": "",
        "STREET": "PRIVATE ROAD",
        "TTSTN": "671258",
        "MILEPOST": "0072.16",
        "TYPEXING": "Private",
        "POSXING": "At Grade",
        "PRVCAT": "14",
        "INIT": "1",
        "LATITUDE": 36.316601,
        "LONGITUD": -101.388336,
        "LLSOURCE": "",
        "WHISTBAN": "0",
        "RRCONT": "",
        "POLCONT": "",
        "INV_LINK": "https://safetydata.fra.dot.gov/OfficeofSafety/PublicSite/Crossing/Crossing.aspx?phasetype=C&rpttype=I&txtcrossingnum=016504X",
        "ACC_LINK": "https://safetydata.fra.dot.gov/OfficeofSafety/PublicSite/Crossing/Crossing.aspx?phasetype=C&rpttype=A&txtcrossingnum=016504X",
        "TTSTNNAM": "WAKA",
        "XPURPOSE": "1",
        "OPERATINGR": "SW",
        "OPERATIN_1": "Primary",
        "DAYTHRU": 0,
        "NGHTTHRU": 0,
        "MAINTRK": 0,
        "SIDINGTRK": 0,
        "YARDTRK": 0,
        "TRANSITTRK": 0,
        "INDUSTRYTR": 0,
        "OTHRTRK": 0,
        "WDCODE": "",
        "REVISIONDA": "1990/01/01 00:00:00",
        "LASTUPDATE": "6/14/1990",
        "AADT": "",
        "AADTYEAR": "1970",
        "STATENAME": "TEXAS",
        "STATEAB": "TX",
        "COUNTYNAME": "OCHILTREE",
        "CITYNAME": "SPEARMAN",
        "LATDD": 36.316601,
        "LONGDD": -101.388336,
        "gridlyProductionCertified": true,
        "gridlyClassification": "PUBLIC_ROADWAY",
        "gridlyDisplayName": "PRIVATE ROAD",
        "gridlyId": "FRA-016504X"
      }
    },
    {
      "type": "Feature",
      "id": 200573,
      "geometry": {
        "type": "Point",
        "coordinates": [
          -101.383080000416,
          36.329880000315
        ]
      },
      "properties": {
        "OBJECTID": 200573,
        "CROSSING": "016503R",
        "EFFDATE": 645321600000,
        "REASON": "14",
        "StateCode": "48",
        "CountyCode": "48357",
        "STCYFIPS": "48357",
        "CITYCD": "481956530",
        "RAILROAD": "SW",
        "RRDIV": "PLAINS",
        "RRSUBDIV": "SHATTUCK",
        "HIGHWAY": "",
        "STREET": "PRIVATE ROAD",
        "TTSTN": "671258",
        "MILEPOST": "0071.28",
        "TYPEXING": "Private",
        "POSXING": "At Grade",
        "PRVCAT": "14",
        "INIT": "1",
        "LATITUDE": 36.32988,
        "LONGITUD": -101.38308,
        "LLSOURCE": "",
        "WHISTBAN": "0",
        "RRCONT": "",
        "POLCONT": "",
        "INV_LINK": "https://safetydata.fra.dot.gov/OfficeofSafety/PublicSite/Crossing/Crossing.aspx?phasetype=C&rpttype=I&txtcrossingnum=016503R",
        "ACC_LINK": "https://safetydata.fra.dot.gov/OfficeofSafety/PublicSite/Crossing/Crossing.aspx?phasetype=C&rpttype=A&txtcrossingnum=016503R",
        "TTSTNNAM": "WAKA",
        "XPURPOSE": "1",
        "OPERATINGR": "SW",
        "OPERATIN_1": "Primary",
        "DAYTHRU": 0,
        "NGHTTHRU": 0,
        "MAINTRK": 0,
        "SIDINGTRK": 0,
        "YARDTRK": 0,
        "TRANSITTRK": 0,
        "INDUSTRYTR": 0,
        "OTHRTRK": 0,
        "WDCODE": "",
        "REVISIONDA": "1990/01/01 00:00:00",
        "LASTUPDATE": "6/14/1990",
        "AADT": "",
        "AADTYEAR": "1970",
        "STATENAME": "TEXAS",
        "STATEAB": "TX",
        "COUNTYNAME": "OCHILTREE",
        "CITYNAME": "SPEARMAN",
        "LATDD": 36.32988,
        "LONGDD": -101.38308,
        "gridlyProductionCertified": true,
        "gridlyClassification": "PUBLIC_ROADWAY",
        "gridlyDisplayName": "PRIVATE ROAD",
        "gridlyId": "FRA-016503R"
      }
    },
    {
      "type": "Feature",
      "id": 200577,
      "geometry": {
        "type": "Point",
        "coordinates": [
          -101.141672999643,
          36.2367449997795
        ]
      },
      "properties": {
        "OBJECTID": 200577,
        "CROSSING": "016512P",
        "EFFDATE": 645321600000,
        "REASON": "14",
        "StateCode": "48",
        "CountyCode": "48195",
        "STCYFIPS": "48195",
        "CITYCD": "481956530",
        "RAILROAD": "SW",
        "RRDIV": "PLAINS",
        "RRSUBDIV": "SHATTUCK",
        "HIGHWAY": "",
        "STREET": "PRIVATE ROAD",
        "TTSTN": "671350",
        "MILEPOST": "0079.82",
        "TYPEXING": "Private",
        "POSXING": "At Grade",
        "PRVCAT": "14",
        "INIT": "1",
        "LATITUDE": 36.236745,
        "LONGITUD": -101.141673,
        "LLSOURCE": "",
        "WHISTBAN": "0",
        "RRCONT": "",
        "POLCONT": "",
        "INV_LINK": "https://safetydata.fra.dot.gov/OfficeofSafety/PublicSite/Crossing/Crossing.aspx?phasetype=C&rpttype=I&txtcrossingnum=016512P",
        "ACC_LINK": "https://safetydata.fra.dot.gov/OfficeofSafety/PublicSite/Crossing/Crossing.aspx?phasetype=C&rpttype=A&txtcrossingnum=016512P",
        "TTSTNNAM": "SPEARMAN",
        "XPURPOSE": "1",
        "OPERATINGR": "SW",
        "OPERATIN_1": "Primary",
        "DAYTHRU": 0,
        "NGHTTHRU": 0,
        "MAINTRK": 0,
        "SIDINGTRK": 0,
        "YARDTRK": 0,
        "TRANSITTRK": 0,
        "INDUSTRYTR": 0,
        "OTHRTRK": 0,
        "WDCODE": "No signs or signals",
        "REVISIONDA": "1990/01/01 00:00:00",
        "LASTUPDATE": "6/14/1990",
        "AADT": "",
        "AADTYEAR": "1970",
        "STATENAME": "TEXAS",
        "STATEAB": "TX",
        "COUNTYNAME": "HANSFORD",
        "CITYNAME": "SPEARMAN",
        "LATDD": 36.236745,
        "LONGDD": -101.141673,
        "gridlyProductionCertified": true,
        "gridlyClassification": "PUBLIC_ROADWAY",
        "gridlyDisplayName": "PRIVATE ROAD",
        "gridlyId": "FRA-016512P"
      }
    }
  ]
}
