{
  "type": "FeatureCollection",
  "features": [
    {
      "type": "Feature",
      "id": 205051,
      "geometry": {
        "type": "Point",
        "coordinates": [
          -102.337045000105,
          35.6533209000504
        ]
      },
      "properties": {
        "OBJECTID": 205051,
        "CROSSING": "675133G",
        "EFFDATE": 1736985600000,
        "REASON": "14",
        "StateCode": "48",
        "CountyCode": "48205",
        "STCYFIPS": "48205",
        "CITYCD": "482051286",
        "RAILROAD": "BNSF",
        "RRDIV": "KANSAS",
        "RRSUBDIV": "DALHART",
        "HIGHWAY": "Not Yet Reported by State",
        "STREET": "PRIVATE",
        "TTSTN": "672470",
        "MILEPOST": "0385.939",
        "TYPEXING": "Private",
        "POSXING": "At Grade",
        "PRVCAT": "14",
        "INIT": "1",
        "LATITUDE": 35.6533209,
        "LONGITUD": -102.337045,
        "LLSOURCE": "1",
        "WHISTBAN": "0",
        "RRCONT": "8173521549",
        "POLCONT": "8008325452",
        "INV_LINK": "https://safetydata.fra.dot.gov/OfficeofSafety/PublicSite/Crossing/Crossing.aspx?phasetype=C&rpttype=I&txtcrossingnum=675133G",
        "ACC_LINK": "https://safetydata.fra.dot.gov/OfficeofSafety/PublicSite/Crossing/Crossing.aspx?phasetype=C&rpttype=A&txtcrossingnum=675133G",
        "TTSTNNAM": "CHANNING",
        "XPURPOSE": "1",
        "OPERATINGR": "BNSF",
        "OPERATIN_1": "Primary",
        "DAYTHRU": 4,
        "NGHTTHRU": 3,
        "MAINTRK": 1,
        "SIDINGTRK": 0,
        "YARDTRK": 0,
        "TRANSITTRK": 0,
        "INDUSTRYTR": 0,
        "OTHRTRK": 0,
        "WDCODE": "",
        "REVISIONDA": "1996/01/01 00:00:00",
        "LASTUPDATE": "1/16/2025",
        "AADT": "",
        "AADTYEAR": "",
        "STATENAME": "TEXAS",
        "STATEAB": "TX",
        "COUNTYNAME": "HARTLEY",
        "CITYNAME": "CHANNING",
        "LATDD": 35.6533209,
        "LONGDD": -102.337045,
        "gridlyProductionCertified": true,
        "gridlyClassification": "PUBLIC_ROADWAY",
        "gridlyDisplayName": "PRIVATE",
        "gridlyId": "FRA-675133G"
      }
    },
    {
      "type": "Feature",
      "id": 205372,
      "geometry": {
        "type": "Point",
        "coordinates": [
          -102.459827999763,
          35.9934105001185
        ]
      },
      "properties": {
        "OBJECTID": 205372,
        "CROSSING": "276497F",
        "EFFDATE": 1736812800000,
        "REASON": "14",
        "StateCode": "48",
        "CountyCode": "48205",
        "STCYFIPS": "48205",
        "CITYCD": "482053036",
        "RAILROAD": "BNSF",
        "RRDIV": "KANSAS",
        "RRSUBDIV": "DALHART",
        "HIGHWAY": "CO 0000",
        "STREET": "LATHEM LOOP",
        "TTSTN": "672287",
        "MILEPOST": "0411.317",
        "TYPEXING": "Private",
        "POSXING": "At Grade",
        "PRVCAT": "14",
        "INIT": "1",
        "LATITUDE": 35.9934105,
        "LONGITUD": -102.459828,
        "LLSOURCE": "1",
        "WHISTBAN": "0",
        "RRCONT": "8173521549",
        "POLCONT": "8008325452",
        "INV_LINK": "https://safetydata.fra.dot.gov/OfficeofSafety/PublicSite/Crossing/Crossing.aspx?phasetype=C&rpttype=I&txtcrossingnum=276497F",
        "ACC_LINK": "https://safetydata.fra.dot.gov/OfficeofSafety/PublicSite/Crossing/Crossing.aspx?phasetype=C&rpttype=A&txtcrossingnum=276497F",
        "TTSTNNAM": "DALHART",
        "XPURPOSE": "1",
        "OPERATINGR": "BNSF",
        "OPERATIN_1": "Primary",
        "DAYTHRU": 4,
        "NGHTTHRU": 3,
        "MAINTRK": 1,
        "SIDINGTRK": 0,
        "YARDTRK": 0,
        "TRANSITTRK": 0,
        "INDUSTRYTR": 0,
        "OTHRTRK": 0,
        "WDCODE": "",
        "REVISIONDA": "1996/01/01 00:00:00",
        "LASTUPDATE": "1/14/2025",
        "AADT": "000200",
        "AADTYEAR": "1998",
        "STATENAME": "TEXAS",
        "STATEAB": "TX",
        "COUNTYNAME": "HARTLEY",
        "CITYNAME": "HARTLEY",
        "LATDD": 35.9934105,
        "LONGDD": -102.459828,
        "gridlyProductionCertified": true,
        "gridlyClassification": "PUBLIC_ROADWAY",
        "gridlyDisplayName": "LATHEM LOOP",
        "gridlyId": "FRA-276497F"
      }
    },
    {
      "type": "Feature",
      "id": 205374,
      "geometry": {
        "type": "Point",
        "coordinates": [
          -102.448445000335,
          35.973687399866
        ]
      },
      "properties": {
        "OBJECTID": 205374,
        "CROSSING": "276498M",
        "EFFDATE": 1736812800000,
        "REASON": "14",
        "StateCode": "48",
        "CountyCode": "48205",
        "STCYFIPS": "48205",
        "CITYCD": "482053036",
        "RAILROAD": "BNSF",
        "RRDIV": "KANSAS",
        "RRSUBDIV": "DALHART",
        "HIGHWAY": "Not Yet Reported by State",
        "STREET": "PRIVATE",
        "TTSTN": "672440",
        "MILEPOST": "0409.827",
        "TYPEXING": "Private",
        "POSXING": "At Grade",
        "PRVCAT": "14",
        "INIT": "1",
        "LATITUDE": 35.9736874,
        "LONGITUD": -102.448445,
        "LLSOURCE": "1",
        "WHISTBAN": "0",
        "RRCONT": "8173521549",
        "POLCONT": "8008325452",
        "INV_LINK": "https://safetydata.fra.dot.gov/OfficeofSafety/PublicSite/Crossing/Crossing.aspx?phasetype=C&rpttype=I&txtcrossingnum=276498M",
        "ACC_LINK": "https://safetydata.fra.dot.gov/OfficeofSafety/PublicSite/Crossing/Crossing.aspx?phasetype=C&rpttype=A&txtcrossingnum=276498M",
        "TTSTNNAM": "HARTLEY",
        "XPURPOSE": "1",
        "OPERATINGR": "BNSF",
        "OPERATIN_1": "Primary",
        "DAYTHRU": 4,
        "NGHTTHRU": 3,
        "MAINTRK": 1,
        "SIDINGTRK": 0,
        "YARDTRK": 0,
        "TRANSITTRK": 0,
        "INDUSTRYTR": 0,
        "OTHRTRK": 0,
        "WDCODE": "",
        "REVISIONDA": "1996/01/01 00:00:00",
        "LASTUPDATE": "1/14/2025",
        "AADT": "",
        "AADTYEAR": "1978",
        "STATENAME": "TEXAS",
        "STATEAB": "TX",
        "COUNTYNAME": "HARTLEY",
        "CITYNAME": "HARTLEY",
        "LATDD": 35.9736874,
        "LONGDD": -102.448445,
        "gridlyProductionCertified": true,
        "gridlyClassification": "PUBLIC_ROADWAY",
        "gridlyDisplayName": "PRIVATE",
        "gridlyId": "FRA-276498M"
      }
    },
    {
      "type": "Feature",
      "id": 205375,
      "geometry": {
        "type": "Point",
        "coordinates": [
          -102.426266000212,
          35.935306999753
        ]
      },
      "properties": {
        "OBJECTID": 205375,
        "CROSSING": "276501T",
        "EFFDATE": 1736812800000,
        "REASON": "14",
        "StateCode": "48",
        "CountyCode": "48205",
        "STCYFIPS": "48205",
        "CITYCD": "482053036",
        "RAILROAD": "BNSF",
        "RRDIV": "KANSAS",
        "RRSUBDIV": "DALHART",
        "HIGHWAY": "Not Yet Reported by State",
        "STREET": "PRIVATE",
        "TTSTN": "672440",
        "MILEPOST": "0406.900",
        "TYPEXING": "Private",
        "POSXING": "At Grade",
        "PRVCAT": "14",
        "INIT": "1",
        "LATITUDE": 35.935307,
        "LONGITUD": -102.426266,
        "LLSOURCE": "1",
        "WHISTBAN": "0",
        "RRCONT": "8173521549",
        "POLCONT": "8008325452",
        "INV_LINK": "https://safetydata.fra.dot.gov/OfficeofSafety/PublicSite/Crossing/Crossing.aspx?phasetype=C&rpttype=I&txtcrossingnum=276501T",
        "ACC_LINK": "https://safetydata.fra.dot.gov/OfficeofSafety/PublicSite/Crossing/Crossing.aspx?phasetype=C&rpttype=A&txtcrossingnum=276501T",
        "TTSTNNAM": "HARTLEY",
        "XPURPOSE": "1",
        "OPERATINGR": "BNSF",
        "OPERATIN_1": "Primary",
        "DAYTHRU": 4,
        "NGHTTHRU": 3,
        "MAINTRK": 1,
        "SIDINGTRK": 0,
        "YARDTRK": 0,
        "TRANSITTRK": 0,
        "INDUSTRYTR": 0,
        "OTHRTRK": 0,
        "WDCODE": "",
        "REVISIONDA": "1996/01/01 00:00:00",
        "LASTUPDATE": "1/14/2025",
        "AADT": "000010",
        "AADTYEAR": "1977",
        "STATENAME": "TEXAS",
        "STATEAB": "TX",
        "COUNTYNAME": "HARTLEY",
        "CITYNAME": "HARTLEY",
        "LATDD": 35.935307,
        "LONGDD": -102.426266,
        "gridlyProductionCertified": true,
        "gridlyClassification": "PUBLIC_ROADWAY",
        "gridlyDisplayName": "PRIVATE",
        "gridlyId": "FRA-276501T"
      }
    },
    {
      "type": "Feature",
      "id": 205378,
      "geometry": {
        "type": "Point",
        "coordinates": [
          -102.386653000111,
          35.8667189997996
        ]
      },
      "properties": {
        "OBJECTID": 205378,
        "CROSSING": "276505V",
        "EFFDATE": 1736812800000,
        "REASON": "14",
        "StateCode": "48",
        "CountyCode": "48205",
        "STCYFIPS": "48205",
        "CITYCD": "482053036",
        "RAILROAD": "BNSF",
        "RRDIV": "KANSAS",
        "RRSUBDIV": "DALHART",
        "HIGHWAY": "Not Yet Reported by State",
        "STREET": "PRIVATE",
        "TTSTN": "672440",
        "MILEPOST": "0401.676",
        "TYPEXING": "Private",
        "POSXING": "At Grade",
        "PRVCAT": "14",
        "INIT": "1",
        "LATITUDE": 35.866719,
        "LONGITUD": -102.386653,
        "LLSOURCE": "1",
        "WHISTBAN": "0",
        "RRCONT": "8173521549",
        "POLCONT": "8008325452",
        "INV_LINK": "https://safetydata.fra.dot.gov/OfficeofSafety/PublicSite/Crossing/Crossing.aspx?phasetype=C&rpttype=I&txtcrossingnum=276505V",
        "ACC_LINK": "https://safetydata.fra.dot.gov/OfficeofSafety/PublicSite/Crossing/Crossing.aspx?phasetype=C&rpttype=A&txtcrossingnum=276505V",
        "TTSTNNAM": "HARTLEY",
        "XPURPOSE": "1",
        "OPERATINGR": "BNSF",
        "OPERATIN_1": "Primary",
        "DAYTHRU": 4,
        "NGHTTHRU": 3,
        "MAINTRK": 1,
        "SIDINGTRK": 0,
        "YARDTRK": 0,
        "TRANSITTRK": 0,
        "INDUSTRYTR": 0,
        "OTHRTRK": 0,
        "WDCODE": "",
        "REVISIONDA": "1996/01/01 00:00:00",
        "LASTUPDATE": "1/14/2025",
        "AADT": "",
        "AADTYEAR": "1978",
        "STATENAME": "TEXAS",
        "STATEAB": "TX",
        "COUNTYNAME": "HARTLEY",
        "CITYNAME": "HARTLEY",
        "LATDD": 35.866719,
        "LONGDD": -102.386653,
        "gridlyProductionCertified": true,
        "gridlyClassification": "PUBLIC_ROADWAY",
        "gridlyDisplayName": "PRIVATE",
        "gridlyId": "FRA-276505V"
      }
    },
    {
      "type": "Feature",
      "id": 205379,
      "geometry": {
        "type": "Point",
        "coordinates": [
          -102.367927999798,
          35.8342916002723
        ]
      },
      "properties": {
        "OBJECTID": 205379,
        "CROSSING": "276507J",
        "EFFDATE": 1736812800000,
        "REASON": "14",
        "StateCode": "48",
        "CountyCode": "48205",
        "STCYFIPS": "48205",
        "CITYCD": "482053036",
        "RAILROAD": "BNSF",
        "RRDIV": "KANSAS",
        "RRSUBDIV": "DALHART",
        "HIGHWAY": "Not Yet Reported by State",
        "STREET": "PRIVATE",
        "TTSTN": "672440",
        "MILEPOST": "0399.211",
        "TYPEXING": "Private",
        "POSXING": "At Grade",
        "PRVCAT": "14",
        "INIT": "1",
        "LATITUDE": 35.8342916,
        "LONGITUD": -102.367928,
        "LLSOURCE": "1",
        "WHISTBAN": "0",
        "RRCONT": "8173521549",
        "POLCONT": "8008325452",
        "INV_LINK": "https://safetydata.fra.dot.gov/OfficeofSafety/PublicSite/Crossing/Crossing.aspx?phasetype=C&rpttype=I&txtcrossingnum=276507J",
        "ACC_LINK": "https://safetydata.fra.dot.gov/OfficeofSafety/PublicSite/Crossing/Crossing.aspx?phasetype=C&rpttype=A&txtcrossingnum=276507J",
        "TTSTNNAM": "HARTLEY",
        "XPURPOSE": "1",
        "OPERATINGR": "BNSF",
        "OPERATIN_1": "Primary",
        "DAYTHRU": 4,
        "NGHTTHRU": 3,
        "MAINTRK": 1,
        "SIDINGTRK": 0,
        "YARDTRK": 0,
        "TRANSITTRK": 0,
        "INDUSTRYTR": 0,
        "OTHRTRK": 0,
        "WDCODE": "",
        "REVISIONDA": "1996/01/01 00:00:00",
        "LASTUPDATE": "1/14/2025",
        "AADT": "",
        "AADTYEAR": "1978",
        "STATENAME": "TEXAS",
        "STATEAB": "TX",
        "COUNTYNAME": "HARTLEY",
        "CITYNAME": "HARTLEY",
        "LATDD": 35.8342916,
        "LONGDD": -102.367928,
        "gridlyProductionCertified": true,
        "gridlyClassification": "PUBLIC_ROADWAY",
        "gridlyDisplayName": "PRIVATE",
        "gridlyId": "FRA-276507J"
      }
    },
    {
      "type": "Feature",
      "id": 205392,
      "geometry": {
        "type": "Point",
        "coordinates": [
          -102.345702999644,
          35.7957954997009
        ]
      },
      "properties": {
        "OBJECTID": 205392,
        "CROSSING": "276509X",
        "EFFDATE": 1736812800000,
        "REASON": "14",
        "StateCode": "48",
        "CountyCode": "48205",
        "STCYFIPS": "48205",
        "CITYCD": "482053036",
        "RAILROAD": "BNSF",
        "RRDIV": "KANSAS",
        "RRSUBDIV": "DALHART",
        "HIGHWAY": "Not Yet Reported by State",
        "STREET": "PRIVATE",
        "TTSTN": "672440",
        "MILEPOST": "0396.272",
        "TYPEXING": "Private",
        "POSXING": "At Grade",
        "PRVCAT": "14",
        "INIT": "1",
        "LATITUDE": 35.7957955,
        "LONGITUD": -102.345703,
        "LLSOURCE": "1",
        "WHISTBAN": "0",
        "RRCONT": "8173521549",
        "POLCONT": "8008325452",
        "INV_LINK": "https://safetydata.fra.dot.gov/OfficeofSafety/PublicSite/Crossing/Crossing.aspx?phasetype=C&rpttype=I&txtcrossingnum=276509X",
        "ACC_LINK": "https://safetydata.fra.dot.gov/OfficeofSafety/PublicSite/Crossing/Crossing.aspx?phasetype=C&rpttype=A&txtcrossingnum=276509X",
        "TTSTNNAM": "HARTLEY",
        "XPURPOSE": "1",
        "OPERATINGR": "BNSF",
        "OPERATIN_1": "Primary",
        "DAYTHRU": 4,
        "NGHTTHRU": 3,
        "MAINTRK": 1,
        "SIDINGTRK": 0,
        "YARDTRK": 0,
        "TRANSITTRK": 0,
        "INDUSTRYTR": 0,
        "OTHRTRK": 0,
        "WDCODE": "",
        "REVISIONDA": "1996/01/01 00:00:00",
        "LASTUPDATE": "1/14/2025",
        "AADT": "",
        "AADTYEAR": "1978",
        "STATENAME": "TEXAS",
        "STATEAB": "TX",
        "COUNTYNAME": "HARTLEY",
        "CITYNAME": "HARTLEY",
        "LATDD": 35.7957955,
        "LONGDD": -102.345703,
        "gridlyProductionCertified": true,
        "gridlyClassification": "PUBLIC_ROADWAY",
        "gridlyDisplayName": "PRIVATE",
        "gridlyId": "FRA-276509X"
      }
    },
    {
      "type": "Feature",
      "id": 205456,
      "geometry": {
        "type": "Point",
        "coordinates": [
          -102.317801999758,
          35.7336293998977
        ]
      },
      "properties": {
        "OBJECTID": 205456,
        "CROSSING": "276513M",
        "EFFDATE": 1736812800000,
        "REASON": "14",
        "StateCode": "48",
        "CountyCode": "48205",
        "STCYFIPS": "48205",
        "CITYCD": "482051286",
        "RAILROAD": "BNSF",
        "RRDIV": "KANSAS",
        "RRSUBDIV": "DALHART",
        "HIGHWAY": "Not Yet Reported by State",
        "STREET": "PRIVATE",
        "TTSTN": "672470",
        "MILEPOST": "0391.577",
        "TYPEXING": "Private",
        "POSXING": "At Grade",
        "PRVCAT": "14",
        "INIT": "1",
        "LATITUDE": 35.7336294,
        "LONGITUD": -102.317802,
        "LLSOURCE": "1",
        "WHISTBAN": "0",
        "RRCONT": "8173521549",
        "POLCONT": "8008325452",
        "INV_LINK": "https://safetydata.fra.dot.gov/OfficeofSafety/PublicSite/Crossing/Crossing.aspx?phasetype=C&rpttype=I&txtcrossingnum=276513M",
        "ACC_LINK": "https://safetydata.fra.dot.gov/OfficeofSafety/PublicSite/Crossing/Crossing.aspx?phasetype=C&rpttype=A&txtcrossingnum=276513M",
        "TTSTNNAM": "CHANNING",
        "XPURPOSE": "1",
        "OPERATINGR": "BNSF",
        "OPERATIN_1": "Primary",
        "DAYTHRU": 4,
        "NGHTTHRU": 3,
        "MAINTRK": 1,
        "SIDINGTRK": 0,
        "YARDTRK": 0,
        "TRANSITTRK": 0,
        "INDUSTRYTR": 0,
        "OTHRTRK": 0,
        "WDCODE": "",
        "REVISIONDA": "1996/01/01 00:00:00",
        "LASTUPDATE": "1/14/2025",
        "AADT": "",
        "AADTYEAR": "1978",
        "STATENAME": "TEXAS",
        "STATEAB": "TX",
        "COUNTYNAME": "HARTLEY",
        "CITYNAME": "CHANNING",
        "LATDD": 35.7336294,
        "LONGDD": -102.317802,
        "gridlyProductionCertified": true,
        "gridlyClassification": "PUBLIC_ROADWAY",
        "gridlyDisplayName": "PRIVATE",
        "gridlyId": "FRA-276513M"
      }
    },
    {
      "type": "Feature",
      "id": 205741,
      "geometry": {
        "type": "Point",
        "coordinates": [
          -102.471856000344,
          36.014238999943
        ]
      },
      "properties": {
        "OBJECTID": 205741,
        "CROSSING": "274830K",
        "EFFDATE": 1736812800000,
        "REASON": "14",
        "StateCode": "48",
        "CountyCode": "48205",
        "STCYFIPS": "48205",
        "CITYCD": "482053036",
        "RAILROAD": "BNSF",
        "RRDIV": "KANSAS",
        "RRSUBDIV": "DALHART",
        "HIGHWAY": "Not Yet Reported by State",
        "STREET": "PRIVATE",
        "TTSTN": "672287",
        "MILEPOST": "0412.916",
        "TYPEXING": "Private",
        "POSXING": "At Grade",
        "PRVCAT": "14",
        "INIT": "1",
        "LATITUDE": 36.014239,
        "LONGITUD": -102.471856,
        "LLSOURCE": "1",
        "WHISTBAN": "0",
        "RRCONT": "8173521549",
        "POLCONT": "8008325452",
        "INV_LINK": "https://safetydata.fra.dot.gov/OfficeofSafety/PublicSite/Crossing/Crossing.aspx?phasetype=C&rpttype=I&txtcrossingnum=274830K",
        "ACC_LINK": "https://safetydata.fra.dot.gov/OfficeofSafety/PublicSite/Crossing/Crossing.aspx?phasetype=C&rpttype=A&txtcrossingnum=274830K",
        "TTSTNNAM": "DALHART",
        "XPURPOSE": "1",
        "OPERATINGR": "BNSF",
        "OPERATIN_1": "Primary",
        "DAYTHRU": 4,
        "NGHTTHRU": 3,
        "MAINTRK": 1,
        "SIDINGTRK": 0,
        "YARDTRK": 0,
        "TRANSITTRK": 0,
        "INDUSTRYTR": 0,
        "OTHRTRK": 0,
        "WDCODE": "",
        "REVISIONDA": "1996/01/01 00:00:00",
        "LASTUPDATE": "1/14/2025",
        "AADT": "",
        "AADTYEAR": "1978",
        "STATENAME": "TEXAS",
        "STATEAB": "TX",
        "COUNTYNAME": "HARTLEY",
        "CITYNAME": "HARTLEY",
        "LATDD": 36.014239,
        "LONGDD": -102.471856,
        "gridlyProductionCertified": true,
        "gridlyClassification": "PUBLIC_ROADWAY",
        "gridlyDisplayName": "PRIVATE",
        "gridlyId": "FRA-274830K"
      }
    },
    {
      "type": "Feature",
      "id": 205762,
      "geometry": {
        "type": "Point",
        "coordinates": [
          -102.468024000243,
          36.0075929997186
        ]
      },
      "properties": {
        "OBJECTID": 205762,
        "CROSSING": "274831S",
        "EFFDATE": 1736812800000,
        "REASON": "14",
        "StateCode": "48",
        "CountyCode": "48205",
        "STCYFIPS": "48205",
        "CITYCD": "482053036",
        "RAILROAD": "BNSF",
        "RRDIV": "KANSAS",
        "RRSUBDIV": "DALHART",
        "HIGHWAY": "Not Yet Reported by State",
        "STREET": "PRIVATE",
        "TTSTN": "672287",
        "MILEPOST": "0412.408",
        "TYPEXING": "Private",
        "POSXING": "At Grade",
        "PRVCAT": "14",
        "INIT": "1",
        "LATITUDE": 36.007593,
        "LONGITUD": -102.468024,
        "LLSOURCE": "1",
        "WHISTBAN": "0",
        "RRCONT": "8173521549",
        "POLCONT": "8008325452",
        "INV_LINK": "https://safetydata.fra.dot.gov/OfficeofSafety/PublicSite/Crossing/Crossing.aspx?phasetype=C&rpttype=I&txtcrossingnum=274831S",
        "ACC_LINK": "https://safetydata.fra.dot.gov/OfficeofSafety/PublicSite/Crossing/Crossing.aspx?phasetype=C&rpttype=A&txtcrossingnum=274831S",
        "TTSTNNAM": "DALHART",
        "XPURPOSE": "1",
        "OPERATINGR": "BNSF",
        "OPERATIN_1": "Primary",
        "DAYTHRU": 4,
        "NGHTTHRU": 3,
        "MAINTRK": 1,
        "SIDINGTRK": 0,
        "YARDTRK": 0,
        "TRANSITTRK": 0,
        "INDUSTRYTR": 0,
        "OTHRTRK": 0,
        "WDCODE": "",
        "REVISIONDA": "1996/01/01 00:00:00",
        "LASTUPDATE": "1/14/2025",
        "AADT": "",
        "AADTYEAR": "1978",
        "STATENAME": "TEXAS",
        "STATEAB": "TX",
        "COUNTYNAME": "HARTLEY",
        "CITYNAME": "HARTLEY",
        "LATDD": 36.007593,
        "LONGDD": -102.468024,
        "gridlyProductionCertified": true,
        "gridlyClassification": "PUBLIC_ROADWAY",
        "gridlyDisplayName": "PRIVATE",
        "gridlyId": "FRA-274831S"
      }
    },
    {
      "type": "Feature",
      "id": 205770,
      "geometry": {
        "type": "Point",
        "coordinates": [
          -102.477435999818,
          36.0239180999909
        ]
      },
      "properties": {
        "OBJECTID": 205770,
        "CROSSING": "275324M",
        "EFFDATE": 1736812800000,
        "REASON": "14",
        "StateCode": "48",
        "CountyCode": "48205",
        "STCYFIPS": "48205",
        "CITYCD": "482053036",
        "RAILROAD": "BNSF",
        "RRDIV": "KANSAS",
        "RRSUBDIV": "DALHART",
        "HIGHWAY": "Not Yet Reported by State",
        "STREET": "PRIVATE",
        "TTSTN": "672287",
        "MILEPOST": "0413.651",
        "TYPEXING": "Private",
        "POSXING": "At Grade",
        "PRVCAT": "14",
        "INIT": "1",
        "LATITUDE": 36.0239181,
        "LONGITUD": -102.477436,
        "LLSOURCE": "1",
        "WHISTBAN": "0",
        "RRCONT": "8173521549",
        "POLCONT": "8008325452",
        "INV_LINK": "https://safetydata.fra.dot.gov/OfficeofSafety/PublicSite/Crossing/Crossing.aspx?phasetype=C&rpttype=I&txtcrossingnum=275324M",
        "ACC_LINK": "https://safetydata.fra.dot.gov/OfficeofSafety/PublicSite/Crossing/Crossing.aspx?phasetype=C&rpttype=A&txtcrossingnum=275324M",
        "TTSTNNAM": "DALHART",
        "XPURPOSE": "1",
        "OPERATINGR": "BNSF",
        "OPERATIN_1": "Primary",
        "DAYTHRU": 4,
        "NGHTTHRU": 3,
        "MAINTRK": 1,
        "SIDINGTRK": 0,
        "YARDTRK": 0,
        "TRANSITTRK": 0,
        "INDUSTRYTR": 0,
        "OTHRTRK": 0,
        "WDCODE": "",
        "REVISIONDA": "1996/01/01 00:00:00",
        "LASTUPDATE": "1/14/2025",
        "AADT": "",
        "AADTYEAR": "1978",
        "STATENAME": "TEXAS",
        "STATEAB": "TX",
        "COUNTYNAME": "HARTLEY",
        "CITYNAME": "HARTLEY",
        "LATDD": 36.0239181,
        "LONGDD": -102.477436,
        "gridlyProductionCertified": true,
        "gridlyClassification": "PUBLIC_ROADWAY",
        "gridlyDisplayName": "PRIVATE",
        "gridlyId": "FRA-275324M"
      }
    },
    {
      "type": "Feature",
      "id": 205826,
      "geometry": {
        "type": "Point",
        "coordinates": [
          -102.562838399993,
          36.0365926998582
        ]
      },
      "properties": {
        "OBJECTID": 205826,
        "CROSSING": "596170R",
        "EFFDATE": 1768867200000,
        "REASON": "14",
        "StateCode": "48",
        "CountyCode": "48205",
        "STCYFIPS": "48205",
        "CITYCD": "482051720",
        "RAILROAD": "UP",
        "RRDIV": "Heartland",
        "RRSUBDIV": "Tucumcari Sub",
        "HIGHWAY": "FM0694",
        "STREET": "FM0694",
        "TTSTN": "672287",
        "MILEPOST": "0548.670",
        "TYPEXING": "Public",
        "POSXING": "At Grade",
        "PRVCAT": "14",
        "INIT": "2",
        "LATITUDE": 36.0365927,
        "LONGITUD": -102.5628384,
        "LLSOURCE": "1",
        "WHISTBAN": "0",
        "RRCONT": "4025443721",
        "POLCONT": "8008488715",
        "INV_LINK": "https://safetydata.fra.dot.gov/OfficeofSafety/PublicSite/Crossing/Crossing.aspx?phasetype=C&rpttype=I&txtcrossingnum=596170R",
        "ACC_LINK": "https://safetydata.fra.dot.gov/OfficeofSafety/PublicSite/Crossing/Crossing.aspx?phasetype=C&rpttype=A&txtcrossingnum=596170R",
        "TTSTNNAM": "",
        "XPURPOSE": "1",
        "OPERATINGR": "UP",
        "OPERATIN_1": "Primary",
        "DAYTHRU": 7,
        "NGHTTHRU": 6,
        "MAINTRK": 1,
        "SIDINGTRK": 0,
        "YARDTRK": 0,
        "TRANSITTRK": 0,
        "INDUSTRYTR": 0,
        "OTHRTRK": 0,
        "WDCODE": "All other Gates",
        "REVISIONDA": "1975/01/01 00:00:00",
        "LASTUPDATE": "1/20/2026",
        "AADT": "1253",
        "AADTYEAR": "2023",
        "STATENAME": "TEXAS",
        "STATEAB": "TX",
        "COUNTYNAME": "HARTLEY",
        "CITYNAME": "DALHART",
        "LATDD": 36.0365927,
        "LONGDD": -102.5628384,
        "gridlyProductionCertified": true,
        "gridlyClassification": "PUBLIC_ROADWAY",
        "gridlyDisplayName": "FM0694",
        "gridlyId": "FRA-596170R"
      }
    },
    {
      "type": "Feature",
      "id": 205899,
      "geometry": {
        "type": "Point",
        "coordinates": [
          -102.392735100336,
          35.877238300339
        ]
      },
      "properties": {
        "OBJECTID": 205899,
        "CROSSING": "276504N",
        "EFFDATE": 1768867200000,
        "REASON": "14",
        "StateCode": "48",
        "CountyCode": "48205",
        "STCYFIPS": "48205",
        "CITYCD": "482053036",
        "RAILROAD": "BNSF",
        "RRDIV": "KANSAS",
        "RRSUBDIV": "DALHART",
        "HIGHWAY": "CR0124",
        "STREET": "COUNTY ROAD M",
        "TTSTN": "672440",
        "MILEPOST": "0402.476",
        "TYPEXING": "Public",
        "POSXING": "At Grade",
        "PRVCAT": "14",
        "INIT": "2",
        "LATITUDE": 35.8772383,
        "LONGITUD": -102.3927351,
        "LLSOURCE": "1",
        "WHISTBAN": "0",
        "RRCONT": "8173521549",
        "POLCONT": "8008325452",
        "INV_LINK": "https://safetydata.fra.dot.gov/OfficeofSafety/PublicSite/Crossing/Crossing.aspx?phasetype=C&rpttype=I&txtcrossingnum=276504N",
        "ACC_LINK": "https://safetydata.fra.dot.gov/OfficeofSafety/PublicSite/Crossing/Crossing.aspx?phasetype=C&rpttype=A&txtcrossingnum=276504N",
        "TTSTNNAM": "HARTLEY",
        "XPURPOSE": "1",
        "OPERATINGR": "BNSF",
        "OPERATIN_1": "Primary",
        "DAYTHRU": 4,
        "NGHTTHRU": 3,
        "MAINTRK": 1,
        "SIDINGTRK": 0,
        "YARDTRK": 0,
        "TRANSITTRK": 0,
        "INDUSTRYTR": 0,
        "OTHRTRK": 0,
        "WDCODE": "All other Gates",
        "REVISIONDA": "1996/01/01 00:00:00",
        "LASTUPDATE": "1/20/2026",
        "AADT": "157",
        "AADTYEAR": "2020",
        "STATENAME": "TEXAS",
        "STATEAB": "TX",
        "COUNTYNAME": "HARTLEY",
        "CITYNAME": "HARTLEY",
        "LATDD": 35.8772383,
        "LONGDD": -102.3927351,
        "gridlyProductionCertified": true,
        "gridlyClassification": "PUBLIC_ROADWAY",
        "gridlyDisplayName": "COUNTY ROAD M",
        "gridlyId": "FRA-276504N"
      }
    },
    {
      "type": "Feature",
      "id": 205900,
      "geometry": {
        "type": "Point",
        "coordinates": [
          -102.732099399713,
          35.8947397002631
        ]
      },
      "properties": {
        "OBJECTID": 205900,
        "CROSSING": "596161S",
        "EFFDATE": 1768867200000,
        "REASON": "14",
        "StateCode": "48",
        "CountyCode": "48205",
        "STCYFIPS": "48205",
        "CITYCD": "482054557",
        "RAILROAD": "UP",
        "RRDIV": "HEARTLAND",
        "RRSUBDIV": "TUCUMCARI SUB",
        "HIGHWAY": "CR0102",
        "STREET": "MIDDLEWATER ROAD",
        "TTSTN": "",
        "MILEPOST": "0562.260",
        "TYPEXING": "Public",
        "POSXING": "At Grade",
        "PRVCAT": "14",
        "INIT": "2",
        "LATITUDE": 35.8947397,
        "LONGITUD": -102.7320994,
        "LLSOURCE": "1",
        "WHISTBAN": "0",
        "RRCONT": "4025443721",
        "POLCONT": "8008488715",
        "INV_LINK": "https://safetydata.fra.dot.gov/OfficeofSafety/PublicSite/Crossing/Crossing.aspx?phasetype=C&rpttype=I&txtcrossingnum=596161S",
        "ACC_LINK": "https://safetydata.fra.dot.gov/OfficeofSafety/PublicSite/Crossing/Crossing.aspx?phasetype=C&rpttype=A&txtcrossingnum=596161S",
        "TTSTNNAM": "",
        "XPURPOSE": "1",
        "OPERATINGR": "UP",
        "OPERATIN_1": "Primary",
        "DAYTHRU": 7,
        "NGHTTHRU": 6,
        "MAINTRK": 1,
        "SIDINGTRK": 1,
        "YARDTRK": 0,
        "TRANSITTRK": 0,
        "INDUSTRYTR": 0,
        "OTHRTRK": 0,
        "WDCODE": "All other Gates",
        "REVISIONDA": "1975/01/01 00:00:00",
        "LASTUPDATE": "1/20/2026",
        "AADT": "356",
        "AADTYEAR": "2020",
        "STATENAME": "TEXAS",
        "STATEAB": "TX",
        "COUNTYNAME": "HARTLEY",
        "CITYNAME": "MIDDLE WATER",
        "LATDD": 35.8947397,
        "LONGDD": -102.7320994,
        "gridlyProductionCertified": true,
        "gridlyClassification": "PUBLIC_ROADWAY",
        "gridlyDisplayName": "MIDDLEWATER ROAD",
        "gridlyId": "FRA-596161S"
      }
    },
    {
      "type": "Feature",
      "id": 206724,
      "geometry": {
        "type": "Point",
        "coordinates": [
          -102.677394700144,
          35.940626299671
        ]
      },
      "properties": {
        "OBJECTID": 206724,
        "CROSSING": "596163F",
        "EFFDATE": 1756684800000,
        "REASON": "14",
        "StateCode": "48",
        "CountyCode": "48205",
        "STCYFIPS": "48205",
        "CITYCD": "482051720",
        "RAILROAD": "UP",
        "RRDIV": "HEARTLAND",
        "RRSUBDIV": "TUCUMCARI SUB",
        "HIGHWAY": "NA",
        "STREET": "PRIVATE",
        "TTSTN": "672287",
        "MILEPOST": "0557.900",
        "TYPEXING": "Private",
        "POSXING": "At Grade",
        "PRVCAT": "14",
        "INIT": "1",
        "LATITUDE": 35.9406263,
        "LONGITUD": -102.6773947,
        "LLSOURCE": "1",
        "WHISTBAN": "0",
        "RRCONT": "4025443721",
        "POLCONT": "8008488715",
        "INV_LINK": "https://safetydata.fra.dot.gov/OfficeofSafety/PublicSite/Crossing/Crossing.aspx?phasetype=C&rpttype=I&txtcrossingnum=596163F",
        "ACC_LINK": "https://safetydata.fra.dot.gov/OfficeofSafety/PublicSite/Crossing/Crossing.aspx?phasetype=C&rpttype=A&txtcrossingnum=596163F",
        "TTSTNNAM": "",
        "XPURPOSE": "1",
        "OPERATINGR": "UP",
        "OPERATIN_1": "Primary",
        "DAYTHRU": 7,
        "NGHTTHRU": 6,
        "MAINTRK": 1,
        "SIDINGTRK": 0,
        "YARDTRK": 0,
        "TRANSITTRK": 0,
        "INDUSTRYTR": 0,
        "OTHRTRK": 0,
        "WDCODE": "",
        "REVISIONDA": "1975/01/01 00:00:00",
        "LASTUPDATE": "9/1/2025",
        "AADT": "1",
        "AADTYEAR": "1980",
        "STATENAME": "TEXAS",
        "STATEAB": "TX",
        "COUNTYNAME": "HARTLEY",
        "CITYNAME": "DALHART",
        "LATDD": 35.9406263,
        "LONGDD": -102.6773947,
        "gridlyProductionCertified": true,
        "gridlyClassification": "PUBLIC_ROADWAY",
        "gridlyDisplayName": "PRIVATE",
        "gridlyId": "FRA-596163F"
      }
    },
    {
      "type": "Feature",
      "id": 206726,
      "geometry": {
        "type": "Point",
        "coordinates": [
          -102.645904500404,
          35.9670205998509
        ]
      },
      "properties": {
        "OBJECTID": 206726,
        "CROSSING": "596164M",
        "EFFDATE": 1756684800000,
        "REASON": "14",
        "StateCode": "48",
        "CountyCode": "48205",
        "STCYFIPS": "48205",
        "CITYCD": "482051720",
        "RAILROAD": "UP",
        "RRDIV": "HEARTLAND",
        "RRSUBDIV": "TUCUMCARI SUB",
        "HIGHWAY": "NA",
        "STREET": "Private",
        "TTSTN": "672287",
        "MILEPOST": "0555.390",
        "TYPEXING": "Private",
        "POSXING": "At Grade",
        "PRVCAT": "14",
        "INIT": "1",
        "LATITUDE": 35.9670206,
        "LONGITUD": -102.6459045,
        "LLSOURCE": "1",
        "WHISTBAN": "0",
        "RRCONT": "4025443721",
        "POLCONT": "8008488715",
        "INV_LINK": "https://safetydata.fra.dot.gov/OfficeofSafety/PublicSite/Crossing/Crossing.aspx?phasetype=C&rpttype=I&txtcrossingnum=596164M",
        "ACC_LINK": "https://safetydata.fra.dot.gov/OfficeofSafety/PublicSite/Crossing/Crossing.aspx?phasetype=C&rpttype=A&txtcrossingnum=596164M",
        "TTSTNNAM": "",
        "XPURPOSE": "1",
        "OPERATINGR": "UP",
        "OPERATIN_1": "Primary",
        "DAYTHRU": 7,
        "NGHTTHRU": 6,
        "MAINTRK": 1,
        "SIDINGTRK": 0,
        "YARDTRK": 0,
        "TRANSITTRK": 0,
        "INDUSTRYTR": 0,
        "OTHRTRK": 0,
        "WDCODE": "",
        "REVISIONDA": "1975/01/01 00:00:00",
        "LASTUPDATE": "9/1/2025",
        "AADT": "1",
        "AADTYEAR": "1980",
        "STATENAME": "TEXAS",
        "STATEAB": "TX",
        "COUNTYNAME": "HARTLEY",
        "CITYNAME": "DALHART",
        "LATDD": 35.9670206,
        "LONGDD": -102.6459045,
        "gridlyProductionCertified": true,
        "gridlyClassification": "PUBLIC_ROADWAY",
        "gridlyDisplayName": "Private",
        "gridlyId": "FRA-596164M"
      }
    },
    {
      "type": "Feature",
      "id": 208433,
      "geometry": {
        "type": "Point",
        "coordinates": [
          -103.036192599913,
          35.6556842997225
        ]
      },
      "properties": {
        "OBJECTID": 208433,
        "CROSSING": "596152T",
        "EFFDATE": 1756339200000,
        "REASON": "14",
        "StateCode": "48",
        "CountyCode": "48205",
        "STCYFIPS": "48205",
        "CITYCD": "482054557",
        "RAILROAD": "UP",
        "RRDIV": "HEARTLAND",
        "RRSUBDIV": "TUCUMCARI SUB",
        "HIGHWAY": "NA",
        "STREET": "PRIVATE",
        "TTSTN": "672460",
        "MILEPOST": "0586.110",
        "TYPEXING": "Private",
        "POSXING": "At Grade",
        "PRVCAT": "14",
        "INIT": "1",
        "LATITUDE": 35.6556843,
        "LONGITUD": -103.0361926,
        "LLSOURCE": "1",
        "WHISTBAN": "0",
        "RRCONT": "4025443721",
        "POLCONT": "8008488715",
        "INV_LINK": "https://safetydata.fra.dot.gov/OfficeofSafety/PublicSite/Crossing/Crossing.aspx?phasetype=C&rpttype=I&txtcrossingnum=596152T",
        "ACC_LINK": "https://safetydata.fra.dot.gov/OfficeofSafety/PublicSite/Crossing/Crossing.aspx?phasetype=C&rpttype=A&txtcrossingnum=596152T",
        "TTSTNNAM": "",
        "XPURPOSE": "1",
        "OPERATINGR": "UP",
        "OPERATIN_1": "Primary",
        "DAYTHRU": 7,
        "NGHTTHRU": 6,
        "MAINTRK": 1,
        "SIDINGTRK": 0,
        "YARDTRK": 0,
        "TRANSITTRK": 0,
        "INDUSTRYTR": 0,
        "OTHRTRK": 0,
        "WDCODE": "",
        "REVISIONDA": "1975/01/01 00:00:00",
        "LASTUPDATE": "8/28/2025",
        "AADT": "1",
        "AADTYEAR": "1980",
        "STATENAME": "TEXAS",
        "STATEAB": "TX",
        "COUNTYNAME": "HARTLEY",
        "CITYNAME": "MIDDLE WATER",
        "LATDD": 35.6556843,
        "LONGDD": -103.0361926,
        "gridlyProductionCertified": true,
        "gridlyClassification": "PUBLIC_ROADWAY",
        "gridlyDisplayName": "PRIVATE",
        "gridlyId": "FRA-596152T"
      }
    },
    {
      "type": "Feature",
      "id": 208434,
      "geometry": {
        "type": "Point",
        "coordinates": [
          -103.013242699749,
          35.6722327996394
        ]
      },
      "properties": {
        "OBJECTID": 208434,
        "CROSSING": "596153A",
        "EFFDATE": 1756339200000,
        "REASON": "14",
        "StateCode": "48",
        "CountyCode": "48205",
        "STCYFIPS": "48205",
        "CITYCD": "482054557",
        "RAILROAD": "UP",
        "RRDIV": "HEARTLAND",
        "RRSUBDIV": "TUCUMCARI SUB",
        "HIGHWAY": "NA",
        "STREET": "PRIVATE",
        "TTSTN": "672493",
        "MILEPOST": "0584.390",
        "TYPEXING": "Private",
        "POSXING": "At Grade",
        "PRVCAT": "14",
        "INIT": "1",
        "LATITUDE": 35.6722328,
        "LONGITUD": -103.0132427,
        "LLSOURCE": "1",
        "WHISTBAN": "0",
        "RRCONT": "4025443721",
        "POLCONT": "8008488715",
        "INV_LINK": "https://safetydata.fra.dot.gov/OfficeofSafety/PublicSite/Crossing/Crossing.aspx?phasetype=C&rpttype=I&txtcrossingnum=596153A",
        "ACC_LINK": "https://safetydata.fra.dot.gov/OfficeofSafety/PublicSite/Crossing/Crossing.aspx?phasetype=C&rpttype=A&txtcrossingnum=596153A",
        "TTSTNNAM": "",
        "XPURPOSE": "1",
        "OPERATINGR": "UP",
        "OPERATIN_1": "Primary",
        "DAYTHRU": 7,
        "NGHTTHRU": 6,
        "MAINTRK": 1,
        "SIDINGTRK": 0,
        "YARDTRK": 0,
        "TRANSITTRK": 0,
        "INDUSTRYTR": 0,
        "OTHRTRK": 0,
        "WDCODE": "",
        "REVISIONDA": "1975/01/01 00:00:00",
        "LASTUPDATE": "8/28/2025",
        "AADT": "1",
        "AADTYEAR": "1980",
        "STATENAME": "TEXAS",
        "STATEAB": "TX",
        "COUNTYNAME": "HARTLEY",
        "CITYNAME": "MIDDLE WATER",
        "LATDD": 35.6722328,
        "LONGDD": -103.0132427,
        "gridlyProductionCertified": true,
        "gridlyClassification": "PUBLIC_ROADWAY",
        "gridlyDisplayName": "PRIVATE",
        "gridlyId": "FRA-596153A"
      }
    },
    {
      "type": "Feature",
      "id": 208435,
      "geometry": {
        "type": "Point",
        "coordinates": [
          -102.974059099744,
          35.7004621001715
        ]
      },
      "properties": {
        "OBJECTID": 208435,
        "CROSSING": "596154G",
        "EFFDATE": 1756339200000,
        "REASON": "14",
        "StateCode": "48",
        "CountyCode": "48205",
        "STCYFIPS": "48205",
        "CITYCD": "482054557",
        "RAILROAD": "UP",
        "RRDIV": "HEARTLAND",
        "RRSUBDIV": "TUCUMCARI SUB",
        "HIGHWAY": "NA",
        "STREET": "PRIVATE",
        "TTSTN": "672493",
        "MILEPOST": "0581.450",
        "TYPEXING": "Private",
        "POSXING": "At Grade",
        "PRVCAT": "14",
        "INIT": "1",
        "LATITUDE": 35.7004621,
        "LONGITUD": -102.9740591,
        "LLSOURCE": "1",
        "WHISTBAN": "0",
        "RRCONT": "4025443721",
        "POLCONT": "8008488715",
        "INV_LINK": "https://safetydata.fra.dot.gov/OfficeofSafety/PublicSite/Crossing/Crossing.aspx?phasetype=C&rpttype=I&txtcrossingnum=596154G",
        "ACC_LINK": "https://safetydata.fra.dot.gov/OfficeofSafety/PublicSite/Crossing/Crossing.aspx?phasetype=C&rpttype=A&txtcrossingnum=596154G",
        "TTSTNNAM": "",
        "XPURPOSE": "1",
        "OPERATINGR": "UP",
        "OPERATIN_1": "Primary",
        "DAYTHRU": 7,
        "NGHTTHRU": 6,
        "MAINTRK": 1,
        "SIDINGTRK": 0,
        "YARDTRK": 0,
        "TRANSITTRK": 0,
        "INDUSTRYTR": 0,
        "OTHRTRK": 0,
        "WDCODE": "",
        "REVISIONDA": "1975/01/01 00:00:00",
        "LASTUPDATE": "8/28/2025",
        "AADT": "1",
        "AADTYEAR": "1980",
        "STATENAME": "TEXAS",
        "STATEAB": "TX",
        "COUNTYNAME": "HARTLEY",
        "CITYNAME": "MIDDLE WATER",
        "LATDD": 35.7004621,
        "LONGDD": -102.9740591,
        "gridlyProductionCertified": true,
        "gridlyClassification": "PUBLIC_ROADWAY",
        "gridlyDisplayName": "PRIVATE",
        "gridlyId": "FRA-596154G"
      }
    },
    {
      "type": "Feature",
      "id": 208437,
      "geometry": {
        "type": "Point",
        "coordinates": [
          -102.915374099899,
          35.7385330000529
        ]
      },
      "properties": {
        "OBJECTID": 208437,
        "CROSSING": "596156V",
        "EFFDATE": 1756339200000,
        "REASON": "14",
        "StateCode": "48",
        "CountyCode": "48205",
        "STCYFIPS": "48205",
        "CITYCD": "482054557",
        "RAILROAD": "UP",
        "RRDIV": "HEARTLAND",
        "RRSUBDIV": "TUCUMCARI SUB",
        "HIGHWAY": "NA",
        "STREET": "PRIVATE CASTLEBERRY RANCH",
        "TTSTN": "672493",
        "MILEPOST": "0577.240",
        "TYPEXING": "Private",
        "POSXING": "At Grade",
        "PRVCAT": "14",
        "INIT": "1",
        "LATITUDE": 35.738533,
        "LONGITUD": -102.9153741,
        "LLSOURCE": "1",
        "WHISTBAN": "0",
        "RRCONT": "4025443721",
        "POLCONT": "8008488715",
        "INV_LINK": "https://safetydata.fra.dot.gov/OfficeofSafety/PublicSite/Crossing/Crossing.aspx?phasetype=C&rpttype=I&txtcrossingnum=596156V",
        "ACC_LINK": "https://safetydata.fra.dot.gov/OfficeofSafety/PublicSite/Crossing/Crossing.aspx?phasetype=C&rpttype=A&txtcrossingnum=596156V",
        "TTSTNNAM": "",
        "XPURPOSE": "1",
        "OPERATINGR": "UP",
        "OPERATIN_1": "Primary",
        "DAYTHRU": 7,
        "NGHTTHRU": 6,
        "MAINTRK": 1,
        "SIDINGTRK": 1,
        "YARDTRK": 0,
        "TRANSITTRK": 0,
        "INDUSTRYTR": 0,
        "OTHRTRK": 0,
        "WDCODE": "",
        "REVISIONDA": "1975/01/01 00:00:00",
        "LASTUPDATE": "8/28/2025",
        "AADT": "1",
        "AADTYEAR": "1980",
        "STATENAME": "TEXAS",
        "STATEAB": "TX",
        "COUNTYNAME": "HARTLEY",
        "CITYNAME": "MIDDLE WATER",
        "LATDD": 35.738533,
        "LONGDD": -102.9153741,
        "gridlyProductionCertified": true,
        "gridlyClassification": "PUBLIC_ROADWAY",
        "gridlyDisplayName": "PRIVATE CASTLEBERRY RANCH",
        "gridlyId": "FRA-596156V"
      }
    },
    {
      "type": "Feature",
      "id": 208438,
      "geometry": {
        "type": "Point",
        "coordinates": [
          -102.830529199579,
          35.8121241998868
        ]
      },
      "properties": {
        "OBJECTID": 208438,
        "CROSSING": "596158J",
        "EFFDATE": 1756339200000,
        "REASON": "14",
        "StateCode": "48",
        "CountyCode": "48205",
        "STCYFIPS": "48205",
        "CITYCD": "482054557",
        "RAILROAD": "UP",
        "RRDIV": "HEARTLAND",
        "RRSUBDIV": "TUCUMCARI SUB",
        "HIGHWAY": "NA",
        "STREET": "PRIVATE",
        "TTSTN": "672493",
        "MILEPOST": "0570.250",
        "TYPEXING": "Private",
        "POSXING": "At Grade",
        "PRVCAT": "14",
        "INIT": "1",
        "LATITUDE": 35.8121242,
        "LONGITUD": -102.8305292,
        "LLSOURCE": "1",
        "WHISTBAN": "0",
        "RRCONT": "4025443721",
        "POLCONT": "8008488715",
        "INV_LINK": "https://safetydata.fra.dot.gov/OfficeofSafety/PublicSite/Crossing/Crossing.aspx?phasetype=C&rpttype=I&txtcrossingnum=596158J",
        "ACC_LINK": "https://safetydata.fra.dot.gov/OfficeofSafety/PublicSite/Crossing/Crossing.aspx?phasetype=C&rpttype=A&txtcrossingnum=596158J",
        "TTSTNNAM": "",
        "XPURPOSE": "1",
        "OPERATINGR": "UP",
        "OPERATIN_1": "Primary",
        "DAYTHRU": 7,
        "NGHTTHRU": 6,
        "MAINTRK": 1,
        "SIDINGTRK": 0,
        "YARDTRK": 0,
        "TRANSITTRK": 0,
        "INDUSTRYTR": 0,
        "OTHRTRK": 0,
        "WDCODE": "",
        "REVISIONDA": "1975/01/01 00:00:00",
        "LASTUPDATE": "8/28/2025",
        "AADT": "1",
        "AADTYEAR": "1980",
        "STATENAME": "TEXAS",
        "STATEAB": "TX",
        "COUNTYNAME": "HARTLEY",
        "CITYNAME": "MIDDLE WATER",
        "LATDD": 35.8121242,
        "LONGDD": -102.8305292,
        "gridlyProductionCertified": true,
        "gridlyClassification": "PUBLIC_ROADWAY",
        "gridlyDisplayName": "PRIVATE",
        "gridlyId": "FRA-596158J"
      }
    },
    {
      "type": "Feature",
      "id": 208440,
      "geometry": {
        "type": "Point",
        "coordinates": [
          -102.701978599877,
          35.9200211996569
        ]
      },
      "properties": {
        "OBJECTID": 208440,
        "CROSSING": "596162Y",
        "EFFDATE": 1756339200000,
        "REASON": "14",
        "StateCode": "48",
        "CountyCode": "48205",
        "STCYFIPS": "48205",
        "CITYCD": "482054557",
        "RAILROAD": "UP",
        "RRDIV": "HEARTLAND",
        "RRSUBDIV": "TUCUMCARI SUB",
        "HIGHWAY": "NA",
        "STREET": "PRIVATE",
        "TTSTN": "672287",
        "MILEPOST": "0559.880",
        "TYPEXING": "Private",
        "POSXING": "At Grade",
        "PRVCAT": "14",
        "INIT": "1",
        "LATITUDE": 35.9200212,
        "LONGITUD": -102.7019786,
        "LLSOURCE": "1",
        "WHISTBAN": "0",
        "RRCONT": "4025443721",
        "POLCONT": "8008488715",
        "INV_LINK": "https://safetydata.fra.dot.gov/OfficeofSafety/PublicSite/Crossing/Crossing.aspx?phasetype=C&rpttype=I&txtcrossingnum=596162Y",
        "ACC_LINK": "https://safetydata.fra.dot.gov/OfficeofSafety/PublicSite/Crossing/Crossing.aspx?phasetype=C&rpttype=A&txtcrossingnum=596162Y",
        "TTSTNNAM": "",
        "XPURPOSE": "1",
        "OPERATINGR": "UP",
        "OPERATIN_1": "Primary",
        "DAYTHRU": 7,
        "NGHTTHRU": 6,
        "MAINTRK": 1,
        "SIDINGTRK": 0,
        "YARDTRK": 0,
        "TRANSITTRK": 0,
        "INDUSTRYTR": 0,
        "OTHRTRK": 0,
        "WDCODE": "",
        "REVISIONDA": "1975/01/01 00:00:00",
        "LASTUPDATE": "8/28/2025",
        "AADT": "1",
        "AADTYEAR": "1980",
        "STATENAME": "TEXAS",
        "STATEAB": "TX",
        "COUNTYNAME": "HARTLEY",
        "CITYNAME": "MIDDLE WATER",
        "LATDD": 35.9200212,
        "LONGDD": -102.7019786,
        "gridlyProductionCertified": true,
        "gridlyClassification": "PUBLIC_ROADWAY",
        "gridlyDisplayName": "PRIVATE",
        "gridlyId": "FRA-596162Y"
      }
    },
    {
      "type": "Feature",
      "id": 208441,
      "geometry": {
        "type": "Point",
        "coordinates": [
          -102.632328999931,
          35.978399099721
        ]
      },
      "properties": {
        "OBJECTID": 208441,
        "CROSSING": "596165U",
        "EFFDATE": 1756339200000,
        "REASON": "14",
        "StateCode": "48",
        "CountyCode": "48205",
        "STCYFIPS": "48205",
        "CITYCD": "482051720",
        "RAILROAD": "UP",
        "RRDIV": "HEARTLAND",
        "RRSUBDIV": "TUCUMCARI SUB",
        "HIGHWAY": "NA",
        "STREET": "PRIVATE",
        "TTSTN": "672287",
        "MILEPOST": "0554.270",
        "TYPEXING": "Private",
        "POSXING": "At Grade",
        "PRVCAT": "14",
        "INIT": "1",
        "LATITUDE": 35.9783991,
        "LONGITUD": -102.632329,
        "LLSOURCE": "1",
        "WHISTBAN": "0",
        "RRCONT": "4025443721",
        "POLCONT": "8008488715",
        "INV_LINK": "https://safetydata.fra.dot.gov/OfficeofSafety/PublicSite/Crossing/Crossing.aspx?phasetype=C&rpttype=I&txtcrossingnum=596165U",
        "ACC_LINK": "https://safetydata.fra.dot.gov/OfficeofSafety/PublicSite/Crossing/Crossing.aspx?phasetype=C&rpttype=A&txtcrossingnum=596165U",
        "TTSTNNAM": "",
        "XPURPOSE": "1",
        "OPERATINGR": "UP",
        "OPERATIN_1": "Primary",
        "DAYTHRU": 7,
        "NGHTTHRU": 6,
        "MAINTRK": 1,
        "SIDINGTRK": 0,
        "YARDTRK": 0,
        "TRANSITTRK": 0,
        "INDUSTRYTR": 0,
        "OTHRTRK": 0,
        "WDCODE": "",
        "REVISIONDA": "1975/01/01 00:00:00",
        "LASTUPDATE": "8/28/2025",
        "AADT": "1",
        "AADTYEAR": "1980",
        "STATENAME": "TEXAS",
        "STATEAB": "TX",
        "COUNTYNAME": "HARTLEY",
        "CITYNAME": "DALHART",
        "LATDD": 35.9783991,
        "LONGDD": -102.632329,
        "gridlyProductionCertified": true,
        "gridlyClassification": "PUBLIC_ROADWAY",
        "gridlyDisplayName": "PRIVATE",
        "gridlyId": "FRA-596165U"
      }
    },
    {
      "type": "Feature",
      "id": 208442,
      "geometry": {
        "type": "Point",
        "coordinates": [
          -102.580420100071,
          36.0218911997318
        ]
      },
      "properties": {
        "OBJECTID": 208442,
        "CROSSING": "596169W",
        "EFFDATE": 1756339200000,
        "REASON": "14",
        "StateCode": "48",
        "CountyCode": "48205",
        "STCYFIPS": "48205",
        "CITYCD": "482051720",
        "RAILROAD": "UP",
        "RRDIV": "HEARTLAND",
        "RRSUBDIV": "TUCUMCARI SUB",
        "HIGHWAY": "NA",
        "STREET": "Private",
        "TTSTN": "672287",
        "MILEPOST": "0550.100",
        "TYPEXING": "Private",
        "POSXING": "At Grade",
        "PRVCAT": "14",
        "INIT": "1",
        "LATITUDE": 36.0218912,
        "LONGITUD": -102.5804201,
        "LLSOURCE": "1",
        "WHISTBAN": "0",
        "RRCONT": "4025443721",
        "POLCONT": "8008488715",
        "INV_LINK": "https://safetydata.fra.dot.gov/OfficeofSafety/PublicSite/Crossing/Crossing.aspx?phasetype=C&rpttype=I&txtcrossingnum=596169W",
        "ACC_LINK": "https://safetydata.fra.dot.gov/OfficeofSafety/PublicSite/Crossing/Crossing.aspx?phasetype=C&rpttype=A&txtcrossingnum=596169W",
        "TTSTNNAM": "",
        "XPURPOSE": "1",
        "OPERATINGR": "UP",
        "OPERATIN_1": "Primary",
        "DAYTHRU": 7,
        "NGHTTHRU": 6,
        "MAINTRK": 1,
        "SIDINGTRK": 0,
        "YARDTRK": 0,
        "TRANSITTRK": 0,
        "INDUSTRYTR": 0,
        "OTHRTRK": 0,
        "WDCODE": "",
        "REVISIONDA": "1975/01/01 00:00:00",
        "LASTUPDATE": "8/28/2025",
        "AADT": "1",
        "AADTYEAR": "1980",
        "STATENAME": "TEXAS",
        "STATEAB": "TX",
        "COUNTYNAME": "HARTLEY",
        "CITYNAME": "DALHART",
        "LATDD": 36.0218912,
        "LONGDD": -102.5804201,
        "gridlyProductionCertified": true,
        "gridlyClassification": "PUBLIC_ROADWAY",
        "gridlyDisplayName": "Private",
        "gridlyId": "FRA-596169W"
      }
    },
    {
      "type": "Feature",
      "id": 208444,
      "geometry": {
        "type": "Point",
        "coordinates": [
          -102.926192899836,
          35.7316855001732
        ]
      },
      "properties": {
        "OBJECTID": 208444,
        "CROSSING": "596155N",
        "EFFDATE": 1768867200000,
        "REASON": "14",
        "StateCode": "48",
        "CountyCode": "48205",
        "STCYFIPS": "48205",
        "CITYCD": "481111720",
        "RAILROAD": "UP",
        "RRDIV": "HEARTLAND",
        "RRSUBDIV": "TUCUMCARI SUB",
        "HIGHWAY": "FM3296",
        "STREET": "FM3296",
        "TTSTN": "672493",
        "MILEPOST": "0578.010",
        "TYPEXING": "Public",
        "POSXING": "At Grade",
        "PRVCAT": "14",
        "INIT": "2",
        "LATITUDE": 35.7316855,
        "LONGITUD": -102.9261929,
        "LLSOURCE": "1",
        "WHISTBAN": "0",
        "RRCONT": "4025443721",
        "POLCONT": "8008488715",
        "INV_LINK": "https://safetydata.fra.dot.gov/OfficeofSafety/PublicSite/Crossing/Crossing.aspx?phasetype=C&rpttype=I&txtcrossingnum=596155N",
        "ACC_LINK": "https://safetydata.fra.dot.gov/OfficeofSafety/PublicSite/Crossing/Crossing.aspx?phasetype=C&rpttype=A&txtcrossingnum=596155N",
        "TTSTNNAM": "",
        "XPURPOSE": "1",
        "OPERATINGR": "UP",
        "OPERATIN_1": "Primary",
        "DAYTHRU": 7,
        "NGHTTHRU": 6,
        "MAINTRK": 1,
        "SIDINGTRK": 1,
        "YARDTRK": 0,
        "TRANSITTRK": 0,
        "INDUSTRYTR": 0,
        "OTHRTRK": 1,
        "WDCODE": "All other Gates",
        "REVISIONDA": "1975/01/01 00:00:00",
        "LASTUPDATE": "1/20/2026",
        "AADT": "315",
        "AADTYEAR": "2023",
        "STATENAME": "TEXAS",
        "STATEAB": "TX",
        "COUNTYNAME": "HARTLEY",
        "CITYNAME": "DALHART",
        "LATDD": 35.7316855,
        "LONGDD": -102.9261929,
        "gridlyProductionCertified": true,
        "gridlyClassification": "PUBLIC_ROADWAY",
        "gridlyDisplayName": "FM3296",
        "gridlyId": "FRA-596155N"
      }
    },
    {
      "type": "Feature",
      "id": 208459,
      "geometry": {
        "type": "Point",
        "coordinates": [
          -102.558631199648,
          36.0401303999886
        ]
      },
      "properties": {
        "OBJECTID": 208459,
        "CROSSING": "596171X",
        "EFFDATE": 1756339200000,
        "REASON": "14",
        "StateCode": "48",
        "CountyCode": "48205",
        "STCYFIPS": "48205",
        "CITYCD": "482051720",
        "RAILROAD": "UP",
        "RRDIV": "HEARTLAND",
        "RRSUBDIV": "Tucumcari Sub",
        "HIGHWAY": "CO 0000",
        "STREET": "Twisted Elms Golf Course Road",
        "TTSTN": "672287",
        "MILEPOST": "0548.330",
        "TYPEXING": "Private",
        "POSXING": "At Grade",
        "PRVCAT": "14",
        "INIT": "1",
        "LATITUDE": 36.0401304,
        "LONGITUD": -102.5586312,
        "LLSOURCE": "1",
        "WHISTBAN": "0",
        "RRCONT": "4025443721",
        "POLCONT": "8008488715",
        "INV_LINK": "https://safetydata.fra.dot.gov/OfficeofSafety/PublicSite/Crossing/Crossing.aspx?phasetype=C&rpttype=I&txtcrossingnum=596171X",
        "ACC_LINK": "https://safetydata.fra.dot.gov/OfficeofSafety/PublicSite/Crossing/Crossing.aspx?phasetype=C&rpttype=A&txtcrossingnum=596171X",
        "TTSTNNAM": "",
        "XPURPOSE": "1",
        "OPERATINGR": "UP",
        "OPERATIN_1": "Primary",
        "DAYTHRU": 7,
        "NGHTTHRU": 6,
        "MAINTRK": 1,
        "SIDINGTRK": 0,
        "YARDTRK": 0,
        "TRANSITTRK": 0,
        "INDUSTRYTR": 0,
        "OTHRTRK": 0,
        "WDCODE": "",
        "REVISIONDA": "1975/01/01 00:00:00",
        "LASTUPDATE": "8/28/2025",
        "AADT": "120",
        "AADTYEAR": "1992",
        "STATENAME": "TEXAS",
        "STATEAB": "TX",
        "COUNTYNAME": "HARTLEY",
        "CITYNAME": "DALHART",
        "LATDD": 36.0401304,
        "LONGDD": -102.5586312,
        "gridlyProductionCertified": true,
        "gridlyClassification": "PUBLIC_ROADWAY",
        "gridlyDisplayName": "Twisted Elms Golf Course Road",
        "gridlyId": "FRA-596171X"
      }
    },
    {
      "type": "Feature",
      "id": 210874,
      "geometry": {
        "type": "Point",
        "coordinates": [
          -102.378228000201,
          35.8520901998317
        ]
      },
      "properties": {
        "OBJECTID": 210874,
        "CROSSING": "276506C",
        "EFFDATE": 1768867200000,
        "REASON": "14",
        "StateCode": "48",
        "CountyCode": "48205",
        "STCYFIPS": "48205",
        "CITYCD": "482053036",
        "RAILROAD": "BNSF",
        "RRDIV": "KANSAS",
        "RRSUBDIV": "DALHART",
        "HIGHWAY": "CR0038",
        "STREET": "COUNTY ROAD O",
        "TTSTN": "672440",
        "MILEPOST": "0400.578",
        "TYPEXING": "Public",
        "POSXING": "At Grade",
        "PRVCAT": "14",
        "INIT": "2",
        "LATITUDE": 35.8520902,
        "LONGITUD": -102.378228,
        "LLSOURCE": "1",
        "WHISTBAN": "0",
        "RRCONT": "8173521549",
        "POLCONT": "8008325452",
        "INV_LINK": "https://safetydata.fra.dot.gov/OfficeofSafety/PublicSite/Crossing/Crossing.aspx?phasetype=C&rpttype=I&txtcrossingnum=276506C",
        "ACC_LINK": "https://safetydata.fra.dot.gov/OfficeofSafety/PublicSite/Crossing/Crossing.aspx?phasetype=C&rpttype=A&txtcrossingnum=276506C",
        "TTSTNNAM": "HARTLEY",
        "XPURPOSE": "1",
        "OPERATINGR": "BNSF",
        "OPERATIN_1": "Primary",
        "DAYTHRU": 4,
        "NGHTTHRU": 3,
        "MAINTRK": 1,
        "SIDINGTRK": 0,
        "YARDTRK": 0,
        "TRANSITTRK": 0,
        "INDUSTRYTR": 0,
        "OTHRTRK": 0,
        "WDCODE": "Crossbucks",
        "REVISIONDA": "1996/01/01 00:00:00",
        "LASTUPDATE": "1/20/2026",
        "AADT": "13",
        "AADTYEAR": "2020",
        "STATENAME": "TEXAS",
        "STATEAB": "TX",
        "COUNTYNAME": "HARTLEY",
        "CITYNAME": "HARTLEY",
        "LATDD": 35.8520902,
        "LONGDD": -102.378228,
        "gridlyProductionCertified": true,
        "gridlyClassification": "PUBLIC_ROADWAY",
        "gridlyDisplayName": "COUNTY ROAD O",
        "gridlyId": "FRA-276506C"
      }
    },
    {
      "type": "Feature",
      "id": 210875,
      "geometry": {
        "type": "Point",
        "coordinates": [
          -102.409479600214,
          35.9062059996899
        ]
      },
      "properties": {
        "OBJECTID": 210875,
        "CROSSING": "276502A",
        "EFFDATE": 1768867200000,
        "REASON": "14",
        "StateCode": "48",
        "CountyCode": "48205",
        "STCYFIPS": "48205",
        "CITYCD": "482053036",
        "RAILROAD": "BNSF",
        "RRDIV": "KANSAS",
        "RRSUBDIV": "DALHART",
        "HIGHWAY": "CR0000",
        "STREET": "RED BARN ROAD",
        "TTSTN": "672440",
        "MILEPOST": "0404.684",
        "TYPEXING": "Public",
        "POSXING": "At Grade",
        "PRVCAT": "14",
        "INIT": "2",
        "LATITUDE": 35.906206,
        "LONGITUD": -102.4094796,
        "LLSOURCE": "1",
        "WHISTBAN": "0",
        "RRCONT": "8173521549",
        "POLCONT": "8008325452",
        "INV_LINK": "https://safetydata.fra.dot.gov/OfficeofSafety/PublicSite/Crossing/Crossing.aspx?phasetype=C&rpttype=I&txtcrossingnum=276502A",
        "ACC_LINK": "https://safetydata.fra.dot.gov/OfficeofSafety/PublicSite/Crossing/Crossing.aspx?phasetype=C&rpttype=A&txtcrossingnum=276502A",
        "TTSTNNAM": "HARTLEY",
        "XPURPOSE": "1",
        "OPERATINGR": "BNSF",
        "OPERATIN_1": "Primary",
        "DAYTHRU": 4,
        "NGHTTHRU": 3,
        "MAINTRK": 1,
        "SIDINGTRK": 0,
        "YARDTRK": 0,
        "TRANSITTRK": 0,
        "INDUSTRYTR": 0,
        "OTHRTRK": 0,
        "WDCODE": "Crossbucks",
        "REVISIONDA": "1996/01/01 00:00:00",
        "LASTUPDATE": "1/20/2026",
        "AADT": "26",
        "AADTYEAR": "2020",
        "STATENAME": "TEXAS",
        "STATEAB": "TX",
        "COUNTYNAME": "HARTLEY",
        "CITYNAME": "HARTLEY",
        "LATDD": 35.906206,
        "LONGDD": -102.4094796,
        "gridlyProductionCertified": true,
        "gridlyClassification": "PUBLIC_ROADWAY",
        "gridlyDisplayName": "RED BARN ROAD",
        "gridlyId": "FRA-276502A"
      }
    },
    {
      "type": "Feature",
      "id": 211786,
      "geometry": {
        "type": "Point",
        "coordinates": [
          -102.442233000127,
          35.9629220002428
        ]
      },
      "properties": {
        "OBJECTID": 211786,
        "CROSSING": "276499U",
        "EFFDATE": 1768867200000,
        "REASON": "14",
        "StateCode": "48",
        "CountyCode": "48205",
        "STCYFIPS": "48205",
        "CITYCD": "481111720",
        "RAILROAD": "BNSF",
        "RRDIV": "KANSAS",
        "RRSUBDIV": "DALHART",
        "HIGHWAY": "CR0036",
        "STREET": "COUNTY ROAD 36",
        "TTSTN": "672440",
        "MILEPOST": "0409.014",
        "TYPEXING": "Public",
        "POSXING": "At Grade",
        "PRVCAT": "14",
        "INIT": "2",
        "LATITUDE": 35.962922,
        "LONGITUD": -102.442233,
        "LLSOURCE": "1",
        "WHISTBAN": "0",
        "RRCONT": "8173521549",
        "POLCONT": "8008325452",
        "INV_LINK": "https://safetydata.fra.dot.gov/OfficeofSafety/PublicSite/Crossing/Crossing.aspx?phasetype=C&rpttype=I&txtcrossingnum=276499U",
        "ACC_LINK": "https://safetydata.fra.dot.gov/OfficeofSafety/PublicSite/Crossing/Crossing.aspx?phasetype=C&rpttype=A&txtcrossingnum=276499U",
        "TTSTNNAM": "HARTLEY",
        "XPURPOSE": "1",
        "OPERATINGR": "BNSF",
        "OPERATIN_1": "Primary",
        "DAYTHRU": 4,
        "NGHTTHRU": 3,
        "MAINTRK": 1,
        "SIDINGTRK": 0,
        "YARDTRK": 0,
        "TRANSITTRK": 0,
        "INDUSTRYTR": 0,
        "OTHRTRK": 0,
        "WDCODE": "Crossbucks",
        "REVISIONDA": "1996/01/01 00:00:00",
        "LASTUPDATE": "1/20/2026",
        "AADT": "30",
        "AADTYEAR": "2020",
        "STATENAME": "TEXAS",
        "STATEAB": "TX",
        "COUNTYNAME": "HARTLEY",
        "CITYNAME": "DALHART",
        "LATDD": 35.962922,
        "LONGDD": -102.442233,
        "gridlyProductionCertified": true,
        "gridlyClassification": "PUBLIC_ROADWAY",
        "gridlyDisplayName": "COUNTY ROAD 36",
        "gridlyId": "FRA-276499U"
      }
    },
    {
      "type": "Feature",
      "id": 211799,
      "geometry": {
        "type": "Point",
        "coordinates": [
          -102.356688700273,
          35.8148247000269
        ]
      },
      "properties": {
        "OBJECTID": 211799,
        "CROSSING": "276508R",
        "EFFDATE": 1768867200000,
        "REASON": "14",
        "StateCode": "48",
        "CountyCode": "48205",
        "STCYFIPS": "48205",
        "CITYCD": "482053036",
        "RAILROAD": "BNSF",
        "RRDIV": "KANSAS",
        "RRSUBDIV": "DALHART",
        "HIGHWAY": "CR000R",
        "STREET": "IVAN JONES LANE",
        "TTSTN": "672440",
        "MILEPOST": "0397.717",
        "TYPEXING": "Public",
        "POSXING": "At Grade",
        "PRVCAT": "14",
        "INIT": "2",
        "LATITUDE": 35.8148247,
        "LONGITUD": -102.3566887,
        "LLSOURCE": "1",
        "WHISTBAN": "0",
        "RRCONT": "8173521549",
        "POLCONT": "8008325452",
        "INV_LINK": "https://safetydata.fra.dot.gov/OfficeofSafety/PublicSite/Crossing/Crossing.aspx?phasetype=C&rpttype=I&txtcrossingnum=276508R",
        "ACC_LINK": "https://safetydata.fra.dot.gov/OfficeofSafety/PublicSite/Crossing/Crossing.aspx?phasetype=C&rpttype=A&txtcrossingnum=276508R",
        "TTSTNNAM": "HARTLEY",
        "XPURPOSE": "1",
        "OPERATINGR": "BNSF",
        "OPERATIN_1": "Primary",
        "DAYTHRU": 4,
        "NGHTTHRU": 3,
        "MAINTRK": 1,
        "SIDINGTRK": 0,
        "YARDTRK": 0,
        "TRANSITTRK": 0,
        "INDUSTRYTR": 0,
        "OTHRTRK": 0,
        "WDCODE": "Crossbucks",
        "REVISIONDA": "1996/01/01 00:00:00",
        "LASTUPDATE": "1/20/2026",
        "AADT": "31",
        "AADTYEAR": "2020",
        "STATENAME": "TEXAS",
        "STATEAB": "TX",
        "COUNTYNAME": "HARTLEY",
        "CITYNAME": "HARTLEY",
        "LATDD": 35.8148247,
        "LONGDD": -102.3566887,
        "gridlyProductionCertified": true,
        "gridlyClassification": "PUBLIC_ROADWAY",
        "gridlyDisplayName": "IVAN JONES LANE",
        "gridlyId": "FRA-276508R"
      }
    },
    {
      "type": "Feature",
      "id": 211801,
      "geometry": {
        "type": "Point",
        "coordinates": [
          -102.397439099576,
          35.8854176003483
        ]
      },
      "properties": {
        "OBJECTID": 211801,
        "CROSSING": "276503G",
        "EFFDATE": 1768867200000,
        "REASON": "14",
        "StateCode": "48",
        "CountyCode": "48205",
        "STCYFIPS": "48205",
        "CITYCD": "482053036",
        "RAILROAD": "BNSF",
        "RRDIV": "KANSAS",
        "RRSUBDIV": "DALHART",
        "HIGHWAY": "FM0998",
        "STREET": "FM0998 / WHITE STREET",
        "TTSTN": "672440",
        "MILEPOST": "0403.096",
        "TYPEXING": "Public",
        "POSXING": "At Grade",
        "PRVCAT": "14",
        "INIT": "2",
        "LATITUDE": 35.8854176,
        "LONGITUD": -102.3974391,
        "LLSOURCE": "1",
        "WHISTBAN": "0",
        "RRCONT": "8173521549",
        "POLCONT": "8008325452",
        "INV_LINK": "https://safetydata.fra.dot.gov/OfficeofSafety/PublicSite/Crossing/Crossing.aspx?phasetype=C&rpttype=I&txtcrossingnum=276503G",
        "ACC_LINK": "https://safetydata.fra.dot.gov/OfficeofSafety/PublicSite/Crossing/Crossing.aspx?phasetype=C&rpttype=A&txtcrossingnum=276503G",
        "TTSTNNAM": "HARTLEY",
        "XPURPOSE": "1",
        "OPERATINGR": "BNSF",
        "OPERATIN_1": "Primary",
        "DAYTHRU": 4,
        "NGHTTHRU": 3,
        "MAINTRK": 1,
        "SIDINGTRK": 0,
        "YARDTRK": 3,
        "TRANSITTRK": 0,
        "INDUSTRYTR": 0,
        "OTHRTRK": 3,
        "WDCODE": "All other Gates",
        "REVISIONDA": "1996/01/01 00:00:00",
        "LASTUPDATE": "1/20/2026",
        "AADT": "2201",
        "AADTYEAR": "2023",
        "STATENAME": "TEXAS",
        "STATEAB": "TX",
        "COUNTYNAME": "HARTLEY",
        "CITYNAME": "HARTLEY",
        "LATDD": 35.8854176,
        "LONGDD": -102.3974391,
        "gridlyProductionCertified": true,
        "gridlyClassification": "PUBLIC_ROADWAY",
        "gridlyDisplayName": "FM0998 / WHITE STREET",
        "gridlyId": "FRA-276503G"
      }
    },
    {
      "type": "Feature",
      "id": 212912,
      "geometry": {
        "type": "Point",
        "coordinates": [
          -102.331440800018,
          35.6840919001458
        ]
      },
      "properties": {
        "OBJECTID": 212912,
        "CROSSING": "276479H",
        "EFFDATE": 1768867200000,
        "REASON": "14",
        "StateCode": "48",
        "CountyCode": "48205",
        "STCYFIPS": "48205",
        "CITYCD": "482051286",
        "RAILROAD": "BNSF",
        "RRDIV": "KANSAS",
        "RRSUBDIV": "DALHART",
        "HIGHWAY": "FM0767",
        "STREET": "FM0767 / SEVENTH STREET",
        "TTSTN": "672470",
        "MILEPOST": "0388.105",
        "TYPEXING": "Public",
        "POSXING": "At Grade",
        "PRVCAT": "14",
        "INIT": "2",
        "LATITUDE": 35.6840919,
        "LONGITUD": -102.3314408,
        "LLSOURCE": "1",
        "WHISTBAN": "0",
        "RRCONT": "8173521549",
        "POLCONT": "8008325452",
        "INV_LINK": "https://safetydata.fra.dot.gov/OfficeofSafety/PublicSite/Crossing/Crossing.aspx?phasetype=C&rpttype=I&txtcrossingnum=276479H",
        "ACC_LINK": "https://safetydata.fra.dot.gov/OfficeofSafety/PublicSite/Crossing/Crossing.aspx?phasetype=C&rpttype=A&txtcrossingnum=276479H",
        "TTSTNNAM": "CHANNING",
        "XPURPOSE": "1",
        "OPERATINGR": "BNSF",
        "OPERATIN_1": "Primary",
        "DAYTHRU": 4,
        "NGHTTHRU": 3,
        "MAINTRK": 1,
        "SIDINGTRK": 0,
        "YARDTRK": 0,
        "TRANSITTRK": 0,
        "INDUSTRYTR": 0,
        "OTHRTRK": 0,
        "WDCODE": "All other Gates",
        "REVISIONDA": "1996/01/01 00:00:00",
        "LASTUPDATE": "1/20/2026",
        "AADT": "749",
        "AADTYEAR": "2023",
        "STATENAME": "TEXAS",
        "STATEAB": "TX",
        "COUNTYNAME": "HARTLEY",
        "CITYNAME": "CHANNING",
        "LATDD": 35.6840919,
        "LONGDD": -102.3314408,
        "gridlyProductionCertified": true,
        "gridlyClassification": "PUBLIC_ROADWAY",
        "gridlyDisplayName": "FM0767 / SEVENTH STREET",
        "gridlyId": "FRA-276479H"
      }
    },
    {
      "type": "Feature",
      "id": 214952,
      "geometry": {
        "type": "Point",
        "coordinates": [
          -102.484789500037,
          36.0366420001731
        ]
      },
      "properties": {
        "OBJECTID": 214952,
        "CROSSING": "275323F",
        "EFFDATE": 1768867200000,
        "REASON": "14",
        "StateCode": "48",
        "CountyCode": "48205",
        "STCYFIPS": "48205",
        "CITYCD": "482051720",
        "RAILROAD": "BNSF",
        "RRDIV": "KANSAS",
        "RRSUBDIV": "DALHART",
        "HIGHWAY": "FM0281",
        "STREET": "FM0281",
        "TTSTN": "672287",
        "MILEPOST": "0414.615",
        "TYPEXING": "Public",
        "POSXING": "At Grade",
        "PRVCAT": "14",
        "INIT": "2",
        "LATITUDE": 36.036642,
        "LONGITUD": -102.4847895,
        "LLSOURCE": "1",
        "WHISTBAN": "0",
        "RRCONT": "8173521549",
        "POLCONT": "8008325452",
        "INV_LINK": "https://safetydata.fra.dot.gov/OfficeofSafety/PublicSite/Crossing/Crossing.aspx?phasetype=C&rpttype=I&txtcrossingnum=275323F",
        "ACC_LINK": "https://safetydata.fra.dot.gov/OfficeofSafety/PublicSite/Crossing/Crossing.aspx?phasetype=C&rpttype=A&txtcrossingnum=275323F",
        "TTSTNNAM": "DALHART",
        "XPURPOSE": "1",
        "OPERATINGR": "BNSF",
        "OPERATIN_1": "Primary",
        "DAYTHRU": 4,
        "NGHTTHRU": 3,
        "MAINTRK": 1,
        "SIDINGTRK": 0,
        "YARDTRK": 0,
        "TRANSITTRK": 0,
        "INDUSTRYTR": 0,
        "OTHRTRK": 0,
        "WDCODE": "All other Gates",
        "REVISIONDA": "1996/01/01 00:00:00",
        "LASTUPDATE": "1/20/2026",
        "AADT": "1557",
        "AADTYEAR": "2023",
        "STATENAME": "TEXAS",
        "STATEAB": "TX",
        "COUNTYNAME": "HARTLEY",
        "CITYNAME": "DALHART",
        "LATDD": 36.036642,
        "LONGDD": -102.4847895,
        "gridlyProductionCertified": true,
        "gridlyClassification": "PUBLIC_ROADWAY",
        "gridlyDisplayName": "FM0281",
        "gridlyId": "FRA-275323F"
      }
    },
    {
      "type": "Feature",
      "id": 214953,
      "geometry": {
        "type": "Point",
        "coordinates": [
          -102.876155099984,
          35.7647250997514
        ]
      },
      "properties": {
        "OBJECTID": 214953,
        "CROSSING": "596157C",
        "EFFDATE": 1768867200000,
        "REASON": "14",
        "StateCode": "48",
        "CountyCode": "48205",
        "STCYFIPS": "48205",
        "CITYCD": "482054557",
        "RAILROAD": "UP",
        "RRDIV": "Heartland",
        "RRSUBDIV": "Tucumcari Sub",
        "HIGHWAY": "CR0011",
        "STREET": "BUNKER HILL ROAD",
        "TTSTN": "672493",
        "MILEPOST": "0574.380",
        "TYPEXING": "Public",
        "POSXING": "At Grade",
        "PRVCAT": "14",
        "INIT": "2",
        "LATITUDE": 35.7647251,
        "LONGITUD": -102.8761551,
        "LLSOURCE": "1",
        "WHISTBAN": "0",
        "RRCONT": "4025443721",
        "POLCONT": "8008488715",
        "INV_LINK": "https://safetydata.fra.dot.gov/OfficeofSafety/PublicSite/Crossing/Crossing.aspx?phasetype=C&rpttype=I&txtcrossingnum=596157C",
        "ACC_LINK": "https://safetydata.fra.dot.gov/OfficeofSafety/PublicSite/Crossing/Crossing.aspx?phasetype=C&rpttype=A&txtcrossingnum=596157C",
        "TTSTNNAM": "",
        "XPURPOSE": "1",
        "OPERATINGR": "UP",
        "OPERATIN_1": "Primary",
        "DAYTHRU": 7,
        "NGHTTHRU": 6,
        "MAINTRK": 1,
        "SIDINGTRK": 0,
        "YARDTRK": 0,
        "TRANSITTRK": 0,
        "INDUSTRYTR": 0,
        "OTHRTRK": 0,
        "WDCODE": "Crossbucks",
        "REVISIONDA": "1975/01/01 00:00:00",
        "LASTUPDATE": "1/20/2026",
        "AADT": "13",
        "AADTYEAR": "2020",
        "STATENAME": "TEXAS",
        "STATEAB": "TX",
        "COUNTYNAME": "HARTLEY",
        "CITYNAME": "MIDDLE WATER",
        "LATDD": 35.7647251,
        "LONGDD": -102.8761551,
        "gridlyProductionCertified": true,
        "gridlyClassification": "PUBLIC_ROADWAY",
        "gridlyDisplayName": "BUNKER HILL ROAD",
        "gridlyId": "FRA-596157C"
      }
    },
    {
      "type": "Feature",
      "id": 214954,
      "geometry": {
        "type": "Point",
        "coordinates": [
          -102.786393700351,
          35.8491908001714
        ]
      },
      "properties": {
        "OBJECTID": 214954,
        "CROSSING": "596160K",
        "EFFDATE": 1768867200000,
        "REASON": "14",
        "StateCode": "48",
        "CountyCode": "48205",
        "STCYFIPS": "48205",
        "CITYCD": "482054557",
        "RAILROAD": "UP",
        "RRDIV": "HEARTLAND",
        "RRSUBDIV": "TUCUMCARI SUB",
        "HIGHWAY": "CR0016",
        "STREET": "BROWN ROAD",
        "TTSTN": "672287",
        "MILEPOST": "0566.680",
        "TYPEXING": "Public",
        "POSXING": "At Grade",
        "PRVCAT": "14",
        "INIT": "2",
        "LATITUDE": 35.8491908,
        "LONGITUD": -102.7863937,
        "LLSOURCE": "1",
        "WHISTBAN": "0",
        "RRCONT": "4025443721",
        "POLCONT": "8008488715",
        "INV_LINK": "https://safetydata.fra.dot.gov/OfficeofSafety/PublicSite/Crossing/Crossing.aspx?phasetype=C&rpttype=I&txtcrossingnum=596160K",
        "ACC_LINK": "https://safetydata.fra.dot.gov/OfficeofSafety/PublicSite/Crossing/Crossing.aspx?phasetype=C&rpttype=A&txtcrossingnum=596160K",
        "TTSTNNAM": "",
        "XPURPOSE": "1",
        "OPERATINGR": "UP",
        "OPERATIN_1": "Primary",
        "DAYTHRU": 7,
        "NGHTTHRU": 6,
        "MAINTRK": 1,
        "SIDINGTRK": 0,
        "YARDTRK": 0,
        "TRANSITTRK": 0,
        "INDUSTRYTR": 0,
        "OTHRTRK": 0,
        "WDCODE": "All other Gates",
        "REVISIONDA": "1975/01/01 00:00:00",
        "LASTUPDATE": "1/20/2026",
        "AADT": "77",
        "AADTYEAR": "2020",
        "STATENAME": "TEXAS",
        "STATEAB": "TX",
        "COUNTYNAME": "HARTLEY",
        "CITYNAME": "MIDDLE WATER",
        "LATDD": 35.8491908,
        "LONGDD": -102.7863937,
        "gridlyProductionCertified": true,
        "gridlyClassification": "PUBLIC_ROADWAY",
        "gridlyDisplayName": "BROWN ROAD",
        "gridlyId": "FRA-596160K"
      }
    },
    {
      "type": "Feature",
      "id": 215557,
      "geometry": {
        "type": "Point",
        "coordinates": [
          -102.603146500291,
          36.002838500027
        ]
      },
      "properties": {
        "OBJECTID": 215557,
        "CROSSING": "596167H",
        "EFFDATE": 1768867200000,
        "REASON": "14",
        "StateCode": "48",
        "CountyCode": "48205",
        "STCYFIPS": "48205",
        "CITYCD": "481111720",
        "RAILROAD": "UP",
        "RRDIV": "HEARTLAND",
        "RRSUBDIV": "TUCUMCARI SUB",
        "HIGHWAY": "CR0027",
        "STREET": "FEEDLOT ROAD",
        "TTSTN": "672287",
        "MILEPOST": "0551.930",
        "TYPEXING": "Public",
        "POSXING": "At Grade",
        "PRVCAT": "14",
        "INIT": "2",
        "LATITUDE": 36.0028385,
        "LONGITUD": -102.6031465,
        "LLSOURCE": "1",
        "WHISTBAN": "0",
        "RRCONT": "4025443721",
        "POLCONT": "8008488715",
        "INV_LINK": "https://safetydata.fra.dot.gov/OfficeofSafety/PublicSite/Crossing/Crossing.aspx?phasetype=C&rpttype=I&txtcrossingnum=596167H",
        "ACC_LINK": "https://safetydata.fra.dot.gov/OfficeofSafety/PublicSite/Crossing/Crossing.aspx?phasetype=C&rpttype=A&txtcrossingnum=596167H",
        "TTSTNNAM": "",
        "XPURPOSE": "1",
        "OPERATINGR": "UP",
        "OPERATIN_1": "Primary",
        "DAYTHRU": 7,
        "NGHTTHRU": 6,
        "MAINTRK": 1,
        "SIDINGTRK": 0,
        "YARDTRK": 0,
        "TRANSITTRK": 0,
        "INDUSTRYTR": 0,
        "OTHRTRK": 0,
        "WDCODE": "All other Gates",
        "REVISIONDA": "1975/01/01 00:00:00",
        "LASTUPDATE": "1/20/2026",
        "AADT": "182",
        "AADTYEAR": "2020",
        "STATENAME": "TEXAS",
        "STATEAB": "TX",
        "COUNTYNAME": "HARTLEY",
        "CITYNAME": "DALHART",
        "LATDD": 36.0028385,
        "LONGDD": -102.6031465,
        "gridlyProductionCertified": true,
        "gridlyClassification": "PUBLIC_ROADWAY",
        "gridlyDisplayName": "FEEDLOT ROAD",
        "gridlyId": "FRA-596167H"
      }
    },
    {
      "type": "Feature",
      "id": 215562,
      "geometry": {
        "type": "Point",
        "coordinates": [
          -102.597454199729,
          36.0076007999266
        ]
      },
      "properties": {
        "OBJECTID": 215562,
        "CROSSING": "596168P",
        "EFFDATE": 1768867200000,
        "REASON": "14",
        "StateCode": "48",
        "CountyCode": "48205",
        "STCYFIPS": "48205",
        "CITYCD": "482051720",
        "RAILROAD": "UP",
        "RRDIV": "HEARTLAND",
        "RRSUBDIV": "TUCUMCARI SUB",
        "HIGHWAY": "FM0694",
        "STREET": "FM0694",
        "TTSTN": "672287",
        "MILEPOST": "0551.470",
        "TYPEXING": "Public",
        "POSXING": "At Grade",
        "PRVCAT": "14",
        "INIT": "2",
        "LATITUDE": 36.0076008,
        "LONGITUD": -102.5974542,
        "LLSOURCE": "1",
        "WHISTBAN": "0",
        "RRCONT": "4025443721",
        "POLCONT": "8008488715",
        "INV_LINK": "https://safetydata.fra.dot.gov/OfficeofSafety/PublicSite/Crossing/Crossing.aspx?phasetype=C&rpttype=I&txtcrossingnum=596168P",
        "ACC_LINK": "https://safetydata.fra.dot.gov/OfficeofSafety/PublicSite/Crossing/Crossing.aspx?phasetype=C&rpttype=A&txtcrossingnum=596168P",
        "TTSTNNAM": "",
        "XPURPOSE": "1",
        "OPERATINGR": "UP",
        "OPERATIN_1": "Primary",
        "DAYTHRU": 7,
        "NGHTTHRU": 6,
        "MAINTRK": 1,
        "SIDINGTRK": 0,
        "YARDTRK": 0,
        "TRANSITTRK": 0,
        "INDUSTRYTR": 0,
        "OTHRTRK": 0,
        "WDCODE": "All other Gates",
        "REVISIONDA": "1975/01/01 00:00:00",
        "LASTUPDATE": "1/20/2026",
        "AADT": "199",
        "AADTYEAR": "2023",
        "STATENAME": "TEXAS",
        "STATEAB": "TX",
        "COUNTYNAME": "HARTLEY",
        "CITYNAME": "DALHART",
        "LATDD": 36.0076008,
        "LONGDD": -102.5974542,
        "gridlyProductionCertified": true,
        "gridlyClassification": "PUBLIC_ROADWAY",
        "gridlyDisplayName": "FM0694",
        "gridlyId": "FRA-596168P"
      }
    },
    {
      "type": "Feature",
      "id": 215566,
      "geometry": {
        "type": "Point",
        "coordinates": [
          -102.501137199681,
          36.0509014002811
        ]
      },
      "properties": {
        "OBJECTID": 215566,
        "CROSSING": "275322Y",
        "EFFDATE": 1768867200000,
        "REASON": "14",
        "StateCode": "48",
        "CountyCode": "48205",
        "STCYFIPS": "48205",
        "CITYCD": "482051720",
        "RAILROAD": "BNSF",
        "RRDIV": "KANSAS",
        "RRSUBDIV": "DALHART",
        "HIGHWAY": "LS0000",
        "STREET": "EAST SIXTHTEENTH STREET",
        "TTSTN": "672287",
        "MILEPOST": "0415.962",
        "TYPEXING": "Public",
        "POSXING": "At Grade",
        "PRVCAT": "14",
        "INIT": "2",
        "LATITUDE": 36.0509014,
        "LONGITUD": -102.5011372,
        "LLSOURCE": "1",
        "WHISTBAN": "0",
        "RRCONT": "8173521549",
        "POLCONT": "8008325452",
        "INV_LINK": "https://safetydata.fra.dot.gov/OfficeofSafety/PublicSite/Crossing/Crossing.aspx?phasetype=C&rpttype=I&txtcrossingnum=275322Y",
        "ACC_LINK": "https://safetydata.fra.dot.gov/OfficeofSafety/PublicSite/Crossing/Crossing.aspx?phasetype=C&rpttype=A&txtcrossingnum=275322Y",
        "TTSTNNAM": "DALHART",
        "XPURPOSE": "1",
        "OPERATINGR": "BNSF",
        "OPERATIN_1": "Primary",
        "DAYTHRU": 4,
        "NGHTTHRU": 3,
        "MAINTRK": 1,
        "SIDINGTRK": 0,
        "YARDTRK": 0,
        "TRANSITTRK": 0,
        "INDUSTRYTR": 0,
        "OTHRTRK": 0,
        "WDCODE": "All other Gates",
        "REVISIONDA": "1996/01/01 00:00:00",
        "LASTUPDATE": "1/20/2026",
        "AADT": "2727",
        "AADTYEAR": "2020",
        "STATENAME": "TEXAS",
        "STATEAB": "TX",
        "COUNTYNAME": "HARTLEY",
        "CITYNAME": "DALHART",
        "LATDD": 36.0509014,
        "LONGDD": -102.5011372,
        "gridlyProductionCertified": true,
        "gridlyClassification": "PUBLIC_ROADWAY",
        "gridlyDisplayName": "EAST SIXTHTEENTH STREET",
        "gridlyId": "FRA-275322Y"
      }
    },
    {
      "type": "Feature",
      "id": 215575,
      "geometry": {
        "type": "Point",
        "coordinates": [
          -102.332559899639,
          35.7730137002262
        ]
      },
      "properties": {
        "OBJECTID": 215575,
        "CROSSING": "276511Y",
        "EFFDATE": 1768867200000,
        "REASON": "14",
        "StateCode": "48",
        "CountyCode": "48205",
        "STCYFIPS": "48205",
        "CITYCD": "482051286",
        "RAILROAD": "BNSF",
        "RRDIV": "KANSAS",
        "RRSUBDIV": "DALHART",
        "HIGHWAY": "CR000T",
        "STREET": "GOLDIE THOMAS LANE",
        "TTSTN": "672470",
        "MILEPOST": "0394.536",
        "TYPEXING": "Public",
        "POSXING": "At Grade",
        "PRVCAT": "14",
        "INIT": "2",
        "LATITUDE": 35.7730137,
        "LONGITUD": -102.3325599,
        "LLSOURCE": "1",
        "WHISTBAN": "0",
        "RRCONT": "8173521549",
        "POLCONT": "8008325452",
        "INV_LINK": "https://safetydata.fra.dot.gov/OfficeofSafety/PublicSite/Crossing/Crossing.aspx?phasetype=C&rpttype=I&txtcrossingnum=276511Y",
        "ACC_LINK": "https://safetydata.fra.dot.gov/OfficeofSafety/PublicSite/Crossing/Crossing.aspx?phasetype=C&rpttype=A&txtcrossingnum=276511Y",
        "TTSTNNAM": "CHANNING",
        "XPURPOSE": "1",
        "OPERATINGR": "BNSF",
        "OPERATIN_1": "Primary",
        "DAYTHRU": 4,
        "NGHTTHRU": 3,
        "MAINTRK": 1,
        "SIDINGTRK": 0,
        "YARDTRK": 0,
        "TRANSITTRK": 0,
        "INDUSTRYTR": 0,
        "OTHRTRK": 0,
        "WDCODE": "Crossbucks",
        "REVISIONDA": "1996/01/01 00:00:00",
        "LASTUPDATE": "1/20/2026",
        "AADT": "27",
        "AADTYEAR": "2020",
        "STATENAME": "TEXAS",
        "STATEAB": "TX",
        "COUNTYNAME": "HARTLEY",
        "CITYNAME": "CHANNING",
        "LATDD": 35.7730137,
        "LONGDD": -102.3325599,
        "gridlyProductionCertified": true,
        "gridlyClassification": "PUBLIC_ROADWAY",
        "gridlyDisplayName": "GOLDIE THOMAS LANE",
        "gridlyId": "FRA-276511Y"
      }
    },
    {
      "type": "Feature",
      "id": 215576,
      "geometry": {
        "type": "Point",
        "coordinates": [
          -102.332284900178,
          35.6810239002237
        ]
      },
      "properties": {
        "OBJECTID": 215576,
        "CROSSING": "276480C",
        "EFFDATE": 1768867200000,
        "REASON": "14",
        "StateCode": "48",
        "CountyCode": "48205",
        "STCYFIPS": "48205",
        "CITYCD": "482051286",
        "RAILROAD": "BNSF",
        "RRDIV": "KANSAS",
        "RRSUBDIV": "DALHART",
        "HIGHWAY": "LS0000",
        "STREET": "EAST TENTH STREET",
        "TTSTN": "672470",
        "MILEPOST": "0387.885",
        "TYPEXING": "Public",
        "POSXING": "At Grade",
        "PRVCAT": "14",
        "INIT": "2",
        "LATITUDE": 35.6810239,
        "LONGITUD": -102.3322849,
        "LLSOURCE": "1",
        "WHISTBAN": "0",
        "RRCONT": "8173521549",
        "POLCONT": "8008325452",
        "INV_LINK": "https://safetydata.fra.dot.gov/OfficeofSafety/PublicSite/Crossing/Crossing.aspx?phasetype=C&rpttype=I&txtcrossingnum=276480C",
        "ACC_LINK": "https://safetydata.fra.dot.gov/OfficeofSafety/PublicSite/Crossing/Crossing.aspx?phasetype=C&rpttype=A&txtcrossingnum=276480C",
        "TTSTNNAM": "CHANNING",
        "XPURPOSE": "1",
        "OPERATINGR": "BNSF",
        "OPERATIN_1": "Primary",
        "DAYTHRU": 4,
        "NGHTTHRU": 3,
        "MAINTRK": 1,
        "SIDINGTRK": 0,
        "YARDTRK": 0,
        "TRANSITTRK": 0,
        "INDUSTRYTR": 0,
        "OTHRTRK": 0,
        "WDCODE": "Stop signs",
        "REVISIONDA": "1996/01/01 00:00:00",
        "LASTUPDATE": "1/20/2026",
        "AADT": "94",
        "AADTYEAR": "2020",
        "STATENAME": "TEXAS",
        "STATEAB": "TX",
        "COUNTYNAME": "HARTLEY",
        "CITYNAME": "CHANNING",
        "LATDD": 35.6810239,
        "LONGDD": -102.3322849,
        "gridlyProductionCertified": true,
        "gridlyClassification": "PUBLIC_ROADWAY",
        "gridlyDisplayName": "EAST TENTH STREET",
        "gridlyId": "FRA-276480C"
      }
    }
  ]
}
