{
  "type": "FeatureCollection",
  "features": [
    {
      "type": "Feature",
      "id": 201351,
      "geometry": {
        "type": "Point",
        "coordinates": [
          -99.0982096997391,
          32.3880593997117
        ]
      },
      "properties": {
        "OBJECTID": 201351,
        "CROSSING": "839279G",
        "EFFDATE": 1767830400000,
        "REASON": "14",
        "StateCode": "48",
        "CountyCode": "48133",
        "STCYFIPS": "48133",
        "CITYCD": "480595560",
        "RAILROAD": "UP",
        "RRDIV": "TEXOMA",
        "RRSUBDIV": "BAIRD SUB",
        "HIGHWAY": "Cr0134",
        "STREET": "County Road 134",
        "TTSTN": "678673",
        "MILEPOST": "0367.910",
        "TYPEXING": "Public",
        "POSXING": "At Grade",
        "PRVCAT": "14",
        "INIT": "2",
        "LATITUDE": 32.3880594,
        "LONGITUD": -99.0982097,
        "LLSOURCE": "1",
        "WHISTBAN": "0",
        "RRCONT": "4025443721",
        "POLCONT": "8008488715",
        "INV_LINK": "https://safetydata.fra.dot.gov/OfficeofSafety/PublicSite/Crossing/Crossing.aspx?phasetype=C&rpttype=I&txtcrossingnum=839279G",
        "ACC_LINK": "https://safetydata.fra.dot.gov/OfficeofSafety/PublicSite/Crossing/Crossing.aspx?phasetype=C&rpttype=A&txtcrossingnum=839279G",
        "TTSTNNAM": "",
        "XPURPOSE": "1",
        "OPERATINGR": "UP",
        "OPERATIN_1": "Primary",
        "DAYTHRU": 11,
        "NGHTTHRU": 10,
        "MAINTRK": 1,
        "SIDINGTRK": 1,
        "YARDTRK": 0,
        "TRANSITTRK": 0,
        "INDUSTRYTR": 0,
        "OTHRTRK": 1,
        "WDCODE": "All other Gates",
        "REVISIONDA": "1975/01/01 00:00:00",
        "LASTUPDATE": "1/8/2026",
        "AADT": "9",
        "AADTYEAR": "2022",
        "STATENAME": "TEXAS",
        "STATEAB": "TX",
        "COUNTYNAME": "EASTLAND",
        "CITYNAME": "PUTNAM",
        "LATDD": 32.3880594,
        "LONGDD": -99.0982097,
        "gridlyProductionCertified": true,
        "gridlyClassification": "PUBLIC_ROADWAY",
        "gridlyDisplayName": "County Road 134",
        "gridlyId": "FRA-839279G"
      }
    },
    {
      "type": "Feature",
      "id": 205996,
      "geometry": {
        "type": "Point",
        "coordinates": [
          -98.8321271001069,
          32.4076530003025
        ]
      },
      "properties": {
        "OBJECTID": 205996,
        "CROSSING": "839265Y",
        "EFFDATE": 1770681600000,
        "REASON": "14",
        "StateCode": "48",
        "CountyCode": "48133",
        "STCYFIPS": "48133",
        "CITYCD": "481332050",
        "RAILROAD": "UP",
        "RRDIV": "TEXOMA",
        "RRSUBDIV": "BAIRD SUB",
        "HIGHWAY": "FM3101",
        "STREET": "Tfm3101",
        "TTSTN": "678650",
        "MILEPOST": "0351.580",
        "TYPEXING": "Public",
        "POSXING": "At Grade",
        "PRVCAT": "14",
        "INIT": "1",
        "LATITUDE": 32.407653,
        "LONGITUD": -98.8321271,
        "LLSOURCE": "1",
        "WHISTBAN": "0",
        "RRCONT": "4025443721",
        "POLCONT": "8008488715",
        "INV_LINK": "https://safetydata.fra.dot.gov/OfficeofSafety/PublicSite/Crossing/Crossing.aspx?phasetype=C&rpttype=I&txtcrossingnum=839265Y",
        "ACC_LINK": "https://safetydata.fra.dot.gov/OfficeofSafety/PublicSite/Crossing/Crossing.aspx?phasetype=C&rpttype=A&txtcrossingnum=839265Y",
        "TTSTNNAM": "",
        "XPURPOSE": "1",
        "OPERATINGR": "UP",
        "OPERATIN_1": "Primary",
        "DAYTHRU": 11,
        "NGHTTHRU": 10,
        "MAINTRK": 1,
        "SIDINGTRK": 1,
        "YARDTRK": 0,
        "TRANSITTRK": 0,
        "INDUSTRYTR": 0,
        "OTHRTRK": 2,
        "WDCODE": "All other Gates",
        "REVISIONDA": "1975/01/01 00:00:00",
        "LASTUPDATE": "2/10/2026",
        "AADT": "1123",
        "AADTYEAR": "2024",
        "STATENAME": "TEXAS",
        "STATEAB": "TX",
        "COUNTYNAME": "EASTLAND",
        "CITYNAME": "EASTLAND",
        "LATDD": 32.407653,
        "LONGDD": -98.8321271,
        "gridlyProductionCertified": true,
        "gridlyClassification": "PUBLIC_ROADWAY",
        "gridlyDisplayName": "Tfm3101",
        "gridlyId": "FRA-839265Y"
      }
    },
    {
      "type": "Feature",
      "id": 207063,
      "geometry": {
        "type": "Point",
        "coordinates": [
          -98.9751757997239,
          32.3921832996897
        ]
      },
      "properties": {
        "OBJECTID": 207063,
        "CROSSING": "839269B",
        "EFFDATE": 1767830400000,
        "REASON": "14",
        "StateCode": "48",
        "CountyCode": "48133",
        "STCYFIPS": "48133",
        "CITYCD": "481331330",
        "RAILROAD": "UP",
        "RRDIV": "Texoma",
        "RRSUBDIV": "Baird Sub",
        "HIGHWAY": "US0183",
        "STREET": "US0183",
        "TTSTN": "678673",
        "MILEPOST": "0360.370",
        "TYPEXING": "Public",
        "POSXING": "At Grade",
        "PRVCAT": "14",
        "INIT": "2",
        "LATITUDE": 32.3921833,
        "LONGITUD": -98.9751758,
        "LLSOURCE": "1",
        "WHISTBAN": "0",
        "RRCONT": "4025443721",
        "POLCONT": "8008488715",
        "INV_LINK": "https://safetydata.fra.dot.gov/OfficeofSafety/PublicSite/Crossing/Crossing.aspx?phasetype=C&rpttype=I&txtcrossingnum=839269B",
        "ACC_LINK": "https://safetydata.fra.dot.gov/OfficeofSafety/PublicSite/Crossing/Crossing.aspx?phasetype=C&rpttype=A&txtcrossingnum=839269B",
        "TTSTNNAM": "",
        "XPURPOSE": "1",
        "OPERATINGR": "UP",
        "OPERATIN_1": "Primary",
        "DAYTHRU": 11,
        "NGHTTHRU": 10,
        "MAINTRK": 1,
        "SIDINGTRK": 0,
        "YARDTRK": 0,
        "TRANSITTRK": 0,
        "INDUSTRYTR": 0,
        "OTHRTRK": 0,
        "WDCODE": "All other Gates",
        "REVISIONDA": "1975/01/01 00:00:00",
        "LASTUPDATE": "1/8/2026",
        "AADT": "1199",
        "AADTYEAR": "2024",
        "STATENAME": "TEXAS",
        "STATEAB": "TX",
        "COUNTYNAME": "EASTLAND",
        "CITYNAME": "CISCO",
        "LATDD": 32.3921833,
        "LONGDD": -98.9751758,
        "gridlyProductionCertified": true,
        "gridlyClassification": "PUBLIC_ROADWAY",
        "gridlyDisplayName": "US0183",
        "gridlyId": "FRA-839269B"
      }
    },
    {
      "type": "Feature",
      "id": 207064,
      "geometry": {
        "type": "Point",
        "coordinates": [
          -98.9047479003136,
          32.4119631999248
        ]
      },
      "properties": {
        "OBJECTID": 207064,
        "CROSSING": "839268U",
        "EFFDATE": 1767830400000,
        "REASON": "14",
        "StateCode": "48",
        "CountyCode": "48133",
        "STCYFIPS": "48133",
        "CITYCD": "481331330",
        "RAILROAD": "UP",
        "RRDIV": "TEXOMA",
        "RRSUBDIV": "BAIRD SUB",
        "HIGHWAY": "cr0154",
        "STREET": "County Road 154",
        "TTSTN": "678673",
        "MILEPOST": "0355.950",
        "TYPEXING": "Public",
        "POSXING": "At Grade",
        "PRVCAT": "14",
        "INIT": "2",
        "LATITUDE": 32.4119632,
        "LONGITUD": -98.9047479,
        "LLSOURCE": "1",
        "WHISTBAN": "0",
        "RRCONT": "4025443721",
        "POLCONT": "8008488715",
        "INV_LINK": "https://safetydata.fra.dot.gov/OfficeofSafety/PublicSite/Crossing/Crossing.aspx?phasetype=C&rpttype=I&txtcrossingnum=839268U",
        "ACC_LINK": "https://safetydata.fra.dot.gov/OfficeofSafety/PublicSite/Crossing/Crossing.aspx?phasetype=C&rpttype=A&txtcrossingnum=839268U",
        "TTSTNNAM": "",
        "XPURPOSE": "1",
        "OPERATINGR": "UP",
        "OPERATIN_1": "Primary",
        "DAYTHRU": 11,
        "NGHTTHRU": 10,
        "MAINTRK": 1,
        "SIDINGTRK": 0,
        "YARDTRK": 0,
        "TRANSITTRK": 0,
        "INDUSTRYTR": 0,
        "OTHRTRK": 0,
        "WDCODE": "All other Gates",
        "REVISIONDA": "1975/01/01 00:00:00",
        "LASTUPDATE": "1/8/2026",
        "AADT": "19",
        "AADTYEAR": "2022",
        "STATENAME": "TEXAS",
        "STATEAB": "TX",
        "COUNTYNAME": "EASTLAND",
        "CITYNAME": "CISCO",
        "LATDD": 32.4119632,
        "LONGDD": -98.9047479,
        "gridlyProductionCertified": true,
        "gridlyClassification": "PUBLIC_ROADWAY",
        "gridlyDisplayName": "County Road 154",
        "gridlyId": "FRA-839268U"
      }
    },
    {
      "type": "Feature",
      "id": 207065,
      "geometry": {
        "type": "Point",
        "coordinates": [
          -99.0472160996108,
          32.3861321000973
        ]
      },
      "properties": {
        "OBJECTID": 207065,
        "CROSSING": "839274X",
        "EFFDATE": 1767830400000,
        "REASON": "14",
        "StateCode": "48",
        "CountyCode": "48133",
        "STCYFIPS": "48133",
        "CITYCD": "481331330",
        "RAILROAD": "UP",
        "RRDIV": "TEXOMA",
        "RRSUBDIV": "BAIRD SUB",
        "HIGHWAY": "cr0133",
        "STREET": "County Road 133",
        "TTSTN": "678673",
        "MILEPOST": "0364.900",
        "TYPEXING": "Public",
        "POSXING": "At Grade",
        "PRVCAT": "14",
        "INIT": "2",
        "LATITUDE": 32.3861321,
        "LONGITUD": -99.0472161,
        "LLSOURCE": "1",
        "WHISTBAN": "0",
        "RRCONT": "4025443721",
        "POLCONT": "8008488715",
        "INV_LINK": "https://safetydata.fra.dot.gov/OfficeofSafety/PublicSite/Crossing/Crossing.aspx?phasetype=C&rpttype=I&txtcrossingnum=839274X",
        "ACC_LINK": "https://safetydata.fra.dot.gov/OfficeofSafety/PublicSite/Crossing/Crossing.aspx?phasetype=C&rpttype=A&txtcrossingnum=839274X",
        "TTSTNNAM": "",
        "XPURPOSE": "1",
        "OPERATINGR": "UP",
        "OPERATIN_1": "Primary",
        "DAYTHRU": 11,
        "NGHTTHRU": 10,
        "MAINTRK": 1,
        "SIDINGTRK": 0,
        "YARDTRK": 0,
        "TRANSITTRK": 0,
        "INDUSTRYTR": 0,
        "OTHRTRK": 0,
        "WDCODE": "Flashing lights",
        "REVISIONDA": "1975/01/01 00:00:00",
        "LASTUPDATE": "1/8/2026",
        "AADT": "19",
        "AADTYEAR": "2022",
        "STATENAME": "TEXAS",
        "STATEAB": "TX",
        "COUNTYNAME": "EASTLAND",
        "CITYNAME": "CISCO",
        "LATDD": 32.3861321,
        "LONGDD": -99.0472161,
        "gridlyProductionCertified": true,
        "gridlyClassification": "PUBLIC_ROADWAY",
        "gridlyDisplayName": "County Road 133",
        "gridlyId": "FRA-839274X"
      }
    },
    {
      "type": "Feature",
      "id": 207282,
      "geometry": {
        "type": "Point",
        "coordinates": [
          -98.9818619999095,
          32.3925324003572
        ]
      },
      "properties": {
        "OBJECTID": 207282,
        "CROSSING": "839270V",
        "EFFDATE": 1767830400000,
        "REASON": "14",
        "StateCode": "48",
        "CountyCode": "48133",
        "STCYFIPS": "48133",
        "CITYCD": "481331330",
        "RAILROAD": "UP",
        "RRDIV": "TEXOMA",
        "RRSUBDIV": "BAIRD SUB",
        "HIGHWAY": "SH0006",
        "STREET": "sh0006 / conrad hilton boulevard",
        "TTSTN": "678673",
        "MILEPOST": "0360.760",
        "TYPEXING": "Public",
        "POSXING": "At Grade",
        "PRVCAT": "14",
        "INIT": "2",
        "LATITUDE": 32.3925324,
        "LONGITUD": -98.981862,
        "LLSOURCE": "1",
        "WHISTBAN": "0",
        "RRCONT": "4025443721",
        "POLCONT": "8008488715",
        "INV_LINK": "https://safetydata.fra.dot.gov/OfficeofSafety/PublicSite/Crossing/Crossing.aspx?phasetype=C&rpttype=I&txtcrossingnum=839270V",
        "ACC_LINK": "https://safetydata.fra.dot.gov/OfficeofSafety/PublicSite/Crossing/Crossing.aspx?phasetype=C&rpttype=A&txtcrossingnum=839270V",
        "TTSTNNAM": "",
        "XPURPOSE": "1",
        "OPERATINGR": "UP",
        "OPERATIN_1": "Primary",
        "DAYTHRU": 11,
        "NGHTTHRU": 10,
        "MAINTRK": 1,
        "SIDINGTRK": 1,
        "YARDTRK": 0,
        "TRANSITTRK": 0,
        "INDUSTRYTR": 0,
        "OTHRTRK": 1,
        "WDCODE": "All other Gates",
        "REVISIONDA": "1975/01/01 00:00:00",
        "LASTUPDATE": "1/8/2026",
        "AADT": "3586",
        "AADTYEAR": "2023",
        "STATENAME": "TEXAS",
        "STATEAB": "TX",
        "COUNTYNAME": "EASTLAND",
        "CITYNAME": "CISCO",
        "LATDD": 32.3925324,
        "LONGDD": -98.981862,
        "gridlyProductionCertified": true,
        "gridlyClassification": "PUBLIC_ROADWAY",
        "gridlyDisplayName": "sh0006 / conrad hilton boulevard",
        "gridlyId": "FRA-839270V"
      }
    },
    {
      "type": "Feature",
      "id": 207283,
      "geometry": {
        "type": "Point",
        "coordinates": [
          -98.763754099604,
          32.4133274002673
        ]
      },
      "properties": {
        "OBJECTID": 207283,
        "CROSSING": "848210K",
        "EFFDATE": 1767830400000,
        "REASON": "14",
        "StateCode": "48",
        "CountyCode": "48133",
        "STCYFIPS": "48133",
        "CITYCD": "481332050",
        "RAILROAD": "UP",
        "RRDIV": "TEXOMA",
        "RRSUBDIV": "BAIRD SUB",
        "HIGHWAY": "ih0020",
        "STREET": "Ih0020 westbound FRONTAGE",
        "TTSTN": "",
        "MILEPOST": "0347.705",
        "TYPEXING": "Public",
        "POSXING": "At Grade",
        "PRVCAT": "14",
        "INIT": "2",
        "LATITUDE": 32.4133274,
        "LONGITUD": -98.7637541,
        "LLSOURCE": "1",
        "WHISTBAN": "",
        "RRCONT": "4025443721",
        "POLCONT": "2546292850",
        "INV_LINK": "https://safetydata.fra.dot.gov/OfficeofSafety/PublicSite/Crossing/Crossing.aspx?phasetype=C&rpttype=I&txtcrossingnum=848210K",
        "ACC_LINK": "https://safetydata.fra.dot.gov/OfficeofSafety/PublicSite/Crossing/Crossing.aspx?phasetype=C&rpttype=A&txtcrossingnum=848210K",
        "TTSTNNAM": "",
        "XPURPOSE": "1",
        "OPERATINGR": "UP",
        "OPERATIN_1": "Primary",
        "DAYTHRU": 0,
        "NGHTTHRU": 0,
        "MAINTRK": 0,
        "SIDINGTRK": 0,
        "YARDTRK": 0,
        "TRANSITTRK": 0,
        "INDUSTRYTR": 1,
        "OTHRTRK": 0,
        "WDCODE": "All other Gates",
        "REVISIONDA": "1975/01/01 00:00:00",
        "LASTUPDATE": "1/8/2026",
        "AADT": "1666",
        "AADTYEAR": "2024",
        "STATENAME": "TEXAS",
        "STATEAB": "TX",
        "COUNTYNAME": "EASTLAND",
        "CITYNAME": "EASTLAND",
        "LATDD": 32.4133274,
        "LONGDD": -98.7637541,
        "gridlyProductionCertified": true,
        "gridlyClassification": "PUBLIC_ROADWAY",
        "gridlyDisplayName": "Ih0020 westbound FRONTAGE",
        "gridlyId": "FRA-848210K"
      }
    },
    {
      "type": "Feature",
      "id": 207926,
      "geometry": {
        "type": "Point",
        "coordinates": [
          -98.6794802996329,
          32.4699627000524
        ]
      },
      "properties": {
        "OBJECTID": 207926,
        "CROSSING": "839253E",
        "EFFDATE": 1767830400000,
        "REASON": "14",
        "StateCode": "48",
        "CountyCode": "48133",
        "STCYFIPS": "48133",
        "CITYCD": "481335640",
        "RAILROAD": "UP",
        "RRDIV": "TEXOMA",
        "RRSUBDIV": "BAIRD SUB",
        "HIGHWAY": "fm0101",
        "STREET": "FM 0101 / MAIN STreet",
        "TTSTN": "678611",
        "MILEPOST": "0340.810",
        "TYPEXING": "Public",
        "POSXING": "At Grade",
        "PRVCAT": "14",
        "INIT": "2",
        "LATITUDE": 32.4699627,
        "LONGITUD": -98.6794803,
        "LLSOURCE": "1",
        "WHISTBAN": "0",
        "RRCONT": "4025443721",
        "POLCONT": "8008488715",
        "INV_LINK": "https://safetydata.fra.dot.gov/OfficeofSafety/PublicSite/Crossing/Crossing.aspx?phasetype=C&rpttype=I&txtcrossingnum=839253E",
        "ACC_LINK": "https://safetydata.fra.dot.gov/OfficeofSafety/PublicSite/Crossing/Crossing.aspx?phasetype=C&rpttype=A&txtcrossingnum=839253E",
        "TTSTNNAM": "",
        "XPURPOSE": "1",
        "OPERATINGR": "UP",
        "OPERATIN_1": "Primary",
        "DAYTHRU": 7,
        "NGHTTHRU": 7,
        "MAINTRK": 1,
        "SIDINGTRK": 0,
        "YARDTRK": 0,
        "TRANSITTRK": 0,
        "INDUSTRYTR": 0,
        "OTHRTRK": 2,
        "WDCODE": "All other Gates",
        "REVISIONDA": "1975/01/01 00:00:00",
        "LASTUPDATE": "1/8/2026",
        "AADT": "3118",
        "AADTYEAR": "2024",
        "STATENAME": "TEXAS",
        "STATEAB": "TX",
        "COUNTYNAME": "EASTLAND",
        "CITYNAME": "RANGER",
        "LATDD": 32.4699627,
        "LONGDD": -98.6794803,
        "gridlyProductionCertified": true,
        "gridlyClassification": "PUBLIC_ROADWAY",
        "gridlyDisplayName": "FM 0101 / MAIN STreet",
        "gridlyId": "FRA-839253E"
      }
    },
    {
      "type": "Feature",
      "id": 210994,
      "geometry": {
        "type": "Point",
        "coordinates": [
          -98.7635928996212,
          32.4119494999307
        ]
      },
      "properties": {
        "OBJECTID": 210994,
        "CROSSING": "848212Y",
        "EFFDATE": 1767830400000,
        "REASON": "14",
        "StateCode": "48",
        "CountyCode": "48133",
        "STCYFIPS": "48133",
        "CITYCD": "481332050",
        "RAILROAD": "UP",
        "RRDIV": "TEXOMA",
        "RRSUBDIV": "BAIRD SUB",
        "HIGHWAY": "ih0020",
        "STREET": "ih0020 eastbound frontage",
        "TTSTN": "",
        "MILEPOST": "0347.800",
        "TYPEXING": "Public",
        "POSXING": "At Grade",
        "PRVCAT": "14",
        "INIT": "2",
        "LATITUDE": 32.4119495,
        "LONGITUD": -98.7635929,
        "LLSOURCE": "1",
        "WHISTBAN": "",
        "RRCONT": "4025443721",
        "POLCONT": "2546292850",
        "INV_LINK": "https://safetydata.fra.dot.gov/OfficeofSafety/PublicSite/Crossing/Crossing.aspx?phasetype=C&rpttype=I&txtcrossingnum=848212Y",
        "ACC_LINK": "https://safetydata.fra.dot.gov/OfficeofSafety/PublicSite/Crossing/Crossing.aspx?phasetype=C&rpttype=A&txtcrossingnum=848212Y",
        "TTSTNNAM": "",
        "XPURPOSE": "1",
        "OPERATINGR": "UP",
        "OPERATIN_1": "Primary",
        "DAYTHRU": 0,
        "NGHTTHRU": 0,
        "MAINTRK": 0,
        "SIDINGTRK": 0,
        "YARDTRK": 0,
        "TRANSITTRK": 0,
        "INDUSTRYTR": 1,
        "OTHRTRK": 0,
        "WDCODE": "All other Gates",
        "REVISIONDA": "1975/01/01 00:00:00",
        "LASTUPDATE": "1/8/2026",
        "AADT": "477",
        "AADTYEAR": "2024",
        "STATENAME": "TEXAS",
        "STATEAB": "TX",
        "COUNTYNAME": "EASTLAND",
        "CITYNAME": "EASTLAND",
        "LATDD": 32.4119495,
        "LONGDD": -98.7635929,
        "gridlyProductionCertified": true,
        "gridlyClassification": "PUBLIC_ROADWAY",
        "gridlyDisplayName": "ih0020 eastbound frontage",
        "gridlyId": "FRA-848212Y"
      }
    },
    {
      "type": "Feature",
      "id": 211038,
      "geometry": {
        "type": "Point",
        "coordinates": [
          -98.660986900271,
          32.2045446000423
        ]
      },
      "properties": {
        "OBJECTID": 211038,
        "CROSSING": "312392R",
        "EFFDATE": 1761609600000,
        "REASON": "20",
        "StateCode": "48",
        "CountyCode": "48093",
        "STCYFIPS": "48093",
        "CITYCD": "481332750",
        "RAILROAD": "FWWR",
        "RRDIV": "EASTERN",
        "RRSUBDIV": "DUBLIN",
        "HIGHWAY": "Cr0479",
        "STREET": "County Road 479",
        "TTSTN": "999999",
        "MILEPOST": "0021.500",
        "TYPEXING": "Public",
        "POSXING": "At Grade",
        "PRVCAT": "20",
        "INIT": "1",
        "LATITUDE": 32.2045446,
        "LONGITUD": -98.6609869,
        "LLSOURCE": "2",
        "WHISTBAN": "0",
        "RRCONT": "8008613657",
        "POLCONT": "8008613657",
        "INV_LINK": "https://safetydata.fra.dot.gov/OfficeofSafety/PublicSite/Crossing/Crossing.aspx?phasetype=C&rpttype=I&txtcrossingnum=312392R",
        "ACC_LINK": "https://safetydata.fra.dot.gov/OfficeofSafety/PublicSite/Crossing/Crossing.aspx?phasetype=C&rpttype=A&txtcrossingnum=312392R",
        "TTSTNNAM": "Gorman",
        "XPURPOSE": "1",
        "OPERATINGR": "FWWR",
        "OPERATIN_1": "Primary",
        "DAYTHRU": 1,
        "NGHTTHRU": 0,
        "MAINTRK": 1,
        "SIDINGTRK": 0,
        "YARDTRK": 0,
        "TRANSITTRK": 0,
        "INDUSTRYTR": 0,
        "OTHRTRK": 0,
        "WDCODE": "Crossbucks",
        "REVISIONDA": "1989/01/01 00:00:00",
        "LASTUPDATE": "10/28/2025",
        "AADT": "69",
        "AADTYEAR": "2022",
        "STATENAME": "TEXAS",
        "STATEAB": "TX",
        "COUNTYNAME": "COMANCHE",
        "CITYNAME": "GORMAN",
        "LATDD": 32.2045446,
        "LONGDD": -98.6609869,
        "gridlyProductionCertified": true,
        "gridlyClassification": "PUBLIC_ROADWAY",
        "gridlyDisplayName": "County Road 479",
        "gridlyId": "FRA-312392R"
      }
    },
    {
      "type": "Feature",
      "id": 211236,
      "geometry": {
        "type": "Point",
        "coordinates": [
          -98.761033600275,
          32.4183968998677
        ]
      },
      "properties": {
        "OBJECTID": 211236,
        "CROSSING": "839260P",
        "EFFDATE": 1767830400000,
        "REASON": "14",
        "StateCode": "48",
        "CountyCode": "48133",
        "STCYFIPS": "48133",
        "CITYCD": "481332050",
        "RAILROAD": "UP",
        "RRDIV": "TEXOMA",
        "RRSUBDIV": "BAIRD SUB",
        "HIGHWAY": "cr0440",
        "STREET": "County Road 440",
        "TTSTN": "678650",
        "MILEPOST": "0347.280",
        "TYPEXING": "Public",
        "POSXING": "At Grade",
        "PRVCAT": "14",
        "INIT": "2",
        "LATITUDE": 32.4183969,
        "LONGITUD": -98.7610336,
        "LLSOURCE": "1",
        "WHISTBAN": "0",
        "RRCONT": "4025443721",
        "POLCONT": "8008488715",
        "INV_LINK": "https://safetydata.fra.dot.gov/OfficeofSafety/PublicSite/Crossing/Crossing.aspx?phasetype=C&rpttype=I&txtcrossingnum=839260P",
        "ACC_LINK": "https://safetydata.fra.dot.gov/OfficeofSafety/PublicSite/Crossing/Crossing.aspx?phasetype=C&rpttype=A&txtcrossingnum=839260P",
        "TTSTNNAM": "",
        "XPURPOSE": "1",
        "OPERATINGR": "UP",
        "OPERATIN_1": "Primary",
        "DAYTHRU": 11,
        "NGHTTHRU": 10,
        "MAINTRK": 1,
        "SIDINGTRK": 0,
        "YARDTRK": 0,
        "TRANSITTRK": 0,
        "INDUSTRYTR": 0,
        "OTHRTRK": 0,
        "WDCODE": "All other Gates",
        "REVISIONDA": "1975/01/01 00:00:00",
        "LASTUPDATE": "1/8/2026",
        "AADT": "68",
        "AADTYEAR": "2022",
        "STATENAME": "TEXAS",
        "STATEAB": "TX",
        "COUNTYNAME": "EASTLAND",
        "CITYNAME": "EASTLAND",
        "LATDD": 32.4183969,
        "LONGDD": -98.7610336,
        "gridlyProductionCertified": true,
        "gridlyClassification": "PUBLIC_ROADWAY",
        "gridlyDisplayName": "County Road 440",
        "gridlyId": "FRA-839260P"
      }
    },
    {
      "type": "Feature",
      "id": 211237,
      "geometry": {
        "type": "Point",
        "coordinates": [
          -98.7627795002843,
          32.3974217000104
        ]
      },
      "properties": {
        "OBJECTID": 211237,
        "CROSSING": "848213F",
        "EFFDATE": 1767830400000,
        "REASON": "14",
        "StateCode": "48",
        "CountyCode": "48133",
        "STCYFIPS": "48133",
        "CITYCD": "481332050",
        "RAILROAD": "UP",
        "RRDIV": "TEXOMA",
        "RRSUBDIV": "BAIRD SUB",
        "HIGHWAY": "fm0570",
        "STREET": "fm0570",
        "TTSTN": "",
        "MILEPOST": "0348.804",
        "TYPEXING": "Public",
        "POSXING": "At Grade",
        "PRVCAT": "14",
        "INIT": "2",
        "LATITUDE": 32.3974217,
        "LONGITUD": -98.7627795,
        "LLSOURCE": "1",
        "WHISTBAN": "",
        "RRCONT": "4025443721",
        "POLCONT": "2546292850",
        "INV_LINK": "https://safetydata.fra.dot.gov/OfficeofSafety/PublicSite/Crossing/Crossing.aspx?phasetype=C&rpttype=I&txtcrossingnum=848213F",
        "ACC_LINK": "https://safetydata.fra.dot.gov/OfficeofSafety/PublicSite/Crossing/Crossing.aspx?phasetype=C&rpttype=A&txtcrossingnum=848213F",
        "TTSTNNAM": "",
        "XPURPOSE": "1",
        "OPERATINGR": "UP",
        "OPERATIN_1": "Primary",
        "DAYTHRU": 0,
        "NGHTTHRU": 0,
        "MAINTRK": 0,
        "SIDINGTRK": 0,
        "YARDTRK": 0,
        "TRANSITTRK": 0,
        "INDUSTRYTR": 2,
        "OTHRTRK": 0,
        "WDCODE": "All other Gates",
        "REVISIONDA": "1975/01/01 00:00:00",
        "LASTUPDATE": "1/8/2026",
        "AADT": "3743",
        "AADTYEAR": "2024",
        "STATENAME": "TEXAS",
        "STATEAB": "TX",
        "COUNTYNAME": "EASTLAND",
        "CITYNAME": "EASTLAND",
        "LATDD": 32.3974217,
        "LONGDD": -98.7627795,
        "gridlyProductionCertified": true,
        "gridlyClassification": "PUBLIC_ROADWAY",
        "gridlyDisplayName": "fm0570",
        "gridlyId": "FRA-848213F"
      }
    },
    {
      "type": "Feature",
      "id": 211238,
      "geometry": {
        "type": "Point",
        "coordinates": [
          -98.8181170000887,
          32.4063377998606
        ]
      },
      "properties": {
        "OBJECTID": 211238,
        "CROSSING": "839262D",
        "EFFDATE": 1767830400000,
        "REASON": "14",
        "StateCode": "48",
        "CountyCode": "48133",
        "STCYFIPS": "48133",
        "CITYCD": "481332050",
        "RAILROAD": "UP",
        "RRDIV": "TEXOMA",
        "RRSUBDIV": "BAIRD SUB",
        "HIGHWAY": "sh0112",
        "STREET": "sh0112 / north SEAMAN STREET",
        "TTSTN": "678650",
        "MILEPOST": "0350.750",
        "TYPEXING": "Public",
        "POSXING": "At Grade",
        "PRVCAT": "14",
        "INIT": "2",
        "LATITUDE": 32.4063378,
        "LONGITUD": -98.818117,
        "LLSOURCE": "1",
        "WHISTBAN": "0",
        "RRCONT": "4025443721",
        "POLCONT": "8008488715",
        "INV_LINK": "https://safetydata.fra.dot.gov/OfficeofSafety/PublicSite/Crossing/Crossing.aspx?phasetype=C&rpttype=I&txtcrossingnum=839262D",
        "ACC_LINK": "https://safetydata.fra.dot.gov/OfficeofSafety/PublicSite/Crossing/Crossing.aspx?phasetype=C&rpttype=A&txtcrossingnum=839262D",
        "TTSTNNAM": "",
        "XPURPOSE": "1",
        "OPERATINGR": "UP",
        "OPERATIN_1": "Primary",
        "DAYTHRU": 11,
        "NGHTTHRU": 10,
        "MAINTRK": 1,
        "SIDINGTRK": 0,
        "YARDTRK": 0,
        "TRANSITTRK": 0,
        "INDUSTRYTR": 0,
        "OTHRTRK": 0,
        "WDCODE": "All other Gates",
        "REVISIONDA": "1975/01/01 00:00:00",
        "LASTUPDATE": "1/8/2026",
        "AADT": "3885",
        "AADTYEAR": "2024",
        "STATENAME": "TEXAS",
        "STATEAB": "TX",
        "COUNTYNAME": "EASTLAND",
        "CITYNAME": "EASTLAND",
        "LATDD": 32.4063378,
        "LONGDD": -98.818117,
        "gridlyProductionCertified": true,
        "gridlyClassification": "PUBLIC_ROADWAY",
        "gridlyDisplayName": "sh0112 / north SEAMAN STREET",
        "gridlyId": "FRA-839262D"
      }
    },
    {
      "type": "Feature",
      "id": 211239,
      "geometry": {
        "type": "Point",
        "coordinates": [
          -98.7639839003318,
          32.4147686001765
        ]
      },
      "properties": {
        "OBJECTID": 211239,
        "CROSSING": "848209R",
        "EFFDATE": 1767830400000,
        "REASON": "14",
        "StateCode": "48",
        "CountyCode": "48133",
        "STCYFIPS": "48133",
        "CITYCD": "481332050",
        "RAILROAD": "UP",
        "RRDIV": "TEXOMA",
        "RRSUBDIV": "BAIRD SUB",
        "HIGHWAY": "cr0546",
        "STREET": "county road 546 / highway 3363",
        "TTSTN": "",
        "MILEPOST": "0347.605",
        "TYPEXING": "Public",
        "POSXING": "At Grade",
        "PRVCAT": "14",
        "INIT": "2",
        "LATITUDE": 32.4147686,
        "LONGITUD": -98.7639839,
        "LLSOURCE": "1",
        "WHISTBAN": "",
        "RRCONT": "4025443721",
        "POLCONT": "2546292850",
        "INV_LINK": "https://safetydata.fra.dot.gov/OfficeofSafety/PublicSite/Crossing/Crossing.aspx?phasetype=C&rpttype=I&txtcrossingnum=848209R",
        "ACC_LINK": "https://safetydata.fra.dot.gov/OfficeofSafety/PublicSite/Crossing/Crossing.aspx?phasetype=C&rpttype=A&txtcrossingnum=848209R",
        "TTSTNNAM": "",
        "XPURPOSE": "1",
        "OPERATINGR": "UP",
        "OPERATIN_1": "Primary",
        "DAYTHRU": 0,
        "NGHTTHRU": 0,
        "MAINTRK": 0,
        "SIDINGTRK": 0,
        "YARDTRK": 0,
        "TRANSITTRK": 0,
        "INDUSTRYTR": 1,
        "OTHRTRK": 0,
        "WDCODE": "All other Gates",
        "REVISIONDA": "1975/01/01 00:00:00",
        "LASTUPDATE": "1/8/2026",
        "AADT": "68",
        "AADTYEAR": "2022",
        "STATENAME": "TEXAS",
        "STATEAB": "TX",
        "COUNTYNAME": "EASTLAND",
        "CITYNAME": "EASTLAND",
        "LATDD": 32.4147686,
        "LONGDD": -98.7639839,
        "gridlyProductionCertified": true,
        "gridlyClassification": "PUBLIC_ROADWAY",
        "gridlyDisplayName": "county road 546 / highway 3363",
        "gridlyId": "FRA-848209R"
      }
    },
    {
      "type": "Feature",
      "id": 211240,
      "geometry": {
        "type": "Point",
        "coordinates": [
          -98.7522575998367,
          32.4234903999112
        ]
      },
      "properties": {
        "OBJECTID": 211240,
        "CROSSING": "839259V",
        "EFFDATE": 1767830400000,
        "REASON": "14",
        "StateCode": "48",
        "CountyCode": "48133",
        "STCYFIPS": "48133",
        "CITYCD": "481332050",
        "RAILROAD": "UP",
        "RRDIV": "TEXOMA",
        "RRSUBDIV": "BAIRD SUB",
        "HIGHWAY": "cr0454",
        "STREET": "old colony road",
        "TTSTN": "678650",
        "MILEPOST": "0346.660",
        "TYPEXING": "Public",
        "POSXING": "At Grade",
        "PRVCAT": "14",
        "INIT": "2",
        "LATITUDE": 32.4234904,
        "LONGITUD": -98.7522576,
        "LLSOURCE": "1",
        "WHISTBAN": "0",
        "RRCONT": "4025443721",
        "POLCONT": "8008488715",
        "INV_LINK": "https://safetydata.fra.dot.gov/OfficeofSafety/PublicSite/Crossing/Crossing.aspx?phasetype=C&rpttype=I&txtcrossingnum=839259V",
        "ACC_LINK": "https://safetydata.fra.dot.gov/OfficeofSafety/PublicSite/Crossing/Crossing.aspx?phasetype=C&rpttype=A&txtcrossingnum=839259V",
        "TTSTNNAM": "",
        "XPURPOSE": "1",
        "OPERATINGR": "UP",
        "OPERATIN_1": "Primary",
        "DAYTHRU": 7,
        "NGHTTHRU": 7,
        "MAINTRK": 1,
        "SIDINGTRK": 0,
        "YARDTRK": 0,
        "TRANSITTRK": 0,
        "INDUSTRYTR": 0,
        "OTHRTRK": 0,
        "WDCODE": "All other Gates",
        "REVISIONDA": "1975/01/01 00:00:00",
        "LASTUPDATE": "1/8/2026",
        "AADT": "232",
        "AADTYEAR": "2022",
        "STATENAME": "TEXAS",
        "STATEAB": "TX",
        "COUNTYNAME": "EASTLAND",
        "CITYNAME": "EASTLAND",
        "LATDD": 32.4234904,
        "LONGDD": -98.7522576,
        "gridlyProductionCertified": true,
        "gridlyClassification": "PUBLIC_ROADWAY",
        "gridlyDisplayName": "old colony road",
        "gridlyId": "FRA-839259V"
      }
    },
    {
      "type": "Feature",
      "id": 211291,
      "geometry": {
        "type": "Point",
        "coordinates": [
          -98.6650800002012,
          32.2077300000008
        ]
      },
      "properties": {
        "OBJECTID": 211291,
        "CROSSING": "924795V",
        "EFFDATE": 1761609600000,
        "REASON": "20",
        "StateCode": "48",
        "CountyCode": "48093",
        "STCYFIPS": "48093",
        "CITYCD": "481332750",
        "RAILROAD": "FWWR",
        "RRDIV": "SYSTEM",
        "RRSUBDIV": "GORMAN",
        "HIGHWAY": "private",
        "STREET": "FARM-PRIVATE",
        "TTSTN": "678683",
        "MILEPOST": "0021.80",
        "TYPEXING": "Private",
        "POSXING": "At Grade",
        "PRVCAT": "20",
        "INIT": "1",
        "LATITUDE": 32.20773,
        "LONGITUD": -98.66508,
        "LLSOURCE": "2",
        "WHISTBAN": "0",
        "RRCONT": "8008613657",
        "POLCONT": "8008613657",
        "INV_LINK": "https://safetydata.fra.dot.gov/OfficeofSafety/PublicSite/Crossing/Crossing.aspx?phasetype=C&rpttype=I&txtcrossingnum=924795V",
        "ACC_LINK": "https://safetydata.fra.dot.gov/OfficeofSafety/PublicSite/Crossing/Crossing.aspx?phasetype=C&rpttype=A&txtcrossingnum=924795V",
        "TTSTNNAM": "GORMAN",
        "XPURPOSE": "1",
        "OPERATINGR": "FWWR",
        "OPERATIN_1": "Primary",
        "DAYTHRU": 1,
        "NGHTTHRU": 1,
        "MAINTRK": 1,
        "SIDINGTRK": 1,
        "YARDTRK": 0,
        "TRANSITTRK": 0,
        "INDUSTRYTR": 1,
        "OTHRTRK": 0,
        "WDCODE": "",
        "REVISIONDA": "1989/01/01 00:00:00",
        "LASTUPDATE": "10/28/2025",
        "AADT": "",
        "AADTYEAR": "",
        "STATENAME": "TEXAS",
        "STATEAB": "TX",
        "COUNTYNAME": "COMANCHE",
        "CITYNAME": "GORMAN",
        "LATDD": 32.20773,
        "LONGDD": -98.66508,
        "gridlyProductionCertified": true,
        "gridlyClassification": "PUBLIC_ROADWAY",
        "gridlyDisplayName": "FARM-PRIVATE",
        "gridlyId": "FRA-924795V"
      }
    },
    {
      "type": "Feature",
      "id": 211628,
      "geometry": {
        "type": "Point",
        "coordinates": [
          -98.6684892001292,
          32.2102245003369
        ]
      },
      "properties": {
        "OBJECTID": 211628,
        "CROSSING": "312393X",
        "EFFDATE": 1761609600000,
        "REASON": "20",
        "StateCode": "48",
        "CountyCode": "48133",
        "STCYFIPS": "48133",
        "CITYCD": "481332750",
        "RAILROAD": "FWWR",
        "RRDIV": "EASTERN",
        "RRSUBDIV": "DUBLIN",
        "HIGHWAY": "lS0000",
        "STREET": "ector Street",
        "TTSTN": "999999",
        "MILEPOST": "0021.100",
        "TYPEXING": "Public",
        "POSXING": "At Grade",
        "PRVCAT": "20",
        "INIT": "1",
        "LATITUDE": 32.2102245,
        "LONGITUD": -98.6684892,
        "LLSOURCE": "1",
        "WHISTBAN": "0",
        "RRCONT": "8008613657",
        "POLCONT": "8008613657",
        "INV_LINK": "https://safetydata.fra.dot.gov/OfficeofSafety/PublicSite/Crossing/Crossing.aspx?phasetype=C&rpttype=I&txtcrossingnum=312393X",
        "ACC_LINK": "https://safetydata.fra.dot.gov/OfficeofSafety/PublicSite/Crossing/Crossing.aspx?phasetype=C&rpttype=A&txtcrossingnum=312393X",
        "TTSTNNAM": "",
        "XPURPOSE": "1",
        "OPERATINGR": "FWWR",
        "OPERATIN_1": "Primary",
        "DAYTHRU": 2,
        "NGHTTHRU": 0,
        "MAINTRK": 1,
        "SIDINGTRK": 0,
        "YARDTRK": 0,
        "TRANSITTRK": 0,
        "INDUSTRYTR": 1,
        "OTHRTRK": 0,
        "WDCODE": "Crossbucks",
        "REVISIONDA": "1989/01/01 00:00:00",
        "LASTUPDATE": "10/28/2025",
        "AADT": "391",
        "AADTYEAR": "2022",
        "STATENAME": "TEXAS",
        "STATEAB": "TX",
        "COUNTYNAME": "EASTLAND",
        "CITYNAME": "GORMAN",
        "LATDD": 32.2102245,
        "LONGDD": -98.6684892,
        "gridlyProductionCertified": true,
        "gridlyClassification": "PUBLIC_ROADWAY",
        "gridlyDisplayName": "ector Street",
        "gridlyId": "FRA-312393X"
      }
    },
    {
      "type": "Feature",
      "id": 211633,
      "geometry": {
        "type": "Point",
        "coordinates": [
          -98.6708526999811,
          32.2120314998157
        ]
      },
      "properties": {
        "OBJECTID": 211633,
        "CROSSING": "312394E",
        "EFFDATE": 1761609600000,
        "REASON": "20",
        "StateCode": "48",
        "CountyCode": "48133",
        "STCYFIPS": "48133",
        "CITYCD": "481332750",
        "RAILROAD": "FWWR",
        "RRDIV": "EASTERN",
        "RRSUBDIV": "DUBLIN",
        "HIGHWAY": "lS0000",
        "STREET": "BRISCOE STreet",
        "TTSTN": "999999",
        "MILEPOST": "0022.400",
        "TYPEXING": "Public",
        "POSXING": "At Grade",
        "PRVCAT": "20",
        "INIT": "1",
        "LATITUDE": 32.2120315,
        "LONGITUD": -98.6708527,
        "LLSOURCE": "1",
        "WHISTBAN": "0",
        "RRCONT": "8008613657",
        "POLCONT": "8008613657",
        "INV_LINK": "https://safetydata.fra.dot.gov/OfficeofSafety/PublicSite/Crossing/Crossing.aspx?phasetype=C&rpttype=I&txtcrossingnum=312394E",
        "ACC_LINK": "https://safetydata.fra.dot.gov/OfficeofSafety/PublicSite/Crossing/Crossing.aspx?phasetype=C&rpttype=A&txtcrossingnum=312394E",
        "TTSTNNAM": "",
        "XPURPOSE": "1",
        "OPERATINGR": "FWWR",
        "OPERATIN_1": "Primary",
        "DAYTHRU": 2,
        "NGHTTHRU": 0,
        "MAINTRK": 1,
        "SIDINGTRK": 1,
        "YARDTRK": 0,
        "TRANSITTRK": 0,
        "INDUSTRYTR": 0,
        "OTHRTRK": 1,
        "WDCODE": "Crossbucks",
        "REVISIONDA": "1989/01/01 00:00:00",
        "LASTUPDATE": "10/28/2025",
        "AADT": "347",
        "AADTYEAR": "2022",
        "STATENAME": "TEXAS",
        "STATEAB": "TX",
        "COUNTYNAME": "EASTLAND",
        "CITYNAME": "GORMAN",
        "LATDD": 32.2120315,
        "LONGDD": -98.6708527,
        "gridlyProductionCertified": true,
        "gridlyClassification": "PUBLIC_ROADWAY",
        "gridlyDisplayName": "BRISCOE STreet",
        "gridlyId": "FRA-312394E"
      }
    },
    {
      "type": "Feature",
      "id": 211645,
      "geometry": {
        "type": "Point",
        "coordinates": [
          -98.6765652997735,
          32.4747647000886
        ]
      },
      "properties": {
        "OBJECTID": 211645,
        "CROSSING": "839252X",
        "EFFDATE": 1767830400000,
        "REASON": "14",
        "StateCode": "48",
        "CountyCode": "48133",
        "STCYFIPS": "48133",
        "CITYCD": "481335640",
        "RAILROAD": "UP",
        "RRDIV": "TEXOMA",
        "RRSUBDIV": "BAIRD SUB",
        "HIGHWAY": "lS0000",
        "STREET": "REX AVENUE",
        "TTSTN": "678611",
        "MILEPOST": "0340.440",
        "TYPEXING": "Public",
        "POSXING": "At Grade",
        "PRVCAT": "14",
        "INIT": "2",
        "LATITUDE": 32.4747647,
        "LONGITUD": -98.6765653,
        "LLSOURCE": "1",
        "WHISTBAN": "0",
        "RRCONT": "4025443721",
        "POLCONT": "8008488715",
        "INV_LINK": "https://safetydata.fra.dot.gov/OfficeofSafety/PublicSite/Crossing/Crossing.aspx?phasetype=C&rpttype=I&txtcrossingnum=839252X",
        "ACC_LINK": "https://safetydata.fra.dot.gov/OfficeofSafety/PublicSite/Crossing/Crossing.aspx?phasetype=C&rpttype=A&txtcrossingnum=839252X",
        "TTSTNNAM": "",
        "XPURPOSE": "1",
        "OPERATINGR": "UP",
        "OPERATIN_1": "Primary",
        "DAYTHRU": 7,
        "NGHTTHRU": 7,
        "MAINTRK": 1,
        "SIDINGTRK": 0,
        "YARDTRK": 0,
        "TRANSITTRK": 0,
        "INDUSTRYTR": 0,
        "OTHRTRK": 0,
        "WDCODE": "All other Gates",
        "REVISIONDA": "1975/01/01 00:00:00",
        "LASTUPDATE": "1/8/2026",
        "AADT": "292",
        "AADTYEAR": "2022",
        "STATENAME": "TEXAS",
        "STATEAB": "TX",
        "COUNTYNAME": "EASTLAND",
        "CITYNAME": "RANGER",
        "LATDD": 32.4747647,
        "LONGDD": -98.6765653,
        "gridlyProductionCertified": true,
        "gridlyClassification": "PUBLIC_ROADWAY",
        "gridlyDisplayName": "REX AVENUE",
        "gridlyId": "FRA-839252X"
      }
    },
    {
      "type": "Feature",
      "id": 211646,
      "geometry": {
        "type": "Point",
        "coordinates": [
          -98.6836896999513,
          32.4627384998502
        ]
      },
      "properties": {
        "OBJECTID": 211646,
        "CROSSING": "839254L",
        "EFFDATE": 1767830400000,
        "REASON": "14",
        "StateCode": "48",
        "CountyCode": "48133",
        "STCYFIPS": "48133",
        "CITYCD": "481335640",
        "RAILROAD": "UP",
        "RRDIV": "TEXOMA",
        "RRSUBDIV": "BAIRD SUB",
        "HIGHWAY": "ls0000",
        "STREET": "BLACKWELL road",
        "TTSTN": "678611",
        "MILEPOST": "0341.360",
        "TYPEXING": "Public",
        "POSXING": "At Grade",
        "PRVCAT": "14",
        "INIT": "2",
        "LATITUDE": 32.4627385,
        "LONGITUD": -98.6836897,
        "LLSOURCE": "1",
        "WHISTBAN": "0",
        "RRCONT": "4025443721",
        "POLCONT": "8008488715",
        "INV_LINK": "https://safetydata.fra.dot.gov/OfficeofSafety/PublicSite/Crossing/Crossing.aspx?phasetype=C&rpttype=I&txtcrossingnum=839254L",
        "ACC_LINK": "https://safetydata.fra.dot.gov/OfficeofSafety/PublicSite/Crossing/Crossing.aspx?phasetype=C&rpttype=A&txtcrossingnum=839254L",
        "TTSTNNAM": "",
        "XPURPOSE": "1",
        "OPERATINGR": "UP",
        "OPERATIN_1": "Primary",
        "DAYTHRU": 7,
        "NGHTTHRU": 7,
        "MAINTRK": 1,
        "SIDINGTRK": 0,
        "YARDTRK": 1,
        "TRANSITTRK": 0,
        "INDUSTRYTR": 0,
        "OTHRTRK": 1,
        "WDCODE": "All other Gates",
        "REVISIONDA": "1975/01/01 00:00:00",
        "LASTUPDATE": "1/8/2026",
        "AADT": "284",
        "AADTYEAR": "2022",
        "STATENAME": "TEXAS",
        "STATEAB": "TX",
        "COUNTYNAME": "EASTLAND",
        "CITYNAME": "RANGER",
        "LATDD": 32.4627385,
        "LONGDD": -98.6836897,
        "gridlyProductionCertified": true,
        "gridlyClassification": "PUBLIC_ROADWAY",
        "gridlyDisplayName": "BLACKWELL road",
        "gridlyId": "FRA-839254L"
      }
    },
    {
      "type": "Feature",
      "id": 211810,
      "geometry": {
        "type": "Point",
        "coordinates": [
          -98.6925803999801,
          32.4490366000949
        ]
      },
      "properties": {
        "OBJECTID": 211810,
        "CROSSING": "839255T",
        "EFFDATE": 1760918400000,
        "REASON": "14",
        "StateCode": "48",
        "CountyCode": "48133",
        "STCYFIPS": "48133",
        "CITYCD": "481335640",
        "RAILROAD": "UP",
        "RRDIV": "TEXOMA",
        "RRSUBDIV": "BAIRD SUB",
        "HIGHWAY": "ls0000",
        "STREET": "SOUTH COMMERCE STREET",
        "TTSTN": "678611",
        "MILEPOST": "0342.455",
        "TYPEXING": "Public",
        "POSXING": "RR Over",
        "PRVCAT": "14",
        "INIT": "2",
        "LATITUDE": 32.4490366,
        "LONGITUD": -98.6925804,
        "LLSOURCE": "1",
        "WHISTBAN": "0",
        "RRCONT": "4025443721",
        "POLCONT": "8008488715",
        "INV_LINK": "https://safetydata.fra.dot.gov/OfficeofSafety/PublicSite/Crossing/Crossing.aspx?phasetype=C&rpttype=I&txtcrossingnum=839255T",
        "ACC_LINK": "https://safetydata.fra.dot.gov/OfficeofSafety/PublicSite/Crossing/Crossing.aspx?phasetype=C&rpttype=A&txtcrossingnum=839255T",
        "TTSTNNAM": "",
        "XPURPOSE": "1",
        "OPERATINGR": "UP",
        "OPERATIN_1": "Primary",
        "DAYTHRU": 7,
        "NGHTTHRU": 7,
        "MAINTRK": 1,
        "SIDINGTRK": 0,
        "YARDTRK": 0,
        "TRANSITTRK": 0,
        "INDUSTRYTR": 0,
        "OTHRTRK": 0,
        "WDCODE": "",
        "REVISIONDA": "1975/01/01 00:00:00",
        "LASTUPDATE": "10/20/2025",
        "AADT": "45",
        "AADTYEAR": "2022",
        "STATENAME": "TEXAS",
        "STATEAB": "TX",
        "COUNTYNAME": "EASTLAND",
        "CITYNAME": "RANGER",
        "LATDD": 32.4490366,
        "LONGDD": -98.6925804,
        "gridlyProductionCertified": true,
        "gridlyClassification": "PUBLIC_ROADWAY",
        "gridlyDisplayName": "SOUTH COMMERCE STREET",
        "gridlyId": "FRA-839255T"
      }
    },
    {
      "type": "Feature",
      "id": 211828,
      "geometry": {
        "type": "Point",
        "coordinates": [
          -99.0244325997769,
          32.3899195001116
        ]
      },
      "properties": {
        "OBJECTID": 211828,
        "CROSSING": "839272J",
        "EFFDATE": 1760918400000,
        "REASON": "14",
        "StateCode": "48",
        "CountyCode": "48133",
        "STCYFIPS": "48133",
        "CITYCD": "481331330",
        "RAILROAD": "UP",
        "RRDIV": "TEXOMA",
        "RRSUBDIV": "BAIRD SUB",
        "HIGHWAY": "FM2945",
        "STREET": "fm2945",
        "TTSTN": "678673",
        "MILEPOST": "0363.480",
        "TYPEXING": "Public",
        "POSXING": "RR Under",
        "PRVCAT": "14",
        "INIT": "2",
        "LATITUDE": 32.3899195,
        "LONGITUD": -99.0244326,
        "LLSOURCE": "1",
        "WHISTBAN": "0",
        "RRCONT": "4025443721",
        "POLCONT": "8008488715",
        "INV_LINK": "https://safetydata.fra.dot.gov/OfficeofSafety/PublicSite/Crossing/Crossing.aspx?phasetype=C&rpttype=I&txtcrossingnum=839272J",
        "ACC_LINK": "https://safetydata.fra.dot.gov/OfficeofSafety/PublicSite/Crossing/Crossing.aspx?phasetype=C&rpttype=A&txtcrossingnum=839272J",
        "TTSTNNAM": "",
        "XPURPOSE": "1",
        "OPERATINGR": "UP",
        "OPERATIN_1": "Primary",
        "DAYTHRU": 9,
        "NGHTTHRU": 9,
        "MAINTRK": 1,
        "SIDINGTRK": 0,
        "YARDTRK": 0,
        "TRANSITTRK": 0,
        "INDUSTRYTR": 0,
        "OTHRTRK": 0,
        "WDCODE": "",
        "REVISIONDA": "1975/01/01 00:00:00",
        "LASTUPDATE": "10/20/2025",
        "AADT": "254",
        "AADTYEAR": "2024",
        "STATENAME": "TEXAS",
        "STATEAB": "TX",
        "COUNTYNAME": "EASTLAND",
        "CITYNAME": "CISCO",
        "LATDD": 32.3899195,
        "LONGDD": -99.0244326,
        "gridlyProductionCertified": true,
        "gridlyClassification": "PUBLIC_ROADWAY",
        "gridlyDisplayName": "fm2945",
        "gridlyId": "FRA-839272J"
      }
    },
    {
      "type": "Feature",
      "id": 212078,
      "geometry": {
        "type": "Point",
        "coordinates": [
          -99.0370009998839,
          32.3863769996561
        ]
      },
      "properties": {
        "OBJECTID": 212078,
        "CROSSING": "920217C",
        "EFFDATE": 1758585600000,
        "REASON": "14",
        "StateCode": "48",
        "CountyCode": "48133",
        "STCYFIPS": "48133",
        "CITYCD": "481331330",
        "RAILROAD": "UP",
        "RRDIV": "TEXOMA",
        "RRSUBDIV": "BAIRD SUB",
        "HIGHWAY": "NA",
        "STREET": "Private",
        "TTSTN": "678673",
        "MILEPOST": "0364.300",
        "TYPEXING": "Private",
        "POSXING": "At Grade",
        "PRVCAT": "14",
        "INIT": "1",
        "LATITUDE": 32.386377,
        "LONGITUD": -99.037001,
        "LLSOURCE": "1",
        "WHISTBAN": "0",
        "RRCONT": "4025443721",
        "POLCONT": "8008488715",
        "INV_LINK": "https://safetydata.fra.dot.gov/OfficeofSafety/PublicSite/Crossing/Crossing.aspx?phasetype=C&rpttype=I&txtcrossingnum=920217C",
        "ACC_LINK": "https://safetydata.fra.dot.gov/OfficeofSafety/PublicSite/Crossing/Crossing.aspx?phasetype=C&rpttype=A&txtcrossingnum=920217C",
        "TTSTNNAM": "",
        "XPURPOSE": "1",
        "OPERATINGR": "UP",
        "OPERATIN_1": "Primary",
        "DAYTHRU": 11,
        "NGHTTHRU": 10,
        "MAINTRK": 1,
        "SIDINGTRK": 0,
        "YARDTRK": 0,
        "TRANSITTRK": 0,
        "INDUSTRYTR": 0,
        "OTHRTRK": 0,
        "WDCODE": "",
        "REVISIONDA": "1975/01/01 00:00:00",
        "LASTUPDATE": "9/23/2025",
        "AADT": "",
        "AADTYEAR": "",
        "STATENAME": "TEXAS",
        "STATEAB": "TX",
        "COUNTYNAME": "EASTLAND",
        "CITYNAME": "CISCO",
        "LATDD": 32.386377,
        "LONGDD": -99.037001,
        "gridlyProductionCertified": true,
        "gridlyClassification": "PUBLIC_ROADWAY",
        "gridlyDisplayName": "Private",
        "gridlyId": "FRA-920217C"
      }
    },
    {
      "type": "Feature",
      "id": 212251,
      "geometry": {
        "type": "Point",
        "coordinates": [
          -99.0714222999877,
          32.3898675002314
        ]
      },
      "properties": {
        "OBJECTID": 212251,
        "CROSSING": "839277T",
        "EFFDATE": 1759104000000,
        "REASON": "14",
        "StateCode": "48",
        "CountyCode": "48133",
        "STCYFIPS": "48133",
        "CITYCD": "481331330",
        "RAILROAD": "UP",
        "RRDIV": "TEXOMA",
        "RRSUBDIV": "BAIRD SUB",
        "HIGHWAY": "NA",
        "STREET": "Private",
        "TTSTN": "678673",
        "MILEPOST": "0366.320",
        "TYPEXING": "Private",
        "POSXING": "At Grade",
        "PRVCAT": "14",
        "INIT": "1",
        "LATITUDE": 32.3898675,
        "LONGITUD": -99.0714223,
        "LLSOURCE": "1",
        "WHISTBAN": "0",
        "RRCONT": "4025443721",
        "POLCONT": "8008488715",
        "INV_LINK": "https://safetydata.fra.dot.gov/OfficeofSafety/PublicSite/Crossing/Crossing.aspx?phasetype=C&rpttype=I&txtcrossingnum=839277T",
        "ACC_LINK": "https://safetydata.fra.dot.gov/OfficeofSafety/PublicSite/Crossing/Crossing.aspx?phasetype=C&rpttype=A&txtcrossingnum=839277T",
        "TTSTNNAM": "",
        "XPURPOSE": "1",
        "OPERATINGR": "UP",
        "OPERATIN_1": "Primary",
        "DAYTHRU": 11,
        "NGHTTHRU": 10,
        "MAINTRK": 1,
        "SIDINGTRK": 1,
        "YARDTRK": 0,
        "TRANSITTRK": 0,
        "INDUSTRYTR": 0,
        "OTHRTRK": 0,
        "WDCODE": "",
        "REVISIONDA": "1975/01/01 00:00:00",
        "LASTUPDATE": "9/29/2025",
        "AADT": "1",
        "AADTYEAR": "1970",
        "STATENAME": "TEXAS",
        "STATEAB": "TX",
        "COUNTYNAME": "EASTLAND",
        "CITYNAME": "CISCO",
        "LATDD": 32.3898675,
        "LONGDD": -99.0714223,
        "gridlyProductionCertified": true,
        "gridlyClassification": "PUBLIC_ROADWAY",
        "gridlyDisplayName": "Private",
        "gridlyId": "FRA-839277T"
      }
    },
    {
      "type": "Feature",
      "id": 212388,
      "geometry": {
        "type": "Point",
        "coordinates": [
          -99.0297024999158,
          32.3874747997625
        ]
      },
      "properties": {
        "OBJECTID": 212388,
        "CROSSING": "839273R",
        "EFFDATE": 1758585600000,
        "REASON": "14",
        "StateCode": "48",
        "CountyCode": "48133",
        "STCYFIPS": "48133",
        "CITYCD": "481331330",
        "RAILROAD": "UP",
        "RRDIV": "TEXOMA",
        "RRSUBDIV": "BAIRD SUB",
        "HIGHWAY": "NA",
        "STREET": "Private",
        "TTSTN": "678673",
        "MILEPOST": "0363.870",
        "TYPEXING": "Private",
        "POSXING": "At Grade",
        "PRVCAT": "14",
        "INIT": "1",
        "LATITUDE": 32.3874748,
        "LONGITUD": -99.0297025,
        "LLSOURCE": "1",
        "WHISTBAN": "0",
        "RRCONT": "4025443721",
        "POLCONT": "8008488715",
        "INV_LINK": "https://safetydata.fra.dot.gov/OfficeofSafety/PublicSite/Crossing/Crossing.aspx?phasetype=C&rpttype=I&txtcrossingnum=839273R",
        "ACC_LINK": "https://safetydata.fra.dot.gov/OfficeofSafety/PublicSite/Crossing/Crossing.aspx?phasetype=C&rpttype=A&txtcrossingnum=839273R",
        "TTSTNNAM": "",
        "XPURPOSE": "1",
        "OPERATINGR": "UP",
        "OPERATIN_1": "Primary",
        "DAYTHRU": 11,
        "NGHTTHRU": 10,
        "MAINTRK": 1,
        "SIDINGTRK": 0,
        "YARDTRK": 0,
        "TRANSITTRK": 0,
        "INDUSTRYTR": 0,
        "OTHRTRK": 0,
        "WDCODE": "",
        "REVISIONDA": "1975/01/01 00:00:00",
        "LASTUPDATE": "9/23/2025",
        "AADT": "1",
        "AADTYEAR": "1970",
        "STATENAME": "TEXAS",
        "STATEAB": "TX",
        "COUNTYNAME": "EASTLAND",
        "CITYNAME": "CISCO",
        "LATDD": 32.3874748,
        "LONGDD": -99.0297025,
        "gridlyProductionCertified": true,
        "gridlyClassification": "PUBLIC_ROADWAY",
        "gridlyDisplayName": "Private",
        "gridlyId": "FRA-839273R"
      }
    },
    {
      "type": "Feature",
      "id": 212394,
      "geometry": {
        "type": "Point",
        "coordinates": [
          -98.6971198000115,
          32.4430468001997
        ]
      },
      "properties": {
        "OBJECTID": 212394,
        "CROSSING": "839256A",
        "EFFDATE": 1758585600000,
        "REASON": "14",
        "StateCode": "48",
        "CountyCode": "48133",
        "STCYFIPS": "48133",
        "CITYCD": "481335640",
        "RAILROAD": "UP",
        "RRDIV": "TEXOMA",
        "RRSUBDIV": "BAIRD SUB",
        "HIGHWAY": "NA",
        "STREET": "Private",
        "TTSTN": "678611",
        "MILEPOST": "0342.940",
        "TYPEXING": "Private",
        "POSXING": "At Grade",
        "PRVCAT": "14",
        "INIT": "1",
        "LATITUDE": 32.4430468,
        "LONGITUD": -98.6971198,
        "LLSOURCE": "1",
        "WHISTBAN": "0",
        "RRCONT": "4025443721",
        "POLCONT": "8008488715",
        "INV_LINK": "https://safetydata.fra.dot.gov/OfficeofSafety/PublicSite/Crossing/Crossing.aspx?phasetype=C&rpttype=I&txtcrossingnum=839256A",
        "ACC_LINK": "https://safetydata.fra.dot.gov/OfficeofSafety/PublicSite/Crossing/Crossing.aspx?phasetype=C&rpttype=A&txtcrossingnum=839256A",
        "TTSTNNAM": "",
        "XPURPOSE": "1",
        "OPERATINGR": "UP",
        "OPERATIN_1": "Primary",
        "DAYTHRU": 7,
        "NGHTTHRU": 7,
        "MAINTRK": 1,
        "SIDINGTRK": 0,
        "YARDTRK": 0,
        "TRANSITTRK": 0,
        "INDUSTRYTR": 0,
        "OTHRTRK": 0,
        "WDCODE": "",
        "REVISIONDA": "1975/01/01 00:00:00",
        "LASTUPDATE": "9/23/2025",
        "AADT": "1",
        "AADTYEAR": "1970",
        "STATENAME": "TEXAS",
        "STATEAB": "TX",
        "COUNTYNAME": "EASTLAND",
        "CITYNAME": "RANGER",
        "LATDD": 32.4430468,
        "LONGDD": -98.6971198,
        "gridlyProductionCertified": true,
        "gridlyClassification": "PUBLIC_ROADWAY",
        "gridlyDisplayName": "Private",
        "gridlyId": "FRA-839256A"
      }
    },
    {
      "type": "Feature",
      "id": 212400,
      "geometry": {
        "type": "Point",
        "coordinates": [
          -99.0601671999951,
          32.3890534002037
        ]
      },
      "properties": {
        "OBJECTID": 212400,
        "CROSSING": "839276L",
        "EFFDATE": 1758585600000,
        "REASON": "14",
        "StateCode": "48",
        "CountyCode": "48133",
        "STCYFIPS": "48133",
        "CITYCD": "481331330",
        "RAILROAD": "UP",
        "RRDIV": "TEXOMA",
        "RRSUBDIV": "BAIRD SUB",
        "HIGHWAY": "NA",
        "STREET": "Private",
        "TTSTN": "678673",
        "MILEPOST": "0365.660",
        "TYPEXING": "Private",
        "POSXING": "At Grade",
        "PRVCAT": "14",
        "INIT": "1",
        "LATITUDE": 32.3890534,
        "LONGITUD": -99.0601672,
        "LLSOURCE": "1",
        "WHISTBAN": "0",
        "RRCONT": "4025443721",
        "POLCONT": "8008488715",
        "INV_LINK": "https://safetydata.fra.dot.gov/OfficeofSafety/PublicSite/Crossing/Crossing.aspx?phasetype=C&rpttype=I&txtcrossingnum=839276L",
        "ACC_LINK": "https://safetydata.fra.dot.gov/OfficeofSafety/PublicSite/Crossing/Crossing.aspx?phasetype=C&rpttype=A&txtcrossingnum=839276L",
        "TTSTNNAM": "",
        "XPURPOSE": "1",
        "OPERATINGR": "UP",
        "OPERATIN_1": "Primary",
        "DAYTHRU": 11,
        "NGHTTHRU": 10,
        "MAINTRK": 1,
        "SIDINGTRK": 1,
        "YARDTRK": 0,
        "TRANSITTRK": 0,
        "INDUSTRYTR": 0,
        "OTHRTRK": 0,
        "WDCODE": "",
        "REVISIONDA": "1975/01/01 00:00:00",
        "LASTUPDATE": "9/23/2025",
        "AADT": "1",
        "AADTYEAR": "1970",
        "STATENAME": "TEXAS",
        "STATEAB": "TX",
        "COUNTYNAME": "EASTLAND",
        "CITYNAME": "CISCO",
        "LATDD": 32.3890534,
        "LONGDD": -99.0601672,
        "gridlyProductionCertified": true,
        "gridlyClassification": "PUBLIC_ROADWAY",
        "gridlyDisplayName": "Private",
        "gridlyId": "FRA-839276L"
      }
    },
    {
      "type": "Feature",
      "id": 212423,
      "geometry": {
        "type": "Point",
        "coordinates": [
          -98.7052880003286,
          32.4390687002008
        ]
      },
      "properties": {
        "OBJECTID": 212423,
        "CROSSING": "839257G",
        "EFFDATE": 1758585600000,
        "REASON": "14",
        "StateCode": "48",
        "CountyCode": "48133",
        "STCYFIPS": "48133",
        "CITYCD": "481335640",
        "RAILROAD": "UP",
        "RRDIV": "TEXOMA",
        "RRSUBDIV": "BAIRD SUB",
        "HIGHWAY": "NA",
        "STREET": "Private",
        "TTSTN": "678611",
        "MILEPOST": "0343.520",
        "TYPEXING": "Private",
        "POSXING": "At Grade",
        "PRVCAT": "14",
        "INIT": "1",
        "LATITUDE": 32.4390687,
        "LONGITUD": -98.705288,
        "LLSOURCE": "1",
        "WHISTBAN": "0",
        "RRCONT": "4025443721",
        "POLCONT": "8008488715",
        "INV_LINK": "https://safetydata.fra.dot.gov/OfficeofSafety/PublicSite/Crossing/Crossing.aspx?phasetype=C&rpttype=I&txtcrossingnum=839257G",
        "ACC_LINK": "https://safetydata.fra.dot.gov/OfficeofSafety/PublicSite/Crossing/Crossing.aspx?phasetype=C&rpttype=A&txtcrossingnum=839257G",
        "TTSTNNAM": "",
        "XPURPOSE": "1",
        "OPERATINGR": "UP",
        "OPERATIN_1": "Primary",
        "DAYTHRU": 7,
        "NGHTTHRU": 7,
        "MAINTRK": 1,
        "SIDINGTRK": 0,
        "YARDTRK": 0,
        "TRANSITTRK": 0,
        "INDUSTRYTR": 0,
        "OTHRTRK": 0,
        "WDCODE": "",
        "REVISIONDA": "1975/01/01 00:00:00",
        "LASTUPDATE": "9/23/2025",
        "AADT": "1",
        "AADTYEAR": "1970",
        "STATENAME": "TEXAS",
        "STATEAB": "TX",
        "COUNTYNAME": "EASTLAND",
        "CITYNAME": "RANGER",
        "LATDD": 32.4390687,
        "LONGDD": -98.705288,
        "gridlyProductionCertified": true,
        "gridlyClassification": "PUBLIC_ROADWAY",
        "gridlyDisplayName": "Private",
        "gridlyId": "FRA-839257G"
      }
    },
    {
      "type": "Feature",
      "id": 212424,
      "geometry": {
        "type": "Point",
        "coordinates": [
          -98.7132482999463,
          32.438983100363
        ]
      },
      "properties": {
        "OBJECTID": 212424,
        "CROSSING": "839258N",
        "EFFDATE": 1758585600000,
        "REASON": "14",
        "StateCode": "48",
        "CountyCode": "48133",
        "STCYFIPS": "48133",
        "CITYCD": "481335640",
        "RAILROAD": "UP",
        "RRDIV": "TEXOMA",
        "RRSUBDIV": "BAIRD SUB",
        "HIGHWAY": "NA",
        "STREET": "Private",
        "TTSTN": "678611",
        "MILEPOST": "0343.990",
        "TYPEXING": "Private",
        "POSXING": "At Grade",
        "PRVCAT": "14",
        "INIT": "1",
        "LATITUDE": 32.4389831,
        "LONGITUD": -98.7132483,
        "LLSOURCE": "1",
        "WHISTBAN": "0",
        "RRCONT": "4025443721",
        "POLCONT": "8008488715",
        "INV_LINK": "https://safetydata.fra.dot.gov/OfficeofSafety/PublicSite/Crossing/Crossing.aspx?phasetype=C&rpttype=I&txtcrossingnum=839258N",
        "ACC_LINK": "https://safetydata.fra.dot.gov/OfficeofSafety/PublicSite/Crossing/Crossing.aspx?phasetype=C&rpttype=A&txtcrossingnum=839258N",
        "TTSTNNAM": "",
        "XPURPOSE": "1",
        "OPERATINGR": "UP",
        "OPERATIN_1": "Primary",
        "DAYTHRU": 7,
        "NGHTTHRU": 7,
        "MAINTRK": 1,
        "SIDINGTRK": 0,
        "YARDTRK": 0,
        "TRANSITTRK": 0,
        "INDUSTRYTR": 0,
        "OTHRTRK": 0,
        "WDCODE": "",
        "REVISIONDA": "1975/01/01 00:00:00",
        "LASTUPDATE": "9/23/2025",
        "AADT": "1",
        "AADTYEAR": "1970",
        "STATENAME": "TEXAS",
        "STATEAB": "TX",
        "COUNTYNAME": "EASTLAND",
        "CITYNAME": "RANGER",
        "LATDD": 32.4389831,
        "LONGDD": -98.7132483,
        "gridlyProductionCertified": true,
        "gridlyClassification": "PUBLIC_ROADWAY",
        "gridlyDisplayName": "Private",
        "gridlyId": "FRA-839258N"
      }
    },
    {
      "type": "Feature",
      "id": 212555,
      "geometry": {
        "type": "Point",
        "coordinates": [
          -98.7663699999996,
          32.381929000379
        ]
      },
      "properties": {
        "OBJECTID": 212555,
        "CROSSING": "440863E",
        "EFFDATE": 1758499200000,
        "REASON": "14",
        "StateCode": "48",
        "CountyCode": "48133",
        "STCYFIPS": "48133",
        "CITYCD": "481332050",
        "RAILROAD": "UP",
        "RRDIV": "TEXOMA",
        "RRSUBDIV": "BAIRD SUB",
        "HIGHWAY": "NA",
        "STREET": "ALL PRIVATE IN Industry - VULCAN CONSTRUCTION MATERIALS",
        "TTSTN": "",
        "MILEPOST": "0350.713",
        "TYPEXING": "Private",
        "POSXING": "At Grade",
        "PRVCAT": "14",
        "INIT": "1",
        "LATITUDE": 32.381929,
        "LONGITUD": -98.76637,
        "LLSOURCE": "1",
        "WHISTBAN": "",
        "RRCONT": "4025443721",
        "POLCONT": "2546292850",
        "INV_LINK": "https://safetydata.fra.dot.gov/OfficeofSafety/PublicSite/Crossing/Crossing.aspx?phasetype=C&rpttype=I&txtcrossingnum=440863E",
        "ACC_LINK": "https://safetydata.fra.dot.gov/OfficeofSafety/PublicSite/Crossing/Crossing.aspx?phasetype=C&rpttype=A&txtcrossingnum=440863E",
        "TTSTNNAM": "",
        "XPURPOSE": "1",
        "OPERATINGR": "UP",
        "OPERATIN_1": "Primary",
        "DAYTHRU": 0,
        "NGHTTHRU": 0,
        "MAINTRK": 0,
        "SIDINGTRK": 0,
        "YARDTRK": 0,
        "TRANSITTRK": 0,
        "INDUSTRYTR": 1,
        "OTHRTRK": 0,
        "WDCODE": "",
        "REVISIONDA": "1975/01/01 00:00:00",
        "LASTUPDATE": "9/22/2025",
        "AADT": "",
        "AADTYEAR": "",
        "STATENAME": "TEXAS",
        "STATEAB": "TX",
        "COUNTYNAME": "EASTLAND",
        "CITYNAME": "EASTLAND",
        "LATDD": 32.381929,
        "LONGDD": -98.76637,
        "gridlyProductionCertified": true,
        "gridlyClassification": "PUBLIC_ROADWAY",
        "gridlyDisplayName": "ALL PRIVATE IN Industry - VULCAN CONSTRUCTION MATERIALS",
        "gridlyId": "FRA-440863E"
      }
    },
    {
      "type": "Feature",
      "id": 212780,
      "geometry": {
        "type": "Point",
        "coordinates": [
          -98.6690992999376,
          32.4868909996552
        ]
      },
      "properties": {
        "OBJECTID": 212780,
        "CROSSING": "839251R",
        "EFFDATE": 1762300800000,
        "REASON": "14",
        "StateCode": "48",
        "CountyCode": "48133",
        "STCYFIPS": "48133",
        "CITYCD": "481335640",
        "RAILROAD": "UP",
        "RRDIV": "TEXOMA",
        "RRSUBDIV": "BAIRD SUB",
        "HIGHWAY": "lS0000",
        "STREET": "DUMP GROUND ROAD",
        "TTSTN": "678611",
        "MILEPOST": "0339.490",
        "TYPEXING": "Public",
        "POSXING": "At Grade",
        "PRVCAT": "14",
        "INIT": "2",
        "LATITUDE": 32.486891,
        "LONGITUD": -98.6690993,
        "LLSOURCE": "1",
        "WHISTBAN": "0",
        "RRCONT": "4025443721",
        "POLCONT": "8008488715",
        "INV_LINK": "https://safetydata.fra.dot.gov/OfficeofSafety/PublicSite/Crossing/Crossing.aspx?phasetype=C&rpttype=I&txtcrossingnum=839251R",
        "ACC_LINK": "https://safetydata.fra.dot.gov/OfficeofSafety/PublicSite/Crossing/Crossing.aspx?phasetype=C&rpttype=A&txtcrossingnum=839251R",
        "TTSTNNAM": "",
        "XPURPOSE": "1",
        "OPERATINGR": "UP",
        "OPERATIN_1": "Primary",
        "DAYTHRU": 7,
        "NGHTTHRU": 7,
        "MAINTRK": 1,
        "SIDINGTRK": 0,
        "YARDTRK": 0,
        "TRANSITTRK": 0,
        "INDUSTRYTR": 0,
        "OTHRTRK": 0,
        "WDCODE": "Crossbucks",
        "REVISIONDA": "1975/01/01 00:00:00",
        "LASTUPDATE": "11/5/2025",
        "AADT": "60",
        "AADTYEAR": "2022",
        "STATENAME": "TEXAS",
        "STATEAB": "TX",
        "COUNTYNAME": "EASTLAND",
        "CITYNAME": "RANGER",
        "LATDD": 32.486891,
        "LONGDD": -98.6690993,
        "gridlyProductionCertified": true,
        "gridlyClassification": "PUBLIC_ROADWAY",
        "gridlyDisplayName": "DUMP GROUND ROAD",
        "gridlyId": "FRA-839251R"
      }
    },
    {
      "type": "Feature",
      "id": 212822,
      "geometry": {
        "type": "Point",
        "coordinates": [
          -99.1150792999018,
          32.3869305002833
        ]
      },
      "properties": {
        "OBJECTID": 212822,
        "CROSSING": "839281H",
        "EFFDATE": 1758585600000,
        "REASON": "14",
        "StateCode": "48",
        "CountyCode": "48133",
        "STCYFIPS": "48133",
        "CITYCD": "481331330",
        "RAILROAD": "UP",
        "RRDIV": "TEXOMA",
        "RRSUBDIV": "BAIRD SUB",
        "HIGHWAY": "NA",
        "STREET": "Private",
        "TTSTN": "678753",
        "MILEPOST": "0368.890",
        "TYPEXING": "Private",
        "POSXING": "At Grade",
        "PRVCAT": "14",
        "INIT": "1",
        "LATITUDE": 32.3869305,
        "LONGITUD": -99.1150793,
        "LLSOURCE": "1",
        "WHISTBAN": "0",
        "RRCONT": "4025443721",
        "POLCONT": "8008488715",
        "INV_LINK": "https://safetydata.fra.dot.gov/OfficeofSafety/PublicSite/Crossing/Crossing.aspx?phasetype=C&rpttype=I&txtcrossingnum=839281H",
        "ACC_LINK": "https://safetydata.fra.dot.gov/OfficeofSafety/PublicSite/Crossing/Crossing.aspx?phasetype=C&rpttype=A&txtcrossingnum=839281H",
        "TTSTNNAM": "",
        "XPURPOSE": "1",
        "OPERATINGR": "UP",
        "OPERATIN_1": "Primary",
        "DAYTHRU": 11,
        "NGHTTHRU": 10,
        "MAINTRK": 1,
        "SIDINGTRK": 0,
        "YARDTRK": 0,
        "TRANSITTRK": 0,
        "INDUSTRYTR": 0,
        "OTHRTRK": 0,
        "WDCODE": "",
        "REVISIONDA": "1975/01/01 00:00:00",
        "LASTUPDATE": "9/23/2025",
        "AADT": "1",
        "AADTYEAR": "1970",
        "STATENAME": "TEXAS",
        "STATEAB": "TX",
        "COUNTYNAME": "EASTLAND",
        "CITYNAME": "CISCO",
        "LATDD": 32.3869305,
        "LONGDD": -99.1150793,
        "gridlyProductionCertified": true,
        "gridlyClassification": "PUBLIC_ROADWAY",
        "gridlyDisplayName": "Private",
        "gridlyId": "FRA-839281H"
      }
    },
    {
      "type": "Feature",
      "id": 213044,
      "geometry": {
        "type": "Point",
        "coordinates": [
          -98.7636660000274,
          32.4126640999215
        ]
      },
      "properties": {
        "OBJECTID": 213044,
        "CROSSING": "848211S",
        "EFFDATE": 1760918400000,
        "REASON": "14",
        "StateCode": "48",
        "CountyCode": "48133",
        "STCYFIPS": "48133",
        "CITYCD": "481335054",
        "RAILROAD": "UP",
        "RRDIV": "TEXOMA",
        "RRSUBDIV": "BAIRD SUB",
        "HIGHWAY": "ih0020",
        "STREET": "ih0020",
        "TTSTN": "",
        "MILEPOST": "0347.750",
        "TYPEXING": "Public",
        "POSXING": "RR Under",
        "PRVCAT": "14",
        "INIT": "1",
        "LATITUDE": 32.4126641,
        "LONGITUD": -98.763666,
        "LLSOURCE": "1",
        "WHISTBAN": "",
        "RRCONT": "4025443721",
        "POLCONT": "2546292850",
        "INV_LINK": "https://safetydata.fra.dot.gov/OfficeofSafety/PublicSite/Crossing/Crossing.aspx?phasetype=C&rpttype=I&txtcrossingnum=848211S",
        "ACC_LINK": "https://safetydata.fra.dot.gov/OfficeofSafety/PublicSite/Crossing/Crossing.aspx?phasetype=C&rpttype=A&txtcrossingnum=848211S",
        "TTSTNNAM": "",
        "XPURPOSE": "1",
        "OPERATINGR": "UP",
        "OPERATIN_1": "Primary",
        "DAYTHRU": 0,
        "NGHTTHRU": 0,
        "MAINTRK": 0,
        "SIDINGTRK": 0,
        "YARDTRK": 0,
        "TRANSITTRK": 0,
        "INDUSTRYTR": 1,
        "OTHRTRK": 0,
        "WDCODE": "",
        "REVISIONDA": "1975/01/01 00:00:00",
        "LASTUPDATE": "10/20/2025",
        "AADT": "26666",
        "AADTYEAR": "2024",
        "STATENAME": "TEXAS",
        "STATEAB": "TX",
        "COUNTYNAME": "EASTLAND",
        "CITYNAME": "OLDEN",
        "LATDD": 32.4126641,
        "LONGDD": -98.763666,
        "gridlyProductionCertified": true,
        "gridlyClassification": "PUBLIC_ROADWAY",
        "gridlyDisplayName": "ih0020",
        "gridlyId": "FRA-848211S"
      }
    },
    {
      "type": "Feature",
      "id": 215194,
      "geometry": {
        "type": "Point",
        "coordinates": [
          -98.7859520002806,
          32.4114401999408
        ]
      },
      "properties": {
        "OBJECTID": 215194,
        "CROSSING": "839261W",
        "EFFDATE": 1766361600000,
        "REASON": "14",
        "StateCode": "48",
        "CountyCode": "48133",
        "STCYFIPS": "48133",
        "CITYCD": "481332050",
        "RAILROAD": "UP",
        "RRDIV": "TEXOMA",
        "RRSUBDIV": "BAIRD SUB",
        "HIGHWAY": "cr0436",
        "STREET": "County Road 436",
        "TTSTN": "678650",
        "MILEPOST": "0348.840",
        "TYPEXING": "Public",
        "POSXING": "At Grade",
        "PRVCAT": "14",
        "INIT": "2",
        "LATITUDE": 32.4114402,
        "LONGITUD": -98.785952,
        "LLSOURCE": "1",
        "WHISTBAN": "0",
        "RRCONT": "4025443721",
        "POLCONT": "8008488715",
        "INV_LINK": "https://safetydata.fra.dot.gov/OfficeofSafety/PublicSite/Crossing/Crossing.aspx?phasetype=C&rpttype=I&txtcrossingnum=839261W",
        "ACC_LINK": "https://safetydata.fra.dot.gov/OfficeofSafety/PublicSite/Crossing/Crossing.aspx?phasetype=C&rpttype=A&txtcrossingnum=839261W",
        "TTSTNNAM": "",
        "XPURPOSE": "1",
        "OPERATINGR": "UP",
        "OPERATIN_1": "Primary",
        "DAYTHRU": 11,
        "NGHTTHRU": 10,
        "MAINTRK": 1,
        "SIDINGTRK": 0,
        "YARDTRK": 0,
        "TRANSITTRK": 0,
        "INDUSTRYTR": 0,
        "OTHRTRK": 0,
        "WDCODE": "Crossbucks",
        "REVISIONDA": "1975/01/01 00:00:00",
        "LASTUPDATE": "12/22/2025",
        "AADT": "78",
        "AADTYEAR": "2022",
        "STATENAME": "TEXAS",
        "STATEAB": "TX",
        "COUNTYNAME": "EASTLAND",
        "CITYNAME": "EASTLAND",
        "LATDD": 32.4114402,
        "LONGDD": -98.785952,
        "gridlyProductionCertified": true,
        "gridlyClassification": "PUBLIC_ROADWAY",
        "gridlyDisplayName": "County Road 436",
        "gridlyId": "FRA-839261W"
      }
    }
  ]
}
