{
  "type": "FeatureCollection",
  "features": [
    {
      "type": "Feature",
      "id": 211094,
      "geometry": {
        "type": "Point",
        "coordinates": [
          -102.556081300273,
          32.9442345002904
        ]
      },
      "properties": {
        "OBJECTID": 211094,
        "CROSSING": "017814V",
        "EFFDATE": 1770854400000,
        "REASON": "14",
        "StateCode": "48",
        "CountyCode": "48165",
        "STCYFIPS": "48165",
        "CITYCD": "481656270",
        "RAILROAD": "LBWR",
        "RRDIV": "PLAINS",
        "RRSUBDIV": "SEAGRAVES",
        "HIGHWAY": "SH0083",
        "STREET": "SH0083 / TWELVETH STREET",
        "TTSTN": "679420",
        "MILEPOST": "0062.47",
        "TYPEXING": "Public",
        "POSXING": "At Grade",
        "PRVCAT": "14",
        "INIT": "2",
        "LATITUDE": 32.9442345,
        "LONGITUD": -102.5560813,
        "LLSOURCE": "1",
        "WHISTBAN": "0",
        "RRCONT": "8068550079",
        "POLCONT": "8663869321",
        "INV_LINK": "https://safetydata.fra.dot.gov/OfficeofSafety/PublicSite/Crossing/Crossing.aspx?phasetype=C&rpttype=I&txtcrossingnum=017814V",
        "ACC_LINK": "https://safetydata.fra.dot.gov/OfficeofSafety/PublicSite/Crossing/Crossing.aspx?phasetype=C&rpttype=A&txtcrossingnum=017814V",
        "TTSTNNAM": "SEAGRAVES",
        "XPURPOSE": "1",
        "OPERATINGR": "LBWR",
        "OPERATIN_1": "Primary",
        "DAYTHRU": 4,
        "NGHTTHRU": 0,
        "MAINTRK": 1,
        "SIDINGTRK": 0,
        "YARDTRK": 0,
        "TRANSITTRK": 0,
        "INDUSTRYTR": 0,
        "OTHRTRK": 0,
        "WDCODE": "Flashing lights",
        "REVISIONDA": "2015/06/18 00:00:00",
        "LASTUPDATE": "2/12/2026",
        "AADT": "946",
        "AADTYEAR": "2023",
        "STATENAME": "TEXAS",
        "STATEAB": "TX",
        "COUNTYNAME": "GAINES",
        "CITYNAME": "SEAGRAVES",
        "LATDD": 32.9442345,
        "LONGDD": -102.5560813,
        "gridlyProductionCertified": true,
        "gridlyClassification": "PUBLIC_ROADWAY",
        "gridlyDisplayName": "SH0083 / TWELVETH STREET",
        "gridlyId": "FRA-017814V"
      }
    },
    {
      "type": "Feature",
      "id": 211095,
      "geometry": {
        "type": "Point",
        "coordinates": [
          -102.538865299856,
          32.9584643997195
        ]
      },
      "properties": {
        "OBJECTID": 211095,
        "CROSSING": "017813N",
        "EFFDATE": 1770854400000,
        "REASON": "14",
        "StateCode": "48",
        "CountyCode": "48165",
        "STCYFIPS": "48165",
        "CITYCD": "481656270",
        "RAILROAD": "LBWR",
        "RRDIV": "PLAINS",
        "RRSUBDIV": "SEAGRAVES",
        "HIGHWAY": "US0062",
        "STREET": "US0062 / RAILROAD AVENUE",
        "TTSTN": "679420",
        "MILEPOST": "0061.07",
        "TYPEXING": "Public",
        "POSXING": "At Grade",
        "PRVCAT": "14",
        "INIT": "2",
        "LATITUDE": 32.9584644,
        "LONGITUD": -102.5388653,
        "LLSOURCE": "1",
        "WHISTBAN": "0",
        "RRCONT": "8068550079",
        "POLCONT": "8663869321",
        "INV_LINK": "https://safetydata.fra.dot.gov/OfficeofSafety/PublicSite/Crossing/Crossing.aspx?phasetype=C&rpttype=I&txtcrossingnum=017813N",
        "ACC_LINK": "https://safetydata.fra.dot.gov/OfficeofSafety/PublicSite/Crossing/Crossing.aspx?phasetype=C&rpttype=A&txtcrossingnum=017813N",
        "TTSTNNAM": "SEAGRAVES",
        "XPURPOSE": "1",
        "OPERATINGR": "LBWR",
        "OPERATIN_1": "Primary",
        "DAYTHRU": 1,
        "NGHTTHRU": 1,
        "MAINTRK": 1,
        "SIDINGTRK": 0,
        "YARDTRK": 0,
        "TRANSITTRK": 0,
        "INDUSTRYTR": 0,
        "OTHRTRK": 0,
        "WDCODE": "Flashing lights",
        "REVISIONDA": "2015/06/18 00:00:00",
        "LASTUPDATE": "2/12/2026",
        "AADT": "8017",
        "AADTYEAR": "2023",
        "STATENAME": "TEXAS",
        "STATEAB": "TX",
        "COUNTYNAME": "GAINES",
        "CITYNAME": "SEAGRAVES",
        "LATDD": 32.9584644,
        "LONGDD": -102.5388653,
        "gridlyProductionCertified": true,
        "gridlyClassification": "PUBLIC_ROADWAY",
        "gridlyDisplayName": "US0062 / RAILROAD AVENUE",
        "gridlyId": "FRA-017813N"
      }
    },
    {
      "type": "Feature",
      "id": 211096,
      "geometry": {
        "type": "Point",
        "coordinates": [
          -102.571383299841,
          32.9316119999293
        ]
      },
      "properties": {
        "OBJECTID": 211096,
        "CROSSING": "017818X",
        "EFFDATE": 1770854400000,
        "REASON": "14",
        "StateCode": "48",
        "CountyCode": "48165",
        "STCYFIPS": "48165",
        "CITYCD": "481656270",
        "RAILROAD": "LBWR",
        "RRDIV": "PLAINS",
        "RRSUBDIV": "SEAGRAVES",
        "HIGHWAY": "CR0109",
        "STREET": "COUNTY ROAD 109",
        "TTSTN": "679420",
        "MILEPOST": "0063.73",
        "TYPEXING": "Public",
        "POSXING": "At Grade",
        "PRVCAT": "14",
        "INIT": "2",
        "LATITUDE": 32.931612,
        "LONGITUD": -102.5713833,
        "LLSOURCE": "1",
        "WHISTBAN": "0",
        "RRCONT": "8068550079",
        "POLCONT": "8663869321",
        "INV_LINK": "https://safetydata.fra.dot.gov/OfficeofSafety/PublicSite/Crossing/Crossing.aspx?phasetype=C&rpttype=I&txtcrossingnum=017818X",
        "ACC_LINK": "https://safetydata.fra.dot.gov/OfficeofSafety/PublicSite/Crossing/Crossing.aspx?phasetype=C&rpttype=A&txtcrossingnum=017818X",
        "TTSTNNAM": "SEAGRAVES",
        "XPURPOSE": "1",
        "OPERATINGR": "LBWR",
        "OPERATIN_1": "Primary",
        "DAYTHRU": 5,
        "NGHTTHRU": 0,
        "MAINTRK": 1,
        "SIDINGTRK": 0,
        "YARDTRK": 0,
        "TRANSITTRK": 0,
        "INDUSTRYTR": 0,
        "OTHRTRK": 1,
        "WDCODE": "Crossbucks",
        "REVISIONDA": "2015/06/18 00:00:00",
        "LASTUPDATE": "2/12/2026",
        "AADT": "122",
        "AADTYEAR": "2022",
        "STATENAME": "TEXAS",
        "STATEAB": "TX",
        "COUNTYNAME": "GAINES",
        "CITYNAME": "SEAGRAVES",
        "LATDD": 32.931612,
        "LONGDD": -102.5713833,
        "gridlyProductionCertified": true,
        "gridlyClassification": "PUBLIC_ROADWAY",
        "gridlyDisplayName": "COUNTY ROAD 109",
        "gridlyId": "FRA-017818X"
      }
    },
    {
      "type": "Feature",
      "id": 214729,
      "geometry": {
        "type": "Point",
        "coordinates": [
          -102.571382999804,
          32.9316019999712
        ]
      },
      "properties": {
        "OBJECTID": 214729,
        "CROSSING": "017817R",
        "EFFDATE": 1770854400000,
        "REASON": "14",
        "StateCode": "48",
        "CountyCode": "48165",
        "STCYFIPS": "48165",
        "CITYCD": "481656270",
        "RAILROAD": "LBWR",
        "RRDIV": "PLAINS",
        "RRSUBDIV": "SEAGRAVES",
        "HIGHWAY": "CR 0109",
        "STREET": "CR 109",
        "TTSTN": "679420",
        "MILEPOST": "0063.720",
        "TYPEXING": "Public",
        "POSXING": "At Grade",
        "PRVCAT": "14",
        "INIT": "2",
        "LATITUDE": 32.931602,
        "LONGITUD": -102.571383,
        "LLSOURCE": "1",
        "WHISTBAN": "0",
        "RRCONT": "8068550079",
        "POLCONT": "8663869321",
        "INV_LINK": "https://safetydata.fra.dot.gov/OfficeofSafety/PublicSite/Crossing/Crossing.aspx?phasetype=C&rpttype=I&txtcrossingnum=017817R",
        "ACC_LINK": "https://safetydata.fra.dot.gov/OfficeofSafety/PublicSite/Crossing/Crossing.aspx?phasetype=C&rpttype=A&txtcrossingnum=017817R",
        "TTSTNNAM": "SEAGRAVES",
        "XPURPOSE": "1",
        "OPERATINGR": "LBWR",
        "OPERATIN_1": "Primary",
        "DAYTHRU": 0,
        "NGHTTHRU": 0,
        "MAINTRK": 1,
        "SIDINGTRK": 0,
        "YARDTRK": 0,
        "TRANSITTRK": 0,
        "INDUSTRYTR": 0,
        "OTHRTRK": 0,
        "WDCODE": "Crossbucks",
        "REVISIONDA": "2015/06/18 00:00:00",
        "LASTUPDATE": "2/12/2026",
        "AADT": "000230",
        "AADTYEAR": "1992",
        "STATENAME": "TEXAS",
        "STATEAB": "TX",
        "COUNTYNAME": "GAINES",
        "CITYNAME": "SEAGRAVES",
        "LATDD": 32.931602,
        "LONGDD": -102.571383,
        "gridlyProductionCertified": true,
        "gridlyClassification": "PUBLIC_ROADWAY",
        "gridlyDisplayName": "CR 109",
        "gridlyId": "FRA-017817R"
      }
    },
    {
      "type": "Feature",
      "id": 216294,
      "geometry": {
        "type": "Point",
        "coordinates": [
          -102.564610399654,
          32.9371923000922
        ]
      },
      "properties": {
        "OBJECTID": 216294,
        "CROSSING": "017816J",
        "EFFDATE": 1773878400000,
        "REASON": "19",
        "StateCode": "48",
        "CountyCode": "48165",
        "STCYFIPS": "48165",
        "CITYCD": "481656270",
        "RAILROAD": "LBWR",
        "RRDIV": "PLAINS",
        "RRSUBDIV": "SEAGRAVES",
        "HIGHWAY": "LS0000",
        "STREET": "BOURBON  AVENUE",
        "TTSTN": "679420",
        "MILEPOST": "0063.17",
        "TYPEXING": "Public",
        "POSXING": "At Grade",
        "PRVCAT": "19",
        "INIT": "1",
        "LATITUDE": 32.9371923,
        "LONGITUD": -102.5646104,
        "LLSOURCE": "1",
        "WHISTBAN": "0",
        "RRCONT": "8068550079",
        "POLCONT": "8663869321",
        "INV_LINK": "https://safetydata.fra.dot.gov/OfficeofSafety/PublicSite/Crossing/Crossing.aspx?phasetype=C&rpttype=I&txtcrossingnum=017816J",
        "ACC_LINK": "https://safetydata.fra.dot.gov/OfficeofSafety/PublicSite/Crossing/Crossing.aspx?phasetype=C&rpttype=A&txtcrossingnum=017816J",
        "TTSTNNAM": "SEAGRAVES",
        "XPURPOSE": "1",
        "OPERATINGR": "LBWR",
        "OPERATIN_1": "Primary",
        "DAYTHRU": 1,
        "NGHTTHRU": 0,
        "MAINTRK": 1,
        "SIDINGTRK": 0,
        "YARDTRK": 0,
        "TRANSITTRK": 0,
        "INDUSTRYTR": 2,
        "OTHRTRK": 2,
        "WDCODE": "Crossbucks",
        "REVISIONDA": "2015/06/18 00:00:00",
        "LASTUPDATE": "3/19/2026",
        "AADT": "88",
        "AADTYEAR": "2022",
        "STATENAME": "TEXAS",
        "STATEAB": "TX",
        "COUNTYNAME": "GAINES",
        "CITYNAME": "SEAGRAVES",
        "LATDD": 32.9371923,
        "LONGDD": -102.5646104,
        "gridlyProductionCertified": true,
        "gridlyClassification": "PUBLIC_ROADWAY",
        "gridlyDisplayName": "BOURBON  AVENUE",
        "gridlyId": "FRA-017816J"
      }
    }
  ]
}
