{
  "type": "FeatureCollection",
  "features": [
    {
      "type": "Feature",
      "id": 200582,
      "geometry": {
        "type": "Point",
        "coordinates": [
          -102.45629899961,
          34.018027999812
        ]
      },
      "properties": {
        "OBJECTID": 200582,
        "CROSSING": "017765B",
        "EFFDATE": 644976000000,
        "REASON": "14",
        "StateCode": "48",
        "CountyCode": "48445",
        "STCYFIPS": "48445",
        "CITYCD": "484450920",
        "RAILROAD": "CBYN",
        "RRDIV": "NEW MEXICO",
        "RRSUBDIV": "CROSBYTON",
        "HIGHWAY": "PRIVATE",
        "STREET": "PRIVATE ROAD",
        "TTSTN": "677850",
        "MILEPOST": "0036.90",
        "TYPEXING": "Private",
        "POSXING": "At Grade",
        "PRVCAT": "14",
        "INIT": "1",
        "LATITUDE": 34.018028,
        "LONGITUD": -102.456299,
        "LLSOURCE": "",
        "WHISTBAN": "0",
        "RRCONT": "",
        "POLCONT": "",
        "INV_LINK": "https://safetydata.fra.dot.gov/OfficeofSafety/PublicSite/Crossing/Crossing.aspx?phasetype=C&rpttype=I&txtcrossingnum=017765B",
        "ACC_LINK": "https://safetydata.fra.dot.gov/OfficeofSafety/PublicSite/Crossing/Crossing.aspx?phasetype=C&rpttype=A&txtcrossingnum=017765B",
        "TTSTNNAM": "BROWNFIELD",
        "XPURPOSE": "1",
        "OPERATINGR": "CBYN",
        "OPERATIN_1": "Primary",
        "DAYTHRU": 0,
        "NGHTTHRU": 0,
        "MAINTRK": 0,
        "SIDINGTRK": 0,
        "YARDTRK": 0,
        "TRANSITTRK": 0,
        "INDUSTRYTR": 0,
        "OTHRTRK": 0,
        "WDCODE": "",
        "REVISIONDA": "1975/01/01 00:00:00",
        "LASTUPDATE": "6/10/1990",
        "AADT": "",
        "AADTYEAR": "1990",
        "STATENAME": "TEXAS",
        "STATEAB": "TX",
        "COUNTYNAME": "TERRY",
        "CITYNAME": "BROWNFIELD",
        "LATDD": 34.018028,
        "LONGDD": -102.456299,
        "gridlyProductionCertified": true,
        "gridlyClassification": "PUBLIC_ROADWAY",
        "gridlyDisplayName": "PRIVATE ROAD",
        "gridlyId": "FRA-017765B"
      }
    },
    {
      "type": "Feature",
      "id": 202551,
      "geometry": {
        "type": "Point",
        "coordinates": [
          -102.225696999753,
          33.8505604002469
        ]
      },
      "properties": {
        "OBJECTID": 202551,
        "CROSSING": "014891K",
        "EFFDATE": 1702339200000,
        "REASON": "20",
        "StateCode": "48",
        "CountyCode": "48279",
        "STCYFIPS": "48279",
        "CITYCD": "482190230",
        "RAILROAD": "BNSF",
        "RRDIV": "RED RIVER",
        "RRSUBDIV": "SLATON",
        "HIGHWAY": "FM 1072",
        "STREET": "FM RD 1072",
        "TTSTN": "677313",
        "MILEPOST": "0060.876",
        "TYPEXING": "Public",
        "POSXING": "At Grade",
        "PRVCAT": "20",
        "INIT": "1",
        "LATITUDE": 33.8505604,
        "LONGITUD": -102.225697,
        "LLSOURCE": "1",
        "WHISTBAN": "0",
        "RRCONT": "8173521549",
        "POLCONT": "8008325452",
        "INV_LINK": "https://safetydata.fra.dot.gov/OfficeofSafety/PublicSite/Crossing/Crossing.aspx?phasetype=C&rpttype=I&txtcrossingnum=014891K",
        "ACC_LINK": "https://safetydata.fra.dot.gov/OfficeofSafety/PublicSite/Crossing/Crossing.aspx?phasetype=C&rpttype=A&txtcrossingnum=014891K",
        "TTSTNNAM": "ANTON",
        "XPURPOSE": "1",
        "OPERATINGR": "BNSF",
        "OPERATIN_1": "Primary",
        "DAYTHRU": 4,
        "NGHTTHRU": 4,
        "MAINTRK": 1,
        "SIDINGTRK": 0,
        "YARDTRK": 0,
        "TRANSITTRK": 0,
        "INDUSTRYTR": 0,
        "OTHRTRK": 0,
        "WDCODE": "All other Gates",
        "REVISIONDA": "1996/01/01 00:00:00",
        "LASTUPDATE": "12/12/2023",
        "AADT": "134",
        "AADTYEAR": "2019",
        "STATENAME": "TEXAS",
        "STATEAB": "TX",
        "COUNTYNAME": "LAMB",
        "CITYNAME": "ANTON",
        "LATDD": 33.8505604,
        "LONGDD": -102.225697,
        "gridlyProductionCertified": true,
        "gridlyClassification": "PUBLIC_ROADWAY",
        "gridlyDisplayName": "FM RD 1072",
        "gridlyId": "FRA-014891K"
      }
    },
    {
      "type": "Feature",
      "id": 202571,
      "geometry": {
        "type": "Point",
        "coordinates": [
          -102.207649000381,
          33.8376196996384
        ]
      },
      "properties": {
        "OBJECTID": 202571,
        "CROSSING": "014892S",
        "EFFDATE": 1702339200000,
        "REASON": "20",
        "StateCode": "48",
        "CountyCode": "48279",
        "STCYFIPS": "48279",
        "CITYCD": "482190230",
        "RAILROAD": "BNSF",
        "RRDIV": "RED RIVER",
        "RRSUBDIV": "SLATON",
        "HIGHWAY": "CO 0626",
        "STREET": "CO RD",
        "TTSTN": "677313",
        "MILEPOST": "0062.244",
        "TYPEXING": "Public",
        "POSXING": "At Grade",
        "PRVCAT": "20",
        "INIT": "1",
        "LATITUDE": 33.8376197,
        "LONGITUD": -102.207649,
        "LLSOURCE": "1",
        "WHISTBAN": "0",
        "RRCONT": "8173521549",
        "POLCONT": "8008325452",
        "INV_LINK": "https://safetydata.fra.dot.gov/OfficeofSafety/PublicSite/Crossing/Crossing.aspx?phasetype=C&rpttype=I&txtcrossingnum=014892S",
        "ACC_LINK": "https://safetydata.fra.dot.gov/OfficeofSafety/PublicSite/Crossing/Crossing.aspx?phasetype=C&rpttype=A&txtcrossingnum=014892S",
        "TTSTNNAM": "ANTON",
        "XPURPOSE": "1",
        "OPERATINGR": "BNSF",
        "OPERATIN_1": "Primary",
        "DAYTHRU": 4,
        "NGHTTHRU": 4,
        "MAINTRK": 1,
        "SIDINGTRK": 0,
        "YARDTRK": 0,
        "TRANSITTRK": 0,
        "INDUSTRYTR": 0,
        "OTHRTRK": 0,
        "WDCODE": "Crossbucks",
        "REVISIONDA": "1996/01/01 00:00:00",
        "LASTUPDATE": "12/12/2023",
        "AADT": "13",
        "AADTYEAR": "2019",
        "STATENAME": "TEXAS",
        "STATEAB": "TX",
        "COUNTYNAME": "LAMB",
        "CITYNAME": "ANTON",
        "LATDD": 33.8376197,
        "LONGDD": -102.207649,
        "gridlyProductionCertified": true,
        "gridlyClassification": "PUBLIC_ROADWAY",
        "gridlyDisplayName": "CO RD",
        "gridlyId": "FRA-014892S"
      }
    },
    {
      "type": "Feature",
      "id": 202647,
      "geometry": {
        "type": "Point",
        "coordinates": [
          -102.190314000137,
          33.8251802997145
        ]
      },
      "properties": {
        "OBJECTID": 202647,
        "CROSSING": "014893Y",
        "EFFDATE": 1702339200000,
        "REASON": "20",
        "StateCode": "48",
        "CountyCode": "48279",
        "STCYFIPS": "48279",
        "CITYCD": "482190230",
        "RAILROAD": "BNSF",
        "RRDIV": "RED RIVER",
        "RRSUBDIV": "SLATON",
        "HIGHWAY": "CO 0277",
        "STREET": "CO RD",
        "TTSTN": "677313",
        "MILEPOST": "0063.560",
        "TYPEXING": "Public",
        "POSXING": "At Grade",
        "PRVCAT": "20",
        "INIT": "1",
        "LATITUDE": 33.8251803,
        "LONGITUD": -102.190314,
        "LLSOURCE": "1",
        "WHISTBAN": "0",
        "RRCONT": "8173521549",
        "POLCONT": "8008325452",
        "INV_LINK": "https://safetydata.fra.dot.gov/OfficeofSafety/PublicSite/Crossing/Crossing.aspx?phasetype=C&rpttype=I&txtcrossingnum=014893Y",
        "ACC_LINK": "https://safetydata.fra.dot.gov/OfficeofSafety/PublicSite/Crossing/Crossing.aspx?phasetype=C&rpttype=A&txtcrossingnum=014893Y",
        "TTSTNNAM": "ANTON",
        "XPURPOSE": "1",
        "OPERATINGR": "BNSF",
        "OPERATIN_1": "Primary",
        "DAYTHRU": 4,
        "NGHTTHRU": 4,
        "MAINTRK": 1,
        "SIDINGTRK": 0,
        "YARDTRK": 0,
        "TRANSITTRK": 0,
        "INDUSTRYTR": 0,
        "OTHRTRK": 0,
        "WDCODE": "Crossbucks",
        "REVISIONDA": "1996/01/01 00:00:00",
        "LASTUPDATE": "12/12/2023",
        "AADT": "5",
        "AADTYEAR": "2019",
        "STATENAME": "TEXAS",
        "STATEAB": "TX",
        "COUNTYNAME": "LAMB",
        "CITYNAME": "ANTON",
        "LATDD": 33.8251803,
        "LONGDD": -102.190314,
        "gridlyProductionCertified": true,
        "gridlyClassification": "PUBLIC_ROADWAY",
        "gridlyDisplayName": "CO RD",
        "gridlyId": "FRA-014893Y"
      }
    },
    {
      "type": "Feature",
      "id": 204491,
      "geometry": {
        "type": "Point",
        "coordinates": [
          -102.607557999988,
          34.1332126996505
        ]
      },
      "properties": {
        "OBJECTID": 204491,
        "CROSSING": "014862A",
        "EFFDATE": 1734393600000,
        "REASON": "14",
        "StateCode": "48",
        "CountyCode": "48279",
        "STCYFIPS": "48279",
        "CITYCD": "482796650",
        "RAILROAD": "BNSF",
        "RRDIV": "RED RIVER",
        "RRSUBDIV": "SLATON",
        "HIGHWAY": "Not Yet Reported by State",
        "STREET": "PRIVATE",
        "TTSTN": "674911",
        "MILEPOST": "0031.448",
        "TYPEXING": "Private",
        "POSXING": "At Grade",
        "PRVCAT": "14",
        "INIT": "1",
        "LATITUDE": 34.1332127,
        "LONGITUD": -102.607558,
        "LLSOURCE": "1",
        "WHISTBAN": "0",
        "RRCONT": "8173521549",
        "POLCONT": "8008325452",
        "INV_LINK": "https://safetydata.fra.dot.gov/OfficeofSafety/PublicSite/Crossing/Crossing.aspx?phasetype=C&rpttype=I&txtcrossingnum=014862A",
        "ACC_LINK": "https://safetydata.fra.dot.gov/OfficeofSafety/PublicSite/Crossing/Crossing.aspx?phasetype=C&rpttype=A&txtcrossingnum=014862A",
        "TTSTNNAM": "MILL",
        "XPURPOSE": "1",
        "OPERATINGR": "BNSF",
        "OPERATIN_1": "Primary",
        "DAYTHRU": 2,
        "NGHTTHRU": 2,
        "MAINTRK": 1,
        "SIDINGTRK": 0,
        "YARDTRK": 0,
        "TRANSITTRK": 0,
        "INDUSTRYTR": 0,
        "OTHRTRK": 0,
        "WDCODE": "",
        "REVISIONDA": "1996/01/01 00:00:00",
        "LASTUPDATE": "12/17/2024",
        "AADT": "",
        "AADTYEAR": "1970",
        "STATENAME": "TEXAS",
        "STATEAB": "TX",
        "COUNTYNAME": "LAMB",
        "CITYNAME": "SUDAN",
        "LATDD": 34.1332127,
        "LONGDD": -102.607558,
        "gridlyProductionCertified": true,
        "gridlyClassification": "PUBLIC_ROADWAY",
        "gridlyDisplayName": "PRIVATE",
        "gridlyId": "FRA-014862A"
      }
    },
    {
      "type": "Feature",
      "id": 204496,
      "geometry": {
        "type": "Point",
        "coordinates": [
          -102.530142999807,
          34.072118999676
        ]
      },
      "properties": {
        "OBJECTID": 204496,
        "CROSSING": "014868R",
        "EFFDATE": 1734393600000,
        "REASON": "14",
        "StateCode": "48",
        "CountyCode": "48279",
        "STCYFIPS": "48279",
        "CITYCD": "482796650",
        "RAILROAD": "BNSF",
        "RRDIV": "RED RIVER",
        "RRSUBDIV": "SLATON",
        "HIGHWAY": "CO 0000",
        "STREET": "CENTRAL COMPRESS",
        "TTSTN": "674860",
        "MILEPOST": "0037.590",
        "TYPEXING": "Private",
        "POSXING": "At Grade",
        "PRVCAT": "14",
        "INIT": "1",
        "LATITUDE": 34.072119,
        "LONGITUD": -102.530143,
        "LLSOURCE": "1",
        "WHISTBAN": "0",
        "RRCONT": "8173521549",
        "POLCONT": "8008325452",
        "INV_LINK": "https://safetydata.fra.dot.gov/OfficeofSafety/PublicSite/Crossing/Crossing.aspx?phasetype=C&rpttype=I&txtcrossingnum=014868R",
        "ACC_LINK": "https://safetydata.fra.dot.gov/OfficeofSafety/PublicSite/Crossing/Crossing.aspx?phasetype=C&rpttype=A&txtcrossingnum=014868R",
        "TTSTNNAM": "SUDAN",
        "XPURPOSE": "1",
        "OPERATINGR": "BNSF",
        "OPERATIN_1": "Primary",
        "DAYTHRU": 3,
        "NGHTTHRU": 2,
        "MAINTRK": 1,
        "SIDINGTRK": 1,
        "YARDTRK": 0,
        "TRANSITTRK": 0,
        "INDUSTRYTR": 0,
        "OTHRTRK": 2,
        "WDCODE": "",
        "REVISIONDA": "1996/01/01 00:00:00",
        "LASTUPDATE": "12/17/2024",
        "AADT": "000160",
        "AADTYEAR": "1993",
        "STATENAME": "TEXAS",
        "STATEAB": "TX",
        "COUNTYNAME": "LAMB",
        "CITYNAME": "SUDAN",
        "LATDD": 34.072119,
        "LONGDD": -102.530143,
        "gridlyProductionCertified": true,
        "gridlyClassification": "PUBLIC_ROADWAY",
        "gridlyDisplayName": "CENTRAL COMPRESS",
        "gridlyId": "FRA-014868R"
      }
    },
    {
      "type": "Feature",
      "id": 204506,
      "geometry": {
        "type": "Point",
        "coordinates": [
          -102.358281999872,
          33.9470500003258
        ]
      },
      "properties": {
        "OBJECTID": 204506,
        "CROSSING": "014880X",
        "EFFDATE": 1734393600000,
        "REASON": "14",
        "StateCode": "48",
        "CountyCode": "48279",
        "STCYFIPS": "48279",
        "CITYCD": "482794010",
        "RAILROAD": "BNSF",
        "RRDIV": "RED RIVER",
        "RRSUBDIV": "SLATON",
        "HIGHWAY": "Not Yet Reported by State",
        "STREET": "PRIVATE",
        "TTSTN": "674880",
        "MILEPOST": "0050.757",
        "TYPEXING": "Private",
        "POSXING": "At Grade",
        "PRVCAT": "14",
        "INIT": "1",
        "LATITUDE": 33.94705,
        "LONGITUD": -102.358282,
        "LLSOURCE": "1",
        "WHISTBAN": "0",
        "RRCONT": "8173521549",
        "POLCONT": "8008325452",
        "INV_LINK": "https://safetydata.fra.dot.gov/OfficeofSafety/PublicSite/Crossing/Crossing.aspx?phasetype=C&rpttype=I&txtcrossingnum=014880X",
        "ACC_LINK": "https://safetydata.fra.dot.gov/OfficeofSafety/PublicSite/Crossing/Crossing.aspx?phasetype=C&rpttype=A&txtcrossingnum=014880X",
        "TTSTNNAM": "LITTLEFIELD",
        "XPURPOSE": "1",
        "OPERATINGR": "BNSF",
        "OPERATIN_1": "Primary",
        "DAYTHRU": 2,
        "NGHTTHRU": 2,
        "MAINTRK": 1,
        "SIDINGTRK": 0,
        "YARDTRK": 0,
        "TRANSITTRK": 0,
        "INDUSTRYTR": 0,
        "OTHRTRK": 0,
        "WDCODE": "",
        "REVISIONDA": "1996/01/01 00:00:00",
        "LASTUPDATE": "12/17/2024",
        "AADT": "",
        "AADTYEAR": "1970",
        "STATENAME": "TEXAS",
        "STATEAB": "TX",
        "COUNTYNAME": "LAMB",
        "CITYNAME": "LITTLEFIELD",
        "LATDD": 33.94705,
        "LONGDD": -102.358282,
        "gridlyProductionCertified": true,
        "gridlyClassification": "PUBLIC_ROADWAY",
        "gridlyDisplayName": "PRIVATE",
        "gridlyId": "FRA-014880X"
      }
    },
    {
      "type": "Feature",
      "id": 206881,
      "geometry": {
        "type": "Point",
        "coordinates": [
          -102.553962499708,
          34.0876637002838
        ]
      },
      "properties": {
        "OBJECTID": 206881,
        "CROSSING": "014866C",
        "EFFDATE": 1775174400000,
        "REASON": "14",
        "StateCode": "48",
        "CountyCode": "48279",
        "STCYFIPS": "48279",
        "CITYCD": "482796650",
        "RAILROAD": "BNSF",
        "RRDIV": "RED RIVER",
        "RRSUBDIV": "SLATON",
        "HIGHWAY": "CR0075",
        "STREET": "COUNTY ROAD 75",
        "TTSTN": "674860",
        "MILEPOST": "0035.855",
        "TYPEXING": "Public",
        "POSXING": "At Grade",
        "PRVCAT": "14",
        "INIT": "2",
        "LATITUDE": 34.0876637,
        "LONGITUD": -102.5539625,
        "LLSOURCE": "1",
        "WHISTBAN": "0",
        "RRCONT": "8173521549",
        "POLCONT": "8008325452",
        "INV_LINK": "https://safetydata.fra.dot.gov/OfficeofSafety/PublicSite/Crossing/Crossing.aspx?phasetype=C&rpttype=I&txtcrossingnum=014866C",
        "ACC_LINK": "https://safetydata.fra.dot.gov/OfficeofSafety/PublicSite/Crossing/Crossing.aspx?phasetype=C&rpttype=A&txtcrossingnum=014866C",
        "TTSTNNAM": "SUDAN",
        "XPURPOSE": "1",
        "OPERATINGR": "BNSF",
        "OPERATIN_1": "Primary",
        "DAYTHRU": 2,
        "NGHTTHRU": 2,
        "MAINTRK": 1,
        "SIDINGTRK": 0,
        "YARDTRK": 0,
        "TRANSITTRK": 0,
        "INDUSTRYTR": 0,
        "OTHRTRK": 0,
        "WDCODE": "Crossbucks",
        "REVISIONDA": "1996/01/01 00:00:00",
        "LASTUPDATE": "4/3/2026",
        "AADT": "14",
        "AADTYEAR": "2022",
        "STATENAME": "TEXAS",
        "STATEAB": "TX",
        "COUNTYNAME": "LAMB",
        "CITYNAME": "SUDAN",
        "LATDD": 34.0876637,
        "LONGDD": -102.5539625,
        "gridlyProductionCertified": true,
        "gridlyClassification": "PUBLIC_ROADWAY",
        "gridlyDisplayName": "COUNTY ROAD 75",
        "gridlyId": "FRA-014866C"
      }
    },
    {
      "type": "Feature",
      "id": 206978,
      "geometry": {
        "type": "Point",
        "coordinates": [
          -102.524117000269,
          34.0682343002842
        ]
      },
      "properties": {
        "OBJECTID": 206978,
        "CROSSING": "014869X",
        "EFFDATE": 1775174400000,
        "REASON": "14",
        "StateCode": "48",
        "CountyCode": "48279",
        "STCYFIPS": "48279",
        "CITYCD": "482796650",
        "RAILROAD": "BNSF",
        "RRDIV": "RED RIVER",
        "RRSUBDIV": "SLATON",
        "HIGHWAY": "FM0303",
        "STREET": "FM0303 / MAIN STREET",
        "TTSTN": "674860",
        "MILEPOST": "0038.033",
        "TYPEXING": "Public",
        "POSXING": "At Grade",
        "PRVCAT": "14",
        "INIT": "2",
        "LATITUDE": 34.0682343,
        "LONGITUD": -102.524117,
        "LLSOURCE": "1",
        "WHISTBAN": "0",
        "RRCONT": "8173521549",
        "POLCONT": "8008325452",
        "INV_LINK": "https://safetydata.fra.dot.gov/OfficeofSafety/PublicSite/Crossing/Crossing.aspx?phasetype=C&rpttype=I&txtcrossingnum=014869X",
        "ACC_LINK": "https://safetydata.fra.dot.gov/OfficeofSafety/PublicSite/Crossing/Crossing.aspx?phasetype=C&rpttype=A&txtcrossingnum=014869X",
        "TTSTNNAM": "SUDAN",
        "XPURPOSE": "1",
        "OPERATINGR": "BNSF",
        "OPERATIN_1": "Primary",
        "DAYTHRU": 3,
        "NGHTTHRU": 2,
        "MAINTRK": 1,
        "SIDINGTRK": 1,
        "YARDTRK": 0,
        "TRANSITTRK": 0,
        "INDUSTRYTR": 0,
        "OTHRTRK": 1,
        "WDCODE": "All other Gates",
        "REVISIONDA": "1996/01/01 00:00:00",
        "LASTUPDATE": "4/3/2026",
        "AADT": "560",
        "AADTYEAR": "2023",
        "STATENAME": "TEXAS",
        "STATEAB": "TX",
        "COUNTYNAME": "LAMB",
        "CITYNAME": "SUDAN",
        "LATDD": 34.0682343,
        "LONGDD": -102.524117,
        "gridlyProductionCertified": true,
        "gridlyClassification": "PUBLIC_ROADWAY",
        "gridlyDisplayName": "FM0303 / MAIN STREET",
        "gridlyId": "FRA-014869X"
      }
    },
    {
      "type": "Feature",
      "id": 207312,
      "geometry": {
        "type": "Point",
        "coordinates": [
          -102.516660400405,
          34.0633382999168
        ]
      },
      "properties": {
        "OBJECTID": 207312,
        "CROSSING": "014870S",
        "EFFDATE": 1775174400000,
        "REASON": "14",
        "StateCode": "48",
        "CountyCode": "48279",
        "STCYFIPS": "48279",
        "CITYCD": "482796650",
        "RAILROAD": "BNSF",
        "RRDIV": "RED RIVER",
        "RRSUBDIV": "SLATON",
        "HIGHWAY": "FM1843",
        "STREET": "FM1843",
        "TTSTN": "674860",
        "MILEPOST": "0038.577",
        "TYPEXING": "Public",
        "POSXING": "At Grade",
        "PRVCAT": "14",
        "INIT": "2",
        "LATITUDE": 34.0633383,
        "LONGITUD": -102.5166604,
        "LLSOURCE": "1",
        "WHISTBAN": "0",
        "RRCONT": "8173521549",
        "POLCONT": "8008325452",
        "INV_LINK": "https://safetydata.fra.dot.gov/OfficeofSafety/PublicSite/Crossing/Crossing.aspx?phasetype=C&rpttype=I&txtcrossingnum=014870S",
        "ACC_LINK": "https://safetydata.fra.dot.gov/OfficeofSafety/PublicSite/Crossing/Crossing.aspx?phasetype=C&rpttype=A&txtcrossingnum=014870S",
        "TTSTNNAM": "SUDAN",
        "XPURPOSE": "1",
        "OPERATINGR": "BNSF",
        "OPERATIN_1": "Primary",
        "DAYTHRU": 2,
        "NGHTTHRU": 2,
        "MAINTRK": 1,
        "SIDINGTRK": 0,
        "YARDTRK": 0,
        "TRANSITTRK": 0,
        "INDUSTRYTR": 0,
        "OTHRTRK": 0,
        "WDCODE": "All other Gates",
        "REVISIONDA": "1996/01/01 00:00:00",
        "LASTUPDATE": "4/3/2026",
        "AADT": "246",
        "AADTYEAR": "2023",
        "STATENAME": "TEXAS",
        "STATEAB": "TX",
        "COUNTYNAME": "LAMB",
        "CITYNAME": "SUDAN",
        "LATDD": 34.0633383,
        "LONGDD": -102.5166604,
        "gridlyProductionCertified": true,
        "gridlyClassification": "PUBLIC_ROADWAY",
        "gridlyDisplayName": "FM1843",
        "gridlyId": "FRA-014870S"
      }
    },
    {
      "type": "Feature",
      "id": 207669,
      "geometry": {
        "type": "Point",
        "coordinates": [
          -102.536021699892,
          34.0759075998277
        ]
      },
      "properties": {
        "OBJECTID": 207669,
        "CROSSING": "014867J",
        "EFFDATE": 1775174400000,
        "REASON": "14",
        "StateCode": "48",
        "CountyCode": "48279",
        "STCYFIPS": "48279",
        "CITYCD": "482796650",
        "RAILROAD": "BNSF",
        "RRDIV": "RED RIVER",
        "RRSUBDIV": "SLATON",
        "HIGHWAY": "CR0085",
        "STREET": "COUNTY ROAD 85",
        "TTSTN": "674860",
        "MILEPOST": "0037.167",
        "TYPEXING": "Public",
        "POSXING": "At Grade",
        "PRVCAT": "14",
        "INIT": "2",
        "LATITUDE": 34.0759076,
        "LONGITUD": -102.5360217,
        "LLSOURCE": "1",
        "WHISTBAN": "0",
        "RRCONT": "8173521549",
        "POLCONT": "8008325452",
        "INV_LINK": "https://safetydata.fra.dot.gov/OfficeofSafety/PublicSite/Crossing/Crossing.aspx?phasetype=C&rpttype=I&txtcrossingnum=014867J",
        "ACC_LINK": "https://safetydata.fra.dot.gov/OfficeofSafety/PublicSite/Crossing/Crossing.aspx?phasetype=C&rpttype=A&txtcrossingnum=014867J",
        "TTSTNNAM": "SUDAN",
        "XPURPOSE": "1",
        "OPERATINGR": "BNSF",
        "OPERATIN_1": "Primary",
        "DAYTHRU": 2,
        "NGHTTHRU": 2,
        "MAINTRK": 1,
        "SIDINGTRK": 0,
        "YARDTRK": 0,
        "TRANSITTRK": 0,
        "INDUSTRYTR": 0,
        "OTHRTRK": 0,
        "WDCODE": "Crossbucks",
        "REVISIONDA": "1996/01/01 00:00:00",
        "LASTUPDATE": "4/3/2026",
        "AADT": "18",
        "AADTYEAR": "2019",
        "STATENAME": "TEXAS",
        "STATEAB": "TX",
        "COUNTYNAME": "LAMB",
        "CITYNAME": "SUDAN",
        "LATDD": 34.0759076,
        "LONGDD": -102.5360217,
        "gridlyProductionCertified": true,
        "gridlyClassification": "PUBLIC_ROADWAY",
        "gridlyDisplayName": "COUNTY ROAD 85",
        "gridlyId": "FRA-014867J"
      }
    },
    {
      "type": "Feature",
      "id": 207870,
      "geometry": {
        "type": "Point",
        "coordinates": [
          -102.502076499702,
          34.0480373002852
        ]
      },
      "properties": {
        "OBJECTID": 207870,
        "CROSSING": "014872F",
        "EFFDATE": 1775174400000,
        "REASON": "14",
        "StateCode": "48",
        "CountyCode": "48279",
        "STCYFIPS": "48279",
        "CITYCD": "482796650",
        "RAILROAD": "BNSF",
        "RRDIV": "RED RIVER",
        "RRSUBDIV": "SLATON",
        "HIGHWAY": "CR0208",
        "STREET": "COUNTY ROAD 208",
        "TTSTN": "674860",
        "MILEPOST": "0039.907",
        "TYPEXING": "Public",
        "POSXING": "At Grade",
        "PRVCAT": "14",
        "INIT": "2",
        "LATITUDE": 34.0480373,
        "LONGITUD": -102.5020765,
        "LLSOURCE": "1",
        "WHISTBAN": "0",
        "RRCONT": "8173521549",
        "POLCONT": "8008325452",
        "INV_LINK": "https://safetydata.fra.dot.gov/OfficeofSafety/PublicSite/Crossing/Crossing.aspx?phasetype=C&rpttype=I&txtcrossingnum=014872F",
        "ACC_LINK": "https://safetydata.fra.dot.gov/OfficeofSafety/PublicSite/Crossing/Crossing.aspx?phasetype=C&rpttype=A&txtcrossingnum=014872F",
        "TTSTNNAM": "SUDAN",
        "XPURPOSE": "1",
        "OPERATINGR": "BNSF",
        "OPERATIN_1": "Primary",
        "DAYTHRU": 2,
        "NGHTTHRU": 2,
        "MAINTRK": 1,
        "SIDINGTRK": 0,
        "YARDTRK": 0,
        "TRANSITTRK": 0,
        "INDUSTRYTR": 0,
        "OTHRTRK": 0,
        "WDCODE": "Crossbucks",
        "REVISIONDA": "1996/01/01 00:00:00",
        "LASTUPDATE": "4/3/2026",
        "AADT": "1",
        "AADTYEAR": "2022",
        "STATENAME": "TEXAS",
        "STATEAB": "TX",
        "COUNTYNAME": "LAMB",
        "CITYNAME": "SUDAN",
        "LATDD": 34.0480373,
        "LONGDD": -102.5020765,
        "gridlyProductionCertified": true,
        "gridlyClassification": "PUBLIC_ROADWAY",
        "gridlyDisplayName": "COUNTY ROAD 208",
        "gridlyId": "FRA-014872F"
      }
    },
    {
      "type": "Feature",
      "id": 210280,
      "geometry": {
        "type": "Point",
        "coordinates": [
          -102.445185299833,
          34.0109627997341
        ]
      },
      "properties": {
        "OBJECTID": 210280,
        "CROSSING": "014875B",
        "EFFDATE": 1776643200000,
        "REASON": "14",
        "StateCode": "48",
        "CountyCode": "48279",
        "STCYFIPS": "48279",
        "CITYCD": "482790160",
        "RAILROAD": "BNSF",
        "RRDIV": "RED RIVER",
        "RRSUBDIV": "SLATON",
        "HIGHWAY": "CR0232",
        "STREET": "COUNTY ROAD 232",
        "TTSTN": "674890",
        "MILEPOST": "0044.082",
        "TYPEXING": "Public",
        "POSXING": "At Grade",
        "PRVCAT": "14",
        "INIT": "2",
        "LATITUDE": 34.0109628,
        "LONGITUD": -102.4451853,
        "LLSOURCE": "1",
        "WHISTBAN": "0",
        "RRCONT": "8173521549",
        "POLCONT": "8008325452",
        "INV_LINK": "https://safetydata.fra.dot.gov/OfficeofSafety/PublicSite/Crossing/Crossing.aspx?phasetype=C&rpttype=I&txtcrossingnum=014875B",
        "ACC_LINK": "https://safetydata.fra.dot.gov/OfficeofSafety/PublicSite/Crossing/Crossing.aspx?phasetype=C&rpttype=A&txtcrossingnum=014875B",
        "TTSTNNAM": "AMHERST",
        "XPURPOSE": "1",
        "OPERATINGR": "BNSF",
        "OPERATIN_1": "Primary",
        "DAYTHRU": 2,
        "NGHTTHRU": 2,
        "MAINTRK": 1,
        "SIDINGTRK": 0,
        "YARDTRK": 0,
        "TRANSITTRK": 0,
        "INDUSTRYTR": 0,
        "OTHRTRK": 0,
        "WDCODE": "All other Gates",
        "REVISIONDA": "1996/01/01 00:00:00",
        "LASTUPDATE": "4/20/2026",
        "AADT": "280",
        "AADTYEAR": "2022",
        "STATENAME": "TEXAS",
        "STATEAB": "TX",
        "COUNTYNAME": "LAMB",
        "CITYNAME": "AMHERST",
        "LATDD": 34.0109628,
        "LONGDD": -102.4451853,
        "gridlyProductionCertified": true,
        "gridlyClassification": "PUBLIC_ROADWAY",
        "gridlyDisplayName": "COUNTY ROAD 232",
        "gridlyId": "FRA-014875B"
      }
    },
    {
      "type": "Feature",
      "id": 210933,
      "geometry": {
        "type": "Point",
        "coordinates": [
          -102.408541300019,
          33.9883429998505
        ]
      },
      "properties": {
        "OBJECTID": 210933,
        "CROSSING": "014877P",
        "EFFDATE": 1776643200000,
        "REASON": "14",
        "StateCode": "48",
        "CountyCode": "48279",
        "STCYFIPS": "48279",
        "CITYCD": "482790160",
        "RAILROAD": "BNSF",
        "RRDIV": "RED RIVER",
        "RRSUBDIV": "SLATON",
        "HIGHWAY": "CR0248",
        "STREET": "COUNTY ROAD 248",
        "TTSTN": "674890",
        "MILEPOST": "0046.699",
        "TYPEXING": "Public",
        "POSXING": "At Grade",
        "PRVCAT": "14",
        "INIT": "2",
        "LATITUDE": 33.988343,
        "LONGITUD": -102.4085413,
        "LLSOURCE": "1",
        "WHISTBAN": "0",
        "RRCONT": "8173521549",
        "POLCONT": "8008325452",
        "INV_LINK": "https://safetydata.fra.dot.gov/OfficeofSafety/PublicSite/Crossing/Crossing.aspx?phasetype=C&rpttype=I&txtcrossingnum=014877P",
        "ACC_LINK": "https://safetydata.fra.dot.gov/OfficeofSafety/PublicSite/Crossing/Crossing.aspx?phasetype=C&rpttype=A&txtcrossingnum=014877P",
        "TTSTNNAM": "AMHERST",
        "XPURPOSE": "1",
        "OPERATINGR": "BNSF",
        "OPERATIN_1": "Primary",
        "DAYTHRU": 2,
        "NGHTTHRU": 2,
        "MAINTRK": 1,
        "SIDINGTRK": 0,
        "YARDTRK": 0,
        "TRANSITTRK": 0,
        "INDUSTRYTR": 0,
        "OTHRTRK": 0,
        "WDCODE": "All other Gates",
        "REVISIONDA": "1996/01/01 00:00:00",
        "LASTUPDATE": "4/20/2026",
        "AADT": "25",
        "AADTYEAR": "2022",
        "STATENAME": "TEXAS",
        "STATEAB": "TX",
        "COUNTYNAME": "LAMB",
        "CITYNAME": "AMHERST",
        "LATDD": 33.988343,
        "LONGDD": -102.4085413,
        "gridlyProductionCertified": true,
        "gridlyClassification": "PUBLIC_ROADWAY",
        "gridlyDisplayName": "COUNTY ROAD 248",
        "gridlyId": "FRA-014877P"
      }
    },
    {
      "type": "Feature",
      "id": 214120,
      "geometry": {
        "type": "Point",
        "coordinates": [
          -102.243847999956,
          33.8638935997898
        ]
      },
      "properties": {
        "OBJECTID": 214120,
        "CROSSING": "014890D",
        "EFFDATE": 1777507200000,
        "REASON": "14",
        "StateCode": "48",
        "CountyCode": "48279",
        "STCYFIPS": "48279",
        "CITYCD": "482190230",
        "RAILROAD": "BNSF",
        "RRDIV": "RED RIVER",
        "RRSUBDIV": "SLATON",
        "HIGHWAY": "CR0247",
        "STREET": "COUNTY ROAD 247",
        "TTSTN": "677313",
        "MILEPOST": "0059.487",
        "TYPEXING": "Public",
        "POSXING": "At Grade",
        "PRVCAT": "14",
        "INIT": "2",
        "LATITUDE": 33.8638936,
        "LONGITUD": -102.243848,
        "LLSOURCE": "1",
        "WHISTBAN": "0",
        "RRCONT": "8173521549",
        "POLCONT": "8008325452",
        "INV_LINK": "https://safetydata.fra.dot.gov/OfficeofSafety/PublicSite/Crossing/Crossing.aspx?phasetype=C&rpttype=I&txtcrossingnum=014890D",
        "ACC_LINK": "https://safetydata.fra.dot.gov/OfficeofSafety/PublicSite/Crossing/Crossing.aspx?phasetype=C&rpttype=A&txtcrossingnum=014890D",
        "TTSTNNAM": "ANTON",
        "XPURPOSE": "1",
        "OPERATINGR": "BNSF",
        "OPERATIN_1": "Primary",
        "DAYTHRU": 4,
        "NGHTTHRU": 4,
        "MAINTRK": 1,
        "SIDINGTRK": 0,
        "YARDTRK": 0,
        "TRANSITTRK": 0,
        "INDUSTRYTR": 1,
        "OTHRTRK": 1,
        "WDCODE": "All other Gates",
        "REVISIONDA": "1996/01/01 00:00:00",
        "LASTUPDATE": "4/30/2026",
        "AADT": "8",
        "AADTYEAR": "2022",
        "STATENAME": "TEXAS",
        "STATEAB": "TX",
        "COUNTYNAME": "LAMB",
        "CITYNAME": "ANTON",
        "LATDD": 33.8638936,
        "LONGDD": -102.243848,
        "gridlyProductionCertified": true,
        "gridlyClassification": "PUBLIC_ROADWAY",
        "gridlyDisplayName": "COUNTY ROAD 247",
        "gridlyId": "FRA-014890D"
      }
    },
    {
      "type": "Feature",
      "id": 214126,
      "geometry": {
        "type": "Point",
        "coordinates": [
          -102.280872899825,
          33.8919214002786
        ]
      },
      "properties": {
        "OBJECTID": 214126,
        "CROSSING": "014887V",
        "EFFDATE": 1777507200000,
        "REASON": "14",
        "StateCode": "48",
        "CountyCode": "48279",
        "STCYFIPS": "48279",
        "CITYCD": "482794010",
        "RAILROAD": "BNSF",
        "RRDIV": "RED RIVER",
        "RRSUBDIV": "SLATON",
        "HIGHWAY": "CR0227",
        "STREET": "COUNTY ROAD  227",
        "TTSTN": "674880",
        "MILEPOST": "0056.613",
        "TYPEXING": "Public",
        "POSXING": "At Grade",
        "PRVCAT": "14",
        "INIT": "2",
        "LATITUDE": 33.8919214,
        "LONGITUD": -102.2808729,
        "LLSOURCE": "1",
        "WHISTBAN": "0",
        "RRCONT": "8173521549",
        "POLCONT": "8008325452",
        "INV_LINK": "https://safetydata.fra.dot.gov/OfficeofSafety/PublicSite/Crossing/Crossing.aspx?phasetype=C&rpttype=I&txtcrossingnum=014887V",
        "ACC_LINK": "https://safetydata.fra.dot.gov/OfficeofSafety/PublicSite/Crossing/Crossing.aspx?phasetype=C&rpttype=A&txtcrossingnum=014887V",
        "TTSTNNAM": "LITTLEFIELD",
        "XPURPOSE": "1",
        "OPERATINGR": "BNSF",
        "OPERATIN_1": "Primary",
        "DAYTHRU": 2,
        "NGHTTHRU": 2,
        "MAINTRK": 1,
        "SIDINGTRK": 0,
        "YARDTRK": 0,
        "TRANSITTRK": 0,
        "INDUSTRYTR": 0,
        "OTHRTRK": 0,
        "WDCODE": "Crossbucks",
        "REVISIONDA": "1996/01/01 00:00:00",
        "LASTUPDATE": "4/30/2026",
        "AADT": "19",
        "AADTYEAR": "2022",
        "STATENAME": "TEXAS",
        "STATEAB": "TX",
        "COUNTYNAME": "LAMB",
        "CITYNAME": "LITTLEFIELD",
        "LATDD": 33.8919214,
        "LONGDD": -102.2808729,
        "gridlyProductionCertified": true,
        "gridlyClassification": "PUBLIC_ROADWAY",
        "gridlyDisplayName": "COUNTY ROAD  227",
        "gridlyId": "FRA-014887V"
      }
    },
    {
      "type": "Feature",
      "id": 214127,
      "geometry": {
        "type": "Point",
        "coordinates": [
          -102.29896739959,
          33.9054735002107
        ]
      },
      "properties": {
        "OBJECTID": 214127,
        "CROSSING": "014886N",
        "EFFDATE": 1777507200000,
        "REASON": "14",
        "StateCode": "48",
        "CountyCode": "48279",
        "STCYFIPS": "48279",
        "CITYCD": "482794010",
        "RAILROAD": "BNSF",
        "RRDIV": "RED RIVER",
        "RRSUBDIV": "SLATON",
        "HIGHWAY": "CR0217",
        "STREET": "DENIM ROAD",
        "TTSTN": "674880",
        "MILEPOST": "0055.213",
        "TYPEXING": "Public",
        "POSXING": "At Grade",
        "PRVCAT": "14",
        "INIT": "2",
        "LATITUDE": 33.9054735,
        "LONGITUD": -102.2989674,
        "LLSOURCE": "1",
        "WHISTBAN": "0",
        "RRCONT": "8173521549",
        "POLCONT": "8008325452",
        "INV_LINK": "https://safetydata.fra.dot.gov/OfficeofSafety/PublicSite/Crossing/Crossing.aspx?phasetype=C&rpttype=I&txtcrossingnum=014886N",
        "ACC_LINK": "https://safetydata.fra.dot.gov/OfficeofSafety/PublicSite/Crossing/Crossing.aspx?phasetype=C&rpttype=A&txtcrossingnum=014886N",
        "TTSTNNAM": "LITTLEFIELD",
        "XPURPOSE": "1",
        "OPERATINGR": "BNSF",
        "OPERATIN_1": "Primary",
        "DAYTHRU": 2,
        "NGHTTHRU": 2,
        "MAINTRK": 1,
        "SIDINGTRK": 0,
        "YARDTRK": 0,
        "TRANSITTRK": 0,
        "INDUSTRYTR": 0,
        "OTHRTRK": 0,
        "WDCODE": "All other Gates",
        "REVISIONDA": "1996/01/01 00:00:00",
        "LASTUPDATE": "4/30/2026",
        "AADT": "248",
        "AADTYEAR": "2024",
        "STATENAME": "TEXAS",
        "STATEAB": "TX",
        "COUNTYNAME": "LAMB",
        "CITYNAME": "LITTLEFIELD",
        "LATDD": 33.9054735,
        "LONGDD": -102.2989674,
        "gridlyProductionCertified": true,
        "gridlyClassification": "PUBLIC_ROADWAY",
        "gridlyDisplayName": "DENIM ROAD",
        "gridlyId": "FRA-014886N"
      }
    },
    {
      "type": "Feature",
      "id": 214128,
      "geometry": {
        "type": "Point",
        "coordinates": [
          -102.261985099629,
          33.8775966001303
        ]
      },
      "properties": {
        "OBJECTID": 214128,
        "CROSSING": "014889J",
        "EFFDATE": 1777507200000,
        "REASON": "14",
        "StateCode": "48",
        "CountyCode": "48279",
        "STCYFIPS": "48279",
        "CITYCD": "482794010",
        "RAILROAD": "BNSF",
        "RRDIV": "RED RIVER",
        "RRSUBDIV": "SLATON",
        "HIGHWAY": "CR0237",
        "STREET": "COUNTY ROAD",
        "TTSTN": "674880",
        "MILEPOST": "0058.077",
        "TYPEXING": "Public",
        "POSXING": "At Grade",
        "PRVCAT": "14",
        "INIT": "2",
        "LATITUDE": 33.8775966,
        "LONGITUD": -102.2619851,
        "LLSOURCE": "1",
        "WHISTBAN": "0",
        "RRCONT": "8173521549",
        "POLCONT": "8008325452",
        "INV_LINK": "https://safetydata.fra.dot.gov/OfficeofSafety/PublicSite/Crossing/Crossing.aspx?phasetype=C&rpttype=I&txtcrossingnum=014889J",
        "ACC_LINK": "https://safetydata.fra.dot.gov/OfficeofSafety/PublicSite/Crossing/Crossing.aspx?phasetype=C&rpttype=A&txtcrossingnum=014889J",
        "TTSTNNAM": "LITTLEFIELD",
        "XPURPOSE": "1",
        "OPERATINGR": "BNSF",
        "OPERATIN_1": "Primary",
        "DAYTHRU": 2,
        "NGHTTHRU": 2,
        "MAINTRK": 1,
        "SIDINGTRK": 0,
        "YARDTRK": 0,
        "TRANSITTRK": 0,
        "INDUSTRYTR": 0,
        "OTHRTRK": 0,
        "WDCODE": "Crossbucks",
        "REVISIONDA": "1996/01/01 00:00:00",
        "LASTUPDATE": "4/30/2026",
        "AADT": "40",
        "AADTYEAR": "2022",
        "STATENAME": "TEXAS",
        "STATEAB": "TX",
        "COUNTYNAME": "LAMB",
        "CITYNAME": "LITTLEFIELD",
        "LATDD": 33.8775966,
        "LONGDD": -102.2619851,
        "gridlyProductionCertified": true,
        "gridlyClassification": "PUBLIC_ROADWAY",
        "gridlyDisplayName": "COUNTY ROAD",
        "gridlyId": "FRA-014889J"
      }
    },
    {
      "type": "Feature",
      "id": 214129,
      "geometry": {
        "type": "Point",
        "coordinates": [
          -102.317070600436,
          33.9176480000126
        ]
      },
      "properties": {
        "OBJECTID": 214129,
        "CROSSING": "014884A",
        "EFFDATE": 1777507200000,
        "REASON": "14",
        "StateCode": "48",
        "CountyCode": "48279",
        "STCYFIPS": "48279",
        "CITYCD": "482794010",
        "RAILROAD": "BNSF",
        "RRDIV": "KANSAS",
        "RRSUBDIV": "SLATON",
        "HIGHWAY": "FM0054",
        "STREET": "FM0054",
        "TTSTN": "674880",
        "MILEPOST": "0053.877",
        "TYPEXING": "Public",
        "POSXING": "At Grade",
        "PRVCAT": "14",
        "INIT": "2",
        "LATITUDE": 33.917648,
        "LONGITUD": -102.3170706,
        "LLSOURCE": "1",
        "WHISTBAN": "0",
        "RRCONT": "8173521549",
        "POLCONT": "8008325452",
        "INV_LINK": "https://safetydata.fra.dot.gov/OfficeofSafety/PublicSite/Crossing/Crossing.aspx?phasetype=C&rpttype=I&txtcrossingnum=014884A",
        "ACC_LINK": "https://safetydata.fra.dot.gov/OfficeofSafety/PublicSite/Crossing/Crossing.aspx?phasetype=C&rpttype=A&txtcrossingnum=014884A",
        "TTSTNNAM": "LITTLEFIELD",
        "XPURPOSE": "1",
        "OPERATINGR": "BNSF",
        "OPERATIN_1": "Primary",
        "DAYTHRU": 2,
        "NGHTTHRU": 2,
        "MAINTRK": 1,
        "SIDINGTRK": 0,
        "YARDTRK": 0,
        "TRANSITTRK": 0,
        "INDUSTRYTR": 0,
        "OTHRTRK": 0,
        "WDCODE": "All other Gates",
        "REVISIONDA": "1996/01/01 00:00:00",
        "LASTUPDATE": "4/30/2026",
        "AADT": "1896",
        "AADTYEAR": "2023",
        "STATENAME": "TEXAS",
        "STATEAB": "TX",
        "COUNTYNAME": "LAMB",
        "CITYNAME": "LITTLEFIELD",
        "LATDD": 33.917648,
        "LONGDD": -102.3170706,
        "gridlyProductionCertified": true,
        "gridlyClassification": "PUBLIC_ROADWAY",
        "gridlyDisplayName": "FM0054",
        "gridlyId": "FRA-014884A"
      }
    },
    {
      "type": "Feature",
      "id": 214307,
      "geometry": {
        "type": "Point",
        "coordinates": [
          -102.338381700434,
          33.9320181002943
        ]
      },
      "properties": {
        "OBJECTID": 214307,
        "CROSSING": "014882L",
        "EFFDATE": 1777420800000,
        "REASON": "14",
        "StateCode": "48",
        "CountyCode": "48279",
        "STCYFIPS": "48279",
        "CITYCD": "482794010",
        "RAILROAD": "BNSF",
        "RRDIV": "RED RIVER",
        "RRSUBDIV": "SLATON",
        "HIGHWAY": "LS0000",
        "STREET": "NORTH WESTSIDE AVENUE",
        "TTSTN": "674880",
        "MILEPOST": "0052.301",
        "TYPEXING": "Public",
        "POSXING": "At Grade",
        "PRVCAT": "14",
        "INIT": "2",
        "LATITUDE": 33.9320181,
        "LONGITUD": -102.3383817,
        "LLSOURCE": "1",
        "WHISTBAN": "0",
        "RRCONT": "8173521549",
        "POLCONT": "8008325452",
        "INV_LINK": "https://safetydata.fra.dot.gov/OfficeofSafety/PublicSite/Crossing/Crossing.aspx?phasetype=C&rpttype=I&txtcrossingnum=014882L",
        "ACC_LINK": "https://safetydata.fra.dot.gov/OfficeofSafety/PublicSite/Crossing/Crossing.aspx?phasetype=C&rpttype=A&txtcrossingnum=014882L",
        "TTSTNNAM": "LITTLEFIELD",
        "XPURPOSE": "1",
        "OPERATINGR": "BNSF",
        "OPERATIN_1": "Primary",
        "DAYTHRU": 2,
        "NGHTTHRU": 2,
        "MAINTRK": 1,
        "SIDINGTRK": 1,
        "YARDTRK": 0,
        "TRANSITTRK": 0,
        "INDUSTRYTR": 0,
        "OTHRTRK": 1,
        "WDCODE": "All other Gates",
        "REVISIONDA": "1996/01/01 00:00:00",
        "LASTUPDATE": "4/29/2026",
        "AADT": "176",
        "AADTYEAR": "2022",
        "STATENAME": "TEXAS",
        "STATEAB": "TX",
        "COUNTYNAME": "LAMB",
        "CITYNAME": "LITTLEFIELD",
        "LATDD": 33.9320181,
        "LONGDD": -102.3383817,
        "gridlyProductionCertified": true,
        "gridlyClassification": "PUBLIC_ROADWAY",
        "gridlyDisplayName": "NORTH WESTSIDE AVENUE",
        "gridlyId": "FRA-014882L"
      }
    },
    {
      "type": "Feature",
      "id": 214308,
      "geometry": {
        "type": "Point",
        "coordinates": [
          -102.363231900343,
          33.951204399918
        ]
      },
      "properties": {
        "OBJECTID": 214308,
        "CROSSING": "014879D",
        "EFFDATE": 1777420800000,
        "REASON": "14",
        "StateCode": "48",
        "CountyCode": "48279",
        "STCYFIPS": "48279",
        "CITYCD": "482794010",
        "RAILROAD": "BNSF",
        "RRDIV": "RED RIVER",
        "RRSUBDIV": "SLATON",
        "HIGHWAY": "CR0181",
        "STREET": "COUNTY ROAD 181",
        "TTSTN": "674880",
        "MILEPOST": "0050.350",
        "TYPEXING": "Public",
        "POSXING": "At Grade",
        "PRVCAT": "14",
        "INIT": "2",
        "LATITUDE": 33.9512044,
        "LONGITUD": -102.3632319,
        "LLSOURCE": "1",
        "WHISTBAN": "0",
        "RRCONT": "8173521549",
        "POLCONT": "8008325452",
        "INV_LINK": "https://safetydata.fra.dot.gov/OfficeofSafety/PublicSite/Crossing/Crossing.aspx?phasetype=C&rpttype=I&txtcrossingnum=014879D",
        "ACC_LINK": "https://safetydata.fra.dot.gov/OfficeofSafety/PublicSite/Crossing/Crossing.aspx?phasetype=C&rpttype=A&txtcrossingnum=014879D",
        "TTSTNNAM": "LITTLEFIELD",
        "XPURPOSE": "1",
        "OPERATINGR": "BNSF",
        "OPERATIN_1": "Primary",
        "DAYTHRU": 2,
        "NGHTTHRU": 2,
        "MAINTRK": 1,
        "SIDINGTRK": 0,
        "YARDTRK": 0,
        "TRANSITTRK": 0,
        "INDUSTRYTR": 0,
        "OTHRTRK": 0,
        "WDCODE": "All other Gates",
        "REVISIONDA": "1996/01/01 00:00:00",
        "LASTUPDATE": "4/29/2026",
        "AADT": "69",
        "AADTYEAR": "2022",
        "STATENAME": "TEXAS",
        "STATEAB": "TX",
        "COUNTYNAME": "LAMB",
        "CITYNAME": "LITTLEFIELD",
        "LATDD": 33.9512044,
        "LONGDD": -102.3632319,
        "gridlyProductionCertified": true,
        "gridlyClassification": "PUBLIC_ROADWAY",
        "gridlyDisplayName": "COUNTY ROAD 181",
        "gridlyId": "FRA-014879D"
      }
    },
    {
      "type": "Feature",
      "id": 214309,
      "geometry": {
        "type": "Point",
        "coordinates": [
          -102.34516179972,
          33.9365523000055
        ]
      },
      "properties": {
        "OBJECTID": 214309,
        "CROSSING": "014881E",
        "EFFDATE": 1777420800000,
        "REASON": "14",
        "StateCode": "48",
        "CountyCode": "48279",
        "STCYFIPS": "48279",
        "CITYCD": "482794010",
        "RAILROAD": "BNSF",
        "RRDIV": "RED RIVER",
        "RRSUBDIV": "SLATON",
        "HIGHWAY": "LS0000",
        "STREET": "NORTH SUNSET AVENUE",
        "TTSTN": "674880",
        "MILEPOST": "0051.802",
        "TYPEXING": "Public",
        "POSXING": "At Grade",
        "PRVCAT": "14",
        "INIT": "2",
        "LATITUDE": 33.9365523,
        "LONGITUD": -102.3451618,
        "LLSOURCE": "1",
        "WHISTBAN": "0",
        "RRCONT": "8173521549",
        "POLCONT": "8008325452",
        "INV_LINK": "https://safetydata.fra.dot.gov/OfficeofSafety/PublicSite/Crossing/Crossing.aspx?phasetype=C&rpttype=I&txtcrossingnum=014881E",
        "ACC_LINK": "https://safetydata.fra.dot.gov/OfficeofSafety/PublicSite/Crossing/Crossing.aspx?phasetype=C&rpttype=A&txtcrossingnum=014881E",
        "TTSTNNAM": "LITTLEFIELD",
        "XPURPOSE": "1",
        "OPERATINGR": "BNSF",
        "OPERATIN_1": "Primary",
        "DAYTHRU": 2,
        "NGHTTHRU": 2,
        "MAINTRK": 1,
        "SIDINGTRK": 0,
        "YARDTRK": 0,
        "TRANSITTRK": 0,
        "INDUSTRYTR": 0,
        "OTHRTRK": 0,
        "WDCODE": "All other Gates",
        "REVISIONDA": "1996/01/01 00:00:00",
        "LASTUPDATE": "4/29/2026",
        "AADT": "114",
        "AADTYEAR": "2022",
        "STATENAME": "TEXAS",
        "STATEAB": "TX",
        "COUNTYNAME": "LAMB",
        "CITYNAME": "LITTLEFIELD",
        "LATDD": 33.9365523,
        "LONGDD": -102.3451618,
        "gridlyProductionCertified": true,
        "gridlyClassification": "PUBLIC_ROADWAY",
        "gridlyDisplayName": "NORTH SUNSET AVENUE",
        "gridlyId": "FRA-014881E"
      }
    },
    {
      "type": "Feature",
      "id": 214310,
      "geometry": {
        "type": "Point",
        "coordinates": [
          -102.381312099827,
          33.9663610001129
        ]
      },
      "properties": {
        "OBJECTID": 214310,
        "CROSSING": "014878W",
        "EFFDATE": 1777420800000,
        "REASON": "14",
        "StateCode": "48",
        "CountyCode": "48279",
        "STCYFIPS": "48279",
        "CITYCD": "482794010",
        "RAILROAD": "BNSF",
        "RRDIV": "RED RIVER",
        "RRSUBDIV": "SLATON",
        "HIGHWAY": "CR0171",
        "STREET": "COUNTY ROAD 171",
        "TTSTN": "674890",
        "MILEPOST": "0048.874",
        "TYPEXING": "Public",
        "POSXING": "At Grade",
        "PRVCAT": "14",
        "INIT": "2",
        "LATITUDE": 33.966361,
        "LONGITUD": -102.3813121,
        "LLSOURCE": "1",
        "WHISTBAN": "0",
        "RRCONT": "8173521549",
        "POLCONT": "8008325452",
        "INV_LINK": "https://safetydata.fra.dot.gov/OfficeofSafety/PublicSite/Crossing/Crossing.aspx?phasetype=C&rpttype=I&txtcrossingnum=014878W",
        "ACC_LINK": "https://safetydata.fra.dot.gov/OfficeofSafety/PublicSite/Crossing/Crossing.aspx?phasetype=C&rpttype=A&txtcrossingnum=014878W",
        "TTSTNNAM": "AMHERST",
        "XPURPOSE": "1",
        "OPERATINGR": "BNSF",
        "OPERATIN_1": "Primary",
        "DAYTHRU": 2,
        "NGHTTHRU": 2,
        "MAINTRK": 1,
        "SIDINGTRK": 0,
        "YARDTRK": 0,
        "TRANSITTRK": 0,
        "INDUSTRYTR": 0,
        "OTHRTRK": 0,
        "WDCODE": "Crossbucks",
        "REVISIONDA": "1996/01/01 00:00:00",
        "LASTUPDATE": "4/29/2026",
        "AADT": "6",
        "AADTYEAR": "2022",
        "STATENAME": "TEXAS",
        "STATEAB": "TX",
        "COUNTYNAME": "LAMB",
        "CITYNAME": "LITTLEFIELD",
        "LATDD": 33.966361,
        "LONGDD": -102.3813121,
        "gridlyProductionCertified": true,
        "gridlyClassification": "PUBLIC_ROADWAY",
        "gridlyDisplayName": "COUNTY ROAD 171",
        "gridlyId": "FRA-014878W"
      }
    },
    {
      "type": "Feature",
      "id": 214311,
      "geometry": {
        "type": "Point",
        "coordinates": [
          -102.327291600298,
          33.9245411997495
        ]
      },
      "properties": {
        "OBJECTID": 214311,
        "CROSSING": "014883T",
        "EFFDATE": 1777420800000,
        "REASON": "14",
        "StateCode": "48",
        "CountyCode": "48279",
        "STCYFIPS": "48279",
        "CITYCD": "482794010",
        "RAILROAD": "BNSF",
        "RRDIV": "RED RIVER",
        "RRSUBDIV": "SLATON",
        "HIGHWAY": "US0385",
        "STREET": "US0385 / NORTH EASTSIDE AVENUE",
        "TTSTN": "674880",
        "MILEPOST": "0053.120",
        "TYPEXING": "Public",
        "POSXING": "At Grade",
        "PRVCAT": "14",
        "INIT": "2",
        "LATITUDE": 33.9245412,
        "LONGITUD": -102.3272916,
        "LLSOURCE": "1",
        "WHISTBAN": "0",
        "RRCONT": "8173521549",
        "POLCONT": "8008325452",
        "INV_LINK": "https://safetydata.fra.dot.gov/OfficeofSafety/PublicSite/Crossing/Crossing.aspx?phasetype=C&rpttype=I&txtcrossingnum=014883T",
        "ACC_LINK": "https://safetydata.fra.dot.gov/OfficeofSafety/PublicSite/Crossing/Crossing.aspx?phasetype=C&rpttype=A&txtcrossingnum=014883T",
        "TTSTNNAM": "LITTLEFIELD",
        "XPURPOSE": "1",
        "OPERATINGR": "BNSF",
        "OPERATIN_1": "Primary",
        "DAYTHRU": 2,
        "NGHTTHRU": 2,
        "MAINTRK": 1,
        "SIDINGTRK": 1,
        "YARDTRK": 0,
        "TRANSITTRK": 0,
        "INDUSTRYTR": 0,
        "OTHRTRK": 1,
        "WDCODE": "All other Gates",
        "REVISIONDA": "1996/01/01 00:00:00",
        "LASTUPDATE": "4/29/2026",
        "AADT": "2229",
        "AADTYEAR": "2023",
        "STATENAME": "TEXAS",
        "STATEAB": "TX",
        "COUNTYNAME": "LAMB",
        "CITYNAME": "LITTLEFIELD",
        "LATDD": 33.9245412,
        "LONGDD": -102.3272916,
        "gridlyProductionCertified": true,
        "gridlyClassification": "PUBLIC_ROADWAY",
        "gridlyDisplayName": "US0385 / NORTH EASTSIDE AVENUE",
        "gridlyId": "FRA-014883T"
      }
    },
    {
      "type": "Feature",
      "id": 214567,
      "geometry": {
        "type": "Point",
        "coordinates": [
          -102.571458199573,
          34.1038607000814
        ]
      },
      "properties": {
        "OBJECTID": 214567,
        "CROSSING": "014864N",
        "EFFDATE": 1775174400000,
        "REASON": "14",
        "StateCode": "48",
        "CountyCode": "48279",
        "STCYFIPS": "48279",
        "CITYCD": "482796650",
        "RAILROAD": "BNSF",
        "RRDIV": "RED RIVER",
        "RRSUBDIV": "SLATON",
        "HIGHWAY": "CR0065",
        "STREET": "COUNTY ROAD 65",
        "TTSTN": "674860",
        "MILEPOST": "0034.352",
        "TYPEXING": "Public",
        "POSXING": "At Grade",
        "PRVCAT": "14",
        "INIT": "2",
        "LATITUDE": 34.1038607,
        "LONGITUD": -102.5714582,
        "LLSOURCE": "1",
        "WHISTBAN": "0",
        "RRCONT": "8173521549",
        "POLCONT": "8008325452",
        "INV_LINK": "https://safetydata.fra.dot.gov/OfficeofSafety/PublicSite/Crossing/Crossing.aspx?phasetype=C&rpttype=I&txtcrossingnum=014864N",
        "ACC_LINK": "https://safetydata.fra.dot.gov/OfficeofSafety/PublicSite/Crossing/Crossing.aspx?phasetype=C&rpttype=A&txtcrossingnum=014864N",
        "TTSTNNAM": "SUDAN",
        "XPURPOSE": "1",
        "OPERATINGR": "BNSF",
        "OPERATIN_1": "Primary",
        "DAYTHRU": 2,
        "NGHTTHRU": 2,
        "MAINTRK": 1,
        "SIDINGTRK": 0,
        "YARDTRK": 0,
        "TRANSITTRK": 0,
        "INDUSTRYTR": 0,
        "OTHRTRK": 0,
        "WDCODE": "Crossbucks",
        "REVISIONDA": "1996/01/01 00:00:00",
        "LASTUPDATE": "4/3/2026",
        "AADT": "4",
        "AADTYEAR": "2022",
        "STATENAME": "TEXAS",
        "STATEAB": "TX",
        "COUNTYNAME": "LAMB",
        "CITYNAME": "SUDAN",
        "LATDD": 34.1038607,
        "LONGDD": -102.5714582,
        "gridlyProductionCertified": true,
        "gridlyClassification": "PUBLIC_ROADWAY",
        "gridlyDisplayName": "COUNTY ROAD 65",
        "gridlyId": "FRA-014864N"
      }
    },
    {
      "type": "Feature",
      "id": 215029,
      "geometry": {
        "type": "Point",
        "coordinates": [
          -102.589838100392,
          34.1174318997337
        ]
      },
      "properties": {
        "OBJECTID": 215029,
        "CROSSING": "014863G",
        "EFFDATE": 1775174400000,
        "REASON": "14",
        "StateCode": "48",
        "CountyCode": "48279",
        "STCYFIPS": "48279",
        "CITYCD": "482796650",
        "RAILROAD": "BNSF",
        "RRDIV": "RED RIVER",
        "RRSUBDIV": "SLATON",
        "HIGHWAY": "CR0055",
        "STREET": "COUNTY ROAD 55",
        "TTSTN": "674911",
        "MILEPOST": "0032.943",
        "TYPEXING": "Public",
        "POSXING": "At Grade",
        "PRVCAT": "14",
        "INIT": "2",
        "LATITUDE": 34.1174319,
        "LONGITUD": -102.5898381,
        "LLSOURCE": "1",
        "WHISTBAN": "0",
        "RRCONT": "8173521549",
        "POLCONT": "8008325452",
        "INV_LINK": "https://safetydata.fra.dot.gov/OfficeofSafety/PublicSite/Crossing/Crossing.aspx?phasetype=C&rpttype=I&txtcrossingnum=014863G",
        "ACC_LINK": "https://safetydata.fra.dot.gov/OfficeofSafety/PublicSite/Crossing/Crossing.aspx?phasetype=C&rpttype=A&txtcrossingnum=014863G",
        "TTSTNNAM": "MILL",
        "XPURPOSE": "1",
        "OPERATINGR": "BNSF",
        "OPERATIN_1": "Primary",
        "DAYTHRU": 2,
        "NGHTTHRU": 2,
        "MAINTRK": 1,
        "SIDINGTRK": 0,
        "YARDTRK": 0,
        "TRANSITTRK": 0,
        "INDUSTRYTR": 0,
        "OTHRTRK": 0,
        "WDCODE": "Crossbucks",
        "REVISIONDA": "1996/01/01 00:00:00",
        "LASTUPDATE": "4/3/2026",
        "AADT": "3",
        "AADTYEAR": "2022",
        "STATENAME": "TEXAS",
        "STATEAB": "TX",
        "COUNTYNAME": "LAMB",
        "CITYNAME": "SUDAN",
        "LATDD": 34.1174319,
        "LONGDD": -102.5898381,
        "gridlyProductionCertified": true,
        "gridlyClassification": "PUBLIC_ROADWAY",
        "gridlyDisplayName": "COUNTY ROAD 55",
        "gridlyId": "FRA-014863G"
      }
    },
    {
      "type": "Feature",
      "id": 216137,
      "geometry": {
        "type": "Point",
        "coordinates": [
          -102.424925500009,
          33.9984510999736
        ]
      },
      "properties": {
        "OBJECTID": 216137,
        "CROSSING": "014876H",
        "EFFDATE": 1776643200000,
        "REASON": "14",
        "StateCode": "48",
        "CountyCode": "48279",
        "STCYFIPS": "48279",
        "CITYCD": "482796650",
        "RAILROAD": "BNSF",
        "RRDIV": "RED RIVER",
        "RRSUBDIV": "SLATON",
        "HIGHWAY": "FM0037",
        "STREET": "FM0037 / MAINSTREET",
        "TTSTN": "674890",
        "MILEPOST": "0045.530",
        "TYPEXING": "Public",
        "POSXING": "At Grade",
        "PRVCAT": "14",
        "INIT": "2",
        "LATITUDE": 33.9984511,
        "LONGITUD": -102.4249255,
        "LLSOURCE": "1",
        "WHISTBAN": "0",
        "RRCONT": "8173521549",
        "POLCONT": "8008325452",
        "INV_LINK": "https://safetydata.fra.dot.gov/OfficeofSafety/PublicSite/Crossing/Crossing.aspx?phasetype=C&rpttype=I&txtcrossingnum=014876H",
        "ACC_LINK": "https://safetydata.fra.dot.gov/OfficeofSafety/PublicSite/Crossing/Crossing.aspx?phasetype=C&rpttype=A&txtcrossingnum=014876H",
        "TTSTNNAM": "AMHERST",
        "XPURPOSE": "1",
        "OPERATINGR": "BNSF",
        "OPERATIN_1": "Primary",
        "DAYTHRU": 2,
        "NGHTTHRU": 2,
        "MAINTRK": 1,
        "SIDINGTRK": 0,
        "YARDTRK": 1,
        "TRANSITTRK": 0,
        "INDUSTRYTR": 0,
        "OTHRTRK": 1,
        "WDCODE": "All other Gates",
        "REVISIONDA": "1996/01/01 00:00:00",
        "LASTUPDATE": "4/20/2026",
        "AADT": "1430",
        "AADTYEAR": "2019",
        "STATENAME": "TEXAS",
        "STATEAB": "TX",
        "COUNTYNAME": "LAMB",
        "CITYNAME": "SUDAN",
        "LATDD": 33.9984511,
        "LONGDD": -102.4249255,
        "gridlyProductionCertified": true,
        "gridlyClassification": "PUBLIC_ROADWAY",
        "gridlyDisplayName": "FM0037 / MAINSTREET",
        "gridlyId": "FRA-014876H"
      }
    },
    {
      "type": "Feature",
      "id": 216138,
      "geometry": {
        "type": "Point",
        "coordinates": [
          -102.481495899812,
          34.0334420998511
        ]
      },
      "properties": {
        "OBJECTID": 216138,
        "CROSSING": "014873M",
        "EFFDATE": 1776643200000,
        "REASON": "14",
        "StateCode": "48",
        "CountyCode": "48279",
        "STCYFIPS": "48279",
        "CITYCD": "482796650",
        "RAILROAD": "BNSF",
        "RRDIV": "RED RIVER",
        "RRSUBDIV": "SLATON",
        "HIGHWAY": "CR0115",
        "STREET": "COUNTY ROAD 115",
        "TTSTN": "674860",
        "MILEPOST": "0041.483",
        "TYPEXING": "Public",
        "POSXING": "At Grade",
        "PRVCAT": "14",
        "INIT": "2",
        "LATITUDE": 34.0334421,
        "LONGITUD": -102.4814959,
        "LLSOURCE": "1",
        "WHISTBAN": "0",
        "RRCONT": "8173521549",
        "POLCONT": "8008325452",
        "INV_LINK": "https://safetydata.fra.dot.gov/OfficeofSafety/PublicSite/Crossing/Crossing.aspx?phasetype=C&rpttype=I&txtcrossingnum=014873M",
        "ACC_LINK": "https://safetydata.fra.dot.gov/OfficeofSafety/PublicSite/Crossing/Crossing.aspx?phasetype=C&rpttype=A&txtcrossingnum=014873M",
        "TTSTNNAM": "SUDAN",
        "XPURPOSE": "1",
        "OPERATINGR": "BNSF",
        "OPERATIN_1": "Primary",
        "DAYTHRU": 2,
        "NGHTTHRU": 2,
        "MAINTRK": 1,
        "SIDINGTRK": 0,
        "YARDTRK": 0,
        "TRANSITTRK": 0,
        "INDUSTRYTR": 0,
        "OTHRTRK": 0,
        "WDCODE": "Crossbucks",
        "REVISIONDA": "1996/01/01 00:00:00",
        "LASTUPDATE": "4/20/2026",
        "AADT": "15",
        "AADTYEAR": "2022",
        "STATENAME": "TEXAS",
        "STATEAB": "TX",
        "COUNTYNAME": "LAMB",
        "CITYNAME": "SUDAN",
        "LATDD": 34.0334421,
        "LONGDD": -102.4814959,
        "gridlyProductionCertified": true,
        "gridlyClassification": "PUBLIC_ROADWAY",
        "gridlyDisplayName": "COUNTY ROAD 115",
        "gridlyId": "FRA-014873M"
      }
    },
    {
      "type": "Feature",
      "id": 216139,
      "geometry": {
        "type": "Point",
        "coordinates": [
          -102.462024500108,
          34.0213952000964
        ]
      },
      "properties": {
        "OBJECTID": 216139,
        "CROSSING": "014874U",
        "EFFDATE": 1776643200000,
        "REASON": "14",
        "StateCode": "48",
        "CountyCode": "48279",
        "STCYFIPS": "48279",
        "CITYCD": "482796650",
        "RAILROAD": "BNSF",
        "RRDIV": "RED RIVER",
        "RRSUBDIV": "SLATON",
        "HIGHWAY": "CR0125",
        "STREET": "COUNTY ROAD 125",
        "TTSTN": "674890",
        "MILEPOST": "0042.876",
        "TYPEXING": "Public",
        "POSXING": "At Grade",
        "PRVCAT": "14",
        "INIT": "2",
        "LATITUDE": 34.0213952,
        "LONGITUD": -102.4620245,
        "LLSOURCE": "1",
        "WHISTBAN": "0",
        "RRCONT": "8173521549",
        "POLCONT": "8008325452",
        "INV_LINK": "https://safetydata.fra.dot.gov/OfficeofSafety/PublicSite/Crossing/Crossing.aspx?phasetype=C&rpttype=I&txtcrossingnum=014874U",
        "ACC_LINK": "https://safetydata.fra.dot.gov/OfficeofSafety/PublicSite/Crossing/Crossing.aspx?phasetype=C&rpttype=A&txtcrossingnum=014874U",
        "TTSTNNAM": "AMHERST",
        "XPURPOSE": "1",
        "OPERATINGR": "BNSF",
        "OPERATIN_1": "Primary",
        "DAYTHRU": 2,
        "NGHTTHRU": 2,
        "MAINTRK": 1,
        "SIDINGTRK": 0,
        "YARDTRK": 0,
        "TRANSITTRK": 0,
        "INDUSTRYTR": 0,
        "OTHRTRK": 0,
        "WDCODE": "Crossbucks",
        "REVISIONDA": "1996/01/01 00:00:00",
        "LASTUPDATE": "4/20/2026",
        "AADT": "48",
        "AADTYEAR": "2022",
        "STATENAME": "TEXAS",
        "STATEAB": "TX",
        "COUNTYNAME": "LAMB",
        "CITYNAME": "SUDAN",
        "LATDD": 34.0213952,
        "LONGDD": -102.4620245,
        "gridlyProductionCertified": true,
        "gridlyClassification": "PUBLIC_ROADWAY",
        "gridlyDisplayName": "COUNTY ROAD 125",
        "gridlyId": "FRA-014874U"
      }
    }
  ]
}
