{
  "type": "FeatureCollection",
  "features": [
    {
      "type": "Feature",
      "id": 201662,
      "geometry": {
        "type": "Point",
        "coordinates": [
          -99.6474378004456,
          29.2927003003441
        ]
      },
      "properties": {
        "OBJECTID": 201662,
        "CROSSING": "742829H",
        "EFFDATE": 1776902400000,
        "REASON": "14",
        "StateCode": "48",
        "CountyCode": "48463",
        "STCYFIPS": "48463",
        "CITYCD": "484633724",
        "RAILROAD": "UP",
        "RRDIV": "SOUTH TEXAS",
        "RRSUBDIV": "DEL RIO SUB",
        "HIGHWAY": "CR0607",
        "STREET": "WEST MAIN STREET",
        "TTSTN": "692765",
        "MILEPOST": "0290.880",
        "TYPEXING": "Public",
        "POSXING": "RR Over",
        "PRVCAT": "14",
        "INIT": "2",
        "LATITUDE": 29.2927003,
        "LONGITUD": -99.6474378,
        "LLSOURCE": "1",
        "WHISTBAN": "0",
        "RRCONT": "4025443721",
        "POLCONT": "8008488715",
        "INV_LINK": "https://safetydata.fra.dot.gov/OfficeofSafety/PublicSite/Crossing/Crossing.aspx?phasetype=C&rpttype=I&txtcrossingnum=742829H",
        "ACC_LINK": "https://safetydata.fra.dot.gov/OfficeofSafety/PublicSite/Crossing/Crossing.aspx?phasetype=C&rpttype=A&txtcrossingnum=742829H",
        "TTSTNNAM": "",
        "XPURPOSE": "1",
        "OPERATINGR": "UP",
        "OPERATIN_1": "Primary",
        "DAYTHRU": 16,
        "NGHTTHRU": 16,
        "MAINTRK": 1,
        "SIDINGTRK": 0,
        "YARDTRK": 0,
        "TRANSITTRK": 0,
        "INDUSTRYTR": 0,
        "OTHRTRK": 0,
        "WDCODE": "",
        "REVISIONDA": "1975/01/01 00:00:00",
        "LASTUPDATE": "4/23/2026",
        "AADT": "80",
        "AADTYEAR": "2010",
        "STATENAME": "TEXAS",
        "STATEAB": "TX",
        "COUNTYNAME": "UVALDE",
        "CITYNAME": "KNIPPA",
        "LATDD": 29.2927003,
        "LONGDD": -99.6474378,
        "gridlyProductionCertified": true,
        "gridlyClassification": "PUBLIC_ROADWAY",
        "gridlyDisplayName": "WEST MAIN STREET",
        "gridlyId": "FRA-742829H"
      }
    },
    {
      "type": "Feature",
      "id": 201663,
      "geometry": {
        "type": "Point",
        "coordinates": [
          -99.6481402003527,
          29.2925363000165
        ]
      },
      "properties": {
        "OBJECTID": 201663,
        "CROSSING": "742834E",
        "EFFDATE": 1776902400000,
        "REASON": "14",
        "StateCode": "48",
        "CountyCode": "48463",
        "STCYFIPS": "48463",
        "CITYCD": "484633724",
        "RAILROAD": "UP",
        "RRDIV": "SOUTH TEXAS",
        "RRSUBDIV": "DEL RIO SUB",
        "HIGHWAY": "CR0000",
        "STREET": "COUNTY ROAD",
        "TTSTN": "692765",
        "MILEPOST": "0291.350",
        "TYPEXING": "Public",
        "POSXING": "RR Over",
        "PRVCAT": "14",
        "INIT": "2",
        "LATITUDE": 29.2925363,
        "LONGITUD": -99.6481402,
        "LLSOURCE": "1",
        "WHISTBAN": "0",
        "RRCONT": "4025443721",
        "POLCONT": "8008488715",
        "INV_LINK": "https://safetydata.fra.dot.gov/OfficeofSafety/PublicSite/Crossing/Crossing.aspx?phasetype=C&rpttype=I&txtcrossingnum=742834E",
        "ACC_LINK": "https://safetydata.fra.dot.gov/OfficeofSafety/PublicSite/Crossing/Crossing.aspx?phasetype=C&rpttype=A&txtcrossingnum=742834E",
        "TTSTNNAM": "",
        "XPURPOSE": "1",
        "OPERATINGR": "UP",
        "OPERATIN_1": "Primary",
        "DAYTHRU": 16,
        "NGHTTHRU": 16,
        "MAINTRK": 1,
        "SIDINGTRK": 0,
        "YARDTRK": 0,
        "TRANSITTRK": 0,
        "INDUSTRYTR": 0,
        "OTHRTRK": 0,
        "WDCODE": "",
        "REVISIONDA": "1975/01/01 00:00:00",
        "LASTUPDATE": "4/23/2026",
        "AADT": "1",
        "AADTYEAR": "1970",
        "STATENAME": "TEXAS",
        "STATEAB": "TX",
        "COUNTYNAME": "UVALDE",
        "CITYNAME": "KNIPPA",
        "LATDD": 29.2925363,
        "LONGDD": -99.6481402,
        "gridlyProductionCertified": true,
        "gridlyClassification": "PUBLIC_ROADWAY",
        "gridlyDisplayName": "COUNTY ROAD",
        "gridlyId": "FRA-742834E"
      }
    },
    {
      "type": "Feature",
      "id": 201989,
      "geometry": {
        "type": "Point",
        "coordinates": [
          -100.083459200239,
          29.2430454999506
        ]
      },
      "properties": {
        "OBJECTID": 201989,
        "CROSSING": "742853J",
        "EFFDATE": 1777507200000,
        "REASON": "14",
        "StateCode": "48",
        "CountyCode": "48463",
        "STCYFIPS": "48463",
        "CITYCD": "484631392",
        "RAILROAD": "UP",
        "RRDIV": "SOUTH TEXAS",
        "RRSUBDIV": "Cline Mine Ind Ld",
        "HIGHWAY": "CO 0000",
        "STREET": "CR 212",
        "TTSTN": "692784",
        "MILEPOST": "0000.130",
        "TYPEXING": "Public",
        "POSXING": "At Grade",
        "PRVCAT": "14",
        "INIT": "2",
        "LATITUDE": 29.2430455,
        "LONGITUD": -100.0834592,
        "LLSOURCE": "1",
        "WHISTBAN": "0",
        "RRCONT": "4025443721",
        "POLCONT": "8008488715",
        "INV_LINK": "https://safetydata.fra.dot.gov/OfficeofSafety/PublicSite/Crossing/Crossing.aspx?phasetype=C&rpttype=I&txtcrossingnum=742853J",
        "ACC_LINK": "https://safetydata.fra.dot.gov/OfficeofSafety/PublicSite/Crossing/Crossing.aspx?phasetype=C&rpttype=A&txtcrossingnum=742853J",
        "TTSTNNAM": "",
        "XPURPOSE": "1",
        "OPERATINGR": "UP",
        "OPERATIN_1": "Primary",
        "DAYTHRU": 2,
        "NGHTTHRU": 2,
        "MAINTRK": 0,
        "SIDINGTRK": 0,
        "YARDTRK": 0,
        "TRANSITTRK": 0,
        "INDUSTRYTR": 1,
        "OTHRTRK": 0,
        "WDCODE": "Crossbucks",
        "REVISIONDA": "1975/01/01 00:00:00",
        "LASTUPDATE": "4/30/2026",
        "AADT": "40",
        "AADTYEAR": "2010",
        "STATENAME": "TEXAS",
        "STATEAB": "TX",
        "COUNTYNAME": "UVALDE",
        "CITYNAME": "CLINE",
        "LATDD": 29.2430455,
        "LONGDD": -100.0834592,
        "gridlyProductionCertified": true,
        "gridlyClassification": "PUBLIC_ROADWAY",
        "gridlyDisplayName": "CR 212",
        "gridlyId": "FRA-742853J"
      }
    },
    {
      "type": "Feature",
      "id": 202342,
      "geometry": {
        "type": "Point",
        "coordinates": [
          -99.6487518003476,
          29.292397499929
        ]
      },
      "properties": {
        "OBJECTID": 202342,
        "CROSSING": "742835L",
        "EFFDATE": 1776902400000,
        "REASON": "14",
        "StateCode": "48",
        "CountyCode": "48463",
        "STCYFIPS": "48463",
        "CITYCD": "484633724",
        "RAILROAD": "UP",
        "RRDIV": "SOUTH TEXAS",
        "RRSUBDIV": "DEL RIO SUB",
        "HIGHWAY": "CR0000",
        "STREET": "COUNTY ROAD",
        "TTSTN": "692765",
        "MILEPOST": "0291.390",
        "TYPEXING": "Public",
        "POSXING": "RR Over",
        "PRVCAT": "14",
        "INIT": "2",
        "LATITUDE": 29.2923975,
        "LONGITUD": -99.6487518,
        "LLSOURCE": "1",
        "WHISTBAN": "0",
        "RRCONT": "4025443721",
        "POLCONT": "8008488715",
        "INV_LINK": "https://safetydata.fra.dot.gov/OfficeofSafety/PublicSite/Crossing/Crossing.aspx?phasetype=C&rpttype=I&txtcrossingnum=742835L",
        "ACC_LINK": "https://safetydata.fra.dot.gov/OfficeofSafety/PublicSite/Crossing/Crossing.aspx?phasetype=C&rpttype=A&txtcrossingnum=742835L",
        "TTSTNNAM": "",
        "XPURPOSE": "1",
        "OPERATINGR": "UP",
        "OPERATIN_1": "Primary",
        "DAYTHRU": 16,
        "NGHTTHRU": 16,
        "MAINTRK": 1,
        "SIDINGTRK": 0,
        "YARDTRK": 0,
        "TRANSITTRK": 0,
        "INDUSTRYTR": 0,
        "OTHRTRK": 0,
        "WDCODE": "",
        "REVISIONDA": "1975/01/01 00:00:00",
        "LASTUPDATE": "4/23/2026",
        "AADT": "1",
        "AADTYEAR": "1970",
        "STATENAME": "TEXAS",
        "STATEAB": "TX",
        "COUNTYNAME": "UVALDE",
        "CITYNAME": "KNIPPA",
        "LATDD": 29.2923975,
        "LONGDD": -99.6487518,
        "gridlyProductionCertified": true,
        "gridlyClassification": "PUBLIC_ROADWAY",
        "gridlyDisplayName": "COUNTY ROAD",
        "gridlyId": "FRA-742835L"
      }
    },
    {
      "type": "Feature",
      "id": 202343,
      "geometry": {
        "type": "Point",
        "coordinates": [
          -99.7928608003591,
          29.2337950997679
        ]
      },
      "properties": {
        "OBJECTID": 202343,
        "CROSSING": "742837A",
        "EFFDATE": 1776902400000,
        "REASON": "14",
        "StateCode": "48",
        "CountyCode": "48463",
        "STCYFIPS": "48463",
        "CITYCD": "484637090",
        "RAILROAD": "UP",
        "RRDIV": "SOUTH TEXAS",
        "RRSUBDIV": "DEL RIO SUB",
        "HIGHWAY": "US0083",
        "STREET": "US0083 / MILAM STREET",
        "TTSTN": "692770",
        "MILEPOST": "0300.822",
        "TYPEXING": "Public",
        "POSXING": "RR Under",
        "PRVCAT": "14",
        "INIT": "2",
        "LATITUDE": 29.2337951,
        "LONGITUD": -99.7928608,
        "LLSOURCE": "1",
        "WHISTBAN": "0",
        "RRCONT": "4025443721",
        "POLCONT": "8008488715",
        "INV_LINK": "https://safetydata.fra.dot.gov/OfficeofSafety/PublicSite/Crossing/Crossing.aspx?phasetype=C&rpttype=I&txtcrossingnum=742837A",
        "ACC_LINK": "https://safetydata.fra.dot.gov/OfficeofSafety/PublicSite/Crossing/Crossing.aspx?phasetype=C&rpttype=A&txtcrossingnum=742837A",
        "TTSTNNAM": "",
        "XPURPOSE": "1",
        "OPERATINGR": "UP",
        "OPERATIN_1": "Primary",
        "DAYTHRU": 16,
        "NGHTTHRU": 16,
        "MAINTRK": 1,
        "SIDINGTRK": 0,
        "YARDTRK": 0,
        "TRANSITTRK": 0,
        "INDUSTRYTR": 1,
        "OTHRTRK": 0,
        "WDCODE": "",
        "REVISIONDA": "1975/01/01 00:00:00",
        "LASTUPDATE": "4/23/2026",
        "AADT": "6599",
        "AADTYEAR": "2024",
        "STATENAME": "TEXAS",
        "STATEAB": "TX",
        "COUNTYNAME": "UVALDE",
        "CITYNAME": "UVALDE",
        "LATDD": 29.2337951,
        "LONGDD": -99.7928608,
        "gridlyProductionCertified": true,
        "gridlyClassification": "PUBLIC_ROADWAY",
        "gridlyDisplayName": "US0083 / MILAM STREET",
        "gridlyId": "FRA-742837A"
      }
    },
    {
      "type": "Feature",
      "id": 205982,
      "geometry": {
        "type": "Point",
        "coordinates": [
          -100.083554600424,
          29.2434512000296
        ]
      },
      "properties": {
        "OBJECTID": 205982,
        "CROSSING": "742854R",
        "EFFDATE": 1772755200000,
        "REASON": "14",
        "StateCode": "48",
        "CountyCode": "48463",
        "STCYFIPS": "48463",
        "CITYCD": "484631392",
        "RAILROAD": "UP",
        "RRDIV": "SOUTH TEXAS",
        "RRSUBDIV": "DEL RIO SUB",
        "HIGHWAY": "CR0000",
        "STREET": "COUNTY ROAD 212",
        "TTSTN": "692784",
        "MILEPOST": "0319.390",
        "TYPEXING": "Public",
        "POSXING": "At Grade",
        "PRVCAT": "14",
        "INIT": "2",
        "LATITUDE": 29.2434512,
        "LONGITUD": -100.0835546,
        "LLSOURCE": "1",
        "WHISTBAN": "0",
        "RRCONT": "4025443721",
        "POLCONT": "8008488715",
        "INV_LINK": "https://safetydata.fra.dot.gov/OfficeofSafety/PublicSite/Crossing/Crossing.aspx?phasetype=C&rpttype=I&txtcrossingnum=742854R",
        "ACC_LINK": "https://safetydata.fra.dot.gov/OfficeofSafety/PublicSite/Crossing/Crossing.aspx?phasetype=C&rpttype=A&txtcrossingnum=742854R",
        "TTSTNNAM": "",
        "XPURPOSE": "1",
        "OPERATINGR": "UP",
        "OPERATIN_1": "Primary",
        "DAYTHRU": 13,
        "NGHTTHRU": 13,
        "MAINTRK": 1,
        "SIDINGTRK": 0,
        "YARDTRK": 0,
        "TRANSITTRK": 0,
        "INDUSTRYTR": 0,
        "OTHRTRK": 0,
        "WDCODE": "Crossbucks",
        "REVISIONDA": "1975/01/01 00:00:00",
        "LASTUPDATE": "3/6/2026",
        "AADT": "40",
        "AADTYEAR": "2010",
        "STATENAME": "TEXAS",
        "STATEAB": "TX",
        "COUNTYNAME": "UVALDE",
        "CITYNAME": "CLINE",
        "LATDD": 29.2434512,
        "LONGDD": -100.0835546,
        "gridlyProductionCertified": true,
        "gridlyClassification": "PUBLIC_ROADWAY",
        "gridlyDisplayName": "COUNTY ROAD 212",
        "gridlyId": "FRA-742854R"
      }
    },
    {
      "type": "Feature",
      "id": 205983,
      "geometry": {
        "type": "Point",
        "coordinates": [
          -100.082515200233,
          29.2427331997464
        ]
      },
      "properties": {
        "OBJECTID": 205983,
        "CROSSING": "742855X",
        "EFFDATE": 1772755200000,
        "REASON": "14",
        "StateCode": "48",
        "CountyCode": "48463",
        "STCYFIPS": "48463",
        "CITYCD": "484631392",
        "RAILROAD": "UP",
        "RRDIV": "SOUTH TEXAS",
        "RRSUBDIV": "Cline Mine Ind Ld",
        "HIGHWAY": "US0090",
        "STREET": "US0090",
        "TTSTN": "692784",
        "MILEPOST": "0000.190",
        "TYPEXING": "Public",
        "POSXING": "At Grade",
        "PRVCAT": "14",
        "INIT": "2",
        "LATITUDE": 29.2427332,
        "LONGITUD": -100.0825152,
        "LLSOURCE": "1",
        "WHISTBAN": "0",
        "RRCONT": "4025443721",
        "POLCONT": "8008488715",
        "INV_LINK": "https://safetydata.fra.dot.gov/OfficeofSafety/PublicSite/Crossing/Crossing.aspx?phasetype=C&rpttype=I&txtcrossingnum=742855X",
        "ACC_LINK": "https://safetydata.fra.dot.gov/OfficeofSafety/PublicSite/Crossing/Crossing.aspx?phasetype=C&rpttype=A&txtcrossingnum=742855X",
        "TTSTNNAM": "",
        "XPURPOSE": "1",
        "OPERATINGR": "UP",
        "OPERATIN_1": "Primary",
        "DAYTHRU": 2,
        "NGHTTHRU": 2,
        "MAINTRK": 0,
        "SIDINGTRK": 0,
        "YARDTRK": 0,
        "TRANSITTRK": 0,
        "INDUSTRYTR": 1,
        "OTHRTRK": 1,
        "WDCODE": "Flashing lights",
        "REVISIONDA": "1975/01/01 00:00:00",
        "LASTUPDATE": "3/6/2026",
        "AADT": "3999",
        "AADTYEAR": "2024",
        "STATENAME": "TEXAS",
        "STATEAB": "TX",
        "COUNTYNAME": "UVALDE",
        "CITYNAME": "CLINE",
        "LATDD": 29.2427332,
        "LONGDD": -100.0825152,
        "gridlyProductionCertified": true,
        "gridlyClassification": "PUBLIC_ROADWAY",
        "gridlyDisplayName": "US0090",
        "gridlyId": "FRA-742855X"
      }
    },
    {
      "type": "Feature",
      "id": 205984,
      "geometry": {
        "type": "Point",
        "coordinates": [
          -99.6514137995886,
          29.2915257003869
        ]
      },
      "properties": {
        "OBJECTID": 205984,
        "CROSSING": "742832R",
        "EFFDATE": 1772755200000,
        "REASON": "14",
        "StateCode": "48",
        "CountyCode": "48463",
        "STCYFIPS": "48463",
        "CITYCD": "484633724",
        "RAILROAD": "UP",
        "RRDIV": "SOUTH TEXAS",
        "RRSUBDIV": "DEL RIO SUB",
        "HIGHWAY": "US0090",
        "STREET": "US0090",
        "TTSTN": "692765",
        "MILEPOST": "0291.101",
        "TYPEXING": "Public",
        "POSXING": "At Grade",
        "PRVCAT": "14",
        "INIT": "2",
        "LATITUDE": 29.2915257,
        "LONGITUD": -99.6514138,
        "LLSOURCE": "1",
        "WHISTBAN": "0",
        "RRCONT": "4025443721",
        "POLCONT": "8008488715",
        "INV_LINK": "https://safetydata.fra.dot.gov/OfficeofSafety/PublicSite/Crossing/Crossing.aspx?phasetype=C&rpttype=I&txtcrossingnum=742832R",
        "ACC_LINK": "https://safetydata.fra.dot.gov/OfficeofSafety/PublicSite/Crossing/Crossing.aspx?phasetype=C&rpttype=A&txtcrossingnum=742832R",
        "TTSTNNAM": "",
        "XPURPOSE": "1",
        "OPERATINGR": "UP",
        "OPERATIN_1": "Primary",
        "DAYTHRU": 0,
        "NGHTTHRU": 0,
        "MAINTRK": 0,
        "SIDINGTRK": 0,
        "YARDTRK": 0,
        "TRANSITTRK": 0,
        "INDUSTRYTR": 1,
        "OTHRTRK": 1,
        "WDCODE": "Flashing lights",
        "REVISIONDA": "1975/01/01 00:00:00",
        "LASTUPDATE": "3/6/2026",
        "AADT": "8608",
        "AADTYEAR": "2023",
        "STATENAME": "TEXAS",
        "STATEAB": "TX",
        "COUNTYNAME": "UVALDE",
        "CITYNAME": "KNIPPA",
        "LATDD": 29.2915257,
        "LONGDD": -99.6514138,
        "gridlyProductionCertified": true,
        "gridlyClassification": "PUBLIC_ROADWAY",
        "gridlyDisplayName": "US0090",
        "gridlyId": "FRA-742832R"
      }
    },
    {
      "type": "Feature",
      "id": 205985,
      "geometry": {
        "type": "Point",
        "coordinates": [
          -99.7952168998896,
          29.2341572000655
        ]
      },
      "properties": {
        "OBJECTID": 205985,
        "CROSSING": "742838G",
        "EFFDATE": 1772755200000,
        "REASON": "14",
        "StateCode": "48",
        "CountyCode": "48463",
        "STCYFIPS": "48463",
        "CITYCD": "484637090",
        "RAILROAD": "UP",
        "RRDIV": "SOUTH TEXAS",
        "RRSUBDIV": "DEL RIO SUB",
        "HIGHWAY": "LS0000",
        "STREET": "KNOX STREET",
        "TTSTN": "692770",
        "MILEPOST": "0300.950",
        "TYPEXING": "Public",
        "POSXING": "At Grade",
        "PRVCAT": "14",
        "INIT": "2",
        "LATITUDE": 29.2341572,
        "LONGITUD": -99.7952169,
        "LLSOURCE": "1",
        "WHISTBAN": "0",
        "RRCONT": "4025443721",
        "POLCONT": "8008488715",
        "INV_LINK": "https://safetydata.fra.dot.gov/OfficeofSafety/PublicSite/Crossing/Crossing.aspx?phasetype=C&rpttype=I&txtcrossingnum=742838G",
        "ACC_LINK": "https://safetydata.fra.dot.gov/OfficeofSafety/PublicSite/Crossing/Crossing.aspx?phasetype=C&rpttype=A&txtcrossingnum=742838G",
        "TTSTNNAM": "",
        "XPURPOSE": "1",
        "OPERATINGR": "UP",
        "OPERATIN_1": "Primary",
        "DAYTHRU": 10,
        "NGHTTHRU": 10,
        "MAINTRK": 1,
        "SIDINGTRK": 0,
        "YARDTRK": 0,
        "TRANSITTRK": 0,
        "INDUSTRYTR": 1,
        "OTHRTRK": 2,
        "WDCODE": "All other Gates",
        "REVISIONDA": "1975/01/01 00:00:00",
        "LASTUPDATE": "3/6/2026",
        "AADT": "1523",
        "AADTYEAR": "2020",
        "STATENAME": "TEXAS",
        "STATEAB": "TX",
        "COUNTYNAME": "UVALDE",
        "CITYNAME": "UVALDE",
        "LATDD": 29.2341572,
        "LONGDD": -99.7952169,
        "gridlyProductionCertified": true,
        "gridlyClassification": "PUBLIC_ROADWAY",
        "gridlyDisplayName": "KNOX STREET",
        "gridlyId": "FRA-742838G"
      }
    },
    {
      "type": "Feature",
      "id": 206320,
      "geometry": {
        "type": "Point",
        "coordinates": [
          -99.4189843003552,
          29.3287442003538
        ]
      },
      "properties": {
        "OBJECTID": 206320,
        "CROSSING": "742763K",
        "EFFDATE": 1756425600000,
        "REASON": "14",
        "StateCode": "48",
        "CountyCode": "48463",
        "STCYFIPS": "48463",
        "CITYCD": "484636050",
        "RAILROAD": "UP",
        "RRDIV": "SOUTH TEXAS",
        "RRSUBDIV": "DEL RIO SUB",
        "HIGHWAY": "NA",
        "STREET": "PRIVATE",
        "TTSTN": "692762",
        "MILEPOST": "0276.500",
        "TYPEXING": "Private",
        "POSXING": "At Grade",
        "PRVCAT": "14",
        "INIT": "1",
        "LATITUDE": 29.3287442,
        "LONGITUD": -99.4189843,
        "LLSOURCE": "1",
        "WHISTBAN": "0",
        "RRCONT": "4025443721",
        "POLCONT": "8008488715",
        "INV_LINK": "https://safetydata.fra.dot.gov/OfficeofSafety/PublicSite/Crossing/Crossing.aspx?phasetype=C&rpttype=I&txtcrossingnum=742763K",
        "ACC_LINK": "https://safetydata.fra.dot.gov/OfficeofSafety/PublicSite/Crossing/Crossing.aspx?phasetype=C&rpttype=A&txtcrossingnum=742763K",
        "TTSTNNAM": "",
        "XPURPOSE": "1",
        "OPERATINGR": "UP",
        "OPERATIN_1": "Primary",
        "DAYTHRU": 10,
        "NGHTTHRU": 10,
        "MAINTRK": 1,
        "SIDINGTRK": 0,
        "YARDTRK": 0,
        "TRANSITTRK": 0,
        "INDUSTRYTR": 0,
        "OTHRTRK": 0,
        "WDCODE": "",
        "REVISIONDA": "1975/01/01 00:00:00",
        "LASTUPDATE": "8/29/2025",
        "AADT": "1",
        "AADTYEAR": "1970",
        "STATENAME": "TEXAS",
        "STATEAB": "TX",
        "COUNTYNAME": "UVALDE",
        "CITYNAME": "SABINAL",
        "LATDD": 29.3287442,
        "LONGDD": -99.4189843,
        "gridlyProductionCertified": true,
        "gridlyClassification": "PUBLIC_ROADWAY",
        "gridlyDisplayName": "PRIVATE",
        "gridlyId": "FRA-742763K"
      }
    },
    {
      "type": "Feature",
      "id": 206328,
      "geometry": {
        "type": "Point",
        "coordinates": [
          -99.6663825996444,
          29.2881819002455
        ]
      },
      "properties": {
        "OBJECTID": 206328,
        "CROSSING": "742830C",
        "EFFDATE": 1756425600000,
        "REASON": "14",
        "StateCode": "48",
        "CountyCode": "48463",
        "STCYFIPS": "48463",
        "CITYCD": "484633724",
        "RAILROAD": "UP",
        "RRDIV": "SOUTH TEXAS",
        "RRSUBDIV": "DEL RIO SUB",
        "HIGHWAY": "NA",
        "STREET": "PRIVATE",
        "TTSTN": "692765",
        "MILEPOST": "0292.170",
        "TYPEXING": "Private",
        "POSXING": "At Grade",
        "PRVCAT": "14",
        "INIT": "1",
        "LATITUDE": 29.2881819,
        "LONGITUD": -99.6663826,
        "LLSOURCE": "1",
        "WHISTBAN": "0",
        "RRCONT": "4025443721",
        "POLCONT": "8008488715",
        "INV_LINK": "https://safetydata.fra.dot.gov/OfficeofSafety/PublicSite/Crossing/Crossing.aspx?phasetype=C&rpttype=I&txtcrossingnum=742830C",
        "ACC_LINK": "https://safetydata.fra.dot.gov/OfficeofSafety/PublicSite/Crossing/Crossing.aspx?phasetype=C&rpttype=A&txtcrossingnum=742830C",
        "TTSTNNAM": "",
        "XPURPOSE": "1",
        "OPERATINGR": "UP",
        "OPERATIN_1": "Primary",
        "DAYTHRU": 10,
        "NGHTTHRU": 10,
        "MAINTRK": 1,
        "SIDINGTRK": 0,
        "YARDTRK": 0,
        "TRANSITTRK": 0,
        "INDUSTRYTR": 0,
        "OTHRTRK": 0,
        "WDCODE": "",
        "REVISIONDA": "1975/01/01 00:00:00",
        "LASTUPDATE": "8/29/2025",
        "AADT": "1",
        "AADTYEAR": "1970",
        "STATENAME": "TEXAS",
        "STATEAB": "TX",
        "COUNTYNAME": "UVALDE",
        "CITYNAME": "KNIPPA",
        "LATDD": 29.2881819,
        "LONGDD": -99.6663826,
        "gridlyProductionCertified": true,
        "gridlyClassification": "PUBLIC_ROADWAY",
        "gridlyDisplayName": "PRIVATE",
        "gridlyId": "FRA-742830C"
      }
    },
    {
      "type": "Feature",
      "id": 206330,
      "geometry": {
        "type": "Point",
        "coordinates": [
          -99.4973379995847,
          29.3128608996123
        ]
      },
      "properties": {
        "OBJECTID": 206330,
        "CROSSING": "742819C",
        "EFFDATE": 1756425600000,
        "REASON": "14",
        "StateCode": "48",
        "CountyCode": "48463",
        "STCYFIPS": "48463",
        "CITYCD": "484636050",
        "RAILROAD": "UP",
        "RRDIV": "SOUTH TEXAS",
        "RRSUBDIV": "DEL RIO SUB",
        "HIGHWAY": "NA",
        "STREET": "PRIVATE",
        "TTSTN": "692762",
        "MILEPOST": "0281.450",
        "TYPEXING": "Private",
        "POSXING": "At Grade",
        "PRVCAT": "14",
        "INIT": "1",
        "LATITUDE": 29.3128609,
        "LONGITUD": -99.497338,
        "LLSOURCE": "1",
        "WHISTBAN": "0",
        "RRCONT": "4025443721",
        "POLCONT": "8008488715",
        "INV_LINK": "https://safetydata.fra.dot.gov/OfficeofSafety/PublicSite/Crossing/Crossing.aspx?phasetype=C&rpttype=I&txtcrossingnum=742819C",
        "ACC_LINK": "https://safetydata.fra.dot.gov/OfficeofSafety/PublicSite/Crossing/Crossing.aspx?phasetype=C&rpttype=A&txtcrossingnum=742819C",
        "TTSTNNAM": "",
        "XPURPOSE": "1",
        "OPERATINGR": "UP",
        "OPERATIN_1": "Primary",
        "DAYTHRU": 10,
        "NGHTTHRU": 10,
        "MAINTRK": 1,
        "SIDINGTRK": 0,
        "YARDTRK": 0,
        "TRANSITTRK": 0,
        "INDUSTRYTR": 0,
        "OTHRTRK": 0,
        "WDCODE": "",
        "REVISIONDA": "1975/01/01 00:00:00",
        "LASTUPDATE": "8/29/2025",
        "AADT": "1",
        "AADTYEAR": "1970",
        "STATENAME": "TEXAS",
        "STATEAB": "TX",
        "COUNTYNAME": "UVALDE",
        "CITYNAME": "SABINAL",
        "LATDD": 29.3128609,
        "LONGDD": -99.497338,
        "gridlyProductionCertified": true,
        "gridlyClassification": "PUBLIC_ROADWAY",
        "gridlyDisplayName": "PRIVATE",
        "gridlyId": "FRA-742819C"
      }
    },
    {
      "type": "Feature",
      "id": 206331,
      "geometry": {
        "type": "Point",
        "coordinates": [
          -99.5371771999655,
          29.3159831998432
        ]
      },
      "properties": {
        "OBJECTID": 206331,
        "CROSSING": "742821D",
        "EFFDATE": 1756425600000,
        "REASON": "14",
        "StateCode": "48",
        "CountyCode": "48463",
        "STCYFIPS": "48463",
        "CITYCD": "484636050",
        "RAILROAD": "UP",
        "RRDIV": "SOUTH TEXAS",
        "RRSUBDIV": "DEL RIO SUB",
        "HIGHWAY": "NA",
        "STREET": "PRIVATE",
        "TTSTN": "692762",
        "MILEPOST": "0283.930",
        "TYPEXING": "Private",
        "POSXING": "At Grade",
        "PRVCAT": "14",
        "INIT": "1",
        "LATITUDE": 29.3159832,
        "LONGITUD": -99.5371772,
        "LLSOURCE": "1",
        "WHISTBAN": "0",
        "RRCONT": "4025443721",
        "POLCONT": "8008488715",
        "INV_LINK": "https://safetydata.fra.dot.gov/OfficeofSafety/PublicSite/Crossing/Crossing.aspx?phasetype=C&rpttype=I&txtcrossingnum=742821D",
        "ACC_LINK": "https://safetydata.fra.dot.gov/OfficeofSafety/PublicSite/Crossing/Crossing.aspx?phasetype=C&rpttype=A&txtcrossingnum=742821D",
        "TTSTNNAM": "",
        "XPURPOSE": "1",
        "OPERATINGR": "UP",
        "OPERATIN_1": "Primary",
        "DAYTHRU": 10,
        "NGHTTHRU": 10,
        "MAINTRK": 1,
        "SIDINGTRK": 0,
        "YARDTRK": 0,
        "TRANSITTRK": 0,
        "INDUSTRYTR": 0,
        "OTHRTRK": 0,
        "WDCODE": "",
        "REVISIONDA": "1975/01/01 00:00:00",
        "LASTUPDATE": "8/29/2025",
        "AADT": "1",
        "AADTYEAR": "1970",
        "STATENAME": "TEXAS",
        "STATEAB": "TX",
        "COUNTYNAME": "UVALDE",
        "CITYNAME": "SABINAL",
        "LATDD": 29.3159832,
        "LONGDD": -99.5371772,
        "gridlyProductionCertified": true,
        "gridlyClassification": "PUBLIC_ROADWAY",
        "gridlyDisplayName": "PRIVATE",
        "gridlyId": "FRA-742821D"
      }
    },
    {
      "type": "Feature",
      "id": 206332,
      "geometry": {
        "type": "Point",
        "coordinates": [
          -99.7554348997345,
          29.2479562998021
        ]
      },
      "properties": {
        "OBJECTID": 206332,
        "CROSSING": "742831J",
        "EFFDATE": 1756425600000,
        "REASON": "14",
        "StateCode": "48",
        "CountyCode": "48463",
        "STCYFIPS": "48463",
        "CITYCD": "484637090",
        "RAILROAD": "UP",
        "RRDIV": "SOUTH TEXAS",
        "RRSUBDIV": "DEL RIO SUB",
        "HIGHWAY": "NA",
        "STREET": "PRIVATE",
        "TTSTN": "692770",
        "MILEPOST": "0298.320",
        "TYPEXING": "Private",
        "POSXING": "At Grade",
        "PRVCAT": "14",
        "INIT": "1",
        "LATITUDE": 29.2479563,
        "LONGITUD": -99.7554349,
        "LLSOURCE": "1",
        "WHISTBAN": "0",
        "RRCONT": "4025443721",
        "POLCONT": "8008488715",
        "INV_LINK": "https://safetydata.fra.dot.gov/OfficeofSafety/PublicSite/Crossing/Crossing.aspx?phasetype=C&rpttype=I&txtcrossingnum=742831J",
        "ACC_LINK": "https://safetydata.fra.dot.gov/OfficeofSafety/PublicSite/Crossing/Crossing.aspx?phasetype=C&rpttype=A&txtcrossingnum=742831J",
        "TTSTNNAM": "",
        "XPURPOSE": "1",
        "OPERATINGR": "UP",
        "OPERATIN_1": "Primary",
        "DAYTHRU": 10,
        "NGHTTHRU": 10,
        "MAINTRK": 1,
        "SIDINGTRK": 1,
        "YARDTRK": 0,
        "TRANSITTRK": 0,
        "INDUSTRYTR": 0,
        "OTHRTRK": 0,
        "WDCODE": "",
        "REVISIONDA": "1975/01/01 00:00:00",
        "LASTUPDATE": "8/29/2025",
        "AADT": "1",
        "AADTYEAR": "1970",
        "STATENAME": "TEXAS",
        "STATEAB": "TX",
        "COUNTYNAME": "UVALDE",
        "CITYNAME": "UVALDE",
        "LATDD": 29.2479563,
        "LONGDD": -99.7554349,
        "gridlyProductionCertified": true,
        "gridlyClassification": "PUBLIC_ROADWAY",
        "gridlyDisplayName": "PRIVATE",
        "gridlyId": "FRA-742831J"
      }
    },
    {
      "type": "Feature",
      "id": 206334,
      "geometry": {
        "type": "Point",
        "coordinates": [
          -99.9931383999162,
          29.2448136000586
        ]
      },
      "properties": {
        "OBJECTID": 206334,
        "CROSSING": "742852C",
        "EFFDATE": 1756425600000,
        "REASON": "14",
        "StateCode": "48",
        "CountyCode": "48463",
        "STCYFIPS": "48463",
        "CITYCD": "484631392",
        "RAILROAD": "UP",
        "RRDIV": "SOUTH TEXAS",
        "RRSUBDIV": "DEL RIO SUB",
        "HIGHWAY": "NA",
        "STREET": "PRIVATE",
        "TTSTN": "692770",
        "MILEPOST": "0313.378",
        "TYPEXING": "Private",
        "POSXING": "At Grade",
        "PRVCAT": "14",
        "INIT": "1",
        "LATITUDE": 29.2448136,
        "LONGITUD": -99.9931384,
        "LLSOURCE": "1",
        "WHISTBAN": "0",
        "RRCONT": "4025443721",
        "POLCONT": "8008488715",
        "INV_LINK": "https://safetydata.fra.dot.gov/OfficeofSafety/PublicSite/Crossing/Crossing.aspx?phasetype=C&rpttype=I&txtcrossingnum=742852C",
        "ACC_LINK": "https://safetydata.fra.dot.gov/OfficeofSafety/PublicSite/Crossing/Crossing.aspx?phasetype=C&rpttype=A&txtcrossingnum=742852C",
        "TTSTNNAM": "",
        "XPURPOSE": "1",
        "OPERATINGR": "UP",
        "OPERATIN_1": "Primary",
        "DAYTHRU": 10,
        "NGHTTHRU": 10,
        "MAINTRK": 1,
        "SIDINGTRK": 0,
        "YARDTRK": 0,
        "TRANSITTRK": 0,
        "INDUSTRYTR": 0,
        "OTHRTRK": 0,
        "WDCODE": "",
        "REVISIONDA": "1975/01/01 00:00:00",
        "LASTUPDATE": "8/29/2025",
        "AADT": "1",
        "AADTYEAR": "1970",
        "STATENAME": "TEXAS",
        "STATEAB": "TX",
        "COUNTYNAME": "UVALDE",
        "CITYNAME": "CLINE",
        "LATDD": 29.2448136,
        "LONGDD": -99.9931384,
        "gridlyProductionCertified": true,
        "gridlyClassification": "PUBLIC_ROADWAY",
        "gridlyDisplayName": "PRIVATE",
        "gridlyId": "FRA-742852C"
      }
    },
    {
      "type": "Feature",
      "id": 206355,
      "geometry": {
        "type": "Point",
        "coordinates": [
          -99.8528344002419,
          29.2418563997661
        ]
      },
      "properties": {
        "OBJECTID": 206355,
        "CROSSING": "742850N",
        "EFFDATE": 1756425600000,
        "REASON": "14",
        "StateCode": "48",
        "CountyCode": "48463",
        "STCYFIPS": "48463",
        "CITYCD": "484637090",
        "RAILROAD": "UP",
        "RRDIV": "SOUTH TEXAS",
        "RRSUBDIV": "DEL RIO SUB",
        "HIGHWAY": "NA",
        "STREET": "PRIVATE",
        "TTSTN": "692770",
        "MILEPOST": "0304.520",
        "TYPEXING": "Private",
        "POSXING": "At Grade",
        "PRVCAT": "14",
        "INIT": "1",
        "LATITUDE": 29.2418564,
        "LONGITUD": -99.8528344,
        "LLSOURCE": "1",
        "WHISTBAN": "0",
        "RRCONT": "4025443721",
        "POLCONT": "8008488715",
        "INV_LINK": "https://safetydata.fra.dot.gov/OfficeofSafety/PublicSite/Crossing/Crossing.aspx?phasetype=C&rpttype=I&txtcrossingnum=742850N",
        "ACC_LINK": "https://safetydata.fra.dot.gov/OfficeofSafety/PublicSite/Crossing/Crossing.aspx?phasetype=C&rpttype=A&txtcrossingnum=742850N",
        "TTSTNNAM": "",
        "XPURPOSE": "1",
        "OPERATINGR": "UP",
        "OPERATIN_1": "Primary",
        "DAYTHRU": 10,
        "NGHTTHRU": 10,
        "MAINTRK": 1,
        "SIDINGTRK": 0,
        "YARDTRK": 0,
        "TRANSITTRK": 0,
        "INDUSTRYTR": 0,
        "OTHRTRK": 0,
        "WDCODE": "",
        "REVISIONDA": "1975/01/01 00:00:00",
        "LASTUPDATE": "8/29/2025",
        "AADT": "1",
        "AADTYEAR": "1970",
        "STATENAME": "TEXAS",
        "STATEAB": "TX",
        "COUNTYNAME": "UVALDE",
        "CITYNAME": "UVALDE",
        "LATDD": 29.2418564,
        "LONGDD": -99.8528344,
        "gridlyProductionCertified": true,
        "gridlyClassification": "PUBLIC_ROADWAY",
        "gridlyDisplayName": "PRIVATE",
        "gridlyId": "FRA-742850N"
      }
    },
    {
      "type": "Feature",
      "id": 206356,
      "geometry": {
        "type": "Point",
        "coordinates": [
          -99.9029185001625,
          29.2454234997565
        ]
      },
      "properties": {
        "OBJECTID": 206356,
        "CROSSING": "920431G",
        "EFFDATE": 1756425600000,
        "REASON": "14",
        "StateCode": "48",
        "CountyCode": "48463",
        "STCYFIPS": "48463",
        "CITYCD": "484637090",
        "RAILROAD": "UP",
        "RRDIV": "SOUTH TEXAS",
        "RRSUBDIV": "DEL RIO SUB",
        "HIGHWAY": "NA",
        "STREET": "Private",
        "TTSTN": "",
        "MILEPOST": "0307.540",
        "TYPEXING": "Private",
        "POSXING": "At Grade",
        "PRVCAT": "14",
        "INIT": "1",
        "LATITUDE": 29.2454235,
        "LONGITUD": -99.9029185,
        "LLSOURCE": "1",
        "WHISTBAN": "",
        "RRCONT": "4025443721",
        "POLCONT": "8008488715",
        "INV_LINK": "https://safetydata.fra.dot.gov/OfficeofSafety/PublicSite/Crossing/Crossing.aspx?phasetype=C&rpttype=I&txtcrossingnum=920431G",
        "ACC_LINK": "https://safetydata.fra.dot.gov/OfficeofSafety/PublicSite/Crossing/Crossing.aspx?phasetype=C&rpttype=A&txtcrossingnum=920431G",
        "TTSTNNAM": "",
        "XPURPOSE": "1",
        "OPERATINGR": "UP",
        "OPERATIN_1": "Primary",
        "DAYTHRU": 10,
        "NGHTTHRU": 10,
        "MAINTRK": 1,
        "SIDINGTRK": 1,
        "YARDTRK": 0,
        "TRANSITTRK": 0,
        "INDUSTRYTR": 0,
        "OTHRTRK": 0,
        "WDCODE": "",
        "REVISIONDA": "1975/01/01 00:00:00",
        "LASTUPDATE": "8/29/2025",
        "AADT": "",
        "AADTYEAR": "",
        "STATENAME": "TEXAS",
        "STATEAB": "TX",
        "COUNTYNAME": "UVALDE",
        "CITYNAME": "UVALDE",
        "LATDD": 29.2454235,
        "LONGDD": -99.9029185,
        "gridlyProductionCertified": true,
        "gridlyClassification": "PUBLIC_ROADWAY",
        "gridlyDisplayName": "Private",
        "gridlyId": "FRA-920431G"
      }
    },
    {
      "type": "Feature",
      "id": 206359,
      "geometry": {
        "type": "Point",
        "coordinates": [
          -99.7066929996294,
          29.2743761001698
        ]
      },
      "properties": {
        "OBJECTID": 206359,
        "CROSSING": "920016L",
        "EFFDATE": 1756425600000,
        "REASON": "14",
        "StateCode": "48",
        "CountyCode": "48463",
        "STCYFIPS": "48463",
        "CITYCD": "484633724",
        "RAILROAD": "UP",
        "RRDIV": "SOUTH TEXAS",
        "RRSUBDIV": "DEL RIO SUB",
        "HIGHWAY": "NA",
        "STREET": "PRIVATE",
        "TTSTN": "692765",
        "MILEPOST": "0294.820",
        "TYPEXING": "Private",
        "POSXING": "At Grade",
        "PRVCAT": "14",
        "INIT": "1",
        "LATITUDE": 29.2743761,
        "LONGITUD": -99.706693,
        "LLSOURCE": "1",
        "WHISTBAN": "0",
        "RRCONT": "4025443721",
        "POLCONT": "8008488715",
        "INV_LINK": "https://safetydata.fra.dot.gov/OfficeofSafety/PublicSite/Crossing/Crossing.aspx?phasetype=C&rpttype=I&txtcrossingnum=920016L",
        "ACC_LINK": "https://safetydata.fra.dot.gov/OfficeofSafety/PublicSite/Crossing/Crossing.aspx?phasetype=C&rpttype=A&txtcrossingnum=920016L",
        "TTSTNNAM": "",
        "XPURPOSE": "1",
        "OPERATINGR": "UP",
        "OPERATIN_1": "Primary",
        "DAYTHRU": 10,
        "NGHTTHRU": 10,
        "MAINTRK": 1,
        "SIDINGTRK": 0,
        "YARDTRK": 0,
        "TRANSITTRK": 0,
        "INDUSTRYTR": 0,
        "OTHRTRK": 0,
        "WDCODE": "",
        "REVISIONDA": "1975/01/01 00:00:00",
        "LASTUPDATE": "8/29/2025",
        "AADT": "10",
        "AADTYEAR": "1999",
        "STATENAME": "TEXAS",
        "STATEAB": "TX",
        "COUNTYNAME": "UVALDE",
        "CITYNAME": "KNIPPA",
        "LATDD": 29.2743761,
        "LONGDD": -99.706693,
        "gridlyProductionCertified": true,
        "gridlyClassification": "PUBLIC_ROADWAY",
        "gridlyDisplayName": "PRIVATE",
        "gridlyId": "FRA-920016L"
      }
    },
    {
      "type": "Feature",
      "id": 206360,
      "geometry": {
        "type": "Point",
        "coordinates": [
          -99.6957695998605,
          29.279601799835
        ]
      },
      "properties": {
        "OBJECTID": 206360,
        "CROSSING": "920017T",
        "EFFDATE": 1756425600000,
        "REASON": "14",
        "StateCode": "48",
        "CountyCode": "48463",
        "STCYFIPS": "48463",
        "CITYCD": "484633724",
        "RAILROAD": "UP",
        "RRDIV": "SOUTH TEXAS",
        "RRSUBDIV": "DEL RIO SUB",
        "HIGHWAY": "NA",
        "STREET": "PRIVATE",
        "TTSTN": "692765",
        "MILEPOST": "0294.050",
        "TYPEXING": "Private",
        "POSXING": "At Grade",
        "PRVCAT": "14",
        "INIT": "1",
        "LATITUDE": 29.2796018,
        "LONGITUD": -99.6957696,
        "LLSOURCE": "1",
        "WHISTBAN": "0",
        "RRCONT": "4025443721",
        "POLCONT": "8008488715",
        "INV_LINK": "https://safetydata.fra.dot.gov/OfficeofSafety/PublicSite/Crossing/Crossing.aspx?phasetype=C&rpttype=I&txtcrossingnum=920017T",
        "ACC_LINK": "https://safetydata.fra.dot.gov/OfficeofSafety/PublicSite/Crossing/Crossing.aspx?phasetype=C&rpttype=A&txtcrossingnum=920017T",
        "TTSTNNAM": "",
        "XPURPOSE": "1",
        "OPERATINGR": "UP",
        "OPERATIN_1": "Primary",
        "DAYTHRU": 10,
        "NGHTTHRU": 10,
        "MAINTRK": 1,
        "SIDINGTRK": 0,
        "YARDTRK": 0,
        "TRANSITTRK": 0,
        "INDUSTRYTR": 0,
        "OTHRTRK": 0,
        "WDCODE": "",
        "REVISIONDA": "1975/01/01 00:00:00",
        "LASTUPDATE": "8/29/2025",
        "AADT": "10",
        "AADTYEAR": "1999",
        "STATENAME": "TEXAS",
        "STATEAB": "TX",
        "COUNTYNAME": "UVALDE",
        "CITYNAME": "KNIPPA",
        "LATDD": 29.2796018,
        "LONGDD": -99.6957696,
        "gridlyProductionCertified": true,
        "gridlyClassification": "PUBLIC_ROADWAY",
        "gridlyDisplayName": "PRIVATE",
        "gridlyId": "FRA-920017T"
      }
    },
    {
      "type": "Feature",
      "id": 206361,
      "geometry": {
        "type": "Point",
        "coordinates": [
          -99.5998409999011,
          29.3072659997931
        ]
      },
      "properties": {
        "OBJECTID": 206361,
        "CROSSING": "975501X",
        "EFFDATE": 1756425600000,
        "REASON": "14",
        "StateCode": "48",
        "CountyCode": "48463",
        "STCYFIPS": "48463",
        "CITYCD": "484633724",
        "RAILROAD": "UP",
        "RRDIV": "South Texas",
        "RRSUBDIV": "Del Rio Sub",
        "HIGHWAY": "NA",
        "STREET": "County Road 344",
        "TTSTN": "",
        "MILEPOST": "0287.960",
        "TYPEXING": "Public",
        "POSXING": "At Grade",
        "PRVCAT": "14",
        "INIT": "1",
        "LATITUDE": 29.307266,
        "LONGITUD": -99.599841,
        "LLSOURCE": "1",
        "WHISTBAN": "",
        "RRCONT": "4025443721",
        "POLCONT": "8008488715",
        "INV_LINK": "https://safetydata.fra.dot.gov/OfficeofSafety/PublicSite/Crossing/Crossing.aspx?phasetype=C&rpttype=I&txtcrossingnum=975501X",
        "ACC_LINK": "https://safetydata.fra.dot.gov/OfficeofSafety/PublicSite/Crossing/Crossing.aspx?phasetype=C&rpttype=A&txtcrossingnum=975501X",
        "TTSTNNAM": "",
        "XPURPOSE": "1",
        "OPERATINGR": "UP",
        "OPERATIN_1": "Primary",
        "DAYTHRU": 10,
        "NGHTTHRU": 10,
        "MAINTRK": 1,
        "SIDINGTRK": 1,
        "YARDTRK": 0,
        "TRANSITTRK": 0,
        "INDUSTRYTR": 0,
        "OTHRTRK": 0,
        "WDCODE": "All other Gates",
        "REVISIONDA": "1975/01/01 00:00:00",
        "LASTUPDATE": "8/29/2025",
        "AADT": "80",
        "AADTYEAR": "2010",
        "STATENAME": "TEXAS",
        "STATEAB": "TX",
        "COUNTYNAME": "UVALDE",
        "CITYNAME": "KNIPPA",
        "LATDD": 29.307266,
        "LONGDD": -99.599841,
        "gridlyProductionCertified": true,
        "gridlyClassification": "PUBLIC_ROADWAY",
        "gridlyDisplayName": "County Road 344",
        "gridlyId": "FRA-975501X"
      }
    },
    {
      "type": "Feature",
      "id": 206368,
      "geometry": {
        "type": "Point",
        "coordinates": [
          -99.9366199999921,
          29.2403060001854
        ]
      },
      "properties": {
        "OBJECTID": 206368,
        "CROSSING": "920432N",
        "EFFDATE": 1756425600000,
        "REASON": "14",
        "StateCode": "48",
        "CountyCode": "48463",
        "STCYFIPS": "48463",
        "CITYCD": "484637090",
        "RAILROAD": "UP",
        "RRDIV": "SOUTH TEXAS",
        "RRSUBDIV": "DEL RIO SUB",
        "HIGHWAY": "NA",
        "STREET": "Private",
        "TTSTN": "",
        "MILEPOST": "0309.690",
        "TYPEXING": "Private",
        "POSXING": "At Grade",
        "PRVCAT": "14",
        "INIT": "1",
        "LATITUDE": 29.240306,
        "LONGITUD": -99.93662,
        "LLSOURCE": "1",
        "WHISTBAN": "",
        "RRCONT": "4025443721",
        "POLCONT": "8008488715",
        "INV_LINK": "https://safetydata.fra.dot.gov/OfficeofSafety/PublicSite/Crossing/Crossing.aspx?phasetype=C&rpttype=I&txtcrossingnum=920432N",
        "ACC_LINK": "https://safetydata.fra.dot.gov/OfficeofSafety/PublicSite/Crossing/Crossing.aspx?phasetype=C&rpttype=A&txtcrossingnum=920432N",
        "TTSTNNAM": "",
        "XPURPOSE": "1",
        "OPERATINGR": "UP",
        "OPERATIN_1": "Primary",
        "DAYTHRU": 13,
        "NGHTTHRU": 13,
        "MAINTRK": 1,
        "SIDINGTRK": 0,
        "YARDTRK": 0,
        "TRANSITTRK": 0,
        "INDUSTRYTR": 0,
        "OTHRTRK": 0,
        "WDCODE": "",
        "REVISIONDA": "1975/01/01 00:00:00",
        "LASTUPDATE": "8/29/2025",
        "AADT": "",
        "AADTYEAR": "",
        "STATENAME": "TEXAS",
        "STATEAB": "TX",
        "COUNTYNAME": "UVALDE",
        "CITYNAME": "UVALDE",
        "LATDD": 29.240306,
        "LONGDD": -99.93662,
        "gridlyProductionCertified": true,
        "gridlyClassification": "PUBLIC_ROADWAY",
        "gridlyDisplayName": "Private",
        "gridlyId": "FRA-920432N"
      }
    },
    {
      "type": "Feature",
      "id": 206371,
      "geometry": {
        "type": "Point",
        "coordinates": [
          -99.5760340000566,
          29.3151108998843
        ]
      },
      "properties": {
        "OBJECTID": 206371,
        "CROSSING": "742823S",
        "EFFDATE": 1772668800000,
        "REASON": "14",
        "StateCode": "48",
        "CountyCode": "48463",
        "STCYFIPS": "48463",
        "CITYCD": "484633724",
        "RAILROAD": "UP",
        "RRDIV": "SOUTH TEXAS",
        "RRSUBDIV": "DEL RIO SUB",
        "HIGHWAY": "CR0343",
        "STREET": "COUNTY ROAD 343",
        "TTSTN": "692765",
        "MILEPOST": "0286.450",
        "TYPEXING": "Public",
        "POSXING": "At Grade",
        "PRVCAT": "14",
        "INIT": "2",
        "LATITUDE": 29.3151109,
        "LONGITUD": -99.576034,
        "LLSOURCE": "1",
        "WHISTBAN": "0",
        "RRCONT": "4025443721",
        "POLCONT": "8008488715",
        "INV_LINK": "https://safetydata.fra.dot.gov/OfficeofSafety/PublicSite/Crossing/Crossing.aspx?phasetype=C&rpttype=I&txtcrossingnum=742823S",
        "ACC_LINK": "https://safetydata.fra.dot.gov/OfficeofSafety/PublicSite/Crossing/Crossing.aspx?phasetype=C&rpttype=A&txtcrossingnum=742823S",
        "TTSTNNAM": "",
        "XPURPOSE": "1",
        "OPERATINGR": "UP",
        "OPERATIN_1": "Primary",
        "DAYTHRU": 10,
        "NGHTTHRU": 10,
        "MAINTRK": 1,
        "SIDINGTRK": 0,
        "YARDTRK": 0,
        "TRANSITTRK": 0,
        "INDUSTRYTR": 0,
        "OTHRTRK": 0,
        "WDCODE": "All other Gates",
        "REVISIONDA": "1975/01/01 00:00:00",
        "LASTUPDATE": "3/5/2026",
        "AADT": "22",
        "AADTYEAR": "2020",
        "STATENAME": "TEXAS",
        "STATEAB": "TX",
        "COUNTYNAME": "UVALDE",
        "CITYNAME": "KNIPPA",
        "LATDD": 29.3151109,
        "LONGDD": -99.576034,
        "gridlyProductionCertified": true,
        "gridlyClassification": "PUBLIC_ROADWAY",
        "gridlyDisplayName": "COUNTY ROAD 343",
        "gridlyId": "FRA-742823S"
      }
    },
    {
      "type": "Feature",
      "id": 206375,
      "geometry": {
        "type": "Point",
        "coordinates": [
          -99.5532245999965,
          29.319002000274
        ]
      },
      "properties": {
        "OBJECTID": 206375,
        "CROSSING": "742822K",
        "EFFDATE": 1756512000000,
        "REASON": "14",
        "StateCode": "48",
        "CountyCode": "48463",
        "STCYFIPS": "48463",
        "CITYCD": "484636050",
        "RAILROAD": "UP",
        "RRDIV": "SOUTH TEXAS",
        "RRSUBDIV": "DEL RIO SUB",
        "HIGHWAY": "CO 0341",
        "STREET": "CR 101",
        "TTSTN": "692765",
        "MILEPOST": "0284.950",
        "TYPEXING": "Public",
        "POSXING": "RR Over",
        "PRVCAT": "14",
        "INIT": "1",
        "LATITUDE": 29.319002,
        "LONGITUD": -99.5532246,
        "LLSOURCE": "1",
        "WHISTBAN": "0",
        "RRCONT": "4025443721",
        "POLCONT": "8008488715",
        "INV_LINK": "https://safetydata.fra.dot.gov/OfficeofSafety/PublicSite/Crossing/Crossing.aspx?phasetype=C&rpttype=I&txtcrossingnum=742822K",
        "ACC_LINK": "https://safetydata.fra.dot.gov/OfficeofSafety/PublicSite/Crossing/Crossing.aspx?phasetype=C&rpttype=A&txtcrossingnum=742822K",
        "TTSTNNAM": "",
        "XPURPOSE": "1",
        "OPERATINGR": "UP",
        "OPERATIN_1": "Primary",
        "DAYTHRU": 16,
        "NGHTTHRU": 16,
        "MAINTRK": 1,
        "SIDINGTRK": 0,
        "YARDTRK": 0,
        "TRANSITTRK": 0,
        "INDUSTRYTR": 0,
        "OTHRTRK": 0,
        "WDCODE": "",
        "REVISIONDA": "1975/01/01 00:00:00",
        "LASTUPDATE": "8/30/2025",
        "AADT": "80",
        "AADTYEAR": "2010",
        "STATENAME": "TEXAS",
        "STATEAB": "TX",
        "COUNTYNAME": "UVALDE",
        "CITYNAME": "SABINAL",
        "LATDD": 29.319002,
        "LONGDD": -99.5532246,
        "gridlyProductionCertified": true,
        "gridlyClassification": "PUBLIC_ROADWAY",
        "gridlyDisplayName": "CR 101",
        "gridlyId": "FRA-742822K"
      }
    },
    {
      "type": "Feature",
      "id": 206471,
      "geometry": {
        "type": "Point",
        "coordinates": [
          -100.02225599987,
          29.2583650003609
        ]
      },
      "properties": {
        "OBJECTID": 206471,
        "CROSSING": "920433V",
        "EFFDATE": 1756425600000,
        "REASON": "14",
        "StateCode": "48",
        "CountyCode": "48463",
        "STCYFIPS": "48463",
        "CITYCD": "484631392",
        "RAILROAD": "UP",
        "RRDIV": "SOUTH TEXAS",
        "RRSUBDIV": "DEL RIO SUB",
        "HIGHWAY": "NA",
        "STREET": "Private UPRR",
        "TTSTN": "",
        "MILEPOST": "0315.560",
        "TYPEXING": "Private",
        "POSXING": "At Grade",
        "PRVCAT": "14",
        "INIT": "1",
        "LATITUDE": 29.258365,
        "LONGITUD": -100.022256,
        "LLSOURCE": "1",
        "WHISTBAN": "",
        "RRCONT": "4025443721",
        "POLCONT": "8008488715",
        "INV_LINK": "https://safetydata.fra.dot.gov/OfficeofSafety/PublicSite/Crossing/Crossing.aspx?phasetype=C&rpttype=I&txtcrossingnum=920433V",
        "ACC_LINK": "https://safetydata.fra.dot.gov/OfficeofSafety/PublicSite/Crossing/Crossing.aspx?phasetype=C&rpttype=A&txtcrossingnum=920433V",
        "TTSTNNAM": "",
        "XPURPOSE": "1",
        "OPERATINGR": "UP",
        "OPERATIN_1": "Primary",
        "DAYTHRU": 13,
        "NGHTTHRU": 13,
        "MAINTRK": 1,
        "SIDINGTRK": 1,
        "YARDTRK": 0,
        "TRANSITTRK": 0,
        "INDUSTRYTR": 0,
        "OTHRTRK": 0,
        "WDCODE": "",
        "REVISIONDA": "1975/01/01 00:00:00",
        "LASTUPDATE": "8/29/2025",
        "AADT": "",
        "AADTYEAR": "",
        "STATENAME": "TEXAS",
        "STATEAB": "TX",
        "COUNTYNAME": "UVALDE",
        "CITYNAME": "CLINE",
        "LATDD": 29.258365,
        "LONGDD": -100.022256,
        "gridlyProductionCertified": true,
        "gridlyClassification": "PUBLIC_ROADWAY",
        "gridlyDisplayName": "Private UPRR",
        "gridlyId": "FRA-920433V"
      }
    },
    {
      "type": "Feature",
      "id": 207738,
      "geometry": {
        "type": "Point",
        "coordinates": [
          -99.6381206997958,
          29.294843800233
        ]
      },
      "properties": {
        "OBJECTID": 207738,
        "CROSSING": "742828B",
        "EFFDATE": 1772668800000,
        "REASON": "14",
        "StateCode": "48",
        "CountyCode": "48463",
        "STCYFIPS": "48463",
        "CITYCD": "484633724",
        "RAILROAD": "UP",
        "RRDIV": "SOUTH TEXAS",
        "RRSUBDIV": "DEL RIO SUB",
        "HIGHWAY": "FM1049",
        "STREET": "FM1049",
        "TTSTN": "692765",
        "MILEPOST": "0290.400",
        "TYPEXING": "Public",
        "POSXING": "At Grade",
        "PRVCAT": "14",
        "INIT": "2",
        "LATITUDE": 29.2948438,
        "LONGITUD": -99.6381207,
        "LLSOURCE": "1",
        "WHISTBAN": "0",
        "RRCONT": "4025443721",
        "POLCONT": "8008488715",
        "INV_LINK": "https://safetydata.fra.dot.gov/OfficeofSafety/PublicSite/Crossing/Crossing.aspx?phasetype=C&rpttype=I&txtcrossingnum=742828B",
        "ACC_LINK": "https://safetydata.fra.dot.gov/OfficeofSafety/PublicSite/Crossing/Crossing.aspx?phasetype=C&rpttype=A&txtcrossingnum=742828B",
        "TTSTNNAM": "",
        "XPURPOSE": "1",
        "OPERATINGR": "UP",
        "OPERATIN_1": "Primary",
        "DAYTHRU": 11,
        "NGHTTHRU": 10,
        "MAINTRK": 1,
        "SIDINGTRK": 1,
        "YARDTRK": 0,
        "TRANSITTRK": 0,
        "INDUSTRYTR": 1,
        "OTHRTRK": 2,
        "WDCODE": "All other Gates",
        "REVISIONDA": "1975/01/01 00:00:00",
        "LASTUPDATE": "3/5/2026",
        "AADT": "1594",
        "AADTYEAR": "2023",
        "STATENAME": "TEXAS",
        "STATEAB": "TX",
        "COUNTYNAME": "UVALDE",
        "CITYNAME": "KNIPPA",
        "LATDD": 29.2948438,
        "LONGDD": -99.6381207,
        "gridlyProductionCertified": true,
        "gridlyClassification": "PUBLIC_ROADWAY",
        "gridlyDisplayName": "FM1049",
        "gridlyId": "FRA-742828B"
      }
    },
    {
      "type": "Feature",
      "id": 207739,
      "geometry": {
        "type": "Point",
        "coordinates": [
          -99.4679626002122,
          29.3190256997685
        ]
      },
      "properties": {
        "OBJECTID": 207739,
        "CROSSING": "742817N",
        "EFFDATE": 1772668800000,
        "REASON": "14",
        "StateCode": "48",
        "CountyCode": "48463",
        "STCYFIPS": "48463",
        "CITYCD": "484636050",
        "RAILROAD": "UP",
        "RRDIV": "SOUTH TEXAS",
        "RRSUBDIV": "DEL RIO SUB",
        "HIGHWAY": "LS0000",
        "STREET": "North San Antonio Street",
        "TTSTN": "692762",
        "MILEPOST": "0279.554",
        "TYPEXING": "Public",
        "POSXING": "At Grade",
        "PRVCAT": "14",
        "INIT": "2",
        "LATITUDE": 29.3190257,
        "LONGITUD": -99.4679626,
        "LLSOURCE": "1",
        "WHISTBAN": "0",
        "RRCONT": "4025443721",
        "POLCONT": "8008488715",
        "INV_LINK": "https://safetydata.fra.dot.gov/OfficeofSafety/PublicSite/Crossing/Crossing.aspx?phasetype=C&rpttype=I&txtcrossingnum=742817N",
        "ACC_LINK": "https://safetydata.fra.dot.gov/OfficeofSafety/PublicSite/Crossing/Crossing.aspx?phasetype=C&rpttype=A&txtcrossingnum=742817N",
        "TTSTNNAM": "",
        "XPURPOSE": "1",
        "OPERATINGR": "UP",
        "OPERATIN_1": "Primary",
        "DAYTHRU": 10,
        "NGHTTHRU": 10,
        "MAINTRK": 1,
        "SIDINGTRK": 0,
        "YARDTRK": 0,
        "TRANSITTRK": 0,
        "INDUSTRYTR": 0,
        "OTHRTRK": 1,
        "WDCODE": "All other Gates",
        "REVISIONDA": "1975/01/01 00:00:00",
        "LASTUPDATE": "3/5/2026",
        "AADT": "107",
        "AADTYEAR": "2020",
        "STATENAME": "TEXAS",
        "STATEAB": "TX",
        "COUNTYNAME": "UVALDE",
        "CITYNAME": "SABINAL",
        "LATDD": 29.3190257,
        "LONGDD": -99.4679626,
        "gridlyProductionCertified": true,
        "gridlyClassification": "PUBLIC_ROADWAY",
        "gridlyDisplayName": "North San Antonio Street",
        "gridlyId": "FRA-742817N"
      }
    },
    {
      "type": "Feature",
      "id": 207974,
      "geometry": {
        "type": "Point",
        "coordinates": [
          -100.071773299677,
          29.2335333001462
        ]
      },
      "properties": {
        "OBJECTID": 207974,
        "CROSSING": "441046F",
        "EFFDATE": 1756166400000,
        "REASON": "14",
        "StateCode": "48",
        "CountyCode": "48463",
        "STCYFIPS": "48463",
        "CITYCD": "484631392",
        "RAILROAD": "UP",
        "RRDIV": "SOUTH TEXAS",
        "RRSUBDIV": "Cline Mine Ind Ld",
        "HIGHWAY": "LOCAL",
        "STREET": "PRIVATE",
        "TTSTN": "",
        "MILEPOST": "0001.100",
        "TYPEXING": "Private",
        "POSXING": "At Grade",
        "PRVCAT": "14",
        "INIT": "1",
        "LATITUDE": 29.2335333,
        "LONGITUD": -100.0717733,
        "LLSOURCE": "1",
        "WHISTBAN": "",
        "RRCONT": "4025443721",
        "POLCONT": "8008488715",
        "INV_LINK": "https://safetydata.fra.dot.gov/OfficeofSafety/PublicSite/Crossing/Crossing.aspx?phasetype=C&rpttype=I&txtcrossingnum=441046F",
        "ACC_LINK": "https://safetydata.fra.dot.gov/OfficeofSafety/PublicSite/Crossing/Crossing.aspx?phasetype=C&rpttype=A&txtcrossingnum=441046F",
        "TTSTNNAM": "",
        "XPURPOSE": "1",
        "OPERATINGR": "UP",
        "OPERATIN_1": "Primary",
        "DAYTHRU": 2,
        "NGHTTHRU": 2,
        "MAINTRK": 0,
        "SIDINGTRK": 0,
        "YARDTRK": 0,
        "TRANSITTRK": 0,
        "INDUSTRYTR": 1,
        "OTHRTRK": 0,
        "WDCODE": "",
        "REVISIONDA": "1975/01/01 00:00:00",
        "LASTUPDATE": "8/26/2025",
        "AADT": "",
        "AADTYEAR": "",
        "STATENAME": "TEXAS",
        "STATEAB": "TX",
        "COUNTYNAME": "UVALDE",
        "CITYNAME": "CLINE",
        "LATDD": 29.2335333,
        "LONGDD": -100.0717733,
        "gridlyProductionCertified": true,
        "gridlyClassification": "PUBLIC_ROADWAY",
        "gridlyDisplayName": "PRIVATE",
        "gridlyId": "FRA-441046F"
      }
    },
    {
      "type": "Feature",
      "id": 207975,
      "geometry": {
        "type": "Point",
        "coordinates": [
          -100.036290499928,
          29.1958678996416
        ]
      },
      "properties": {
        "OBJECTID": 207975,
        "CROSSING": "441048U",
        "EFFDATE": 1756166400000,
        "REASON": "14",
        "StateCode": "48",
        "CountyCode": "48463",
        "STCYFIPS": "48463",
        "CITYCD": "484631392",
        "RAILROAD": "UP",
        "RRDIV": "SOUTH TEXAS",
        "RRSUBDIV": "Cline Mine Ind Ld",
        "HIGHWAY": "P",
        "STREET": "PRIVATE",
        "TTSTN": "",
        "MILEPOST": "0004.520",
        "TYPEXING": "Private",
        "POSXING": "At Grade",
        "PRVCAT": "14",
        "INIT": "1",
        "LATITUDE": 29.1958679,
        "LONGITUD": -100.0362905,
        "LLSOURCE": "1",
        "WHISTBAN": "",
        "RRCONT": "4025443721",
        "POLCONT": "8008488715",
        "INV_LINK": "https://safetydata.fra.dot.gov/OfficeofSafety/PublicSite/Crossing/Crossing.aspx?phasetype=C&rpttype=I&txtcrossingnum=441048U",
        "ACC_LINK": "https://safetydata.fra.dot.gov/OfficeofSafety/PublicSite/Crossing/Crossing.aspx?phasetype=C&rpttype=A&txtcrossingnum=441048U",
        "TTSTNNAM": "",
        "XPURPOSE": "1",
        "OPERATINGR": "UP",
        "OPERATIN_1": "Primary",
        "DAYTHRU": 2,
        "NGHTTHRU": 2,
        "MAINTRK": 0,
        "SIDINGTRK": 0,
        "YARDTRK": 0,
        "TRANSITTRK": 0,
        "INDUSTRYTR": 1,
        "OTHRTRK": 0,
        "WDCODE": "",
        "REVISIONDA": "1975/01/01 00:00:00",
        "LASTUPDATE": "8/26/2025",
        "AADT": "",
        "AADTYEAR": "",
        "STATENAME": "TEXAS",
        "STATEAB": "TX",
        "COUNTYNAME": "UVALDE",
        "CITYNAME": "CLINE",
        "LATDD": 29.1958679,
        "LONGDD": -100.0362905,
        "gridlyProductionCertified": true,
        "gridlyClassification": "PUBLIC_ROADWAY",
        "gridlyDisplayName": "PRIVATE",
        "gridlyId": "FRA-441048U"
      }
    },
    {
      "type": "Feature",
      "id": 207985,
      "geometry": {
        "type": "Point",
        "coordinates": [
          -100.032234300095,
          29.1912093002466
        ]
      },
      "properties": {
        "OBJECTID": 207985,
        "CROSSING": "441049B",
        "EFFDATE": 1756166400000,
        "REASON": "14",
        "StateCode": "48",
        "CountyCode": "48463",
        "STCYFIPS": "48463",
        "CITYCD": "484631392",
        "RAILROAD": "UP",
        "RRDIV": "SOUTH TEXAS",
        "RRSUBDIV": "Cline Mine Ind Ld",
        "HIGHWAY": "P",
        "STREET": "PRIVATE",
        "TTSTN": "",
        "MILEPOST": "0004.930",
        "TYPEXING": "Private",
        "POSXING": "At Grade",
        "PRVCAT": "14",
        "INIT": "1",
        "LATITUDE": 29.1912093,
        "LONGITUD": -100.0322343,
        "LLSOURCE": "1",
        "WHISTBAN": "",
        "RRCONT": "4025443721",
        "POLCONT": "8008488715",
        "INV_LINK": "https://safetydata.fra.dot.gov/OfficeofSafety/PublicSite/Crossing/Crossing.aspx?phasetype=C&rpttype=I&txtcrossingnum=441049B",
        "ACC_LINK": "https://safetydata.fra.dot.gov/OfficeofSafety/PublicSite/Crossing/Crossing.aspx?phasetype=C&rpttype=A&txtcrossingnum=441049B",
        "TTSTNNAM": "",
        "XPURPOSE": "1",
        "OPERATINGR": "UP",
        "OPERATIN_1": "Primary",
        "DAYTHRU": 2,
        "NGHTTHRU": 2,
        "MAINTRK": 0,
        "SIDINGTRK": 0,
        "YARDTRK": 0,
        "TRANSITTRK": 0,
        "INDUSTRYTR": 1,
        "OTHRTRK": 0,
        "WDCODE": "",
        "REVISIONDA": "1975/01/01 00:00:00",
        "LASTUPDATE": "8/26/2025",
        "AADT": "",
        "AADTYEAR": "",
        "STATENAME": "TEXAS",
        "STATEAB": "TX",
        "COUNTYNAME": "UVALDE",
        "CITYNAME": "CLINE",
        "LATDD": 29.1912093,
        "LONGDD": -100.0322343,
        "gridlyProductionCertified": true,
        "gridlyClassification": "PUBLIC_ROADWAY",
        "gridlyDisplayName": "PRIVATE",
        "gridlyId": "FRA-441049B"
      }
    },
    {
      "type": "Feature",
      "id": 207986,
      "geometry": {
        "type": "Point",
        "coordinates": [
          -100.032351900345,
          29.1807993999402
        ]
      },
      "properties": {
        "OBJECTID": 207986,
        "CROSSING": "441050V",
        "EFFDATE": 1756166400000,
        "REASON": "14",
        "StateCode": "48",
        "CountyCode": "48463",
        "STCYFIPS": "48463",
        "CITYCD": "484631392",
        "RAILROAD": "UP",
        "RRDIV": "SOUTH TEXAS",
        "RRSUBDIV": "Cline Mine Ind Ld",
        "HIGHWAY": "p",
        "STREET": "PRIVATE",
        "TTSTN": "",
        "MILEPOST": "0005.680",
        "TYPEXING": "Private",
        "POSXING": "At Grade",
        "PRVCAT": "14",
        "INIT": "1",
        "LATITUDE": 29.1807994,
        "LONGITUD": -100.0323519,
        "LLSOURCE": "1",
        "WHISTBAN": "",
        "RRCONT": "4025443721",
        "POLCONT": "8008488715",
        "INV_LINK": "https://safetydata.fra.dot.gov/OfficeofSafety/PublicSite/Crossing/Crossing.aspx?phasetype=C&rpttype=I&txtcrossingnum=441050V",
        "ACC_LINK": "https://safetydata.fra.dot.gov/OfficeofSafety/PublicSite/Crossing/Crossing.aspx?phasetype=C&rpttype=A&txtcrossingnum=441050V",
        "TTSTNNAM": "",
        "XPURPOSE": "1",
        "OPERATINGR": "UP",
        "OPERATIN_1": "Primary",
        "DAYTHRU": 2,
        "NGHTTHRU": 2,
        "MAINTRK": 0,
        "SIDINGTRK": 0,
        "YARDTRK": 0,
        "TRANSITTRK": 0,
        "INDUSTRYTR": 2,
        "OTHRTRK": 0,
        "WDCODE": "",
        "REVISIONDA": "1975/01/01 00:00:00",
        "LASTUPDATE": "8/26/2025",
        "AADT": "",
        "AADTYEAR": "",
        "STATENAME": "TEXAS",
        "STATEAB": "TX",
        "COUNTYNAME": "UVALDE",
        "CITYNAME": "CLINE",
        "LATDD": 29.1807994,
        "LONGDD": -100.0323519,
        "gridlyProductionCertified": true,
        "gridlyClassification": "PUBLIC_ROADWAY",
        "gridlyDisplayName": "PRIVATE",
        "gridlyId": "FRA-441050V"
      }
    },
    {
      "type": "Feature",
      "id": 208319,
      "geometry": {
        "type": "Point",
        "coordinates": [
          -99.4657415004008,
          29.3193552998116
        ]
      },
      "properties": {
        "OBJECTID": 208319,
        "CROSSING": "742764S",
        "EFFDATE": 1772668800000,
        "REASON": "14",
        "StateCode": "48",
        "CountyCode": "48463",
        "STCYFIPS": "48463",
        "CITYCD": "484636050",
        "RAILROAD": "UP",
        "RRDIV": "South Texas",
        "RRSUBDIV": "Del Rio Sub",
        "HIGHWAY": "LS0000",
        "STREET": "Hondo Street",
        "TTSTN": "692762",
        "MILEPOST": "0279.418",
        "TYPEXING": "Public",
        "POSXING": "At Grade",
        "PRVCAT": "14",
        "INIT": "2",
        "LATITUDE": 29.3193553,
        "LONGITUD": -99.4657415,
        "LLSOURCE": "1",
        "WHISTBAN": "0",
        "RRCONT": "4025443721",
        "POLCONT": "8008488715",
        "INV_LINK": "https://safetydata.fra.dot.gov/OfficeofSafety/PublicSite/Crossing/Crossing.aspx?phasetype=C&rpttype=I&txtcrossingnum=742764S",
        "ACC_LINK": "https://safetydata.fra.dot.gov/OfficeofSafety/PublicSite/Crossing/Crossing.aspx?phasetype=C&rpttype=A&txtcrossingnum=742764S",
        "TTSTNNAM": "",
        "XPURPOSE": "1",
        "OPERATINGR": "UP",
        "OPERATIN_1": "Primary",
        "DAYTHRU": 10,
        "NGHTTHRU": 10,
        "MAINTRK": 1,
        "SIDINGTRK": 0,
        "YARDTRK": 0,
        "TRANSITTRK": 0,
        "INDUSTRYTR": 1,
        "OTHRTRK": 1,
        "WDCODE": "All other Gates",
        "REVISIONDA": "1975/01/01 00:00:00",
        "LASTUPDATE": "3/5/2026",
        "AADT": "465",
        "AADTYEAR": "2020",
        "STATENAME": "TEXAS",
        "STATEAB": "TX",
        "COUNTYNAME": "UVALDE",
        "CITYNAME": "SABINAL",
        "LATDD": 29.3193553,
        "LONGDD": -99.4657415,
        "gridlyProductionCertified": true,
        "gridlyClassification": "PUBLIC_ROADWAY",
        "gridlyDisplayName": "Hondo Street",
        "gridlyId": "FRA-742764S"
      }
    },
    {
      "type": "Feature",
      "id": 208325,
      "geometry": {
        "type": "Point",
        "coordinates": [
          -100.081483999864,
          29.2429580997586
        ]
      },
      "properties": {
        "OBJECTID": 208325,
        "CROSSING": "765152K",
        "EFFDATE": 1772755200000,
        "REASON": "14",
        "StateCode": "48",
        "CountyCode": "48463",
        "STCYFIPS": "48463",
        "CITYCD": "484631392",
        "RAILROAD": "UP",
        "RRDIV": "SOUTH TEXAS",
        "RRSUBDIV": "DEL RIO SUB",
        "HIGHWAY": "US0090",
        "STREET": "US0090",
        "TTSTN": "",
        "MILEPOST": "0319.310",
        "TYPEXING": "Public",
        "POSXING": "At Grade",
        "PRVCAT": "14",
        "INIT": "2",
        "LATITUDE": 29.2429581,
        "LONGITUD": -100.081484,
        "LLSOURCE": "1",
        "WHISTBAN": "",
        "RRCONT": "4025443721",
        "POLCONT": "8008488715",
        "INV_LINK": "https://safetydata.fra.dot.gov/OfficeofSafety/PublicSite/Crossing/Crossing.aspx?phasetype=C&rpttype=I&txtcrossingnum=765152K",
        "ACC_LINK": "https://safetydata.fra.dot.gov/OfficeofSafety/PublicSite/Crossing/Crossing.aspx?phasetype=C&rpttype=A&txtcrossingnum=765152K",
        "TTSTNNAM": "",
        "XPURPOSE": "1",
        "OPERATINGR": "UP",
        "OPERATIN_1": "Primary",
        "DAYTHRU": 2,
        "NGHTTHRU": 2,
        "MAINTRK": 0,
        "SIDINGTRK": 0,
        "YARDTRK": 1,
        "TRANSITTRK": 0,
        "INDUSTRYTR": 0,
        "OTHRTRK": 0,
        "WDCODE": "Flashing lights",
        "REVISIONDA": "1975/01/01 00:00:00",
        "LASTUPDATE": "3/6/2026",
        "AADT": "3999",
        "AADTYEAR": "2024",
        "STATENAME": "TEXAS",
        "STATEAB": "TX",
        "COUNTYNAME": "UVALDE",
        "CITYNAME": "CLINE",
        "LATDD": 29.2429581,
        "LONGDD": -100.081484,
        "gridlyProductionCertified": true,
        "gridlyClassification": "PUBLIC_ROADWAY",
        "gridlyDisplayName": "US0090",
        "gridlyId": "FRA-765152K"
      }
    },
    {
      "type": "Feature",
      "id": 208340,
      "geometry": {
        "type": "Point",
        "coordinates": [
          -99.8794715001682,
          29.2448513000445
        ]
      },
      "properties": {
        "OBJECTID": 208340,
        "CROSSING": "742851V",
        "EFFDATE": 1757289600000,
        "REASON": "14",
        "StateCode": "48",
        "CountyCode": "48463",
        "STCYFIPS": "48463",
        "CITYCD": "484637090",
        "RAILROAD": "UP",
        "RRDIV": "SOUTH TEXAS",
        "RRSUBDIV": "DEL RIO SUB",
        "HIGHWAY": "NA",
        "STREET": "PRIVATE",
        "TTSTN": "692770",
        "MILEPOST": "0306.150",
        "TYPEXING": "Private",
        "POSXING": "At Grade",
        "PRVCAT": "14",
        "INIT": "1",
        "LATITUDE": 29.2448513,
        "LONGITUD": -99.8794715,
        "LLSOURCE": "1",
        "WHISTBAN": "0",
        "RRCONT": "4025443721",
        "POLCONT": "8008488715",
        "INV_LINK": "https://safetydata.fra.dot.gov/OfficeofSafety/PublicSite/Crossing/Crossing.aspx?phasetype=C&rpttype=I&txtcrossingnum=742851V",
        "ACC_LINK": "https://safetydata.fra.dot.gov/OfficeofSafety/PublicSite/Crossing/Crossing.aspx?phasetype=C&rpttype=A&txtcrossingnum=742851V",
        "TTSTNNAM": "",
        "XPURPOSE": "1",
        "OPERATINGR": "UP",
        "OPERATIN_1": "Primary",
        "DAYTHRU": 15,
        "NGHTTHRU": 15,
        "MAINTRK": 1,
        "SIDINGTRK": 1,
        "YARDTRK": 0,
        "TRANSITTRK": 0,
        "INDUSTRYTR": 0,
        "OTHRTRK": 0,
        "WDCODE": "",
        "REVISIONDA": "1975/01/01 00:00:00",
        "LASTUPDATE": "9/8/2025",
        "AADT": "1",
        "AADTYEAR": "1970",
        "STATENAME": "TEXAS",
        "STATEAB": "TX",
        "COUNTYNAME": "UVALDE",
        "CITYNAME": "UVALDE",
        "LATDD": 29.2448513,
        "LONGDD": -99.8794715,
        "gridlyProductionCertified": true,
        "gridlyClassification": "PUBLIC_ROADWAY",
        "gridlyDisplayName": "PRIVATE",
        "gridlyId": "FRA-742851V"
      }
    },
    {
      "type": "Feature",
      "id": 210075,
      "geometry": {
        "type": "Point",
        "coordinates": [
          -99.466859200447,
          29.3191913000088
        ]
      },
      "properties": {
        "OBJECTID": 210075,
        "CROSSING": "742816G",
        "EFFDATE": 1772668800000,
        "REASON": "14",
        "StateCode": "48",
        "CountyCode": "48463",
        "STCYFIPS": "48463",
        "CITYCD": "484636050",
        "RAILROAD": "UP",
        "RRDIV": "SOUTH TEXAS",
        "RRSUBDIV": "DEL RIO SUB",
        "HIGHWAY": "SH0127",
        "STREET": "SH0127 / CENTER STREET",
        "TTSTN": "692762",
        "MILEPOST": "0279.485",
        "TYPEXING": "Public",
        "POSXING": "At Grade",
        "PRVCAT": "14",
        "INIT": "2",
        "LATITUDE": 29.3191913,
        "LONGITUD": -99.4668592,
        "LLSOURCE": "1",
        "WHISTBAN": "0",
        "RRCONT": "4025443721",
        "POLCONT": "8008488715",
        "INV_LINK": "https://safetydata.fra.dot.gov/OfficeofSafety/PublicSite/Crossing/Crossing.aspx?phasetype=C&rpttype=I&txtcrossingnum=742816G",
        "ACC_LINK": "https://safetydata.fra.dot.gov/OfficeofSafety/PublicSite/Crossing/Crossing.aspx?phasetype=C&rpttype=A&txtcrossingnum=742816G",
        "TTSTNNAM": "",
        "XPURPOSE": "1",
        "OPERATINGR": "UP",
        "OPERATIN_1": "Primary",
        "DAYTHRU": 10,
        "NGHTTHRU": 10,
        "MAINTRK": 1,
        "SIDINGTRK": 0,
        "YARDTRK": 0,
        "TRANSITTRK": 0,
        "INDUSTRYTR": 0,
        "OTHRTRK": 1,
        "WDCODE": "All other Gates",
        "REVISIONDA": "1975/01/01 00:00:00",
        "LASTUPDATE": "3/5/2026",
        "AADT": "2956",
        "AADTYEAR": "2023",
        "STATENAME": "TEXAS",
        "STATEAB": "TX",
        "COUNTYNAME": "UVALDE",
        "CITYNAME": "SABINAL",
        "LATDD": 29.3191913,
        "LONGDD": -99.4668592,
        "gridlyProductionCertified": true,
        "gridlyClassification": "PUBLIC_ROADWAY",
        "gridlyDisplayName": "SH0127 / CENTER STREET",
        "gridlyId": "FRA-742816G"
      }
    },
    {
      "type": "Feature",
      "id": 210076,
      "geometry": {
        "type": "Point",
        "coordinates": [
          -99.5137696997925,
          29.3122359000013
        ]
      },
      "properties": {
        "OBJECTID": 210076,
        "CROSSING": "742820W",
        "EFFDATE": 1772668800000,
        "REASON": "14",
        "StateCode": "48",
        "CountyCode": "48463",
        "STCYFIPS": "48463",
        "CITYCD": "484636050",
        "RAILROAD": "UP",
        "RRDIV": "SOUTH TEXAS",
        "RRSUBDIV": "DEL RIO SUB",
        "HIGHWAY": "FM2730",
        "STREET": "FM2730",
        "TTSTN": "692762",
        "MILEPOST": "0282.430",
        "TYPEXING": "Public",
        "POSXING": "At Grade",
        "PRVCAT": "14",
        "INIT": "2",
        "LATITUDE": 29.3122359,
        "LONGITUD": -99.5137697,
        "LLSOURCE": "1",
        "WHISTBAN": "0",
        "RRCONT": "4025443721",
        "POLCONT": "8008488715",
        "INV_LINK": "https://safetydata.fra.dot.gov/OfficeofSafety/PublicSite/Crossing/Crossing.aspx?phasetype=C&rpttype=I&txtcrossingnum=742820W",
        "ACC_LINK": "https://safetydata.fra.dot.gov/OfficeofSafety/PublicSite/Crossing/Crossing.aspx?phasetype=C&rpttype=A&txtcrossingnum=742820W",
        "TTSTNNAM": "",
        "XPURPOSE": "1",
        "OPERATINGR": "UP",
        "OPERATIN_1": "Primary",
        "DAYTHRU": 10,
        "NGHTTHRU": 10,
        "MAINTRK": 1,
        "SIDINGTRK": 0,
        "YARDTRK": 0,
        "TRANSITTRK": 0,
        "INDUSTRYTR": 0,
        "OTHRTRK": 0,
        "WDCODE": "Flashing lights",
        "REVISIONDA": "1975/01/01 00:00:00",
        "LASTUPDATE": "3/5/2026",
        "AADT": "214",
        "AADTYEAR": "2023",
        "STATENAME": "TEXAS",
        "STATEAB": "TX",
        "COUNTYNAME": "UVALDE",
        "CITYNAME": "SABINAL",
        "LATDD": 29.3122359,
        "LONGDD": -99.5137697,
        "gridlyProductionCertified": true,
        "gridlyClassification": "PUBLIC_ROADWAY",
        "gridlyDisplayName": "FM2730",
        "gridlyId": "FRA-742820W"
      }
    },
    {
      "type": "Feature",
      "id": 211150,
      "geometry": {
        "type": "Point",
        "coordinates": [
          -99.4713452998393,
          29.318532899847
        ]
      },
      "properties": {
        "OBJECTID": 211150,
        "CROSSING": "742818V",
        "EFFDATE": 1772668800000,
        "REASON": "14",
        "StateCode": "48",
        "CountyCode": "48463",
        "STCYFIPS": "48463",
        "CITYCD": "484636050",
        "RAILROAD": "UP",
        "RRDIV": "SOUTH TEXAS",
        "RRSUBDIV": "DEL RIO SUB",
        "HIGHWAY": "LS0000",
        "STREET": "PICKFORD STREET",
        "TTSTN": "692762",
        "MILEPOST": "0279.760",
        "TYPEXING": "Public",
        "POSXING": "At Grade",
        "PRVCAT": "14",
        "INIT": "2",
        "LATITUDE": 29.3185329,
        "LONGITUD": -99.4713453,
        "LLSOURCE": "1",
        "WHISTBAN": "0",
        "RRCONT": "4025443721",
        "POLCONT": "8008488715",
        "INV_LINK": "https://safetydata.fra.dot.gov/OfficeofSafety/PublicSite/Crossing/Crossing.aspx?phasetype=C&rpttype=I&txtcrossingnum=742818V",
        "ACC_LINK": "https://safetydata.fra.dot.gov/OfficeofSafety/PublicSite/Crossing/Crossing.aspx?phasetype=C&rpttype=A&txtcrossingnum=742818V",
        "TTSTNNAM": "",
        "XPURPOSE": "1",
        "OPERATINGR": "UP",
        "OPERATIN_1": "Primary",
        "DAYTHRU": 10,
        "NGHTTHRU": 10,
        "MAINTRK": 1,
        "SIDINGTRK": 0,
        "YARDTRK": 0,
        "TRANSITTRK": 0,
        "INDUSTRYTR": 0,
        "OTHRTRK": 0,
        "WDCODE": "All other Gates",
        "REVISIONDA": "1975/01/01 00:00:00",
        "LASTUPDATE": "3/5/2026",
        "AADT": "351",
        "AADTYEAR": "2020",
        "STATENAME": "TEXAS",
        "STATEAB": "TX",
        "COUNTYNAME": "UVALDE",
        "CITYNAME": "SABINAL",
        "LATDD": 29.3185329,
        "LONGDD": -99.4713453,
        "gridlyProductionCertified": true,
        "gridlyClassification": "PUBLIC_ROADWAY",
        "gridlyDisplayName": "PICKFORD STREET",
        "gridlyId": "FRA-742818V"
      }
    },
    {
      "type": "Feature",
      "id": 212023,
      "geometry": {
        "type": "Point",
        "coordinates": [
          -100.080625000246,
          29.2440869998359
        ]
      },
      "properties": {
        "OBJECTID": 212023,
        "CROSSING": "920434C",
        "EFFDATE": 1758585600000,
        "REASON": "14",
        "StateCode": "48",
        "CountyCode": "48463",
        "STCYFIPS": "48463",
        "CITYCD": "484631392",
        "RAILROAD": "UP",
        "RRDIV": "South Texas",
        "RRSUBDIV": "Del Rio Sub",
        "HIGHWAY": "NA",
        "STREET": "Private UPRR",
        "TTSTN": "",
        "MILEPOST": "0319.210",
        "TYPEXING": "Private",
        "POSXING": "At Grade",
        "PRVCAT": "14",
        "INIT": "1",
        "LATITUDE": 29.244087,
        "LONGITUD": -100.080625,
        "LLSOURCE": "1",
        "WHISTBAN": "",
        "RRCONT": "4025443721",
        "POLCONT": "8008488715",
        "INV_LINK": "https://safetydata.fra.dot.gov/OfficeofSafety/PublicSite/Crossing/Crossing.aspx?phasetype=C&rpttype=I&txtcrossingnum=920434C",
        "ACC_LINK": "https://safetydata.fra.dot.gov/OfficeofSafety/PublicSite/Crossing/Crossing.aspx?phasetype=C&rpttype=A&txtcrossingnum=920434C",
        "TTSTNNAM": "",
        "XPURPOSE": "1",
        "OPERATINGR": "UP",
        "OPERATIN_1": "Primary",
        "DAYTHRU": 15,
        "NGHTTHRU": 14,
        "MAINTRK": 0,
        "SIDINGTRK": 0,
        "YARDTRK": 1,
        "TRANSITTRK": 0,
        "INDUSTRYTR": 0,
        "OTHRTRK": 0,
        "WDCODE": "",
        "REVISIONDA": "1975/01/01 00:00:00",
        "LASTUPDATE": "9/23/2025",
        "AADT": "",
        "AADTYEAR": "",
        "STATENAME": "TEXAS",
        "STATEAB": "TX",
        "COUNTYNAME": "UVALDE",
        "CITYNAME": "CLINE",
        "LATDD": 29.244087,
        "LONGDD": -100.080625,
        "gridlyProductionCertified": true,
        "gridlyClassification": "PUBLIC_ROADWAY",
        "gridlyDisplayName": "Private UPRR",
        "gridlyId": "FRA-920434C"
      }
    },
    {
      "type": "Feature",
      "id": 213155,
      "geometry": {
        "type": "Point",
        "coordinates": [
          -99.6404649999551,
          29.294566999761
        ]
      },
      "properties": {
        "OBJECTID": 213155,
        "CROSSING": "975061J",
        "EFFDATE": 1758585600000,
        "REASON": "14",
        "StateCode": "48",
        "CountyCode": "48463",
        "STCYFIPS": "48463",
        "CITYCD": "484633724",
        "RAILROAD": "UP",
        "RRDIV": "SOUTH TEXAS",
        "RRSUBDIV": "DEL RIO SUB",
        "HIGHWAY": "TBD",
        "STREET": "MAIN STREET",
        "TTSTN": "",
        "MILEPOST": "0290.529",
        "TYPEXING": "Public",
        "POSXING": "At Grade",
        "PRVCAT": "14",
        "INIT": "1",
        "LATITUDE": 29.294567,
        "LONGITUD": -99.640465,
        "LLSOURCE": "1",
        "WHISTBAN": "",
        "RRCONT": "4025443721",
        "POLCONT": "8008488715",
        "INV_LINK": "https://safetydata.fra.dot.gov/OfficeofSafety/PublicSite/Crossing/Crossing.aspx?phasetype=C&rpttype=I&txtcrossingnum=975061J",
        "ACC_LINK": "https://safetydata.fra.dot.gov/OfficeofSafety/PublicSite/Crossing/Crossing.aspx?phasetype=C&rpttype=A&txtcrossingnum=975061J",
        "TTSTNNAM": "",
        "XPURPOSE": "1",
        "OPERATINGR": "UP",
        "OPERATIN_1": "Primary",
        "DAYTHRU": 0,
        "NGHTTHRU": 0,
        "MAINTRK": 0,
        "SIDINGTRK": 0,
        "YARDTRK": 0,
        "TRANSITTRK": 0,
        "INDUSTRYTR": 1,
        "OTHRTRK": 0,
        "WDCODE": "Crossbucks",
        "REVISIONDA": "1975/01/01 00:00:00",
        "LASTUPDATE": "9/23/2025",
        "AADT": "1000",
        "AADTYEAR": "2018",
        "STATENAME": "TEXAS",
        "STATEAB": "TX",
        "COUNTYNAME": "UVALDE",
        "CITYNAME": "KNIPPA",
        "LATDD": 29.294567,
        "LONGDD": -99.640465,
        "gridlyProductionCertified": true,
        "gridlyClassification": "PUBLIC_ROADWAY",
        "gridlyDisplayName": "MAIN STREET",
        "gridlyId": "FRA-975061J"
      }
    },
    {
      "type": "Feature",
      "id": 213714,
      "geometry": {
        "type": "Point",
        "coordinates": [
          -99.8330370001254,
          29.2398580002816
        ]
      },
      "properties": {
        "OBJECTID": 213714,
        "CROSSING": "974107S",
        "EFFDATE": 1758585600000,
        "REASON": "14",
        "StateCode": "48",
        "CountyCode": "48463",
        "STCYFIPS": "48463",
        "CITYCD": "484637090",
        "RAILROAD": "UP",
        "RRDIV": "SOUTH TEXAS",
        "RRSUBDIV": "DEL RIO SUB",
        "HIGHWAY": "NA",
        "STREET": "ALL PRIVATE IN Industry - SOUTHERN COMMODITIES",
        "TTSTN": "",
        "MILEPOST": "0303.314",
        "TYPEXING": "Private",
        "POSXING": "At Grade",
        "PRVCAT": "14",
        "INIT": "1",
        "LATITUDE": 29.239858,
        "LONGITUD": -99.833037,
        "LLSOURCE": "1",
        "WHISTBAN": "",
        "RRCONT": "4025443721",
        "POLCONT": "8008488715",
        "INV_LINK": "https://safetydata.fra.dot.gov/OfficeofSafety/PublicSite/Crossing/Crossing.aspx?phasetype=C&rpttype=I&txtcrossingnum=974107S",
        "ACC_LINK": "https://safetydata.fra.dot.gov/OfficeofSafety/PublicSite/Crossing/Crossing.aspx?phasetype=C&rpttype=A&txtcrossingnum=974107S",
        "TTSTNNAM": "",
        "XPURPOSE": "1",
        "OPERATINGR": "UP",
        "OPERATIN_1": "Primary",
        "DAYTHRU": 0,
        "NGHTTHRU": 0,
        "MAINTRK": 0,
        "SIDINGTRK": 0,
        "YARDTRK": 0,
        "TRANSITTRK": 0,
        "INDUSTRYTR": 2,
        "OTHRTRK": 0,
        "WDCODE": "",
        "REVISIONDA": "1975/01/01 00:00:00",
        "LASTUPDATE": "9/23/2025",
        "AADT": "",
        "AADTYEAR": "",
        "STATENAME": "TEXAS",
        "STATEAB": "TX",
        "COUNTYNAME": "UVALDE",
        "CITYNAME": "UVALDE",
        "LATDD": 29.239858,
        "LONGDD": -99.833037,
        "gridlyProductionCertified": true,
        "gridlyClassification": "PUBLIC_ROADWAY",
        "gridlyDisplayName": "ALL PRIVATE IN Industry - SOUTHERN COMMODITIES",
        "gridlyId": "FRA-974107S"
      }
    },
    {
      "type": "Feature",
      "id": 213742,
      "geometry": {
        "type": "Point",
        "coordinates": [
          -99.650679999969,
          29.2913100000228
        ]
      },
      "properties": {
        "OBJECTID": 213742,
        "CROSSING": "975068G",
        "EFFDATE": 1758585600000,
        "REASON": "14",
        "StateCode": "48",
        "CountyCode": "48463",
        "STCYFIPS": "48463",
        "CITYCD": "484633724",
        "RAILROAD": "UP",
        "RRDIV": "SOUTH TEXAS",
        "RRSUBDIV": "DEL RIO SUB",
        "HIGHWAY": "NA",
        "STREET": "ALL PRIVATE IN Industry - VULCAN MATERIALS",
        "TTSTN": "",
        "MILEPOST": "0291.078",
        "TYPEXING": "Private",
        "POSXING": "At Grade",
        "PRVCAT": "14",
        "INIT": "1",
        "LATITUDE": 29.29131,
        "LONGITUD": -99.65068,
        "LLSOURCE": "1",
        "WHISTBAN": "",
        "RRCONT": "4025443721",
        "POLCONT": "8008488715",
        "INV_LINK": "https://safetydata.fra.dot.gov/OfficeofSafety/PublicSite/Crossing/Crossing.aspx?phasetype=C&rpttype=I&txtcrossingnum=975068G",
        "ACC_LINK": "https://safetydata.fra.dot.gov/OfficeofSafety/PublicSite/Crossing/Crossing.aspx?phasetype=C&rpttype=A&txtcrossingnum=975068G",
        "TTSTNNAM": "",
        "XPURPOSE": "1",
        "OPERATINGR": "UP",
        "OPERATIN_1": "Primary",
        "DAYTHRU": 0,
        "NGHTTHRU": 0,
        "MAINTRK": 0,
        "SIDINGTRK": 0,
        "YARDTRK": 0,
        "TRANSITTRK": 0,
        "INDUSTRYTR": 2,
        "OTHRTRK": 0,
        "WDCODE": "",
        "REVISIONDA": "1975/01/01 00:00:00",
        "LASTUPDATE": "9/23/2025",
        "AADT": "",
        "AADTYEAR": "",
        "STATENAME": "TEXAS",
        "STATEAB": "TX",
        "COUNTYNAME": "UVALDE",
        "CITYNAME": "KNIPPA",
        "LATDD": 29.29131,
        "LONGDD": -99.65068,
        "gridlyProductionCertified": true,
        "gridlyClassification": "PUBLIC_ROADWAY",
        "gridlyDisplayName": "ALL PRIVATE IN Industry - VULCAN MATERIALS",
        "gridlyId": "FRA-975068G"
      }
    },
    {
      "type": "Feature",
      "id": 214242,
      "geometry": {
        "type": "Point",
        "coordinates": [
          -100.035539699692,
          29.1701334000154
        ]
      },
      "properties": {
        "OBJECTID": 214242,
        "CROSSING": "742998V",
        "EFFDATE": 1772755200000,
        "REASON": "14",
        "StateCode": "48",
        "CountyCode": "48463",
        "STCYFIPS": "48463",
        "CITYCD": "484637090",
        "RAILROAD": "UP",
        "RRDIV": "SOUTH TEXAS",
        "RRSUBDIV": "Cline Mine Ind Ld",
        "HIGHWAY": "RM1022",
        "STREET": "RM1022",
        "TTSTN": "692786",
        "MILEPOST": "0006.474",
        "TYPEXING": "Public",
        "POSXING": "At Grade",
        "PRVCAT": "14",
        "INIT": "2",
        "LATITUDE": 29.1701334,
        "LONGITUD": -100.0355397,
        "LLSOURCE": "1",
        "WHISTBAN": "0",
        "RRCONT": "4025443721",
        "POLCONT": "8008488715",
        "INV_LINK": "https://safetydata.fra.dot.gov/OfficeofSafety/PublicSite/Crossing/Crossing.aspx?phasetype=C&rpttype=I&txtcrossingnum=742998V",
        "ACC_LINK": "https://safetydata.fra.dot.gov/OfficeofSafety/PublicSite/Crossing/Crossing.aspx?phasetype=C&rpttype=A&txtcrossingnum=742998V",
        "TTSTNNAM": "",
        "XPURPOSE": "1",
        "OPERATINGR": "UP",
        "OPERATIN_1": "Primary",
        "DAYTHRU": 10,
        "NGHTTHRU": 8,
        "MAINTRK": 0,
        "SIDINGTRK": 0,
        "YARDTRK": 0,
        "TRANSITTRK": 0,
        "INDUSTRYTR": 2,
        "OTHRTRK": 1,
        "WDCODE": "All other Gates",
        "REVISIONDA": "1975/01/01 00:00:00",
        "LASTUPDATE": "3/6/2026",
        "AADT": "000648",
        "AADTYEAR": "2023",
        "STATENAME": "TEXAS",
        "STATEAB": "TX",
        "COUNTYNAME": "UVALDE",
        "CITYNAME": "UVALDE",
        "LATDD": 29.1701334,
        "LONGDD": -100.0355397,
        "gridlyProductionCertified": true,
        "gridlyClassification": "PUBLIC_ROADWAY",
        "gridlyDisplayName": "RM1022",
        "gridlyId": "FRA-742998V"
      }
    },
    {
      "type": "Feature",
      "id": 214243,
      "geometry": {
        "type": "Point",
        "coordinates": [
          -99.8342792003817,
          29.2397567999535
        ]
      },
      "properties": {
        "OBJECTID": 214243,
        "CROSSING": "742849U",
        "EFFDATE": 1772755200000,
        "REASON": "14",
        "StateCode": "48",
        "CountyCode": "48463",
        "STCYFIPS": "48463",
        "CITYCD": "484637090",
        "RAILROAD": "UP",
        "RRDIV": "SOUTH TEXAS",
        "RRSUBDIV": "DEL RIO SUB",
        "HIGHWAY": "FM1403",
        "STREET": "FM1403",
        "TTSTN": "692770",
        "MILEPOST": "0303.400",
        "TYPEXING": "Public",
        "POSXING": "At Grade",
        "PRVCAT": "14",
        "INIT": "2",
        "LATITUDE": 29.2397568,
        "LONGITUD": -99.8342792,
        "LLSOURCE": "1",
        "WHISTBAN": "0",
        "RRCONT": "4025443721",
        "POLCONT": "8008488715",
        "INV_LINK": "https://safetydata.fra.dot.gov/OfficeofSafety/PublicSite/Crossing/Crossing.aspx?phasetype=C&rpttype=I&txtcrossingnum=742849U",
        "ACC_LINK": "https://safetydata.fra.dot.gov/OfficeofSafety/PublicSite/Crossing/Crossing.aspx?phasetype=C&rpttype=A&txtcrossingnum=742849U",
        "TTSTNNAM": "",
        "XPURPOSE": "1",
        "OPERATINGR": "UP",
        "OPERATIN_1": "Primary",
        "DAYTHRU": 10,
        "NGHTTHRU": 10,
        "MAINTRK": 1,
        "SIDINGTRK": 0,
        "YARDTRK": 0,
        "TRANSITTRK": 0,
        "INDUSTRYTR": 0,
        "OTHRTRK": 0,
        "WDCODE": "Flashing lights",
        "REVISIONDA": "1975/01/01 00:00:00",
        "LASTUPDATE": "3/6/2026",
        "AADT": "158",
        "AADTYEAR": "2023",
        "STATENAME": "TEXAS",
        "STATEAB": "TX",
        "COUNTYNAME": "UVALDE",
        "CITYNAME": "UVALDE",
        "LATDD": 29.2397568,
        "LONGDD": -99.8342792,
        "gridlyProductionCertified": true,
        "gridlyClassification": "PUBLIC_ROADWAY",
        "gridlyDisplayName": "FM1403",
        "gridlyId": "FRA-742849U"
      }
    },
    {
      "type": "Feature",
      "id": 214715,
      "geometry": {
        "type": "Point",
        "coordinates": [
          -99.6365274999102,
          29.2952094002068
        ]
      },
      "properties": {
        "OBJECTID": 214715,
        "CROSSING": "742827U",
        "EFFDATE": 1775433600000,
        "REASON": "14",
        "StateCode": "48",
        "CountyCode": "48463",
        "STCYFIPS": "48463",
        "CITYCD": "484633724",
        "RAILROAD": "UP",
        "RRDIV": "SOUTH TEXAS",
        "RRSUBDIV": "DEL RIO SUB",
        "HIGHWAY": "FM 1049",
        "STREET": "FM 1049",
        "TTSTN": "692765",
        "MILEPOST": "0290.314",
        "TYPEXING": "Public",
        "POSXING": "At Grade",
        "PRVCAT": "14",
        "INIT": "1",
        "LATITUDE": 29.2952094,
        "LONGITUD": -99.6365275,
        "LLSOURCE": "1",
        "WHISTBAN": "0",
        "RRCONT": "4025443721",
        "POLCONT": "8008488715",
        "INV_LINK": "https://safetydata.fra.dot.gov/OfficeofSafety/PublicSite/Crossing/Crossing.aspx?phasetype=C&rpttype=I&txtcrossingnum=742827U",
        "ACC_LINK": "https://safetydata.fra.dot.gov/OfficeofSafety/PublicSite/Crossing/Crossing.aspx?phasetype=C&rpttype=A&txtcrossingnum=742827U",
        "TTSTNNAM": "",
        "XPURPOSE": "1",
        "OPERATINGR": "UP",
        "OPERATIN_1": "Primary",
        "DAYTHRU": 10,
        "NGHTTHRU": 10,
        "MAINTRK": 1,
        "SIDINGTRK": 1,
        "YARDTRK": 1,
        "TRANSITTRK": 0,
        "INDUSTRYTR": 0,
        "OTHRTRK": 1,
        "WDCODE": "All other Gates",
        "REVISIONDA": "1975/01/01 00:00:00",
        "LASTUPDATE": "4/6/2026",
        "AADT": "357",
        "AADTYEAR": "2024",
        "STATENAME": "TEXAS",
        "STATEAB": "TX",
        "COUNTYNAME": "UVALDE",
        "CITYNAME": "KNIPPA",
        "LATDD": 29.2952094,
        "LONGDD": -99.6365275,
        "gridlyProductionCertified": true,
        "gridlyClassification": "PUBLIC_ROADWAY",
        "gridlyDisplayName": "FM 1049",
        "gridlyId": "FRA-742827U"
      }
    },
    {
      "type": "Feature",
      "id": 216291,
      "geometry": {
        "type": "Point",
        "coordinates": [
          -99.7975918999738,
          29.2345271999605
        ]
      },
      "properties": {
        "OBJECTID": 216291,
        "CROSSING": "742847F",
        "EFFDATE": 1773014400000,
        "REASON": "14",
        "StateCode": "48",
        "CountyCode": "48463",
        "STCYFIPS": "48463",
        "CITYCD": "484637090",
        "RAILROAD": "UP",
        "RRDIV": "SOUTH TEXAS",
        "RRSUBDIV": "DEL RIO SUB",
        "HIGHWAY": "LS0000",
        "STREET": "BOWIE STREET",
        "TTSTN": "692770",
        "MILEPOST": "0301.110",
        "TYPEXING": "Public",
        "POSXING": "At Grade",
        "PRVCAT": "14",
        "INIT": "2",
        "LATITUDE": 29.2345272,
        "LONGITUD": -99.7975919,
        "LLSOURCE": "1",
        "WHISTBAN": "0",
        "RRCONT": "4025443721",
        "POLCONT": "8008488715",
        "INV_LINK": "https://safetydata.fra.dot.gov/OfficeofSafety/PublicSite/Crossing/Crossing.aspx?phasetype=C&rpttype=I&txtcrossingnum=742847F",
        "ACC_LINK": "https://safetydata.fra.dot.gov/OfficeofSafety/PublicSite/Crossing/Crossing.aspx?phasetype=C&rpttype=A&txtcrossingnum=742847F",
        "TTSTNNAM": "",
        "XPURPOSE": "1",
        "OPERATINGR": "UP",
        "OPERATIN_1": "Primary",
        "DAYTHRU": 10,
        "NGHTTHRU": 10,
        "MAINTRK": 1,
        "SIDINGTRK": 0,
        "YARDTRK": 0,
        "TRANSITTRK": 0,
        "INDUSTRYTR": 0,
        "OTHRTRK": 2,
        "WDCODE": "All other Gates",
        "REVISIONDA": "1975/01/01 00:00:00",
        "LASTUPDATE": "3/9/2026",
        "AADT": "1589",
        "AADTYEAR": "2020",
        "STATENAME": "TEXAS",
        "STATEAB": "TX",
        "COUNTYNAME": "UVALDE",
        "CITYNAME": "UVALDE",
        "LATDD": 29.2345272,
        "LONGDD": -99.7975919,
        "gridlyProductionCertified": true,
        "gridlyClassification": "PUBLIC_ROADWAY",
        "gridlyDisplayName": "BOWIE STREET",
        "gridlyId": "FRA-742847F"
      }
    }
  ]
}
