{
  "type": "FeatureCollection",
  "features": [
    {
      "type": "Feature",
      "id": 200962,
      "geometry": {
        "type": "Point",
        "coordinates": [
          -98.4248709001645,
          31.2441716997214
        ]
      },
      "properties": {
        "OBJECTID": 200962,
        "CROSSING": "024701G",
        "EFFDATE": 1325376000000,
        "REASON": "14",
        "StateCode": "48",
        "CountyCode": "48281",
        "STCYFIPS": "48281",
        "CITYCD": "482814060",
        "RAILROAD": "GCSR",
        "RRDIV": "SOUTHERN",
        "RRSUBDIV": "SAN SABA",
        "HIGHWAY": "US 0183",
        "STREET": "US 0183",
        "TTSTN": "683350",
        "MILEPOST": "0002.88",
        "TYPEXING": "Public",
        "POSXING": "RR Under",
        "PRVCAT": "14",
        "INIT": "2",
        "LATITUDE": 31.2441717,
        "LONGITUD": -98.4248709,
        "LLSOURCE": "",
        "WHISTBAN": "0",
        "RRCONT": "",
        "POLCONT": "",
        "INV_LINK": "https://safetydata.fra.dot.gov/OfficeofSafety/PublicSite/Crossing/Crossing.aspx?phasetype=C&rpttype=I&txtcrossingnum=024701G",
        "ACC_LINK": "https://safetydata.fra.dot.gov/OfficeofSafety/PublicSite/Crossing/Crossing.aspx?phasetype=C&rpttype=A&txtcrossingnum=024701G",
        "TTSTNNAM": "LOMETA",
        "XPURPOSE": "1",
        "OPERATINGR": "GCSR",
        "OPERATIN_1": "Primary",
        "DAYTHRU": 0,
        "NGHTTHRU": 0,
        "MAINTRK": 0,
        "SIDINGTRK": 0,
        "YARDTRK": 0,
        "TRANSITTRK": 0,
        "INDUSTRYTR": 0,
        "OTHRTRK": 0,
        "WDCODE": "No signs or signals",
        "REVISIONDA": "1993/01/01 00:00:00",
        "LASTUPDATE": "1/1/2012",
        "AADT": "002000",
        "AADTYEAR": "2011",
        "STATENAME": "TEXAS",
        "STATEAB": "TX",
        "COUNTYNAME": "LAMPASAS",
        "CITYNAME": "LOMETA",
        "LATDD": 31.2441717,
        "LONGDD": -98.4248709,
        "gridlyProductionCertified": true,
        "gridlyClassification": "PUBLIC_ROADWAY",
        "gridlyDisplayName": "US 0183",
        "gridlyId": "FRA-024701G"
      }
    },
    {
      "type": "Feature",
      "id": 202497,
      "geometry": {
        "type": "Point",
        "coordinates": [
          -97.9664020000976,
          31.1098355999265
        ]
      },
      "properties": {
        "OBJECTID": 202497,
        "CROSSING": "024557S",
        "EFFDATE": 1702339200000,
        "REASON": "20",
        "StateCode": "48",
        "CountyCode": "48281",
        "STCYFIPS": "48281",
        "CITYCD": "480991540",
        "RAILROAD": "BNSF",
        "RRDIV": "RED RIVER",
        "RRSUBDIV": "LAMPASAS",
        "HIGHWAY": "Not Yet Reported by State",
        "STREET": "PRIVATE ROAD",
        "TTSTN": "683363",
        "MILEPOST": "0260.053",
        "TYPEXING": "Private",
        "POSXING": "At Grade",
        "PRVCAT": "20",
        "INIT": "1",
        "LATITUDE": 31.1098356,
        "LONGITUD": -97.966402,
        "LLSOURCE": "1",
        "WHISTBAN": "0",
        "RRCONT": "8173521549",
        "POLCONT": "8008325452",
        "INV_LINK": "https://safetydata.fra.dot.gov/OfficeofSafety/PublicSite/Crossing/Crossing.aspx?phasetype=C&rpttype=I&txtcrossingnum=024557S",
        "ACC_LINK": "https://safetydata.fra.dot.gov/OfficeofSafety/PublicSite/Crossing/Crossing.aspx?phasetype=C&rpttype=A&txtcrossingnum=024557S",
        "TTSTNNAM": "KEMPNER",
        "XPURPOSE": "1",
        "OPERATINGR": "BNSF",
        "OPERATIN_1": "Primary",
        "DAYTHRU": 7,
        "NGHTTHRU": 7,
        "MAINTRK": 1,
        "SIDINGTRK": 0,
        "YARDTRK": 0,
        "TRANSITTRK": 0,
        "INDUSTRYTR": 0,
        "OTHRTRK": 0,
        "WDCODE": "",
        "REVISIONDA": "1996/01/01 00:00:00",
        "LASTUPDATE": "12/12/2023",
        "AADT": "",
        "AADTYEAR": "1970",
        "STATENAME": "TEXAS",
        "STATEAB": "TX",
        "COUNTYNAME": "LAMPASAS",
        "CITYNAME": "COPPERAS COVE",
        "LATDD": 31.1098356,
        "LONGDD": -97.966402,
        "gridlyProductionCertified": true,
        "gridlyClassification": "PUBLIC_ROADWAY",
        "gridlyDisplayName": "PRIVATE ROAD",
        "gridlyId": "FRA-024557S"
      }
    },
    {
      "type": "Feature",
      "id": 202498,
      "geometry": {
        "type": "Point",
        "coordinates": [
          -97.9728500003075,
          31.1037689998379
        ]
      },
      "properties": {
        "OBJECTID": 202498,
        "CROSSING": "024558Y",
        "EFFDATE": 1702339200000,
        "REASON": "20",
        "StateCode": "48",
        "CountyCode": "48281",
        "STCYFIPS": "48281",
        "CITYCD": "480991540",
        "RAILROAD": "BNSF",
        "RRDIV": "RED RIVER",
        "RRSUBDIV": "LAMPASAS",
        "HIGHWAY": "Not Yet Reported by State",
        "STREET": "PRIVATE",
        "TTSTN": "683363",
        "MILEPOST": "0260.619",
        "TYPEXING": "Private",
        "POSXING": "At Grade",
        "PRVCAT": "20",
        "INIT": "1",
        "LATITUDE": 31.103769,
        "LONGITUD": -97.97285,
        "LLSOURCE": "1",
        "WHISTBAN": "0",
        "RRCONT": "8173521549",
        "POLCONT": "8008325452",
        "INV_LINK": "https://safetydata.fra.dot.gov/OfficeofSafety/PublicSite/Crossing/Crossing.aspx?phasetype=C&rpttype=I&txtcrossingnum=024558Y",
        "ACC_LINK": "https://safetydata.fra.dot.gov/OfficeofSafety/PublicSite/Crossing/Crossing.aspx?phasetype=C&rpttype=A&txtcrossingnum=024558Y",
        "TTSTNNAM": "KEMPNER",
        "XPURPOSE": "1",
        "OPERATINGR": "BNSF",
        "OPERATIN_1": "Primary",
        "DAYTHRU": 7,
        "NGHTTHRU": 7,
        "MAINTRK": 1,
        "SIDINGTRK": 0,
        "YARDTRK": 0,
        "TRANSITTRK": 0,
        "INDUSTRYTR": 0,
        "OTHRTRK": 0,
        "WDCODE": "",
        "REVISIONDA": "1996/01/01 00:00:00",
        "LASTUPDATE": "12/12/2023",
        "AADT": "",
        "AADTYEAR": "1970",
        "STATENAME": "TEXAS",
        "STATEAB": "TX",
        "COUNTYNAME": "LAMPASAS",
        "CITYNAME": "COPPERAS COVE",
        "LATDD": 31.103769,
        "LONGDD": -97.97285,
        "gridlyProductionCertified": true,
        "gridlyClassification": "PUBLIC_ROADWAY",
        "gridlyDisplayName": "PRIVATE",
        "gridlyId": "FRA-024558Y"
      }
    },
    {
      "type": "Feature",
      "id": 202501,
      "geometry": {
        "type": "Point",
        "coordinates": [
          -97.9912240000933,
          31.0856691000379
        ]
      },
      "properties": {
        "OBJECTID": 202501,
        "CROSSING": "024560A",
        "EFFDATE": 1702339200000,
        "REASON": "20",
        "StateCode": "48",
        "CountyCode": "48281",
        "STCYFIPS": "48281",
        "CITYCD": "480991540",
        "RAILROAD": "BNSF",
        "RRDIV": "RED RIVER",
        "RRSUBDIV": "LAMPASAS",
        "HIGHWAY": "Not Yet Reported by State",
        "STREET": "PRIVATE ROAD",
        "TTSTN": "683363",
        "MILEPOST": "0262.284",
        "TYPEXING": "Private",
        "POSXING": "At Grade",
        "PRVCAT": "20",
        "INIT": "1",
        "LATITUDE": 31.0856691,
        "LONGITUD": -97.991224,
        "LLSOURCE": "1",
        "WHISTBAN": "0",
        "RRCONT": "8173521549",
        "POLCONT": "8008325452",
        "INV_LINK": "https://safetydata.fra.dot.gov/OfficeofSafety/PublicSite/Crossing/Crossing.aspx?phasetype=C&rpttype=I&txtcrossingnum=024560A",
        "ACC_LINK": "https://safetydata.fra.dot.gov/OfficeofSafety/PublicSite/Crossing/Crossing.aspx?phasetype=C&rpttype=A&txtcrossingnum=024560A",
        "TTSTNNAM": "KEMPNER",
        "XPURPOSE": "1",
        "OPERATINGR": "BNSF",
        "OPERATIN_1": "Primary",
        "DAYTHRU": 7,
        "NGHTTHRU": 7,
        "MAINTRK": 1,
        "SIDINGTRK": 0,
        "YARDTRK": 0,
        "TRANSITTRK": 0,
        "INDUSTRYTR": 0,
        "OTHRTRK": 0,
        "WDCODE": "",
        "REVISIONDA": "1996/01/01 00:00:00",
        "LASTUPDATE": "12/12/2023",
        "AADT": "",
        "AADTYEAR": "1970",
        "STATENAME": "TEXAS",
        "STATEAB": "TX",
        "COUNTYNAME": "LAMPASAS",
        "CITYNAME": "COPPERAS COVE",
        "LATDD": 31.0856691,
        "LONGDD": -97.991224,
        "gridlyProductionCertified": true,
        "gridlyClassification": "PUBLIC_ROADWAY",
        "gridlyDisplayName": "PRIVATE ROAD",
        "gridlyId": "FRA-024560A"
      }
    },
    {
      "type": "Feature",
      "id": 202553,
      "geometry": {
        "type": "Point",
        "coordinates": [
          -97.996440000417,
          31.0810699998289
        ]
      },
      "properties": {
        "OBJECTID": 202553,
        "CROSSING": "024561G",
        "EFFDATE": 1702339200000,
        "REASON": "20",
        "StateCode": "48",
        "CountyCode": "48281",
        "STCYFIPS": "48281",
        "CITYCD": "480991540",
        "RAILROAD": "BNSF",
        "RRDIV": "RED RIVER",
        "RRSUBDIV": "LAMPASAS",
        "HIGHWAY": "Not Yet Reported by State",
        "STREET": "PRIVATE",
        "TTSTN": "683363",
        "MILEPOST": "0262.731",
        "TYPEXING": "Private",
        "POSXING": "At Grade",
        "PRVCAT": "20",
        "INIT": "1",
        "LATITUDE": 31.08107,
        "LONGITUD": -97.99644,
        "LLSOURCE": "1",
        "WHISTBAN": "0",
        "RRCONT": "8173521549",
        "POLCONT": "8008325452",
        "INV_LINK": "https://safetydata.fra.dot.gov/OfficeofSafety/PublicSite/Crossing/Crossing.aspx?phasetype=C&rpttype=I&txtcrossingnum=024561G",
        "ACC_LINK": "https://safetydata.fra.dot.gov/OfficeofSafety/PublicSite/Crossing/Crossing.aspx?phasetype=C&rpttype=A&txtcrossingnum=024561G",
        "TTSTNNAM": "KEMPNER",
        "XPURPOSE": "1",
        "OPERATINGR": "BNSF",
        "OPERATIN_1": "Primary",
        "DAYTHRU": 7,
        "NGHTTHRU": 7,
        "MAINTRK": 1,
        "SIDINGTRK": 0,
        "YARDTRK": 0,
        "TRANSITTRK": 0,
        "INDUSTRYTR": 0,
        "OTHRTRK": 0,
        "WDCODE": "",
        "REVISIONDA": "1996/01/01 00:00:00",
        "LASTUPDATE": "12/12/2023",
        "AADT": "",
        "AADTYEAR": "1970",
        "STATENAME": "TEXAS",
        "STATEAB": "TX",
        "COUNTYNAME": "LAMPASAS",
        "CITYNAME": "COPPERAS COVE",
        "LATDD": 31.08107,
        "LONGDD": -97.99644,
        "gridlyProductionCertified": true,
        "gridlyClassification": "PUBLIC_ROADWAY",
        "gridlyDisplayName": "PRIVATE",
        "gridlyId": "FRA-024561G"
      }
    },
    {
      "type": "Feature",
      "id": 202554,
      "geometry": {
        "type": "Point",
        "coordinates": [
          -97.9863480004267,
          31.0909602002644
        ]
      },
      "properties": {
        "OBJECTID": 202554,
        "CROSSING": "024563V",
        "EFFDATE": 1702339200000,
        "REASON": "20",
        "StateCode": "48",
        "CountyCode": "48281",
        "STCYFIPS": "48281",
        "CITYCD": "480991540",
        "RAILROAD": "BNSF",
        "RRDIV": "RED RIVER",
        "RRSUBDIV": "LAMPASAS",
        "HIGHWAY": "Not Yet Reported by State",
        "STREET": "PRIVATE ROAD",
        "TTSTN": "683363",
        "MILEPOST": "0261.820",
        "TYPEXING": "Private",
        "POSXING": "At Grade",
        "PRVCAT": "20",
        "INIT": "1",
        "LATITUDE": 31.0909602,
        "LONGITUD": -97.986348,
        "LLSOURCE": "1",
        "WHISTBAN": "0",
        "RRCONT": "8173521549",
        "POLCONT": "8008325452",
        "INV_LINK": "https://safetydata.fra.dot.gov/OfficeofSafety/PublicSite/Crossing/Crossing.aspx?phasetype=C&rpttype=I&txtcrossingnum=024563V",
        "ACC_LINK": "https://safetydata.fra.dot.gov/OfficeofSafety/PublicSite/Crossing/Crossing.aspx?phasetype=C&rpttype=A&txtcrossingnum=024563V",
        "TTSTNNAM": "KEMPNER",
        "XPURPOSE": "1",
        "OPERATINGR": "BNSF",
        "OPERATIN_1": "Primary",
        "DAYTHRU": 7,
        "NGHTTHRU": 7,
        "MAINTRK": 1,
        "SIDINGTRK": 0,
        "YARDTRK": 0,
        "TRANSITTRK": 0,
        "INDUSTRYTR": 0,
        "OTHRTRK": 0,
        "WDCODE": "",
        "REVISIONDA": "1996/01/01 00:00:00",
        "LASTUPDATE": "12/12/2023",
        "AADT": "",
        "AADTYEAR": "1970",
        "STATENAME": "TEXAS",
        "STATEAB": "TX",
        "COUNTYNAME": "LAMPASAS",
        "CITYNAME": "COPPERAS COVE",
        "LATDD": 31.0909602,
        "LONGDD": -97.986348,
        "gridlyProductionCertified": true,
        "gridlyClassification": "PUBLIC_ROADWAY",
        "gridlyDisplayName": "PRIVATE ROAD",
        "gridlyId": "FRA-024563V"
      }
    },
    {
      "type": "Feature",
      "id": 204855,
      "geometry": {
        "type": "Point",
        "coordinates": [
          -98.072964000296,
          31.0797760002193
        ]
      },
      "properties": {
        "OBJECTID": 204855,
        "CROSSING": "024564C",
        "EFFDATE": 1734393600000,
        "REASON": "14",
        "StateCode": "48",
        "CountyCode": "48281",
        "STCYFIPS": "48281",
        "CITYCD": "482813870",
        "RAILROAD": "BNSF",
        "RRDIV": "RED RIVER",
        "RRSUBDIV": "LAMPASAS",
        "HIGHWAY": "Not Yet Reported by State",
        "STREET": "PRIVATE",
        "TTSTN": "683363",
        "MILEPOST": "0267.654",
        "TYPEXING": "Private",
        "POSXING": "RR Over",
        "PRVCAT": "14",
        "INIT": "1",
        "LATITUDE": 31.079776,
        "LONGITUD": -98.072964,
        "LLSOURCE": "1",
        "WHISTBAN": "0",
        "RRCONT": "8173521549",
        "POLCONT": "8008325452",
        "INV_LINK": "https://safetydata.fra.dot.gov/OfficeofSafety/PublicSite/Crossing/Crossing.aspx?phasetype=C&rpttype=I&txtcrossingnum=024564C",
        "ACC_LINK": "https://safetydata.fra.dot.gov/OfficeofSafety/PublicSite/Crossing/Crossing.aspx?phasetype=C&rpttype=A&txtcrossingnum=024564C",
        "TTSTNNAM": "KEMPNER",
        "XPURPOSE": "1",
        "OPERATINGR": "BNSF",
        "OPERATIN_1": "Primary",
        "DAYTHRU": 4,
        "NGHTTHRU": 3,
        "MAINTRK": 1,
        "SIDINGTRK": 0,
        "YARDTRK": 0,
        "TRANSITTRK": 0,
        "INDUSTRYTR": 0,
        "OTHRTRK": 0,
        "WDCODE": "",
        "REVISIONDA": "1996/01/01 00:00:00",
        "LASTUPDATE": "12/17/2024",
        "AADT": "",
        "AADTYEAR": "1970",
        "STATENAME": "TEXAS",
        "STATEAB": "TX",
        "COUNTYNAME": "LAMPASAS",
        "CITYNAME": "LAMPASAS",
        "LATDD": 31.079776,
        "LONGDD": -98.072964,
        "gridlyProductionCertified": true,
        "gridlyClassification": "PUBLIC_ROADWAY",
        "gridlyDisplayName": "PRIVATE",
        "gridlyId": "FRA-024564C"
      }
    },
    {
      "type": "Feature",
      "id": 204856,
      "geometry": {
        "type": "Point",
        "coordinates": [
          -98.0893660004039,
          31.0693385001334
        ]
      },
      "properties": {
        "OBJECTID": 204856,
        "CROSSING": "024566R",
        "EFFDATE": 1734393600000,
        "REASON": "14",
        "StateCode": "48",
        "CountyCode": "48281",
        "STCYFIPS": "48281",
        "CITYCD": "482813870",
        "RAILROAD": "BNSF",
        "RRDIV": "RED RIVER",
        "RRSUBDIV": "LAMPASAS",
        "HIGHWAY": "Not Yet Reported by State",
        "STREET": "PRIVATE ROAD",
        "TTSTN": "683390",
        "MILEPOST": "0268.912",
        "TYPEXING": "Private",
        "POSXING": "At Grade",
        "PRVCAT": "14",
        "INIT": "1",
        "LATITUDE": 31.0693385,
        "LONGITUD": -98.089366,
        "LLSOURCE": "1",
        "WHISTBAN": "0",
        "RRCONT": "8173521549",
        "POLCONT": "8008325452",
        "INV_LINK": "https://safetydata.fra.dot.gov/OfficeofSafety/PublicSite/Crossing/Crossing.aspx?phasetype=C&rpttype=I&txtcrossingnum=024566R",
        "ACC_LINK": "https://safetydata.fra.dot.gov/OfficeofSafety/PublicSite/Crossing/Crossing.aspx?phasetype=C&rpttype=A&txtcrossingnum=024566R",
        "TTSTNNAM": "LAMPASAS",
        "XPURPOSE": "1",
        "OPERATINGR": "BNSF",
        "OPERATIN_1": "Primary",
        "DAYTHRU": 4,
        "NGHTTHRU": 3,
        "MAINTRK": 1,
        "SIDINGTRK": 0,
        "YARDTRK": 0,
        "TRANSITTRK": 0,
        "INDUSTRYTR": 0,
        "OTHRTRK": 0,
        "WDCODE": "",
        "REVISIONDA": "1996/01/01 00:00:00",
        "LASTUPDATE": "12/17/2024",
        "AADT": "",
        "AADTYEAR": "1970",
        "STATENAME": "TEXAS",
        "STATEAB": "TX",
        "COUNTYNAME": "LAMPASAS",
        "CITYNAME": "LAMPASAS",
        "LATDD": 31.0693385,
        "LONGDD": -98.089366,
        "gridlyProductionCertified": true,
        "gridlyClassification": "PUBLIC_ROADWAY",
        "gridlyDisplayName": "PRIVATE ROAD",
        "gridlyId": "FRA-024566R"
      }
    },
    {
      "type": "Feature",
      "id": 204857,
      "geometry": {
        "type": "Point",
        "coordinates": [
          -98.1082709997441,
          31.0724766000545
        ]
      },
      "properties": {
        "OBJECTID": 204857,
        "CROSSING": "024567X",
        "EFFDATE": 1734393600000,
        "REASON": "14",
        "StateCode": "48",
        "CountyCode": "48281",
        "STCYFIPS": "48281",
        "CITYCD": "482813870",
        "RAILROAD": "BNSF",
        "RRDIV": "RED RIVER",
        "RRSUBDIV": "LAMPASAS",
        "HIGHWAY": "Not Yet Reported by State",
        "STREET": "PRIVATE ROAD",
        "TTSTN": "683390",
        "MILEPOST": "0270.150",
        "TYPEXING": "Private",
        "POSXING": "At Grade",
        "PRVCAT": "14",
        "INIT": "1",
        "LATITUDE": 31.0724766,
        "LONGITUD": -98.108271,
        "LLSOURCE": "1",
        "WHISTBAN": "0",
        "RRCONT": "8173521549",
        "POLCONT": "8008325452",
        "INV_LINK": "https://safetydata.fra.dot.gov/OfficeofSafety/PublicSite/Crossing/Crossing.aspx?phasetype=C&rpttype=I&txtcrossingnum=024567X",
        "ACC_LINK": "https://safetydata.fra.dot.gov/OfficeofSafety/PublicSite/Crossing/Crossing.aspx?phasetype=C&rpttype=A&txtcrossingnum=024567X",
        "TTSTNNAM": "LAMPASAS",
        "XPURPOSE": "1",
        "OPERATINGR": "BNSF",
        "OPERATIN_1": "Primary",
        "DAYTHRU": 4,
        "NGHTTHRU": 3,
        "MAINTRK": 1,
        "SIDINGTRK": 0,
        "YARDTRK": 0,
        "TRANSITTRK": 0,
        "INDUSTRYTR": 0,
        "OTHRTRK": 0,
        "WDCODE": "",
        "REVISIONDA": "1996/01/01 00:00:00",
        "LASTUPDATE": "12/17/2024",
        "AADT": "",
        "AADTYEAR": "1970",
        "STATENAME": "TEXAS",
        "STATEAB": "TX",
        "COUNTYNAME": "LAMPASAS",
        "CITYNAME": "LAMPASAS",
        "LATDD": 31.0724766,
        "LONGDD": -98.108271,
        "gridlyProductionCertified": true,
        "gridlyClassification": "PUBLIC_ROADWAY",
        "gridlyDisplayName": "PRIVATE ROAD",
        "gridlyId": "FRA-024567X"
      }
    },
    {
      "type": "Feature",
      "id": 204858,
      "geometry": {
        "type": "Point",
        "coordinates": [
          -98.1091009999475,
          31.0723692996721
        ]
      },
      "properties": {
        "OBJECTID": 204858,
        "CROSSING": "024568E",
        "EFFDATE": 1734393600000,
        "REASON": "14",
        "StateCode": "48",
        "CountyCode": "48281",
        "STCYFIPS": "48281",
        "CITYCD": "482813870",
        "RAILROAD": "BNSF",
        "RRDIV": "RED RIVER",
        "RRSUBDIV": "LAMPASAS",
        "HIGHWAY": "Not Yet Reported by State",
        "STREET": "PRIVATE ROAD",
        "TTSTN": "683390",
        "MILEPOST": "0270.200",
        "TYPEXING": "Private",
        "POSXING": "RR Over",
        "PRVCAT": "14",
        "INIT": "1",
        "LATITUDE": 31.0723693,
        "LONGITUD": -98.109101,
        "LLSOURCE": "1",
        "WHISTBAN": "0",
        "RRCONT": "8173521549",
        "POLCONT": "8008325452",
        "INV_LINK": "https://safetydata.fra.dot.gov/OfficeofSafety/PublicSite/Crossing/Crossing.aspx?phasetype=C&rpttype=I&txtcrossingnum=024568E",
        "ACC_LINK": "https://safetydata.fra.dot.gov/OfficeofSafety/PublicSite/Crossing/Crossing.aspx?phasetype=C&rpttype=A&txtcrossingnum=024568E",
        "TTSTNNAM": "LAMPASAS",
        "XPURPOSE": "1",
        "OPERATINGR": "BNSF",
        "OPERATIN_1": "Primary",
        "DAYTHRU": 4,
        "NGHTTHRU": 3,
        "MAINTRK": 1,
        "SIDINGTRK": 0,
        "YARDTRK": 0,
        "TRANSITTRK": 0,
        "INDUSTRYTR": 0,
        "OTHRTRK": 0,
        "WDCODE": "",
        "REVISIONDA": "1996/01/01 00:00:00",
        "LASTUPDATE": "12/17/2024",
        "AADT": "",
        "AADTYEAR": "1970",
        "STATENAME": "TEXAS",
        "STATEAB": "TX",
        "COUNTYNAME": "LAMPASAS",
        "CITYNAME": "LAMPASAS",
        "LATDD": 31.0723693,
        "LONGDD": -98.109101,
        "gridlyProductionCertified": true,
        "gridlyClassification": "PUBLIC_ROADWAY",
        "gridlyDisplayName": "PRIVATE ROAD",
        "gridlyId": "FRA-024568E"
      }
    },
    {
      "type": "Feature",
      "id": 204859,
      "geometry": {
        "type": "Point",
        "coordinates": [
          -98.1151469995761,
          31.0716140002248
        ]
      },
      "properties": {
        "OBJECTID": 204859,
        "CROSSING": "024569L",
        "EFFDATE": 1734393600000,
        "REASON": "14",
        "StateCode": "48",
        "CountyCode": "48281",
        "STCYFIPS": "48281",
        "CITYCD": "482813870",
        "RAILROAD": "BNSF",
        "RRDIV": "RED RIVER",
        "RRSUBDIV": "LAMPASAS",
        "HIGHWAY": "Not Yet Reported by State",
        "STREET": "Private",
        "TTSTN": "683390",
        "MILEPOST": "0270.560",
        "TYPEXING": "Private",
        "POSXING": "RR Over",
        "PRVCAT": "14",
        "INIT": "1",
        "LATITUDE": 31.071614,
        "LONGITUD": -98.115147,
        "LLSOURCE": "1",
        "WHISTBAN": "0",
        "RRCONT": "8173521549",
        "POLCONT": "8008325452",
        "INV_LINK": "https://safetydata.fra.dot.gov/OfficeofSafety/PublicSite/Crossing/Crossing.aspx?phasetype=C&rpttype=I&txtcrossingnum=024569L",
        "ACC_LINK": "https://safetydata.fra.dot.gov/OfficeofSafety/PublicSite/Crossing/Crossing.aspx?phasetype=C&rpttype=A&txtcrossingnum=024569L",
        "TTSTNNAM": "LAMPASAS",
        "XPURPOSE": "1",
        "OPERATINGR": "BNSF",
        "OPERATIN_1": "Primary",
        "DAYTHRU": 4,
        "NGHTTHRU": 3,
        "MAINTRK": 1,
        "SIDINGTRK": 0,
        "YARDTRK": 0,
        "TRANSITTRK": 0,
        "INDUSTRYTR": 0,
        "OTHRTRK": 0,
        "WDCODE": "",
        "REVISIONDA": "1996/01/01 00:00:00",
        "LASTUPDATE": "12/17/2024",
        "AADT": "",
        "AADTYEAR": "1970",
        "STATENAME": "TEXAS",
        "STATEAB": "TX",
        "COUNTYNAME": "LAMPASAS",
        "CITYNAME": "LAMPASAS",
        "LATDD": 31.071614,
        "LONGDD": -98.115147,
        "gridlyProductionCertified": true,
        "gridlyClassification": "PUBLIC_ROADWAY",
        "gridlyDisplayName": "Private",
        "gridlyId": "FRA-024569L"
      }
    },
    {
      "type": "Feature",
      "id": 204860,
      "geometry": {
        "type": "Point",
        "coordinates": [
          -98.1377740003112,
          31.0741774999153
        ]
      },
      "properties": {
        "OBJECTID": 204860,
        "CROSSING": "024571M",
        "EFFDATE": 1734393600000,
        "REASON": "14",
        "StateCode": "48",
        "CountyCode": "48281",
        "STCYFIPS": "48281",
        "CITYCD": "482813870",
        "RAILROAD": "BNSF",
        "RRDIV": "RED RIVER",
        "RRSUBDIV": "LAMPASAS",
        "HIGHWAY": "Not Yet Reported by State",
        "STREET": "PRIVATE ROAD",
        "TTSTN": "683390",
        "MILEPOST": "0271.922",
        "TYPEXING": "Private",
        "POSXING": "At Grade",
        "PRVCAT": "14",
        "INIT": "1",
        "LATITUDE": 31.0741775,
        "LONGITUD": -98.137774,
        "LLSOURCE": "1",
        "WHISTBAN": "0",
        "RRCONT": "8173521549",
        "POLCONT": "8008325452",
        "INV_LINK": "https://safetydata.fra.dot.gov/OfficeofSafety/PublicSite/Crossing/Crossing.aspx?phasetype=C&rpttype=I&txtcrossingnum=024571M",
        "ACC_LINK": "https://safetydata.fra.dot.gov/OfficeofSafety/PublicSite/Crossing/Crossing.aspx?phasetype=C&rpttype=A&txtcrossingnum=024571M",
        "TTSTNNAM": "LAMPASAS",
        "XPURPOSE": "1",
        "OPERATINGR": "BNSF",
        "OPERATIN_1": "Primary",
        "DAYTHRU": 4,
        "NGHTTHRU": 3,
        "MAINTRK": 1,
        "SIDINGTRK": 0,
        "YARDTRK": 0,
        "TRANSITTRK": 0,
        "INDUSTRYTR": 0,
        "OTHRTRK": 0,
        "WDCODE": "",
        "REVISIONDA": "1996/01/01 00:00:00",
        "LASTUPDATE": "12/17/2024",
        "AADT": "",
        "AADTYEAR": "1970",
        "STATENAME": "TEXAS",
        "STATEAB": "TX",
        "COUNTYNAME": "LAMPASAS",
        "CITYNAME": "LAMPASAS",
        "LATDD": 31.0741775,
        "LONGDD": -98.137774,
        "gridlyProductionCertified": true,
        "gridlyClassification": "PUBLIC_ROADWAY",
        "gridlyDisplayName": "PRIVATE ROAD",
        "gridlyId": "FRA-024571M"
      }
    },
    {
      "type": "Feature",
      "id": 204861,
      "geometry": {
        "type": "Point",
        "coordinates": [
          -98.3465410000018,
          31.1717297996952
        ]
      },
      "properties": {
        "OBJECTID": 204861,
        "CROSSING": "024594U",
        "EFFDATE": 1734393600000,
        "REASON": "14",
        "StateCode": "48",
        "CountyCode": "48281",
        "STCYFIPS": "48281",
        "CITYCD": "482814060",
        "RAILROAD": "BNSF",
        "RRDIV": "RED RIVER",
        "RRSUBDIV": "LAMPASAS",
        "HIGHWAY": "Not Yet Reported by State",
        "STREET": "PRIVATE ROAD",
        "TTSTN": "683377",
        "MILEPOST": "0287.399",
        "TYPEXING": "Private",
        "POSXING": "At Grade",
        "PRVCAT": "14",
        "INIT": "1",
        "LATITUDE": 31.1717298,
        "LONGITUD": -98.346541,
        "LLSOURCE": "1",
        "WHISTBAN": "0",
        "RRCONT": "8173521549",
        "POLCONT": "8008325452",
        "INV_LINK": "https://safetydata.fra.dot.gov/OfficeofSafety/PublicSite/Crossing/Crossing.aspx?phasetype=C&rpttype=I&txtcrossingnum=024594U",
        "ACC_LINK": "https://safetydata.fra.dot.gov/OfficeofSafety/PublicSite/Crossing/Crossing.aspx?phasetype=C&rpttype=A&txtcrossingnum=024594U",
        "TTSTNNAM": "OGLES",
        "XPURPOSE": "1",
        "OPERATINGR": "BNSF",
        "OPERATIN_1": "Primary",
        "DAYTHRU": 4,
        "NGHTTHRU": 3,
        "MAINTRK": 1,
        "SIDINGTRK": 0,
        "YARDTRK": 0,
        "TRANSITTRK": 0,
        "INDUSTRYTR": 0,
        "OTHRTRK": 0,
        "WDCODE": "",
        "REVISIONDA": "1996/01/01 00:00:00",
        "LASTUPDATE": "12/17/2024",
        "AADT": "",
        "AADTYEAR": "1970",
        "STATENAME": "TEXAS",
        "STATEAB": "TX",
        "COUNTYNAME": "LAMPASAS",
        "CITYNAME": "LOMETA",
        "LATDD": 31.1717298,
        "LONGDD": -98.346541,
        "gridlyProductionCertified": true,
        "gridlyClassification": "PUBLIC_ROADWAY",
        "gridlyDisplayName": "PRIVATE ROAD",
        "gridlyId": "FRA-024594U"
      }
    },
    {
      "type": "Feature",
      "id": 204862,
      "geometry": {
        "type": "Point",
        "coordinates": [
          -98.3518910002197,
          31.1751408996924
        ]
      },
      "properties": {
        "OBJECTID": 204862,
        "CROSSING": "024595B",
        "EFFDATE": 1734393600000,
        "REASON": "14",
        "StateCode": "48",
        "CountyCode": "48281",
        "STCYFIPS": "48281",
        "CITYCD": "482814060",
        "RAILROAD": "BNSF",
        "RRDIV": "RED RIVER",
        "RRSUBDIV": "LAMPASAS",
        "HIGHWAY": "Not Yet Reported by State",
        "STREET": "PRIVATE ROAD",
        "TTSTN": "683350",
        "MILEPOST": "0287.795",
        "TYPEXING": "Private",
        "POSXING": "At Grade",
        "PRVCAT": "14",
        "INIT": "1",
        "LATITUDE": 31.1751409,
        "LONGITUD": -98.351891,
        "LLSOURCE": "1",
        "WHISTBAN": "0",
        "RRCONT": "8173521549",
        "POLCONT": "8008325452",
        "INV_LINK": "https://safetydata.fra.dot.gov/OfficeofSafety/PublicSite/Crossing/Crossing.aspx?phasetype=C&rpttype=I&txtcrossingnum=024595B",
        "ACC_LINK": "https://safetydata.fra.dot.gov/OfficeofSafety/PublicSite/Crossing/Crossing.aspx?phasetype=C&rpttype=A&txtcrossingnum=024595B",
        "TTSTNNAM": "LOMETA",
        "XPURPOSE": "1",
        "OPERATINGR": "BNSF",
        "OPERATIN_1": "Primary",
        "DAYTHRU": 4,
        "NGHTTHRU": 3,
        "MAINTRK": 1,
        "SIDINGTRK": 0,
        "YARDTRK": 0,
        "TRANSITTRK": 0,
        "INDUSTRYTR": 0,
        "OTHRTRK": 0,
        "WDCODE": "",
        "REVISIONDA": "1996/01/01 00:00:00",
        "LASTUPDATE": "12/17/2024",
        "AADT": "",
        "AADTYEAR": "1970",
        "STATENAME": "TEXAS",
        "STATEAB": "TX",
        "COUNTYNAME": "LAMPASAS",
        "CITYNAME": "LOMETA",
        "LATDD": 31.1751409,
        "LONGDD": -98.351891,
        "gridlyProductionCertified": true,
        "gridlyClassification": "PUBLIC_ROADWAY",
        "gridlyDisplayName": "PRIVATE ROAD",
        "gridlyId": "FRA-024595B"
      }
    },
    {
      "type": "Feature",
      "id": 204863,
      "geometry": {
        "type": "Point",
        "coordinates": [
          -98.3708259996971,
          31.1871909998574
        ]
      },
      "properties": {
        "OBJECTID": 204863,
        "CROSSING": "024596H",
        "EFFDATE": 1734393600000,
        "REASON": "14",
        "StateCode": "48",
        "CountyCode": "48281",
        "STCYFIPS": "48281",
        "CITYCD": "482814060",
        "RAILROAD": "BNSF",
        "RRDIV": "RED RIVER",
        "RRSUBDIV": "LAMPASAS",
        "HIGHWAY": "Not Yet Reported by State",
        "STREET": "PRIVATE",
        "TTSTN": "683350",
        "MILEPOST": "0289.197",
        "TYPEXING": "Private",
        "POSXING": "At Grade",
        "PRVCAT": "14",
        "INIT": "1",
        "LATITUDE": 31.187191,
        "LONGITUD": -98.370826,
        "LLSOURCE": "1",
        "WHISTBAN": "0",
        "RRCONT": "8173521549",
        "POLCONT": "8008325452",
        "INV_LINK": "https://safetydata.fra.dot.gov/OfficeofSafety/PublicSite/Crossing/Crossing.aspx?phasetype=C&rpttype=I&txtcrossingnum=024596H",
        "ACC_LINK": "https://safetydata.fra.dot.gov/OfficeofSafety/PublicSite/Crossing/Crossing.aspx?phasetype=C&rpttype=A&txtcrossingnum=024596H",
        "TTSTNNAM": "LOMETA",
        "XPURPOSE": "1",
        "OPERATINGR": "BNSF",
        "OPERATIN_1": "Primary",
        "DAYTHRU": 4,
        "NGHTTHRU": 3,
        "MAINTRK": 1,
        "SIDINGTRK": 0,
        "YARDTRK": 0,
        "TRANSITTRK": 0,
        "INDUSTRYTR": 0,
        "OTHRTRK": 0,
        "WDCODE": "",
        "REVISIONDA": "1996/01/01 00:00:00",
        "LASTUPDATE": "12/17/2024",
        "AADT": "",
        "AADTYEAR": "1970",
        "STATENAME": "TEXAS",
        "STATEAB": "TX",
        "COUNTYNAME": "LAMPASAS",
        "CITYNAME": "LOMETA",
        "LATDD": 31.187191,
        "LONGDD": -98.370826,
        "gridlyProductionCertified": true,
        "gridlyClassification": "PUBLIC_ROADWAY",
        "gridlyDisplayName": "PRIVATE",
        "gridlyId": "FRA-024596H"
      }
    },
    {
      "type": "Feature",
      "id": 204864,
      "geometry": {
        "type": "Point",
        "coordinates": [
          -98.3841990001429,
          31.2027079999932
        ]
      },
      "properties": {
        "OBJECTID": 204864,
        "CROSSING": "024598W",
        "EFFDATE": 1734393600000,
        "REASON": "14",
        "StateCode": "48",
        "CountyCode": "48281",
        "STCYFIPS": "48281",
        "CITYCD": "482814060",
        "RAILROAD": "BNSF",
        "RRDIV": "RED RIVER",
        "RRSUBDIV": "LAMPASAS",
        "HIGHWAY": "Not Yet Reported by State",
        "STREET": "PRIVATE",
        "TTSTN": "683350",
        "MILEPOST": "0290.575",
        "TYPEXING": "Private",
        "POSXING": "At Grade",
        "PRVCAT": "14",
        "INIT": "1",
        "LATITUDE": 31.202708,
        "LONGITUD": -98.384199,
        "LLSOURCE": "1",
        "WHISTBAN": "0",
        "RRCONT": "8173521549",
        "POLCONT": "8008325452",
        "INV_LINK": "https://safetydata.fra.dot.gov/OfficeofSafety/PublicSite/Crossing/Crossing.aspx?phasetype=C&rpttype=I&txtcrossingnum=024598W",
        "ACC_LINK": "https://safetydata.fra.dot.gov/OfficeofSafety/PublicSite/Crossing/Crossing.aspx?phasetype=C&rpttype=A&txtcrossingnum=024598W",
        "TTSTNNAM": "LOMETA",
        "XPURPOSE": "1",
        "OPERATINGR": "BNSF",
        "OPERATIN_1": "Primary",
        "DAYTHRU": 4,
        "NGHTTHRU": 3,
        "MAINTRK": 1,
        "SIDINGTRK": 1,
        "YARDTRK": 0,
        "TRANSITTRK": 0,
        "INDUSTRYTR": 0,
        "OTHRTRK": 1,
        "WDCODE": "",
        "REVISIONDA": "1996/01/01 00:00:00",
        "LASTUPDATE": "12/17/2024",
        "AADT": "",
        "AADTYEAR": "1970",
        "STATENAME": "TEXAS",
        "STATEAB": "TX",
        "COUNTYNAME": "LAMPASAS",
        "CITYNAME": "LOMETA",
        "LATDD": 31.202708,
        "LONGDD": -98.384199,
        "gridlyProductionCertified": true,
        "gridlyClassification": "PUBLIC_ROADWAY",
        "gridlyDisplayName": "PRIVATE",
        "gridlyId": "FRA-024598W"
      }
    },
    {
      "type": "Feature",
      "id": 204865,
      "geometry": {
        "type": "Point",
        "coordinates": [
          -98.3999400001018,
          31.2297600002849
        ]
      },
      "properties": {
        "OBJECTID": 204865,
        "CROSSING": "024602J",
        "EFFDATE": 1734393600000,
        "REASON": "14",
        "StateCode": "48",
        "CountyCode": "48281",
        "STCYFIPS": "48281",
        "CITYCD": "482814060",
        "RAILROAD": "BNSF",
        "RRDIV": "RED RIVER",
        "RRSUBDIV": "LAMPASAS",
        "HIGHWAY": "PRIVATE",
        "STREET": "PRIVATE",
        "TTSTN": "683350",
        "MILEPOST": "0292.621",
        "TYPEXING": "Private",
        "POSXING": "At Grade",
        "PRVCAT": "14",
        "INIT": "1",
        "LATITUDE": 31.22976,
        "LONGITUD": -98.39994,
        "LLSOURCE": "1",
        "WHISTBAN": "0",
        "RRCONT": "8173521549",
        "POLCONT": "8008325452",
        "INV_LINK": "https://safetydata.fra.dot.gov/OfficeofSafety/PublicSite/Crossing/Crossing.aspx?phasetype=C&rpttype=I&txtcrossingnum=024602J",
        "ACC_LINK": "https://safetydata.fra.dot.gov/OfficeofSafety/PublicSite/Crossing/Crossing.aspx?phasetype=C&rpttype=A&txtcrossingnum=024602J",
        "TTSTNNAM": "LOMETA",
        "XPURPOSE": "1",
        "OPERATINGR": "BNSF",
        "OPERATIN_1": "Primary",
        "DAYTHRU": 4,
        "NGHTTHRU": 3,
        "MAINTRK": 1,
        "SIDINGTRK": 0,
        "YARDTRK": 0,
        "TRANSITTRK": 0,
        "INDUSTRYTR": 0,
        "OTHRTRK": 0,
        "WDCODE": "",
        "REVISIONDA": "1996/01/01 00:00:00",
        "LASTUPDATE": "12/17/2024",
        "AADT": "000010",
        "AADTYEAR": "1987",
        "STATENAME": "TEXAS",
        "STATEAB": "TX",
        "COUNTYNAME": "LAMPASAS",
        "CITYNAME": "LOMETA",
        "LATDD": 31.22976,
        "LONGDD": -98.39994,
        "gridlyProductionCertified": true,
        "gridlyClassification": "PUBLIC_ROADWAY",
        "gridlyDisplayName": "PRIVATE",
        "gridlyId": "FRA-024602J"
      }
    },
    {
      "type": "Feature",
      "id": 204866,
      "geometry": {
        "type": "Point",
        "coordinates": [
          -98.4033090004208,
          31.2524009003543
        ]
      },
      "properties": {
        "OBJECTID": 204866,
        "CROSSING": "024605E",
        "EFFDATE": 1734393600000,
        "REASON": "14",
        "StateCode": "48",
        "CountyCode": "48281",
        "STCYFIPS": "48281",
        "CITYCD": "482814060",
        "RAILROAD": "BNSF",
        "RRDIV": "RED RIVER",
        "RRSUBDIV": "LAMPASAS",
        "HIGHWAY": "PRIVATE",
        "STREET": "PRIVATE",
        "TTSTN": "683350",
        "MILEPOST": "0294.220",
        "TYPEXING": "Private",
        "POSXING": "At Grade",
        "PRVCAT": "14",
        "INIT": "1",
        "LATITUDE": 31.2524009,
        "LONGITUD": -98.403309,
        "LLSOURCE": "1",
        "WHISTBAN": "0",
        "RRCONT": "8173521549",
        "POLCONT": "8008325452",
        "INV_LINK": "https://safetydata.fra.dot.gov/OfficeofSafety/PublicSite/Crossing/Crossing.aspx?phasetype=C&rpttype=I&txtcrossingnum=024605E",
        "ACC_LINK": "https://safetydata.fra.dot.gov/OfficeofSafety/PublicSite/Crossing/Crossing.aspx?phasetype=C&rpttype=A&txtcrossingnum=024605E",
        "TTSTNNAM": "LOMETA",
        "XPURPOSE": "1",
        "OPERATINGR": "BNSF",
        "OPERATIN_1": "Primary",
        "DAYTHRU": 4,
        "NGHTTHRU": 3,
        "MAINTRK": 1,
        "SIDINGTRK": 0,
        "YARDTRK": 0,
        "TRANSITTRK": 0,
        "INDUSTRYTR": 0,
        "OTHRTRK": 0,
        "WDCODE": "",
        "REVISIONDA": "1996/01/01 00:00:00",
        "LASTUPDATE": "12/17/2024",
        "AADT": "000042",
        "AADTYEAR": "2002",
        "STATENAME": "TEXAS",
        "STATEAB": "TX",
        "COUNTYNAME": "LAMPASAS",
        "CITYNAME": "LOMETA",
        "LATDD": 31.2524009,
        "LONGDD": -98.403309,
        "gridlyProductionCertified": true,
        "gridlyClassification": "PUBLIC_ROADWAY",
        "gridlyDisplayName": "PRIVATE",
        "gridlyId": "FRA-024605E"
      }
    },
    {
      "type": "Feature",
      "id": 204893,
      "geometry": {
        "type": "Point",
        "coordinates": [
          -98.0339989999255,
          31.0854687997358
        ]
      },
      "properties": {
        "OBJECTID": 204893,
        "CROSSING": "024574H",
        "EFFDATE": 1734393600000,
        "REASON": "14",
        "StateCode": "48",
        "CountyCode": "48281",
        "STCYFIPS": "48281",
        "CITYCD": "482813870",
        "RAILROAD": "BNSF",
        "RRDIV": "RED RIVER",
        "RRSUBDIV": "LAMPASAS",
        "HIGHWAY": "Not Yet Reported by State",
        "STREET": "PRIVATE ROAD",
        "TTSTN": "683363",
        "MILEPOST": "0265.120",
        "TYPEXING": "Private",
        "POSXING": "At Grade",
        "PRVCAT": "14",
        "INIT": "1",
        "LATITUDE": 31.0854688,
        "LONGITUD": -98.033999,
        "LLSOURCE": "1",
        "WHISTBAN": "0",
        "RRCONT": "8173521549",
        "POLCONT": "8008325452",
        "INV_LINK": "https://safetydata.fra.dot.gov/OfficeofSafety/PublicSite/Crossing/Crossing.aspx?phasetype=C&rpttype=I&txtcrossingnum=024574H",
        "ACC_LINK": "https://safetydata.fra.dot.gov/OfficeofSafety/PublicSite/Crossing/Crossing.aspx?phasetype=C&rpttype=A&txtcrossingnum=024574H",
        "TTSTNNAM": "KEMPNER",
        "XPURPOSE": "1",
        "OPERATINGR": "BNSF",
        "OPERATIN_1": "Primary",
        "DAYTHRU": 4,
        "NGHTTHRU": 3,
        "MAINTRK": 1,
        "SIDINGTRK": 0,
        "YARDTRK": 0,
        "TRANSITTRK": 0,
        "INDUSTRYTR": 0,
        "OTHRTRK": 0,
        "WDCODE": "",
        "REVISIONDA": "1996/01/01 00:00:00",
        "LASTUPDATE": "12/17/2024",
        "AADT": "",
        "AADTYEAR": "1970",
        "STATENAME": "TEXAS",
        "STATEAB": "TX",
        "COUNTYNAME": "LAMPASAS",
        "CITYNAME": "LAMPASAS",
        "LATDD": 31.0854688,
        "LONGDD": -98.033999,
        "gridlyProductionCertified": true,
        "gridlyClassification": "PUBLIC_ROADWAY",
        "gridlyDisplayName": "PRIVATE ROAD",
        "gridlyId": "FRA-024574H"
      }
    },
    {
      "type": "Feature",
      "id": 204915,
      "geometry": {
        "type": "Point",
        "coordinates": [
          -98.0596550003226,
          31.0869609999951
        ]
      },
      "properties": {
        "OBJECTID": 204915,
        "CROSSING": "024577D",
        "EFFDATE": 1734393600000,
        "REASON": "14",
        "StateCode": "48",
        "CountyCode": "48281",
        "STCYFIPS": "48281",
        "CITYCD": "482813870",
        "RAILROAD": "BNSF",
        "RRDIV": "RED RIVER",
        "RRSUBDIV": "LAMPASAS",
        "HIGHWAY": "Not Yet Reported by State",
        "STREET": "PRIVATE",
        "TTSTN": "683363",
        "MILEPOST": "0266.654",
        "TYPEXING": "Private",
        "POSXING": "At Grade",
        "PRVCAT": "14",
        "INIT": "1",
        "LATITUDE": 31.086961,
        "LONGITUD": -98.059655,
        "LLSOURCE": "1",
        "WHISTBAN": "0",
        "RRCONT": "8173521549",
        "POLCONT": "8008325452",
        "INV_LINK": "https://safetydata.fra.dot.gov/OfficeofSafety/PublicSite/Crossing/Crossing.aspx?phasetype=C&rpttype=I&txtcrossingnum=024577D",
        "ACC_LINK": "https://safetydata.fra.dot.gov/OfficeofSafety/PublicSite/Crossing/Crossing.aspx?phasetype=C&rpttype=A&txtcrossingnum=024577D",
        "TTSTNNAM": "KEMPNER",
        "XPURPOSE": "1",
        "OPERATINGR": "BNSF",
        "OPERATIN_1": "Primary",
        "DAYTHRU": 4,
        "NGHTTHRU": 3,
        "MAINTRK": 1,
        "SIDINGTRK": 0,
        "YARDTRK": 0,
        "TRANSITTRK": 0,
        "INDUSTRYTR": 0,
        "OTHRTRK": 0,
        "WDCODE": "",
        "REVISIONDA": "1996/01/01 00:00:00",
        "LASTUPDATE": "12/17/2024",
        "AADT": "",
        "AADTYEAR": "1970",
        "STATENAME": "TEXAS",
        "STATEAB": "TX",
        "COUNTYNAME": "LAMPASAS",
        "CITYNAME": "LAMPASAS",
        "LATDD": 31.086961,
        "LONGDD": -98.059655,
        "gridlyProductionCertified": true,
        "gridlyClassification": "PUBLIC_ROADWAY",
        "gridlyDisplayName": "PRIVATE",
        "gridlyId": "FRA-024577D"
      }
    },
    {
      "type": "Feature",
      "id": 204927,
      "geometry": {
        "type": "Point",
        "coordinates": [
          -98.4069890001862,
          31.2696415002837
        ]
      },
      "properties": {
        "OBJECTID": 204927,
        "CROSSING": "024606L",
        "EFFDATE": 1734393600000,
        "REASON": "14",
        "StateCode": "48",
        "CountyCode": "48281",
        "STCYFIPS": "48281",
        "CITYCD": "482814060",
        "RAILROAD": "BNSF",
        "RRDIV": "RED RIVER",
        "RRSUBDIV": "LAMPASAS",
        "HIGHWAY": "CO 0000",
        "STREET": "CO RD 223",
        "TTSTN": "683350",
        "MILEPOST": "0295.468",
        "TYPEXING": "Private",
        "POSXING": "At Grade",
        "PRVCAT": "14",
        "INIT": "1",
        "LATITUDE": 31.2696415,
        "LONGITUD": -98.406989,
        "LLSOURCE": "1",
        "WHISTBAN": "0",
        "RRCONT": "8173521549",
        "POLCONT": "8008325452",
        "INV_LINK": "https://safetydata.fra.dot.gov/OfficeofSafety/PublicSite/Crossing/Crossing.aspx?phasetype=C&rpttype=I&txtcrossingnum=024606L",
        "ACC_LINK": "https://safetydata.fra.dot.gov/OfficeofSafety/PublicSite/Crossing/Crossing.aspx?phasetype=C&rpttype=A&txtcrossingnum=024606L",
        "TTSTNNAM": "LOMETA",
        "XPURPOSE": "1",
        "OPERATINGR": "BNSF",
        "OPERATIN_1": "Primary",
        "DAYTHRU": 4,
        "NGHTTHRU": 3,
        "MAINTRK": 1,
        "SIDINGTRK": 0,
        "YARDTRK": 0,
        "TRANSITTRK": 0,
        "INDUSTRYTR": 0,
        "OTHRTRK": 0,
        "WDCODE": "",
        "REVISIONDA": "1996/01/01 00:00:00",
        "LASTUPDATE": "12/17/2024",
        "AADT": "000010",
        "AADTYEAR": "1984",
        "STATENAME": "TEXAS",
        "STATEAB": "TX",
        "COUNTYNAME": "LAMPASAS",
        "CITYNAME": "LOMETA",
        "LATDD": 31.2696415,
        "LONGDD": -98.406989,
        "gridlyProductionCertified": true,
        "gridlyClassification": "PUBLIC_ROADWAY",
        "gridlyDisplayName": "CO RD 223",
        "gridlyId": "FRA-024606L"
      }
    },
    {
      "type": "Feature",
      "id": 205757,
      "geometry": {
        "type": "Point",
        "coordinates": [
          -98.392772399942,
          31.2169385997265
        ]
      },
      "properties": {
        "OBJECTID": 205757,
        "CROSSING": "024114F",
        "EFFDATE": 1768262400000,
        "REASON": "14",
        "StateCode": "48",
        "CountyCode": "48281",
        "STCYFIPS": "48281",
        "CITYCD": "482814060",
        "RAILROAD": "BNSF",
        "RRDIV": "RED RIVER",
        "RRSUBDIV": "LAMPASAS",
        "HIGHWAY": "fm0581",
        "STREET": "fm0581 / east main street",
        "TTSTN": "",
        "MILEPOST": "0291.661",
        "TYPEXING": "Public",
        "POSXING": "At Grade",
        "PRVCAT": "14",
        "INIT": "2",
        "LATITUDE": 31.2169386,
        "LONGITUD": -98.3927724,
        "LLSOURCE": "1",
        "WHISTBAN": "",
        "RRCONT": "8173521549",
        "POLCONT": "8008325452",
        "INV_LINK": "https://safetydata.fra.dot.gov/OfficeofSafety/PublicSite/Crossing/Crossing.aspx?phasetype=C&rpttype=I&txtcrossingnum=024114F",
        "ACC_LINK": "https://safetydata.fra.dot.gov/OfficeofSafety/PublicSite/Crossing/Crossing.aspx?phasetype=C&rpttype=A&txtcrossingnum=024114F",
        "TTSTNNAM": "",
        "XPURPOSE": "1",
        "OPERATINGR": "BNSF",
        "OPERATIN_1": "Primary",
        "DAYTHRU": 0,
        "NGHTTHRU": 0,
        "MAINTRK": 0,
        "SIDINGTRK": 0,
        "YARDTRK": 1,
        "TRANSITTRK": 0,
        "INDUSTRYTR": 0,
        "OTHRTRK": 0,
        "WDCODE": "Flashing lights",
        "REVISIONDA": "1996/01/01 00:00:00",
        "LASTUPDATE": "1/13/2026",
        "AADT": "975",
        "AADTYEAR": "2019",
        "STATENAME": "TEXAS",
        "STATEAB": "TX",
        "COUNTYNAME": "LAMPASAS",
        "CITYNAME": "LOMETA",
        "LATDD": 31.2169386,
        "LONGDD": -98.3927724,
        "gridlyProductionCertified": true,
        "gridlyClassification": "PUBLIC_ROADWAY",
        "gridlyDisplayName": "fm0581 / east main street",
        "gridlyId": "FRA-024114F"
      }
    },
    {
      "type": "Feature",
      "id": 206902,
      "geometry": {
        "type": "Point",
        "coordinates": [
          -98.3937846000445,
          31.2186839996589
        ]
      },
      "properties": {
        "OBJECTID": 206902,
        "CROSSING": "024115M",
        "EFFDATE": 1768262400000,
        "REASON": "14",
        "StateCode": "48",
        "CountyCode": "48281",
        "STCYFIPS": "48281",
        "CITYCD": "482814060",
        "RAILROAD": "BNSF",
        "RRDIV": "RED RIVER",
        "RRSUBDIV": "LAMPASAS",
        "HIGHWAY": "FM2942",
        "STREET": "fm2942 / ELM STreet",
        "TTSTN": "",
        "MILEPOST": "0291.791",
        "TYPEXING": "Public",
        "POSXING": "At Grade",
        "PRVCAT": "14",
        "INIT": "2",
        "LATITUDE": 31.218684,
        "LONGITUD": -98.3937846,
        "LLSOURCE": "1",
        "WHISTBAN": "",
        "RRCONT": "8173521549",
        "POLCONT": "8008325452",
        "INV_LINK": "https://safetydata.fra.dot.gov/OfficeofSafety/PublicSite/Crossing/Crossing.aspx?phasetype=C&rpttype=I&txtcrossingnum=024115M",
        "ACC_LINK": "https://safetydata.fra.dot.gov/OfficeofSafety/PublicSite/Crossing/Crossing.aspx?phasetype=C&rpttype=A&txtcrossingnum=024115M",
        "TTSTNNAM": "",
        "XPURPOSE": "1",
        "OPERATINGR": "BNSF",
        "OPERATIN_1": "Primary",
        "DAYTHRU": 0,
        "NGHTTHRU": 0,
        "MAINTRK": 0,
        "SIDINGTRK": 0,
        "YARDTRK": 1,
        "TRANSITTRK": 0,
        "INDUSTRYTR": 0,
        "OTHRTRK": 0,
        "WDCODE": "Flashing lights",
        "REVISIONDA": "1996/01/01 00:00:00",
        "LASTUPDATE": "1/13/2026",
        "AADT": "543",
        "AADTYEAR": "2024",
        "STATENAME": "TEXAS",
        "STATEAB": "TX",
        "COUNTYNAME": "LAMPASAS",
        "CITYNAME": "LOMETA",
        "LATDD": 31.218684,
        "LONGDD": -98.3937846,
        "gridlyProductionCertified": true,
        "gridlyClassification": "PUBLIC_ROADWAY",
        "gridlyDisplayName": "fm2942 / ELM STreet",
        "gridlyId": "FRA-024115M"
      }
    },
    {
      "type": "Feature",
      "id": 207009,
      "geometry": {
        "type": "Point",
        "coordinates": [
          -98.4030775997935,
          31.2423147000698
        ]
      },
      "properties": {
        "OBJECTID": 207009,
        "CROSSING": "024604X",
        "EFFDATE": 1757548800000,
        "REASON": "14",
        "StateCode": "48",
        "CountyCode": "48281",
        "STCYFIPS": "48281",
        "CITYCD": "482814060",
        "RAILROAD": "BNSF",
        "RRDIV": "RED RIVER",
        "RRSUBDIV": "LAMPASAS",
        "HIGHWAY": "cr2640",
        "STREET": "county road 2640",
        "TTSTN": "683350",
        "MILEPOST": "0293.538",
        "TYPEXING": "Public",
        "POSXING": "At Grade",
        "PRVCAT": "14",
        "INIT": "2",
        "LATITUDE": 31.2423147,
        "LONGITUD": -98.4030776,
        "LLSOURCE": "1",
        "WHISTBAN": "0",
        "RRCONT": "8173521549",
        "POLCONT": "8008325452",
        "INV_LINK": "https://safetydata.fra.dot.gov/OfficeofSafety/PublicSite/Crossing/Crossing.aspx?phasetype=C&rpttype=I&txtcrossingnum=024604X",
        "ACC_LINK": "https://safetydata.fra.dot.gov/OfficeofSafety/PublicSite/Crossing/Crossing.aspx?phasetype=C&rpttype=A&txtcrossingnum=024604X",
        "TTSTNNAM": "LOMETA",
        "XPURPOSE": "1",
        "OPERATINGR": "BNSF",
        "OPERATIN_1": "Primary",
        "DAYTHRU": 4,
        "NGHTTHRU": 3,
        "MAINTRK": 1,
        "SIDINGTRK": 0,
        "YARDTRK": 0,
        "TRANSITTRK": 0,
        "INDUSTRYTR": 0,
        "OTHRTRK": 0,
        "WDCODE": "Crossbucks",
        "REVISIONDA": "1996/01/01 00:00:00",
        "LASTUPDATE": "9/11/2025",
        "AADT": "60",
        "AADTYEAR": "2019",
        "STATENAME": "TEXAS",
        "STATEAB": "TX",
        "COUNTYNAME": "LAMPASAS",
        "CITYNAME": "LOMETA",
        "LATDD": 31.2423147,
        "LONGDD": -98.4030776,
        "gridlyProductionCertified": true,
        "gridlyClassification": "PUBLIC_ROADWAY",
        "gridlyDisplayName": "county road 2640",
        "gridlyId": "FRA-024604X"
      }
    },
    {
      "type": "Feature",
      "id": 207273,
      "geometry": {
        "type": "Point",
        "coordinates": [
          -98.4389552998399,
          31.2377937999587
        ]
      },
      "properties": {
        "OBJECTID": 207273,
        "CROSSING": "024702N",
        "EFFDATE": 1767744000000,
        "REASON": "20",
        "StateCode": "48",
        "CountyCode": "48281",
        "STCYFIPS": "48281",
        "CITYCD": "482814060",
        "RAILROAD": "CTXR",
        "RRDIV": "Central Texas",
        "RRSUBDIV": "Lometa",
        "HIGHWAY": "cr2535",
        "STREET": "County Road 2535",
        "TTSTN": "683350",
        "MILEPOST": "0003.82",
        "TYPEXING": "Public",
        "POSXING": "At Grade",
        "PRVCAT": "20",
        "INIT": "1",
        "LATITUDE": 31.2377938,
        "LONGITUD": -98.4389553,
        "LLSOURCE": "2",
        "WHISTBAN": "0",
        "RRCONT": "3255972359",
        "POLCONT": "8005339416",
        "INV_LINK": "https://safetydata.fra.dot.gov/OfficeofSafety/PublicSite/Crossing/Crossing.aspx?phasetype=C&rpttype=I&txtcrossingnum=024702N",
        "ACC_LINK": "https://safetydata.fra.dot.gov/OfficeofSafety/PublicSite/Crossing/Crossing.aspx?phasetype=C&rpttype=A&txtcrossingnum=024702N",
        "TTSTNNAM": "LOMETA",
        "XPURPOSE": "1",
        "OPERATINGR": "CTXR",
        "OPERATIN_1": "Primary",
        "DAYTHRU": 1,
        "NGHTTHRU": 0,
        "MAINTRK": 1,
        "SIDINGTRK": 0,
        "YARDTRK": 0,
        "TRANSITTRK": 0,
        "INDUSTRYTR": 0,
        "OTHRTRK": 0,
        "WDCODE": "No signs or signals",
        "REVISIONDA": "2016/07/26 00:00:00",
        "LASTUPDATE": "1/7/2026",
        "AADT": "87",
        "AADTYEAR": "2022",
        "STATENAME": "TEXAS",
        "STATEAB": "TX",
        "COUNTYNAME": "LAMPASAS",
        "CITYNAME": "LOMETA",
        "LATDD": 31.2377938,
        "LONGDD": -98.4389553,
        "gridlyProductionCertified": true,
        "gridlyClassification": "PUBLIC_ROADWAY",
        "gridlyDisplayName": "County Road 2535",
        "gridlyId": "FRA-024702N"
      }
    },
    {
      "type": "Feature",
      "id": 207274,
      "geometry": {
        "type": "Point",
        "coordinates": [
          -98.5134787003773,
          31.2493552996562
        ]
      },
      "properties": {
        "OBJECTID": 207274,
        "CROSSING": "024712U",
        "EFFDATE": 1767744000000,
        "REASON": "20",
        "StateCode": "48",
        "CountyCode": "48281",
        "STCYFIPS": "48281",
        "CITYCD": "482814060",
        "RAILROAD": "CTXR",
        "RRDIV": "Central Texas",
        "RRSUBDIV": "Lometa",
        "HIGHWAY": "CR2435",
        "STREET": "COUNTY ROAD 2435",
        "TTSTN": "683350",
        "MILEPOST": "0010.59",
        "TYPEXING": "Public",
        "POSXING": "At Grade",
        "PRVCAT": "20",
        "INIT": "1",
        "LATITUDE": 31.2493553,
        "LONGITUD": -98.5134787,
        "LLSOURCE": "1",
        "WHISTBAN": "0",
        "RRCONT": "3255972359",
        "POLCONT": "8005339416",
        "INV_LINK": "https://safetydata.fra.dot.gov/OfficeofSafety/PublicSite/Crossing/Crossing.aspx?phasetype=C&rpttype=I&txtcrossingnum=024712U",
        "ACC_LINK": "https://safetydata.fra.dot.gov/OfficeofSafety/PublicSite/Crossing/Crossing.aspx?phasetype=C&rpttype=A&txtcrossingnum=024712U",
        "TTSTNNAM": "LOMETA",
        "XPURPOSE": "1",
        "OPERATINGR": "CTXR",
        "OPERATIN_1": "Primary",
        "DAYTHRU": 1,
        "NGHTTHRU": 0,
        "MAINTRK": 1,
        "SIDINGTRK": 0,
        "YARDTRK": 0,
        "TRANSITTRK": 0,
        "INDUSTRYTR": 0,
        "OTHRTRK": 0,
        "WDCODE": "Crossbucks",
        "REVISIONDA": "2016/07/26 00:00:00",
        "LASTUPDATE": "1/7/2026",
        "AADT": "13",
        "AADTYEAR": "2022",
        "STATENAME": "TEXAS",
        "STATEAB": "TX",
        "COUNTYNAME": "LAMPASAS",
        "CITYNAME": "LOMETA",
        "LATDD": 31.2493553,
        "LONGDD": -98.5134787,
        "gridlyProductionCertified": true,
        "gridlyClassification": "PUBLIC_ROADWAY",
        "gridlyDisplayName": "COUNTY ROAD 2435",
        "gridlyId": "FRA-024712U"
      }
    },
    {
      "type": "Feature",
      "id": 207905,
      "geometry": {
        "type": "Point",
        "coordinates": [
          -98.2930235004377,
          31.1448401003576
        ]
      },
      "properties": {
        "OBJECTID": 207905,
        "CROSSING": "024592F",
        "EFFDATE": 1756944000000,
        "REASON": "14",
        "StateCode": "48",
        "CountyCode": "48281",
        "STCYFIPS": "48281",
        "CITYCD": "482814060",
        "RAILROAD": "BNSF",
        "RRDIV": "RED RIVER",
        "RRSUBDIV": "LAMPASAS",
        "HIGHWAY": "Cr2023",
        "STREET": "COunty RoaD 2023",
        "TTSTN": "683377",
        "MILEPOST": "0283.544",
        "TYPEXING": "Public",
        "POSXING": "At Grade",
        "PRVCAT": "14",
        "INIT": "2",
        "LATITUDE": 31.1448401,
        "LONGITUD": -98.2930235,
        "LLSOURCE": "1",
        "WHISTBAN": "0",
        "RRCONT": "8173521549",
        "POLCONT": "8008325452",
        "INV_LINK": "https://safetydata.fra.dot.gov/OfficeofSafety/PublicSite/Crossing/Crossing.aspx?phasetype=C&rpttype=I&txtcrossingnum=024592F",
        "ACC_LINK": "https://safetydata.fra.dot.gov/OfficeofSafety/PublicSite/Crossing/Crossing.aspx?phasetype=C&rpttype=A&txtcrossingnum=024592F",
        "TTSTNNAM": "OGLES",
        "XPURPOSE": "1",
        "OPERATINGR": "BNSF",
        "OPERATIN_1": "Primary",
        "DAYTHRU": 4,
        "NGHTTHRU": 3,
        "MAINTRK": 1,
        "SIDINGTRK": 1,
        "YARDTRK": 0,
        "TRANSITTRK": 0,
        "INDUSTRYTR": 0,
        "OTHRTRK": 1,
        "WDCODE": "Crossbucks",
        "REVISIONDA": "1996/01/01 00:00:00",
        "LASTUPDATE": "9/4/2025",
        "AADT": "55",
        "AADTYEAR": "2022",
        "STATENAME": "TEXAS",
        "STATEAB": "TX",
        "COUNTYNAME": "LAMPASAS",
        "CITYNAME": "LOMETA",
        "LATDD": 31.1448401,
        "LONGDD": -98.2930235,
        "gridlyProductionCertified": true,
        "gridlyClassification": "PUBLIC_ROADWAY",
        "gridlyDisplayName": "COunty RoaD 2023",
        "gridlyId": "FRA-024592F"
      }
    },
    {
      "type": "Feature",
      "id": 207929,
      "geometry": {
        "type": "Point",
        "coordinates": [
          -98.340366400252,
          31.1677922002914
        ]
      },
      "properties": {
        "OBJECTID": 207929,
        "CROSSING": "024593M",
        "EFFDATE": 1756944000000,
        "REASON": "14",
        "StateCode": "48",
        "CountyCode": "48281",
        "STCYFIPS": "48281",
        "CITYCD": "482814060",
        "RAILROAD": "BNSF",
        "RRDIV": "RED RIVER",
        "RRSUBDIV": "LAMPASAS",
        "HIGHWAY": "Cr2060",
        "STREET": "county road 2060",
        "TTSTN": "683377",
        "MILEPOST": "0286.941",
        "TYPEXING": "Public",
        "POSXING": "At Grade",
        "PRVCAT": "14",
        "INIT": "2",
        "LATITUDE": 31.1677922,
        "LONGITUD": -98.3403664,
        "LLSOURCE": "1",
        "WHISTBAN": "0",
        "RRCONT": "8173521549",
        "POLCONT": "8008325452",
        "INV_LINK": "https://safetydata.fra.dot.gov/OfficeofSafety/PublicSite/Crossing/Crossing.aspx?phasetype=C&rpttype=I&txtcrossingnum=024593M",
        "ACC_LINK": "https://safetydata.fra.dot.gov/OfficeofSafety/PublicSite/Crossing/Crossing.aspx?phasetype=C&rpttype=A&txtcrossingnum=024593M",
        "TTSTNNAM": "OGLES",
        "XPURPOSE": "1",
        "OPERATINGR": "BNSF",
        "OPERATIN_1": "Primary",
        "DAYTHRU": 4,
        "NGHTTHRU": 3,
        "MAINTRK": 1,
        "SIDINGTRK": 0,
        "YARDTRK": 0,
        "TRANSITTRK": 0,
        "INDUSTRYTR": 0,
        "OTHRTRK": 0,
        "WDCODE": "Crossbucks",
        "REVISIONDA": "1996/01/01 00:00:00",
        "LASTUPDATE": "9/4/2025",
        "AADT": "60",
        "AADTYEAR": "2019",
        "STATENAME": "TEXAS",
        "STATEAB": "TX",
        "COUNTYNAME": "LAMPASAS",
        "CITYNAME": "LOMETA",
        "LATDD": 31.1677922,
        "LONGDD": -98.3403664,
        "gridlyProductionCertified": true,
        "gridlyClassification": "PUBLIC_ROADWAY",
        "gridlyDisplayName": "county road 2060",
        "gridlyId": "FRA-024593M"
      }
    },
    {
      "type": "Feature",
      "id": 211654,
      "geometry": {
        "type": "Point",
        "coordinates": [
          -98.1938905002653,
          31.115543700131
        ]
      },
      "properties": {
        "OBJECTID": 211654,
        "CROSSING": "024585V",
        "EFFDATE": 1760486400000,
        "REASON": "14",
        "StateCode": "48",
        "CountyCode": "48281",
        "STCYFIPS": "48281",
        "CITYCD": "482813870",
        "RAILROAD": "BNSF",
        "RRDIV": "RED RIVER",
        "RRSUBDIV": "LAMPASAS",
        "HIGHWAY": "US0281",
        "STREET": "US0281",
        "TTSTN": "683390",
        "MILEPOST": "0276.920",
        "TYPEXING": "Public",
        "POSXING": "RR Under",
        "PRVCAT": "14",
        "INIT": "2",
        "LATITUDE": 31.1155437,
        "LONGITUD": -98.1938905,
        "LLSOURCE": "1",
        "WHISTBAN": "0",
        "RRCONT": "8173521549",
        "POLCONT": "8008325452",
        "INV_LINK": "https://safetydata.fra.dot.gov/OfficeofSafety/PublicSite/Crossing/Crossing.aspx?phasetype=C&rpttype=I&txtcrossingnum=024585V",
        "ACC_LINK": "https://safetydata.fra.dot.gov/OfficeofSafety/PublicSite/Crossing/Crossing.aspx?phasetype=C&rpttype=A&txtcrossingnum=024585V",
        "TTSTNNAM": "LAMPASAS",
        "XPURPOSE": "1",
        "OPERATINGR": "BNSF",
        "OPERATIN_1": "Primary",
        "DAYTHRU": 4,
        "NGHTTHRU": 3,
        "MAINTRK": 1,
        "SIDINGTRK": 0,
        "YARDTRK": 0,
        "TRANSITTRK": 0,
        "INDUSTRYTR": 0,
        "OTHRTRK": 0,
        "WDCODE": "",
        "REVISIONDA": "1996/01/01 00:00:00",
        "LASTUPDATE": "10/15/2025",
        "AADT": "4591",
        "AADTYEAR": "2024",
        "STATENAME": "TEXAS",
        "STATEAB": "TX",
        "COUNTYNAME": "LAMPASAS",
        "CITYNAME": "LAMPASAS",
        "LATDD": 31.1155437,
        "LONGDD": -98.1938905,
        "gridlyProductionCertified": true,
        "gridlyClassification": "PUBLIC_ROADWAY",
        "gridlyDisplayName": "US0281",
        "gridlyId": "FRA-024585V"
      }
    },
    {
      "type": "Feature",
      "id": 213888,
      "geometry": {
        "type": "Point",
        "coordinates": [
          -98.0017110998068,
          31.0812904001911
        ]
      },
      "properties": {
        "OBJECTID": 213888,
        "CROSSING": "024562N",
        "EFFDATE": 1767830400000,
        "REASON": "14",
        "StateCode": "48",
        "CountyCode": "48281",
        "STCYFIPS": "48281",
        "CITYCD": "482813619",
        "RAILROAD": "BNSF",
        "RRDIV": "RED RIVER",
        "RRSUBDIV": "LAMPASAS",
        "HIGHWAY": "FM2313",
        "STREET": "fm2313",
        "TTSTN": "683363",
        "MILEPOST": "0263.055",
        "TYPEXING": "Public",
        "POSXING": "At Grade",
        "PRVCAT": "14",
        "INIT": "2",
        "LATITUDE": 31.0812904,
        "LONGITUD": -98.0017111,
        "LLSOURCE": "1",
        "WHISTBAN": "0",
        "RRCONT": "8173521549",
        "POLCONT": "8008325452",
        "INV_LINK": "https://safetydata.fra.dot.gov/OfficeofSafety/PublicSite/Crossing/Crossing.aspx?phasetype=C&rpttype=I&txtcrossingnum=024562N",
        "ACC_LINK": "https://safetydata.fra.dot.gov/OfficeofSafety/PublicSite/Crossing/Crossing.aspx?phasetype=C&rpttype=A&txtcrossingnum=024562N",
        "TTSTNNAM": "KEMPNER",
        "XPURPOSE": "1",
        "OPERATINGR": "BNSF",
        "OPERATIN_1": "Primary",
        "DAYTHRU": 7,
        "NGHTTHRU": 7,
        "MAINTRK": 1,
        "SIDINGTRK": 0,
        "YARDTRK": 0,
        "TRANSITTRK": 0,
        "INDUSTRYTR": 0,
        "OTHRTRK": 0,
        "WDCODE": "All other Gates",
        "REVISIONDA": "1996/01/01 00:00:00",
        "LASTUPDATE": "1/8/2026",
        "AADT": "3823",
        "AADTYEAR": "2023",
        "STATENAME": "TEXAS",
        "STATEAB": "TX",
        "COUNTYNAME": "LAMPASAS",
        "CITYNAME": "KEMPNER",
        "LATDD": 31.0812904,
        "LONGDD": -98.0017111,
        "gridlyProductionCertified": true,
        "gridlyClassification": "PUBLIC_ROADWAY",
        "gridlyDisplayName": "fm2313",
        "gridlyId": "FRA-024562N"
      }
    },
    {
      "type": "Feature",
      "id": 213889,
      "geometry": {
        "type": "Point",
        "coordinates": [
          -98.1692091000862,
          31.0765139997859
        ]
      },
      "properties": {
        "OBJECTID": 213889,
        "CROSSING": "024582A",
        "EFFDATE": 1767830400000,
        "REASON": "14",
        "StateCode": "48",
        "CountyCode": "48281",
        "STCYFIPS": "48281",
        "CITYCD": "482813870",
        "RAILROAD": "BNSF",
        "RRDIV": "RED RIVER",
        "RRSUBDIV": "LAMPASAS",
        "HIGHWAY": "lS0000",
        "STREET": "third STREET / casbeer street",
        "TTSTN": "683390",
        "MILEPOST": "0273.847",
        "TYPEXING": "Public",
        "POSXING": "At Grade",
        "PRVCAT": "14",
        "INIT": "2",
        "LATITUDE": 31.076514,
        "LONGITUD": -98.1692091,
        "LLSOURCE": "1",
        "WHISTBAN": "0",
        "RRCONT": "8173521549",
        "POLCONT": "8008325452",
        "INV_LINK": "https://safetydata.fra.dot.gov/OfficeofSafety/PublicSite/Crossing/Crossing.aspx?phasetype=C&rpttype=I&txtcrossingnum=024582A",
        "ACC_LINK": "https://safetydata.fra.dot.gov/OfficeofSafety/PublicSite/Crossing/Crossing.aspx?phasetype=C&rpttype=A&txtcrossingnum=024582A",
        "TTSTNNAM": "LAMPASAS",
        "XPURPOSE": "1",
        "OPERATINGR": "BNSF",
        "OPERATIN_1": "Primary",
        "DAYTHRU": 4,
        "NGHTTHRU": 3,
        "MAINTRK": 1,
        "SIDINGTRK": 1,
        "YARDTRK": 0,
        "TRANSITTRK": 0,
        "INDUSTRYTR": 0,
        "OTHRTRK": 1,
        "WDCODE": "All other Gates",
        "REVISIONDA": "1996/01/01 00:00:00",
        "LASTUPDATE": "1/8/2026",
        "AADT": "1217",
        "AADTYEAR": "2022",
        "STATENAME": "TEXAS",
        "STATEAB": "TX",
        "COUNTYNAME": "LAMPASAS",
        "CITYNAME": "LAMPASAS",
        "LATDD": 31.076514,
        "LONGDD": -98.1692091,
        "gridlyProductionCertified": true,
        "gridlyClassification": "PUBLIC_ROADWAY",
        "gridlyDisplayName": "third STREET / casbeer street",
        "gridlyId": "FRA-024582A"
      }
    },
    {
      "type": "Feature",
      "id": 213890,
      "geometry": {
        "type": "Point",
        "coordinates": [
          -98.1721891002429,
          31.0801346997452
        ]
      },
      "properties": {
        "OBJECTID": 213890,
        "CROSSING": "024584N",
        "EFFDATE": 1767830400000,
        "REASON": "14",
        "StateCode": "48",
        "CountyCode": "48281",
        "STCYFIPS": "48281",
        "CITYCD": "482813870",
        "RAILROAD": "BNSF",
        "RRDIV": "RED RIVER",
        "RRSUBDIV": "LAMPASAS",
        "HIGHWAY": "FM0580",
        "STREET": "fm0580 / E AST AVENUE J",
        "TTSTN": "683390",
        "MILEPOST": "0274.157",
        "TYPEXING": "Public",
        "POSXING": "At Grade",
        "PRVCAT": "14",
        "INIT": "2",
        "LATITUDE": 31.0801347,
        "LONGITUD": -98.1721891,
        "LLSOURCE": "1",
        "WHISTBAN": "0",
        "RRCONT": "8173521549",
        "POLCONT": "8008325452",
        "INV_LINK": "https://safetydata.fra.dot.gov/OfficeofSafety/PublicSite/Crossing/Crossing.aspx?phasetype=C&rpttype=I&txtcrossingnum=024584N",
        "ACC_LINK": "https://safetydata.fra.dot.gov/OfficeofSafety/PublicSite/Crossing/Crossing.aspx?phasetype=C&rpttype=A&txtcrossingnum=024584N",
        "TTSTNNAM": "LAMPASAS",
        "XPURPOSE": "1",
        "OPERATINGR": "BNSF",
        "OPERATIN_1": "Primary",
        "DAYTHRU": 4,
        "NGHTTHRU": 3,
        "MAINTRK": 1,
        "SIDINGTRK": 1,
        "YARDTRK": 0,
        "TRANSITTRK": 0,
        "INDUSTRYTR": 0,
        "OTHRTRK": 1,
        "WDCODE": "All other Gates",
        "REVISIONDA": "1996/01/01 00:00:00",
        "LASTUPDATE": "1/8/2026",
        "AADT": "3301",
        "AADTYEAR": "2023",
        "STATENAME": "TEXAS",
        "STATEAB": "TX",
        "COUNTYNAME": "LAMPASAS",
        "CITYNAME": "LAMPASAS",
        "LATDD": 31.0801347,
        "LONGDD": -98.1721891,
        "gridlyProductionCertified": true,
        "gridlyClassification": "PUBLIC_ROADWAY",
        "gridlyDisplayName": "fm0580 / E AST AVENUE J",
        "gridlyId": "FRA-024584N"
      }
    },
    {
      "type": "Feature",
      "id": 213891,
      "geometry": {
        "type": "Point",
        "coordinates": [
          -98.1341617999935,
          31.0729703998452
        ]
      },
      "properties": {
        "OBJECTID": 213891,
        "CROSSING": "024570F",
        "EFFDATE": 1767830400000,
        "REASON": "14",
        "StateCode": "48",
        "CountyCode": "48281",
        "STCYFIPS": "48281",
        "CITYCD": "482813870",
        "RAILROAD": "BNSF",
        "RRDIV": "RED RIVER",
        "RRSUBDIV": "LAMPASAS",
        "HIGHWAY": "Cr3010",
        "STREET": "COunty RoaD 3010",
        "TTSTN": "683390",
        "MILEPOST": "0271.693",
        "TYPEXING": "Public",
        "POSXING": "At Grade",
        "PRVCAT": "14",
        "INIT": "2",
        "LATITUDE": 31.0729704,
        "LONGITUD": -98.1341618,
        "LLSOURCE": "1",
        "WHISTBAN": "0",
        "RRCONT": "8173521549",
        "POLCONT": "8008325452",
        "INV_LINK": "https://safetydata.fra.dot.gov/OfficeofSafety/PublicSite/Crossing/Crossing.aspx?phasetype=C&rpttype=I&txtcrossingnum=024570F",
        "ACC_LINK": "https://safetydata.fra.dot.gov/OfficeofSafety/PublicSite/Crossing/Crossing.aspx?phasetype=C&rpttype=A&txtcrossingnum=024570F",
        "TTSTNNAM": "LAMPASAS",
        "XPURPOSE": "1",
        "OPERATINGR": "BNSF",
        "OPERATIN_1": "Primary",
        "DAYTHRU": 4,
        "NGHTTHRU": 3,
        "MAINTRK": 1,
        "SIDINGTRK": 0,
        "YARDTRK": 0,
        "TRANSITTRK": 0,
        "INDUSTRYTR": 0,
        "OTHRTRK": 0,
        "WDCODE": "All other Gates",
        "REVISIONDA": "1996/01/01 00:00:00",
        "LASTUPDATE": "1/8/2026",
        "AADT": "337",
        "AADTYEAR": "2022",
        "STATENAME": "TEXAS",
        "STATEAB": "TX",
        "COUNTYNAME": "LAMPASAS",
        "CITYNAME": "LAMPASAS",
        "LATDD": 31.0729704,
        "LONGDD": -98.1341618,
        "gridlyProductionCertified": true,
        "gridlyClassification": "PUBLIC_ROADWAY",
        "gridlyDisplayName": "COunty RoaD 3010",
        "gridlyId": "FRA-024570F"
      }
    },
    {
      "type": "Feature",
      "id": 213892,
      "geometry": {
        "type": "Point",
        "coordinates": [
          -98.2185529998908,
          31.1276428001523
        ]
      },
      "properties": {
        "OBJECTID": 213892,
        "CROSSING": "024588R",
        "EFFDATE": 1767830400000,
        "REASON": "14",
        "StateCode": "48",
        "CountyCode": "48281",
        "STCYFIPS": "48281",
        "CITYCD": "482813870",
        "RAILROAD": "BNSF",
        "RRDIV": "RED RIVER",
        "RRSUBDIV": "LAMPASAS",
        "HIGHWAY": "Cr2200",
        "STREET": "county road 2200",
        "TTSTN": "683377",
        "MILEPOST": "0278.802",
        "TYPEXING": "Public",
        "POSXING": "At Grade",
        "PRVCAT": "14",
        "INIT": "2",
        "LATITUDE": 31.1276428,
        "LONGITUD": -98.218553,
        "LLSOURCE": "1",
        "WHISTBAN": "0",
        "RRCONT": "8173521549",
        "POLCONT": "8008325452",
        "INV_LINK": "https://safetydata.fra.dot.gov/OfficeofSafety/PublicSite/Crossing/Crossing.aspx?phasetype=C&rpttype=I&txtcrossingnum=024588R",
        "ACC_LINK": "https://safetydata.fra.dot.gov/OfficeofSafety/PublicSite/Crossing/Crossing.aspx?phasetype=C&rpttype=A&txtcrossingnum=024588R",
        "TTSTNNAM": "OGLES",
        "XPURPOSE": "1",
        "OPERATINGR": "BNSF",
        "OPERATIN_1": "Primary",
        "DAYTHRU": 4,
        "NGHTTHRU": 3,
        "MAINTRK": 1,
        "SIDINGTRK": 0,
        "YARDTRK": 0,
        "TRANSITTRK": 0,
        "INDUSTRYTR": 0,
        "OTHRTRK": 0,
        "WDCODE": "All other Gates",
        "REVISIONDA": "1996/01/01 00:00:00",
        "LASTUPDATE": "1/8/2026",
        "AADT": "433",
        "AADTYEAR": "2022",
        "STATENAME": "TEXAS",
        "STATEAB": "TX",
        "COUNTYNAME": "LAMPASAS",
        "CITYNAME": "LAMPASAS",
        "LATDD": 31.1276428,
        "LONGDD": -98.218553,
        "gridlyProductionCertified": true,
        "gridlyClassification": "PUBLIC_ROADWAY",
        "gridlyDisplayName": "county road 2200",
        "gridlyId": "FRA-024588R"
      }
    },
    {
      "type": "Feature",
      "id": 213893,
      "geometry": {
        "type": "Point",
        "coordinates": [
          -98.2397096004396,
          31.1280578997897
        ]
      },
      "properties": {
        "OBJECTID": 213893,
        "CROSSING": "024589X",
        "EFFDATE": 1767830400000,
        "REASON": "14",
        "StateCode": "48",
        "CountyCode": "48281",
        "STCYFIPS": "48281",
        "CITYCD": "482813870",
        "RAILROAD": "BNSF",
        "RRDIV": "RED RIVER",
        "RRSUBDIV": "LAMPASAS",
        "HIGHWAY": "Cr2001",
        "STREET": "county road 2001",
        "TTSTN": "683377",
        "MILEPOST": "0280.079",
        "TYPEXING": "Public",
        "POSXING": "At Grade",
        "PRVCAT": "14",
        "INIT": "2",
        "LATITUDE": 31.1280579,
        "LONGITUD": -98.2397096,
        "LLSOURCE": "1",
        "WHISTBAN": "0",
        "RRCONT": "8173521549",
        "POLCONT": "8008325452",
        "INV_LINK": "https://safetydata.fra.dot.gov/OfficeofSafety/PublicSite/Crossing/Crossing.aspx?phasetype=C&rpttype=I&txtcrossingnum=024589X",
        "ACC_LINK": "https://safetydata.fra.dot.gov/OfficeofSafety/PublicSite/Crossing/Crossing.aspx?phasetype=C&rpttype=A&txtcrossingnum=024589X",
        "TTSTNNAM": "OGLES",
        "XPURPOSE": "1",
        "OPERATINGR": "BNSF",
        "OPERATIN_1": "Primary",
        "DAYTHRU": 4,
        "NGHTTHRU": 3,
        "MAINTRK": 1,
        "SIDINGTRK": 0,
        "YARDTRK": 0,
        "TRANSITTRK": 0,
        "INDUSTRYTR": 0,
        "OTHRTRK": 0,
        "WDCODE": "All other Gates",
        "REVISIONDA": "1996/01/01 00:00:00",
        "LASTUPDATE": "1/8/2026",
        "AADT": "153",
        "AADTYEAR": "2019",
        "STATENAME": "TEXAS",
        "STATEAB": "TX",
        "COUNTYNAME": "LAMPASAS",
        "CITYNAME": "LAMPASAS",
        "LATDD": 31.1280579,
        "LONGDD": -98.2397096,
        "gridlyProductionCertified": true,
        "gridlyClassification": "PUBLIC_ROADWAY",
        "gridlyDisplayName": "county road 2001",
        "gridlyId": "FRA-024589X"
      }
    },
    {
      "type": "Feature",
      "id": 213895,
      "geometry": {
        "type": "Point",
        "coordinates": [
          -98.4396394001665,
          31.288205100244
        ]
      },
      "properties": {
        "OBJECTID": 213895,
        "CROSSING": "024608A",
        "EFFDATE": 1767830400000,
        "REASON": "14",
        "StateCode": "48",
        "CountyCode": "48281",
        "STCYFIPS": "48281",
        "CITYCD": "482814060",
        "RAILROAD": "BNSF",
        "RRDIV": "RED RIVER",
        "RRSUBDIV": "LAMPASAS",
        "HIGHWAY": "cr2659",
        "STREET": "county road 2659",
        "TTSTN": "683330",
        "MILEPOST": "0297.800",
        "TYPEXING": "Public",
        "POSXING": "At Grade",
        "PRVCAT": "14",
        "INIT": "2",
        "LATITUDE": 31.2882051,
        "LONGITUD": -98.4396394,
        "LLSOURCE": "1",
        "WHISTBAN": "0",
        "RRCONT": "8173521549",
        "POLCONT": "8008325452",
        "INV_LINK": "https://safetydata.fra.dot.gov/OfficeofSafety/PublicSite/Crossing/Crossing.aspx?phasetype=C&rpttype=I&txtcrossingnum=024608A",
        "ACC_LINK": "https://safetydata.fra.dot.gov/OfficeofSafety/PublicSite/Crossing/Crossing.aspx?phasetype=C&rpttype=A&txtcrossingnum=024608A",
        "TTSTNNAM": "ANTELOPE GAP",
        "XPURPOSE": "1",
        "OPERATINGR": "BNSF",
        "OPERATIN_1": "Primary",
        "DAYTHRU": 4,
        "NGHTTHRU": 3,
        "MAINTRK": 1,
        "SIDINGTRK": 0,
        "YARDTRK": 0,
        "TRANSITTRK": 0,
        "INDUSTRYTR": 0,
        "OTHRTRK": 0,
        "WDCODE": "All other Gates",
        "REVISIONDA": "1996/01/01 00:00:00",
        "LASTUPDATE": "1/8/2026",
        "AADT": "40",
        "AADTYEAR": "2022",
        "STATENAME": "TEXAS",
        "STATEAB": "TX",
        "COUNTYNAME": "LAMPASAS",
        "CITYNAME": "LOMETA",
        "LATDD": 31.2882051,
        "LONGDD": -98.4396394,
        "gridlyProductionCertified": true,
        "gridlyClassification": "PUBLIC_ROADWAY",
        "gridlyDisplayName": "county road 2659",
        "gridlyId": "FRA-024608A"
      }
    },
    {
      "type": "Feature",
      "id": 213896,
      "geometry": {
        "type": "Point",
        "coordinates": [
          -98.3910374998034,
          31.2144958000519
        ]
      },
      "properties": {
        "OBJECTID": 213896,
        "CROSSING": "024599D",
        "EFFDATE": 1767830400000,
        "REASON": "14",
        "StateCode": "48",
        "CountyCode": "48281",
        "STCYFIPS": "48281",
        "CITYCD": "482814060",
        "RAILROAD": "BNSF",
        "RRDIV": "RED RIVER",
        "RRSUBDIV": "LAMPASAS",
        "HIGHWAY": "Cr0000",
        "STREET": "OAK STREET",
        "TTSTN": "683350",
        "MILEPOST": "0291.481",
        "TYPEXING": "Public",
        "POSXING": "At Grade",
        "PRVCAT": "14",
        "INIT": "2",
        "LATITUDE": 31.2144958,
        "LONGITUD": -98.3910375,
        "LLSOURCE": "1",
        "WHISTBAN": "0",
        "RRCONT": "8173521549",
        "POLCONT": "8008325452",
        "INV_LINK": "https://safetydata.fra.dot.gov/OfficeofSafety/PublicSite/Crossing/Crossing.aspx?phasetype=C&rpttype=I&txtcrossingnum=024599D",
        "ACC_LINK": "https://safetydata.fra.dot.gov/OfficeofSafety/PublicSite/Crossing/Crossing.aspx?phasetype=C&rpttype=A&txtcrossingnum=024599D",
        "TTSTNNAM": "LOMETA",
        "XPURPOSE": "1",
        "OPERATINGR": "BNSF",
        "OPERATIN_1": "Primary",
        "DAYTHRU": 4,
        "NGHTTHRU": 3,
        "MAINTRK": 1,
        "SIDINGTRK": 1,
        "YARDTRK": 0,
        "TRANSITTRK": 0,
        "INDUSTRYTR": 0,
        "OTHRTRK": 1,
        "WDCODE": "All other Gates",
        "REVISIONDA": "1996/01/01 00:00:00",
        "LASTUPDATE": "1/8/2026",
        "AADT": "444",
        "AADTYEAR": "2022",
        "STATENAME": "TEXAS",
        "STATEAB": "TX",
        "COUNTYNAME": "LAMPASAS",
        "CITYNAME": "LOMETA",
        "LATDD": 31.2144958,
        "LONGDD": -98.3910375,
        "gridlyProductionCertified": true,
        "gridlyClassification": "PUBLIC_ROADWAY",
        "gridlyDisplayName": "OAK STREET",
        "gridlyId": "FRA-024599D"
      }
    },
    {
      "type": "Feature",
      "id": 213897,
      "geometry": {
        "type": "Point",
        "coordinates": [
          -98.3935567998649,
          31.2187893999054
        ]
      },
      "properties": {
        "OBJECTID": 213897,
        "CROSSING": "024601C",
        "EFFDATE": 1767830400000,
        "REASON": "14",
        "StateCode": "48",
        "CountyCode": "48281",
        "STCYFIPS": "48281",
        "CITYCD": "482814060",
        "RAILROAD": "BNSF",
        "RRDIV": "RED RIVER",
        "RRSUBDIV": "LAMPASAS",
        "HIGHWAY": "FM2942",
        "STREET": "fm2942 / ELM STREET",
        "TTSTN": "683350",
        "MILEPOST": "0291.797",
        "TYPEXING": "Public",
        "POSXING": "At Grade",
        "PRVCAT": "14",
        "INIT": "2",
        "LATITUDE": 31.2187894,
        "LONGITUD": -98.3935568,
        "LLSOURCE": "1",
        "WHISTBAN": "0",
        "RRCONT": "8173521549",
        "POLCONT": "8008325452",
        "INV_LINK": "https://safetydata.fra.dot.gov/OfficeofSafety/PublicSite/Crossing/Crossing.aspx?phasetype=C&rpttype=I&txtcrossingnum=024601C",
        "ACC_LINK": "https://safetydata.fra.dot.gov/OfficeofSafety/PublicSite/Crossing/Crossing.aspx?phasetype=C&rpttype=A&txtcrossingnum=024601C",
        "TTSTNNAM": "LOMETA",
        "XPURPOSE": "1",
        "OPERATINGR": "BNSF",
        "OPERATIN_1": "Primary",
        "DAYTHRU": 4,
        "NGHTTHRU": 3,
        "MAINTRK": 1,
        "SIDINGTRK": 1,
        "YARDTRK": 0,
        "TRANSITTRK": 0,
        "INDUSTRYTR": 0,
        "OTHRTRK": 1,
        "WDCODE": "All other Gates",
        "REVISIONDA": "1996/01/01 00:00:00",
        "LASTUPDATE": "1/8/2026",
        "AADT": "719",
        "AADTYEAR": "2019",
        "STATENAME": "TEXAS",
        "STATEAB": "TX",
        "COUNTYNAME": "LAMPASAS",
        "CITYNAME": "LOMETA",
        "LATDD": 31.2187894,
        "LONGDD": -98.3935568,
        "gridlyProductionCertified": true,
        "gridlyClassification": "PUBLIC_ROADWAY",
        "gridlyDisplayName": "fm2942 / ELM STREET",
        "gridlyId": "FRA-024601C"
      }
    },
    {
      "type": "Feature",
      "id": 213898,
      "geometry": {
        "type": "Point",
        "coordinates": [
          -98.3925053999782,
          31.2170643996779
        ]
      },
      "properties": {
        "OBJECTID": 213898,
        "CROSSING": "024600V",
        "EFFDATE": 1767830400000,
        "REASON": "14",
        "StateCode": "48",
        "CountyCode": "48281",
        "STCYFIPS": "48281",
        "CITYCD": "482814060",
        "RAILROAD": "BNSF",
        "RRDIV": "RED RIVER",
        "RRSUBDIV": "LAMPASAS",
        "HIGHWAY": "FM0581",
        "STREET": "fm0581 / MAIN STREET",
        "TTSTN": "683350",
        "MILEPOST": "0291.662",
        "TYPEXING": "Public",
        "POSXING": "At Grade",
        "PRVCAT": "14",
        "INIT": "2",
        "LATITUDE": 31.2170644,
        "LONGITUD": -98.3925054,
        "LLSOURCE": "1",
        "WHISTBAN": "0",
        "RRCONT": "8173521549",
        "POLCONT": "8008325452",
        "INV_LINK": "https://safetydata.fra.dot.gov/OfficeofSafety/PublicSite/Crossing/Crossing.aspx?phasetype=C&rpttype=I&txtcrossingnum=024600V",
        "ACC_LINK": "https://safetydata.fra.dot.gov/OfficeofSafety/PublicSite/Crossing/Crossing.aspx?phasetype=C&rpttype=A&txtcrossingnum=024600V",
        "TTSTNNAM": "LOMETA",
        "XPURPOSE": "1",
        "OPERATINGR": "BNSF",
        "OPERATIN_1": "Primary",
        "DAYTHRU": 4,
        "NGHTTHRU": 3,
        "MAINTRK": 1,
        "SIDINGTRK": 1,
        "YARDTRK": 0,
        "TRANSITTRK": 0,
        "INDUSTRYTR": 0,
        "OTHRTRK": 1,
        "WDCODE": "All other Gates",
        "REVISIONDA": "1996/01/01 00:00:00",
        "LASTUPDATE": "1/8/2026",
        "AADT": "879",
        "AADTYEAR": "2024",
        "STATENAME": "TEXAS",
        "STATEAB": "TX",
        "COUNTYNAME": "LAMPASAS",
        "CITYNAME": "LOMETA",
        "LATDD": 31.2170644,
        "LONGDD": -98.3925054,
        "gridlyProductionCertified": true,
        "gridlyClassification": "PUBLIC_ROADWAY",
        "gridlyDisplayName": "fm0581 / MAIN STREET",
        "gridlyId": "FRA-024600V"
      }
    },
    {
      "type": "Feature",
      "id": 215441,
      "geometry": {
        "type": "Point",
        "coordinates": [
          -98.503964500371,
          31.2628500001557
        ]
      },
      "properties": {
        "OBJECTID": 215441,
        "CROSSING": "024710F",
        "EFFDATE": 1767744000000,
        "REASON": "20",
        "StateCode": "48",
        "CountyCode": "48281",
        "STCYFIPS": "48281",
        "CITYCD": "482814060",
        "RAILROAD": "CTXR",
        "RRDIV": "Central Texas",
        "RRSUBDIV": "Lometa",
        "HIGHWAY": "cr2400",
        "STREET": "county road 2400",
        "TTSTN": "683350",
        "MILEPOST": "0009.37",
        "TYPEXING": "Public",
        "POSXING": "At Grade",
        "PRVCAT": "20",
        "INIT": "1",
        "LATITUDE": 31.26285,
        "LONGITUD": -98.5039645,
        "LLSOURCE": "1",
        "WHISTBAN": "0",
        "RRCONT": "3255972359",
        "POLCONT": "8005339416",
        "INV_LINK": "https://safetydata.fra.dot.gov/OfficeofSafety/PublicSite/Crossing/Crossing.aspx?phasetype=C&rpttype=I&txtcrossingnum=024710F",
        "ACC_LINK": "https://safetydata.fra.dot.gov/OfficeofSafety/PublicSite/Crossing/Crossing.aspx?phasetype=C&rpttype=A&txtcrossingnum=024710F",
        "TTSTNNAM": "LOMETA",
        "XPURPOSE": "1",
        "OPERATINGR": "CTXR",
        "OPERATIN_1": "Primary",
        "DAYTHRU": 1,
        "NGHTTHRU": 0,
        "MAINTRK": 1,
        "SIDINGTRK": 0,
        "YARDTRK": 0,
        "TRANSITTRK": 0,
        "INDUSTRYTR": 0,
        "OTHRTRK": 0,
        "WDCODE": "Crossbucks",
        "REVISIONDA": "2016/07/26 00:00:00",
        "LASTUPDATE": "1/7/2026",
        "AADT": "20",
        "AADTYEAR": "2019",
        "STATENAME": "TEXAS",
        "STATEAB": "TX",
        "COUNTYNAME": "LAMPASAS",
        "CITYNAME": "LOMETA",
        "LATDD": 31.26285,
        "LONGDD": -98.5039645,
        "gridlyProductionCertified": true,
        "gridlyClassification": "PUBLIC_ROADWAY",
        "gridlyDisplayName": "county road 2400",
        "gridlyId": "FRA-024710F"
      }
    },
    {
      "type": "Feature",
      "id": 215488,
      "geometry": {
        "type": "Point",
        "coordinates": [
          -98.5423697003008,
          31.2372038000272
        ]
      },
      "properties": {
        "OBJECTID": 215488,
        "CROSSING": "024714H",
        "EFFDATE": 1767744000000,
        "REASON": "20",
        "StateCode": "48",
        "CountyCode": "48281",
        "STCYFIPS": "48281",
        "CITYCD": "484116190",
        "RAILROAD": "CTXR",
        "RRDIV": "Central Texas",
        "RRSUBDIV": "Lometa",
        "HIGHWAY": "CO 0063",
        "STREET": "CR 0063",
        "TTSTN": "690530",
        "MILEPOST": "0012.55",
        "TYPEXING": "Public",
        "POSXING": "At Grade",
        "PRVCAT": "20",
        "INIT": "1",
        "LATITUDE": 31.2372038,
        "LONGITUD": -98.5423697,
        "LLSOURCE": "1",
        "WHISTBAN": "0",
        "RRCONT": "3255972359",
        "POLCONT": "8005339416",
        "INV_LINK": "https://safetydata.fra.dot.gov/OfficeofSafety/PublicSite/Crossing/Crossing.aspx?phasetype=C&rpttype=I&txtcrossingnum=024714H",
        "ACC_LINK": "https://safetydata.fra.dot.gov/OfficeofSafety/PublicSite/Crossing/Crossing.aspx?phasetype=C&rpttype=A&txtcrossingnum=024714H",
        "TTSTNNAM": "SAN SABA",
        "XPURPOSE": "1",
        "OPERATINGR": "CTXR",
        "OPERATIN_1": "Primary",
        "DAYTHRU": 1,
        "NGHTTHRU": 0,
        "MAINTRK": 1,
        "SIDINGTRK": 0,
        "YARDTRK": 0,
        "TRANSITTRK": 0,
        "INDUSTRYTR": 0,
        "OTHRTRK": 0,
        "WDCODE": "No signs or signals",
        "REVISIONDA": "2016/07/26 00:00:00",
        "LASTUPDATE": "1/7/2026",
        "AADT": "12",
        "AADTYEAR": "2022",
        "STATENAME": "TEXAS",
        "STATEAB": "TX",
        "COUNTYNAME": "LAMPASAS",
        "CITYNAME": "SAN SABA",
        "LATDD": 31.2372038,
        "LONGDD": -98.5423697,
        "gridlyProductionCertified": true,
        "gridlyClassification": "PUBLIC_ROADWAY",
        "gridlyDisplayName": "CR 0063",
        "gridlyId": "FRA-024714H"
      }
    }
  ]
}
