{
  "type": "FeatureCollection",
  "features": [
    {
      "type": "Feature",
      "id": 201326,
      "geometry": {
        "type": "Point",
        "coordinates": [
          -98.4365358996246,
          30.6597715997029
        ]
      },
      "properties": {
        "OBJECTID": 201326,
        "CROSSING": "745289A",
        "EFFDATE": 1624320000000,
        "REASON": "21",
        "StateCode": "48",
        "CountyCode": "48299",
        "STCYFIPS": "48299",
        "CITYCD": "482993699",
        "RAILROAD": "AWRR",
        "RRDIV": "cmta",
        "RRSUBDIV": "west",
        "HIGHWAY": "CO 1177",
        "STREET": "N CHAMBERLAIN ST",
        "TTSTN": "690774",
        "MILEPOST": "0134.10",
        "TYPEXING": "Public",
        "POSXING": "At Grade",
        "PRVCAT": "21",
        "INIT": "1",
        "LATITUDE": 30.6597716,
        "LONGITUD": -98.4365359,
        "LLSOURCE": "2",
        "WHISTBAN": "0",
        "RRCONT": "5123444000",
        "POLCONT": "8445928046",
        "INV_LINK": "https://safetydata.fra.dot.gov/OfficeofSafety/PublicSite/Crossing/Crossing.aspx?phasetype=C&rpttype=I&txtcrossingnum=745289A",
        "ACC_LINK": "https://safetydata.fra.dot.gov/OfficeofSafety/PublicSite/Crossing/Crossing.aspx?phasetype=C&rpttype=A&txtcrossingnum=745289A",
        "TTSTNNAM": "KINGSLAND",
        "XPURPOSE": "1",
        "OPERATINGR": "AWRR",
        "OPERATIN_1": "Primary",
        "DAYTHRU": 0,
        "NGHTTHRU": 0,
        "MAINTRK": 1,
        "SIDINGTRK": 1,
        "YARDTRK": 0,
        "TRANSITTRK": 0,
        "INDUSTRYTR": 0,
        "OTHRTRK": 1,
        "WDCODE": "Crossbucks",
        "REVISIONDA": "2007/01/01 00:00:00",
        "LASTUPDATE": "6/22/2021",
        "AADT": "000150",
        "AADTYEAR": "2010",
        "STATENAME": "TEXAS",
        "STATEAB": "TX",
        "COUNTYNAME": "LLANO",
        "CITYNAME": "KINGSLAND",
        "LATDD": 30.6597716,
        "LONGDD": -98.4365359,
        "gridlyProductionCertified": true,
        "gridlyClassification": "PUBLIC_ROADWAY",
        "gridlyDisplayName": "N CHAMBERLAIN ST",
        "gridlyId": "FRA-745289A"
      }
    },
    {
      "type": "Feature",
      "id": 201327,
      "geometry": {
        "type": "Point",
        "coordinates": [
          -98.4610985003023,
          30.6966830003691
        ]
      },
      "properties": {
        "OBJECTID": 201327,
        "CROSSING": "745293P",
        "EFFDATE": 1624320000000,
        "REASON": "21",
        "StateCode": "48",
        "CountyCode": "48299",
        "STCYFIPS": "48299",
        "CITYCD": "482993699",
        "RAILROAD": "AWRR",
        "RRDIV": "cmta",
        "RRSUBDIV": "west",
        "HIGHWAY": "CO 0302",
        "STREET": "CR 0302",
        "TTSTN": "690774",
        "MILEPOST": "0137.26",
        "TYPEXING": "Public",
        "POSXING": "At Grade",
        "PRVCAT": "21",
        "INIT": "1",
        "LATITUDE": 30.696683,
        "LONGITUD": -98.4610985,
        "LLSOURCE": "2",
        "WHISTBAN": "0",
        "RRCONT": "5123444000",
        "POLCONT": "8445928046",
        "INV_LINK": "https://safetydata.fra.dot.gov/OfficeofSafety/PublicSite/Crossing/Crossing.aspx?phasetype=C&rpttype=I&txtcrossingnum=745293P",
        "ACC_LINK": "https://safetydata.fra.dot.gov/OfficeofSafety/PublicSite/Crossing/Crossing.aspx?phasetype=C&rpttype=A&txtcrossingnum=745293P",
        "TTSTNNAM": "KINGSLAND",
        "XPURPOSE": "1",
        "OPERATINGR": "AWRR",
        "OPERATIN_1": "Primary",
        "DAYTHRU": 0,
        "NGHTTHRU": 0,
        "MAINTRK": 1,
        "SIDINGTRK": 0,
        "YARDTRK": 0,
        "TRANSITTRK": 0,
        "INDUSTRYTR": 0,
        "OTHRTRK": 0,
        "WDCODE": "Crossbucks",
        "REVISIONDA": "2007/01/01 00:00:00",
        "LASTUPDATE": "6/22/2021",
        "AADT": "000050",
        "AADTYEAR": "2010",
        "STATENAME": "TEXAS",
        "STATEAB": "TX",
        "COUNTYNAME": "LLANO",
        "CITYNAME": "KINGSLAND",
        "LATDD": 30.696683,
        "LONGDD": -98.4610985,
        "gridlyProductionCertified": true,
        "gridlyClassification": "PUBLIC_ROADWAY",
        "gridlyDisplayName": "CR 0302",
        "gridlyId": "FRA-745293P"
      }
    },
    {
      "type": "Feature",
      "id": 201328,
      "geometry": {
        "type": "Point",
        "coordinates": [
          -98.460393900421,
          30.6895904001755
        ]
      },
      "properties": {
        "OBJECTID": 201328,
        "CROSSING": "745291B",
        "EFFDATE": 1624320000000,
        "REASON": "21",
        "StateCode": "48",
        "CountyCode": "48299",
        "STCYFIPS": "48299",
        "CITYCD": "482993699",
        "RAILROAD": "AWRR",
        "RRDIV": "cmta",
        "RRSUBDIV": "west",
        "HIGHWAY": "PRIVATE",
        "STREET": "PRIVATE ROAD",
        "TTSTN": "690774",
        "MILEPOST": "0136.77",
        "TYPEXING": "Private",
        "POSXING": "At Grade",
        "PRVCAT": "21",
        "INIT": "1",
        "LATITUDE": 30.6895904,
        "LONGITUD": -98.4603939,
        "LLSOURCE": "2",
        "WHISTBAN": "0",
        "RRCONT": "5123444000",
        "POLCONT": "8445928046",
        "INV_LINK": "https://safetydata.fra.dot.gov/OfficeofSafety/PublicSite/Crossing/Crossing.aspx?phasetype=C&rpttype=I&txtcrossingnum=745291B",
        "ACC_LINK": "https://safetydata.fra.dot.gov/OfficeofSafety/PublicSite/Crossing/Crossing.aspx?phasetype=C&rpttype=A&txtcrossingnum=745291B",
        "TTSTNNAM": "KINGSLAND",
        "XPURPOSE": "1",
        "OPERATINGR": "AWRR",
        "OPERATIN_1": "Primary",
        "DAYTHRU": 0,
        "NGHTTHRU": 0,
        "MAINTRK": 0,
        "SIDINGTRK": 0,
        "YARDTRK": 0,
        "TRANSITTRK": 0,
        "INDUSTRYTR": 0,
        "OTHRTRK": 0,
        "WDCODE": "",
        "REVISIONDA": "2007/01/01 00:00:00",
        "LASTUPDATE": "6/22/2021",
        "AADT": "",
        "AADTYEAR": "1970",
        "STATENAME": "TEXAS",
        "STATEAB": "TX",
        "COUNTYNAME": "LLANO",
        "CITYNAME": "KINGSLAND",
        "LATDD": 30.6895904,
        "LONGDD": -98.4603939,
        "gridlyProductionCertified": true,
        "gridlyClassification": "PUBLIC_ROADWAY",
        "gridlyDisplayName": "PRIVATE ROAD",
        "gridlyId": "FRA-745291B"
      }
    },
    {
      "type": "Feature",
      "id": 201329,
      "geometry": {
        "type": "Point",
        "coordinates": [
          -98.4702720995769,
          30.7093254999316
        ]
      },
      "properties": {
        "OBJECTID": 201329,
        "CROSSING": "745295D",
        "EFFDATE": 1624320000000,
        "REASON": "21",
        "StateCode": "48",
        "CountyCode": "48299",
        "STCYFIPS": "48299",
        "CITYCD": "482993699",
        "RAILROAD": "AWRR",
        "RRDIV": "cmta",
        "RRSUBDIV": "west",
        "HIGHWAY": "CO 0321",
        "STREET": "CR 0321",
        "TTSTN": "690774",
        "MILEPOST": "0138.31",
        "TYPEXING": "Public",
        "POSXING": "At Grade",
        "PRVCAT": "21",
        "INIT": "1",
        "LATITUDE": 30.7093255,
        "LONGITUD": -98.4702721,
        "LLSOURCE": "2",
        "WHISTBAN": "0",
        "RRCONT": "5123444000",
        "POLCONT": "8445928046",
        "INV_LINK": "https://safetydata.fra.dot.gov/OfficeofSafety/PublicSite/Crossing/Crossing.aspx?phasetype=C&rpttype=I&txtcrossingnum=745295D",
        "ACC_LINK": "https://safetydata.fra.dot.gov/OfficeofSafety/PublicSite/Crossing/Crossing.aspx?phasetype=C&rpttype=A&txtcrossingnum=745295D",
        "TTSTNNAM": "KINGSLAND",
        "XPURPOSE": "1",
        "OPERATINGR": "AWRR",
        "OPERATIN_1": "Primary",
        "DAYTHRU": 0,
        "NGHTTHRU": 0,
        "MAINTRK": 1,
        "SIDINGTRK": 0,
        "YARDTRK": 0,
        "TRANSITTRK": 0,
        "INDUSTRYTR": 0,
        "OTHRTRK": 0,
        "WDCODE": "Crossbucks",
        "REVISIONDA": "2007/01/01 00:00:00",
        "LASTUPDATE": "6/22/2021",
        "AADT": "000020",
        "AADTYEAR": "2010",
        "STATENAME": "TEXAS",
        "STATEAB": "TX",
        "COUNTYNAME": "LLANO",
        "CITYNAME": "KINGSLAND",
        "LATDD": 30.7093255,
        "LONGDD": -98.4702721,
        "gridlyProductionCertified": true,
        "gridlyClassification": "PUBLIC_ROADWAY",
        "gridlyDisplayName": "CR 0321",
        "gridlyId": "FRA-745295D"
      }
    },
    {
      "type": "Feature",
      "id": 201330,
      "geometry": {
        "type": "Point",
        "coordinates": [
          -98.5131029000596,
          30.7366223998307
        ]
      },
      "properties": {
        "OBJECTID": 201330,
        "CROSSING": "745296K",
        "EFFDATE": 1624320000000,
        "REASON": "21",
        "StateCode": "48",
        "CountyCode": "48299",
        "STCYFIPS": "48299",
        "CITYCD": "482993699",
        "RAILROAD": "AWRR",
        "RRDIV": "cmta",
        "RRSUBDIV": "west",
        "HIGHWAY": "PRIVATE",
        "STREET": "PRIVATE ROAD",
        "TTSTN": "690752",
        "MILEPOST": "0139.70",
        "TYPEXING": "Private",
        "POSXING": "At Grade",
        "PRVCAT": "21",
        "INIT": "1",
        "LATITUDE": 30.7366224,
        "LONGITUD": -98.5131029,
        "LLSOURCE": "2",
        "WHISTBAN": "0",
        "RRCONT": "5123444000",
        "POLCONT": "8445928046",
        "INV_LINK": "https://safetydata.fra.dot.gov/OfficeofSafety/PublicSite/Crossing/Crossing.aspx?phasetype=C&rpttype=I&txtcrossingnum=745296K",
        "ACC_LINK": "https://safetydata.fra.dot.gov/OfficeofSafety/PublicSite/Crossing/Crossing.aspx?phasetype=C&rpttype=A&txtcrossingnum=745296K",
        "TTSTNNAM": "STOLZ",
        "XPURPOSE": "1",
        "OPERATINGR": "AWRR",
        "OPERATIN_1": "Primary",
        "DAYTHRU": 0,
        "NGHTTHRU": 0,
        "MAINTRK": 1,
        "SIDINGTRK": 0,
        "YARDTRK": 0,
        "TRANSITTRK": 0,
        "INDUSTRYTR": 0,
        "OTHRTRK": 0,
        "WDCODE": "",
        "REVISIONDA": "2007/01/01 00:00:00",
        "LASTUPDATE": "6/22/2021",
        "AADT": "",
        "AADTYEAR": "1970",
        "STATENAME": "TEXAS",
        "STATEAB": "TX",
        "COUNTYNAME": "LLANO",
        "CITYNAME": "KINGSLAND",
        "LATDD": 30.7366224,
        "LONGDD": -98.5131029,
        "gridlyProductionCertified": true,
        "gridlyClassification": "PUBLIC_ROADWAY",
        "gridlyDisplayName": "PRIVATE ROAD",
        "gridlyId": "FRA-745296K"
      }
    },
    {
      "type": "Feature",
      "id": 201331,
      "geometry": {
        "type": "Point",
        "coordinates": [
          -98.5202871001876,
          30.7430902000801
        ]
      },
      "properties": {
        "OBJECTID": 201331,
        "CROSSING": "745300X",
        "EFFDATE": 1624406400000,
        "REASON": "21",
        "StateCode": "48",
        "CountyCode": "48299",
        "STCYFIPS": "48299",
        "CITYCD": "482993699",
        "RAILROAD": "AWRR",
        "RRDIV": "cmta",
        "RRSUBDIV": "west",
        "HIGHWAY": "PRIVATE",
        "STREET": "PRIVATE ROAD",
        "TTSTN": "690752",
        "MILEPOST": "0142.28",
        "TYPEXING": "Private",
        "POSXING": "At Grade",
        "PRVCAT": "21",
        "INIT": "1",
        "LATITUDE": 30.7430902,
        "LONGITUD": -98.5202871,
        "LLSOURCE": "2",
        "WHISTBAN": "0",
        "RRCONT": "5123444000",
        "POLCONT": "8445928046",
        "INV_LINK": "https://safetydata.fra.dot.gov/OfficeofSafety/PublicSite/Crossing/Crossing.aspx?phasetype=C&rpttype=I&txtcrossingnum=745300X",
        "ACC_LINK": "https://safetydata.fra.dot.gov/OfficeofSafety/PublicSite/Crossing/Crossing.aspx?phasetype=C&rpttype=A&txtcrossingnum=745300X",
        "TTSTNNAM": "STOLZ",
        "XPURPOSE": "1",
        "OPERATINGR": "AWRR",
        "OPERATIN_1": "Primary",
        "DAYTHRU": 0,
        "NGHTTHRU": 0,
        "MAINTRK": 1,
        "SIDINGTRK": 0,
        "YARDTRK": 0,
        "TRANSITTRK": 0,
        "INDUSTRYTR": 0,
        "OTHRTRK": 0,
        "WDCODE": "",
        "REVISIONDA": "2007/01/01 00:00:00",
        "LASTUPDATE": "6/23/2021",
        "AADT": "",
        "AADTYEAR": "1970",
        "STATENAME": "TEXAS",
        "STATEAB": "TX",
        "COUNTYNAME": "LLANO",
        "CITYNAME": "KINGSLAND",
        "LATDD": 30.7430902,
        "LONGDD": -98.5202871,
        "gridlyProductionCertified": true,
        "gridlyClassification": "PUBLIC_ROADWAY",
        "gridlyDisplayName": "PRIVATE ROAD",
        "gridlyId": "FRA-745300X"
      }
    },
    {
      "type": "Feature",
      "id": 201332,
      "geometry": {
        "type": "Point",
        "coordinates": [
          -98.5160404997349,
          30.740032599999
        ]
      },
      "properties": {
        "OBJECTID": 201332,
        "CROSSING": "745299F",
        "EFFDATE": 1624320000000,
        "REASON": "21",
        "StateCode": "48",
        "CountyCode": "48299",
        "STCYFIPS": "48299",
        "CITYCD": "482994030",
        "RAILROAD": "AWRR",
        "RRDIV": "cmta",
        "RRSUBDIV": "west",
        "HIGHWAY": "PRIVATE",
        "STREET": "PRIVATE ROAD",
        "TTSTN": "690752",
        "MILEPOST": "0141.95",
        "TYPEXING": "Private",
        "POSXING": "At Grade",
        "PRVCAT": "21",
        "INIT": "1",
        "LATITUDE": 30.7400326,
        "LONGITUD": -98.5160405,
        "LLSOURCE": "2",
        "WHISTBAN": "0",
        "RRCONT": "5123444000",
        "POLCONT": "8445928046",
        "INV_LINK": "https://safetydata.fra.dot.gov/OfficeofSafety/PublicSite/Crossing/Crossing.aspx?phasetype=C&rpttype=I&txtcrossingnum=745299F",
        "ACC_LINK": "https://safetydata.fra.dot.gov/OfficeofSafety/PublicSite/Crossing/Crossing.aspx?phasetype=C&rpttype=A&txtcrossingnum=745299F",
        "TTSTNNAM": "STOLZ",
        "XPURPOSE": "1",
        "OPERATINGR": "AWRR",
        "OPERATIN_1": "Primary",
        "DAYTHRU": 0,
        "NGHTTHRU": 0,
        "MAINTRK": 1,
        "SIDINGTRK": 0,
        "YARDTRK": 0,
        "TRANSITTRK": 0,
        "INDUSTRYTR": 0,
        "OTHRTRK": 0,
        "WDCODE": "",
        "REVISIONDA": "2007/01/01 00:00:00",
        "LASTUPDATE": "6/22/2021",
        "AADT": "",
        "AADTYEAR": "1970",
        "STATENAME": "TEXAS",
        "STATEAB": "TX",
        "COUNTYNAME": "LLANO",
        "CITYNAME": "LLANO",
        "LATDD": 30.7400326,
        "LONGDD": -98.5160405,
        "gridlyProductionCertified": true,
        "gridlyClassification": "PUBLIC_ROADWAY",
        "gridlyDisplayName": "PRIVATE ROAD",
        "gridlyId": "FRA-745299F"
      }
    },
    {
      "type": "Feature",
      "id": 201333,
      "geometry": {
        "type": "Point",
        "coordinates": [
          -98.5596004995646,
          30.7788792001725
        ]
      },
      "properties": {
        "OBJECTID": 201333,
        "CROSSING": "925937M",
        "EFFDATE": 1624406400000,
        "REASON": "21",
        "StateCode": "48",
        "CountyCode": "48299",
        "STCYFIPS": "48299",
        "CITYCD": "482994030",
        "RAILROAD": "AWRR",
        "RRDIV": "cmta",
        "RRSUBDIV": "west",
        "HIGHWAY": "PRIVATE",
        "STREET": "private ",
        "TTSTN": "683683",
        "MILEPOST": "0143.47",
        "TYPEXING": "Private",
        "POSXING": "At Grade",
        "PRVCAT": "21",
        "INIT": "1",
        "LATITUDE": 30.7788792,
        "LONGITUD": -98.5596005,
        "LLSOURCE": "2",
        "WHISTBAN": "0",
        "RRCONT": "5123444000",
        "POLCONT": "8445928046",
        "INV_LINK": "https://safetydata.fra.dot.gov/OfficeofSafety/PublicSite/Crossing/Crossing.aspx?phasetype=C&rpttype=I&txtcrossingnum=925937M",
        "ACC_LINK": "https://safetydata.fra.dot.gov/OfficeofSafety/PublicSite/Crossing/Crossing.aspx?phasetype=C&rpttype=A&txtcrossingnum=925937M",
        "TTSTNNAM": "stolz",
        "XPURPOSE": "1",
        "OPERATINGR": "AWRR",
        "OPERATIN_1": "Primary",
        "DAYTHRU": 0,
        "NGHTTHRU": 0,
        "MAINTRK": 1,
        "SIDINGTRK": 0,
        "YARDTRK": 0,
        "TRANSITTRK": 0,
        "INDUSTRYTR": 0,
        "OTHRTRK": 0,
        "WDCODE": "",
        "REVISIONDA": "2007/01/01 00:00:00",
        "LASTUPDATE": "6/23/2021",
        "AADT": "000830",
        "AADTYEAR": "2002",
        "STATENAME": "TEXAS",
        "STATEAB": "TX",
        "COUNTYNAME": "LLANO",
        "CITYNAME": "LLANO",
        "LATDD": 30.7788792,
        "LONGDD": -98.5596005,
        "gridlyProductionCertified": true,
        "gridlyClassification": "PUBLIC_ROADWAY",
        "gridlyDisplayName": "private",
        "gridlyId": "FRA-925937M"
      }
    },
    {
      "type": "Feature",
      "id": 201338,
      "geometry": {
        "type": "Point",
        "coordinates": [
          -98.5864286998979,
          30.7753655001002
        ]
      },
      "properties": {
        "OBJECTID": 201338,
        "CROSSING": "925938U",
        "EFFDATE": 1624406400000,
        "REASON": "21",
        "StateCode": "48",
        "CountyCode": "48299",
        "STCYFIPS": "48299",
        "CITYCD": "482994030",
        "RAILROAD": "AWRR",
        "RRDIV": "cmta",
        "RRSUBDIV": "west",
        "HIGHWAY": "PRIVATE",
        "STREET": "PRIVATE ROAD",
        "TTSTN": "683683",
        "MILEPOST": "0146.30",
        "TYPEXING": "Private",
        "POSXING": "At Grade",
        "PRVCAT": "21",
        "INIT": "1",
        "LATITUDE": 30.7753655,
        "LONGITUD": -98.5864287,
        "LLSOURCE": "2",
        "WHISTBAN": "0",
        "RRCONT": "5123444000",
        "POLCONT": "8445928046",
        "INV_LINK": "https://safetydata.fra.dot.gov/OfficeofSafety/PublicSite/Crossing/Crossing.aspx?phasetype=C&rpttype=I&txtcrossingnum=925938U",
        "ACC_LINK": "https://safetydata.fra.dot.gov/OfficeofSafety/PublicSite/Crossing/Crossing.aspx?phasetype=C&rpttype=A&txtcrossingnum=925938U",
        "TTSTNNAM": "stolz",
        "XPURPOSE": "1",
        "OPERATINGR": "AWRR",
        "OPERATIN_1": "Primary",
        "DAYTHRU": 0,
        "NGHTTHRU": 0,
        "MAINTRK": 1,
        "SIDINGTRK": 0,
        "YARDTRK": 0,
        "TRANSITTRK": 0,
        "INDUSTRYTR": 0,
        "OTHRTRK": 0,
        "WDCODE": "",
        "REVISIONDA": "2007/01/01 00:00:00",
        "LASTUPDATE": "6/23/2021",
        "AADT": "",
        "AADTYEAR": "",
        "STATENAME": "TEXAS",
        "STATEAB": "TX",
        "COUNTYNAME": "LLANO",
        "CITYNAME": "LLANO",
        "LATDD": 30.7753655,
        "LONGDD": -98.5864287,
        "gridlyProductionCertified": true,
        "gridlyClassification": "PUBLIC_ROADWAY",
        "gridlyDisplayName": "PRIVATE ROAD",
        "gridlyId": "FRA-925938U"
      }
    },
    {
      "type": "Feature",
      "id": 201339,
      "geometry": {
        "type": "Point",
        "coordinates": [
          -98.5939505003843,
          30.7710652997161
        ]
      },
      "properties": {
        "OBJECTID": 201339,
        "CROSSING": "925939B",
        "EFFDATE": 1624406400000,
        "REASON": "21",
        "StateCode": "48",
        "CountyCode": "48299",
        "STCYFIPS": "48299",
        "CITYCD": "482994030",
        "RAILROAD": "AWRR",
        "RRDIV": "cmta",
        "RRSUBDIV": "west",
        "HIGHWAY": "PRIVATE",
        "STREET": "PRIVATE ROAD",
        "TTSTN": "683683",
        "MILEPOST": "0147.00",
        "TYPEXING": "Private",
        "POSXING": "At Grade",
        "PRVCAT": "21",
        "INIT": "1",
        "LATITUDE": 30.7710653,
        "LONGITUD": -98.5939505,
        "LLSOURCE": "2",
        "WHISTBAN": "0",
        "RRCONT": "5123444000",
        "POLCONT": "8445928046",
        "INV_LINK": "https://safetydata.fra.dot.gov/OfficeofSafety/PublicSite/Crossing/Crossing.aspx?phasetype=C&rpttype=I&txtcrossingnum=925939B",
        "ACC_LINK": "https://safetydata.fra.dot.gov/OfficeofSafety/PublicSite/Crossing/Crossing.aspx?phasetype=C&rpttype=A&txtcrossingnum=925939B",
        "TTSTNNAM": "stolz",
        "XPURPOSE": "1",
        "OPERATINGR": "AWRR",
        "OPERATIN_1": "Primary",
        "DAYTHRU": 0,
        "NGHTTHRU": 0,
        "MAINTRK": 1,
        "SIDINGTRK": 0,
        "YARDTRK": 0,
        "TRANSITTRK": 0,
        "INDUSTRYTR": 0,
        "OTHRTRK": 0,
        "WDCODE": "",
        "REVISIONDA": "2007/01/01 00:00:00",
        "LASTUPDATE": "6/23/2021",
        "AADT": "",
        "AADTYEAR": "",
        "STATENAME": "TEXAS",
        "STATEAB": "TX",
        "COUNTYNAME": "LLANO",
        "CITYNAME": "LLANO",
        "LATDD": 30.7710653,
        "LONGDD": -98.5939505,
        "gridlyProductionCertified": true,
        "gridlyClassification": "PUBLIC_ROADWAY",
        "gridlyDisplayName": "PRIVATE ROAD",
        "gridlyId": "FRA-925939B"
      }
    },
    {
      "type": "Feature",
      "id": 202154,
      "geometry": {
        "type": "Point",
        "coordinates": [
          -98.5674562002489,
          30.7810801999574
        ]
      },
      "properties": {
        "OBJECTID": 202154,
        "CROSSING": "745302L",
        "EFFDATE": 1690243200000,
        "REASON": "24",
        "StateCode": "48",
        "CountyCode": "48299",
        "STCYFIPS": "48299",
        "CITYCD": "482994030",
        "RAILROAD": "CMTY",
        "RRDIV": "CMTA",
        "RRSUBDIV": "west",
        "HIGHWAY": "COUNTY",
        "STREET": "PRIVATE ROAD",
        "TTSTN": "690752",
        "MILEPOST": "0145.81",
        "TYPEXING": "Private",
        "POSXING": "At Grade",
        "PRVCAT": "24",
        "INIT": "1",
        "LATITUDE": 30.7810802,
        "LONGITUD": -98.5674562,
        "LLSOURCE": "2",
        "WHISTBAN": "0",
        "RRCONT": "5123444000",
        "POLCONT": "8445928046",
        "INV_LINK": "https://safetydata.fra.dot.gov/OfficeofSafety/PublicSite/Crossing/Crossing.aspx?phasetype=C&rpttype=I&txtcrossingnum=745302L",
        "ACC_LINK": "https://safetydata.fra.dot.gov/OfficeofSafety/PublicSite/Crossing/Crossing.aspx?phasetype=C&rpttype=A&txtcrossingnum=745302L",
        "TTSTNNAM": "STOLZ",
        "XPURPOSE": "1",
        "OPERATINGR": "CMTY",
        "OPERATIN_1": "Primary",
        "DAYTHRU": 0,
        "NGHTTHRU": 0,
        "MAINTRK": 1,
        "SIDINGTRK": 0,
        "YARDTRK": 0,
        "TRANSITTRK": 0,
        "INDUSTRYTR": 0,
        "OTHRTRK": 0,
        "WDCODE": "",
        "REVISIONDA": "2007/01/01 00:00:00",
        "LASTUPDATE": "7/25/2023",
        "AADT": "000010",
        "AADTYEAR": "1976",
        "STATENAME": "TEXAS",
        "STATEAB": "TX",
        "COUNTYNAME": "LLANO",
        "CITYNAME": "LLANO",
        "LATDD": 30.7810802,
        "LONGDD": -98.5674562,
        "gridlyProductionCertified": true,
        "gridlyClassification": "PUBLIC_ROADWAY",
        "gridlyDisplayName": "PRIVATE ROAD",
        "gridlyId": "FRA-745302L"
      }
    },
    {
      "type": "Feature",
      "id": 202190,
      "geometry": {
        "type": "Point",
        "coordinates": [
          -98.4551548996328,
          30.6759402997012
        ]
      },
      "properties": {
        "OBJECTID": 202190,
        "CROSSING": "745292H",
        "EFFDATE": 1688947200000,
        "REASON": "14",
        "StateCode": "48",
        "CountyCode": "48299",
        "STCYFIPS": "48299",
        "CITYCD": "482993699",
        "RAILROAD": "AWRR",
        "RRDIV": "cmta",
        "RRSUBDIV": "west",
        "HIGHWAY": "CO 1034",
        "STREET": "TEXAS AVE",
        "TTSTN": "690774",
        "MILEPOST": "0135.72",
        "TYPEXING": "Public",
        "POSXING": "RR Over",
        "PRVCAT": "14",
        "INIT": "1",
        "LATITUDE": 30.6759403,
        "LONGITUD": -98.4551549,
        "LLSOURCE": "2",
        "WHISTBAN": "0",
        "RRCONT": "8663869321",
        "POLCONT": "8663869321",
        "INV_LINK": "https://safetydata.fra.dot.gov/OfficeofSafety/PublicSite/Crossing/Crossing.aspx?phasetype=C&rpttype=I&txtcrossingnum=745292H",
        "ACC_LINK": "https://safetydata.fra.dot.gov/OfficeofSafety/PublicSite/Crossing/Crossing.aspx?phasetype=C&rpttype=A&txtcrossingnum=745292H",
        "TTSTNNAM": "KINGSLAND",
        "XPURPOSE": "1",
        "OPERATINGR": "AWRR",
        "OPERATIN_1": "Primary",
        "DAYTHRU": 0,
        "NGHTTHRU": 0,
        "MAINTRK": 1,
        "SIDINGTRK": 0,
        "YARDTRK": 0,
        "TRANSITTRK": 0,
        "INDUSTRYTR": 0,
        "OTHRTRK": 0,
        "WDCODE": "",
        "REVISIONDA": "2007/01/01 00:00:00",
        "LASTUPDATE": "7/10/2023",
        "AADT": "000480",
        "AADTYEAR": "2013",
        "STATENAME": "TEXAS",
        "STATEAB": "TX",
        "COUNTYNAME": "LLANO",
        "CITYNAME": "KINGSLAND",
        "LATDD": 30.6759403,
        "LONGDD": -98.4551549,
        "gridlyProductionCertified": true,
        "gridlyClassification": "PUBLIC_ROADWAY",
        "gridlyDisplayName": "TEXAS AVE",
        "gridlyId": "FRA-745292H"
      }
    },
    {
      "type": "Feature",
      "id": 209823,
      "geometry": {
        "type": "Point",
        "coordinates": [
          -98.5568431001387,
          30.7770674000812
        ]
      },
      "properties": {
        "OBJECTID": 209823,
        "CROSSING": "745303T",
        "EFFDATE": 1775520000000,
        "REASON": "14",
        "StateCode": "48",
        "CountyCode": "48299",
        "STCYFIPS": "48299",
        "CITYCD": "482994030",
        "RAILROAD": "CMTY",
        "RRDIV": "SAN ANTONIO",
        "RRSUBDIV": "AUSTIN",
        "HIGHWAY": "SH 0029",
        "STREET": "SH 0029",
        "TTSTN": "690752",
        "MILEPOST": "0000.08",
        "TYPEXING": "Public",
        "POSXING": "At Grade",
        "PRVCAT": "14",
        "INIT": "2",
        "LATITUDE": 30.7770674,
        "LONGITUD": -98.5568431,
        "LLSOURCE": "2",
        "WHISTBAN": "0",
        "RRCONT": "5123444000",
        "POLCONT": "8445928046",
        "INV_LINK": "https://safetydata.fra.dot.gov/OfficeofSafety/PublicSite/Crossing/Crossing.aspx?phasetype=C&rpttype=I&txtcrossingnum=745303T",
        "ACC_LINK": "https://safetydata.fra.dot.gov/OfficeofSafety/PublicSite/Crossing/Crossing.aspx?phasetype=C&rpttype=A&txtcrossingnum=745303T",
        "TTSTNNAM": "STOLZ",
        "XPURPOSE": "1",
        "OPERATINGR": "CMTY",
        "OPERATIN_1": "Primary",
        "DAYTHRU": 0,
        "NGHTTHRU": 0,
        "MAINTRK": 0,
        "SIDINGTRK": 0,
        "YARDTRK": 0,
        "TRANSITTRK": 0,
        "INDUSTRYTR": 1,
        "OTHRTRK": 1,
        "WDCODE": "No signs or signals",
        "REVISIONDA": "2007/01/01 00:00:00",
        "LASTUPDATE": "4/7/2026",
        "AADT": "002800",
        "AADTYEAR": "1993",
        "STATENAME": "TEXAS",
        "STATEAB": "TX",
        "COUNTYNAME": "LLANO",
        "CITYNAME": "LLANO",
        "LATDD": 30.7770674,
        "LONGDD": -98.5568431,
        "gridlyProductionCertified": true,
        "gridlyClassification": "PUBLIC_ROADWAY",
        "gridlyDisplayName": "SH 0029",
        "gridlyId": "FRA-745303T"
      }
    }
  ]
}
