{
  "type": "FeatureCollection",
  "features": [
    {
      "type": "Feature",
      "id": 202767,
      "geometry": {
        "type": "Point",
        "coordinates": [
          -98.6631999996864,
          27.304818099796
        ]
      },
      "properties": {
        "OBJECTID": 202767,
        "CROSSING": "793693M",
        "EFFDATE": 1772064000000,
        "REASON": "14",
        "StateCode": "48",
        "CountyCode": "48247",
        "STCYFIPS": "48247",
        "CITYCD": "482473080",
        "RAILROAD": "TM",
        "RRDIV": "Border",
        "RRSUBDIV": "Laredo",
        "HIGHWAY": "CR0163",
        "STREET": "S VAELLO AVENUE",
        "TTSTN": "699610",
        "MILEPOST": "0062.800",
        "TYPEXING": "Public",
        "POSXING": "At Grade",
        "PRVCAT": "14",
        "INIT": "1",
        "LATITUDE": 27.3048181,
        "LONGITUD": -98.6632,
        "LLSOURCE": "1",
        "WHISTBAN": "0",
        "RRCONT": "3186766269",
        "POLCONT": "8775279464",
        "INV_LINK": "https://safetydata.fra.dot.gov/OfficeofSafety/PublicSite/Crossing/Crossing.aspx?phasetype=C&rpttype=I&txtcrossingnum=793693M",
        "ACC_LINK": "https://safetydata.fra.dot.gov/OfficeofSafety/PublicSite/Crossing/Crossing.aspx?phasetype=C&rpttype=A&txtcrossingnum=793693M",
        "TTSTNNAM": "699610",
        "XPURPOSE": "1",
        "OPERATINGR": "CPKC",
        "OPERATIN_1": "Primary",
        "DAYTHRU": 7,
        "NGHTTHRU": 7,
        "MAINTRK": 1,
        "SIDINGTRK": 1,
        "YARDTRK": 0,
        "TRANSITTRK": 0,
        "INDUSTRYTR": 0,
        "OTHRTRK": 1,
        "WDCODE": "All other Gates",
        "REVISIONDA": "1975/01/01 00:00:00",
        "LASTUPDATE": "2/26/2026",
        "AADT": "136",
        "AADTYEAR": "2024",
        "STATENAME": "TEXAS",
        "STATEAB": "TX",
        "COUNTYNAME": "JIM HOGG",
        "CITYNAME": "HEBBRONVILLE",
        "LATDD": 27.3048181,
        "LONGDD": -98.6632,
        "gridlyProductionCertified": true,
        "gridlyClassification": "PUBLIC_ROADWAY",
        "gridlyDisplayName": "S VAELLO AVENUE",
        "gridlyId": "FRA-793693M"
      }
    },
    {
      "type": "Feature",
      "id": 202959,
      "geometry": {
        "type": "Point",
        "coordinates": [
          -98.6727700003432,
          27.305339000263
        ]
      },
      "properties": {
        "OBJECTID": 202959,
        "CROSSING": "793694U",
        "EFFDATE": 1772064000000,
        "REASON": "14",
        "StateCode": "48",
        "CountyCode": "48247",
        "STCYFIPS": "48247",
        "CITYCD": "482473080",
        "RAILROAD": "TM",
        "RRDIV": "Border",
        "RRSUBDIV": "Laredo",
        "HIGHWAY": "LS0000",
        "STREET": "PINE STREET",
        "TTSTN": "699610",
        "MILEPOST": "0062.200",
        "TYPEXING": "Public",
        "POSXING": "At Grade",
        "PRVCAT": "14",
        "INIT": "1",
        "LATITUDE": 27.305339,
        "LONGITUD": -98.67277,
        "LLSOURCE": "1",
        "WHISTBAN": "0",
        "RRCONT": "3186766269",
        "POLCONT": "8775279464",
        "INV_LINK": "https://safetydata.fra.dot.gov/OfficeofSafety/PublicSite/Crossing/Crossing.aspx?phasetype=C&rpttype=I&txtcrossingnum=793694U",
        "ACC_LINK": "https://safetydata.fra.dot.gov/OfficeofSafety/PublicSite/Crossing/Crossing.aspx?phasetype=C&rpttype=A&txtcrossingnum=793694U",
        "TTSTNNAM": "699610",
        "XPURPOSE": "1",
        "OPERATINGR": "CPKC",
        "OPERATIN_1": "Primary",
        "DAYTHRU": 7,
        "NGHTTHRU": 7,
        "MAINTRK": 1,
        "SIDINGTRK": 0,
        "YARDTRK": 0,
        "TRANSITTRK": 0,
        "INDUSTRYTR": 0,
        "OTHRTRK": 1,
        "WDCODE": "All other Gates",
        "REVISIONDA": "1975/01/01 00:00:00",
        "LASTUPDATE": "2/26/2026",
        "AADT": "89",
        "AADTYEAR": "2024",
        "STATENAME": "TEXAS",
        "STATEAB": "TX",
        "COUNTYNAME": "JIM HOGG",
        "CITYNAME": "HEBBRONVILLE",
        "LATDD": 27.305339,
        "LONGDD": -98.67277,
        "gridlyProductionCertified": true,
        "gridlyClassification": "PUBLIC_ROADWAY",
        "gridlyDisplayName": "PINE STREET",
        "gridlyId": "FRA-793694U"
      }
    },
    {
      "type": "Feature",
      "id": 203070,
      "geometry": {
        "type": "Point",
        "coordinates": [
          -98.681812000022,
          27.3074169998253
        ]
      },
      "properties": {
        "OBJECTID": 203070,
        "CROSSING": "793699D",
        "EFFDATE": 1772064000000,
        "REASON": "14",
        "StateCode": "48",
        "CountyCode": "48247",
        "STCYFIPS": "48247",
        "CITYCD": "482473080",
        "RAILROAD": "TM",
        "RRDIV": "Border",
        "RRSUBDIV": "Laredo",
        "HIGHWAY": "LS0000",
        "STREET": "N0RTH RIGMA STREET",
        "TTSTN": "699610",
        "MILEPOST": "0061.600",
        "TYPEXING": "Public",
        "POSXING": "At Grade",
        "PRVCAT": "14",
        "INIT": "1",
        "LATITUDE": 27.307417,
        "LONGITUD": -98.681812,
        "LLSOURCE": "1",
        "WHISTBAN": "0",
        "RRCONT": "3186766269",
        "POLCONT": "8775279464",
        "INV_LINK": "https://safetydata.fra.dot.gov/OfficeofSafety/PublicSite/Crossing/Crossing.aspx?phasetype=C&rpttype=I&txtcrossingnum=793699D",
        "ACC_LINK": "https://safetydata.fra.dot.gov/OfficeofSafety/PublicSite/Crossing/Crossing.aspx?phasetype=C&rpttype=A&txtcrossingnum=793699D",
        "TTSTNNAM": "699610",
        "XPURPOSE": "1",
        "OPERATINGR": "CPKC",
        "OPERATIN_1": "Primary",
        "DAYTHRU": 7,
        "NGHTTHRU": 7,
        "MAINTRK": 1,
        "SIDINGTRK": 0,
        "YARDTRK": 0,
        "TRANSITTRK": 0,
        "INDUSTRYTR": 0,
        "OTHRTRK": 0,
        "WDCODE": "All other Gates",
        "REVISIONDA": "1975/01/01 00:00:00",
        "LASTUPDATE": "2/26/2026",
        "AADT": "686",
        "AADTYEAR": "2024",
        "STATENAME": "TEXAS",
        "STATEAB": "TX",
        "COUNTYNAME": "JIM HOGG",
        "CITYNAME": "HEBBRONVILLE",
        "LATDD": 27.307417,
        "LONGDD": -98.681812,
        "gridlyProductionCertified": true,
        "gridlyClassification": "PUBLIC_ROADWAY",
        "gridlyDisplayName": "N0RTH RIGMA STREET",
        "gridlyId": "FRA-793699D"
      }
    },
    {
      "type": "Feature",
      "id": 203810,
      "geometry": {
        "type": "Point",
        "coordinates": [
          -98.6750170003808,
          27.3054660999699
        ]
      },
      "properties": {
        "OBJECTID": 203810,
        "CROSSING": "793695B",
        "EFFDATE": 1772064000000,
        "REASON": "14",
        "StateCode": "48",
        "CountyCode": "48247",
        "STCYFIPS": "48247",
        "CITYCD": "482473080",
        "RAILROAD": "TM",
        "RRDIV": "Border",
        "RRSUBDIV": "Laredo",
        "HIGHWAY": "LS0000",
        "STREET": "SOUTH CEDAR STREET",
        "TTSTN": "699610",
        "MILEPOST": "0062.100",
        "TYPEXING": "Public",
        "POSXING": "At Grade",
        "PRVCAT": "14",
        "INIT": "1",
        "LATITUDE": 27.3054661,
        "LONGITUD": -98.675017,
        "LLSOURCE": "1",
        "WHISTBAN": "0",
        "RRCONT": "3186766269",
        "POLCONT": "8775279464",
        "INV_LINK": "https://safetydata.fra.dot.gov/OfficeofSafety/PublicSite/Crossing/Crossing.aspx?phasetype=C&rpttype=I&txtcrossingnum=793695B",
        "ACC_LINK": "https://safetydata.fra.dot.gov/OfficeofSafety/PublicSite/Crossing/Crossing.aspx?phasetype=C&rpttype=A&txtcrossingnum=793695B",
        "TTSTNNAM": "699610",
        "XPURPOSE": "1",
        "OPERATINGR": "CPKC",
        "OPERATIN_1": "Primary",
        "DAYTHRU": 7,
        "NGHTTHRU": 7,
        "MAINTRK": 1,
        "SIDINGTRK": 0,
        "YARDTRK": 0,
        "TRANSITTRK": 0,
        "INDUSTRYTR": 0,
        "OTHRTRK": 2,
        "WDCODE": "All other Gates",
        "REVISIONDA": "1975/01/01 00:00:00",
        "LASTUPDATE": "2/26/2026",
        "AADT": "125",
        "AADTYEAR": "2024",
        "STATENAME": "TEXAS",
        "STATEAB": "TX",
        "COUNTYNAME": "JIM HOGG",
        "CITYNAME": "HEBBRONVILLE",
        "LATDD": 27.3054661,
        "LONGDD": -98.675017,
        "gridlyProductionCertified": true,
        "gridlyClassification": "PUBLIC_ROADWAY",
        "gridlyDisplayName": "SOUTH CEDAR STREET",
        "gridlyId": "FRA-793695B"
      }
    },
    {
      "type": "Feature",
      "id": 203902,
      "geometry": {
        "type": "Point",
        "coordinates": [
          -98.6981110001977,
          27.3152410001597
        ]
      },
      "properties": {
        "OBJECTID": 203902,
        "CROSSING": "969648J",
        "EFFDATE": 1772064000000,
        "REASON": "14",
        "StateCode": "48",
        "CountyCode": "48247",
        "STCYFIPS": "48247",
        "CITYCD": "482473080",
        "RAILROAD": "TM",
        "RRDIV": "Border",
        "RRSUBDIV": "Laredo",
        "HIGHWAY": "NA",
        "STREET": "Private",
        "TTSTN": "",
        "MILEPOST": "0060.500",
        "TYPEXING": "Private",
        "POSXING": "At Grade",
        "PRVCAT": "14",
        "INIT": "1",
        "LATITUDE": 27.315241,
        "LONGITUD": -98.698111,
        "LLSOURCE": "1",
        "WHISTBAN": "",
        "RRCONT": "3186766269",
        "POLCONT": "8775279464",
        "INV_LINK": "https://safetydata.fra.dot.gov/OfficeofSafety/PublicSite/Crossing/Crossing.aspx?phasetype=C&rpttype=I&txtcrossingnum=969648J",
        "ACC_LINK": "https://safetydata.fra.dot.gov/OfficeofSafety/PublicSite/Crossing/Crossing.aspx?phasetype=C&rpttype=A&txtcrossingnum=969648J",
        "TTSTNNAM": "",
        "XPURPOSE": "1",
        "OPERATINGR": "CPKC",
        "OPERATIN_1": "Primary",
        "DAYTHRU": 7,
        "NGHTTHRU": 7,
        "MAINTRK": 1,
        "SIDINGTRK": 0,
        "YARDTRK": 0,
        "TRANSITTRK": 0,
        "INDUSTRYTR": 0,
        "OTHRTRK": 0,
        "WDCODE": "",
        "REVISIONDA": "1975/01/01 00:00:00",
        "LASTUPDATE": "2/26/2026",
        "AADT": "",
        "AADTYEAR": "",
        "STATENAME": "TEXAS",
        "STATEAB": "TX",
        "COUNTYNAME": "JIM HOGG",
        "CITYNAME": "HEBBRONVILLE",
        "LATDD": 27.315241,
        "LONGDD": -98.698111,
        "gridlyProductionCertified": true,
        "gridlyClassification": "PUBLIC_ROADWAY",
        "gridlyDisplayName": "Private",
        "gridlyId": "FRA-969648J"
      }
    },
    {
      "type": "Feature",
      "id": 204304,
      "geometry": {
        "type": "Point",
        "coordinates": [
          -98.67155799965,
          27.3055969998481
        ]
      },
      "properties": {
        "OBJECTID": 204304,
        "CROSSING": "793700V",
        "EFFDATE": 1772064000000,
        "REASON": "24",
        "StateCode": "48",
        "CountyCode": "48247",
        "STCYFIPS": "48247",
        "CITYCD": "482473080",
        "RAILROAD": "TM",
        "RRDIV": "Border",
        "RRSUBDIV": "Laredo",
        "HIGHWAY": "PRIVATE",
        "STREET": "MESQUITE AVENUE",
        "TTSTN": "699610",
        "MILEPOST": "0062.490",
        "TYPEXING": "Public",
        "POSXING": "At Grade",
        "PRVCAT": "24",
        "INIT": "1",
        "LATITUDE": 27.305597,
        "LONGITUD": -98.671558,
        "LLSOURCE": "1",
        "WHISTBAN": "0",
        "RRCONT": "3186766269",
        "POLCONT": "8775279464",
        "INV_LINK": "https://safetydata.fra.dot.gov/OfficeofSafety/PublicSite/Crossing/Crossing.aspx?phasetype=C&rpttype=I&txtcrossingnum=793700V",
        "ACC_LINK": "https://safetydata.fra.dot.gov/OfficeofSafety/PublicSite/Crossing/Crossing.aspx?phasetype=C&rpttype=A&txtcrossingnum=793700V",
        "TTSTNNAM": "699610",
        "XPURPOSE": "1",
        "OPERATINGR": "CPKC",
        "OPERATIN_1": "Primary",
        "DAYTHRU": 0,
        "NGHTTHRU": 0,
        "MAINTRK": 0,
        "SIDINGTRK": 0,
        "YARDTRK": 0,
        "TRANSITTRK": 0,
        "INDUSTRYTR": 1,
        "OTHRTRK": 1,
        "WDCODE": "Crossbucks",
        "REVISIONDA": "1975/01/01 00:00:00",
        "LASTUPDATE": "2/26/2026",
        "AADT": "50",
        "AADTYEAR": "1983",
        "STATENAME": "TEXAS",
        "STATEAB": "TX",
        "COUNTYNAME": "JIM HOGG",
        "CITYNAME": "HEBBRONVILLE",
        "LATDD": 27.305597,
        "LONGDD": -98.671558,
        "gridlyProductionCertified": true,
        "gridlyClassification": "PUBLIC_ROADWAY",
        "gridlyDisplayName": "MESQUITE AVENUE",
        "gridlyId": "FRA-793700V"
      }
    },
    {
      "type": "Feature",
      "id": 205356,
      "geometry": {
        "type": "Point",
        "coordinates": [
          -98.6925819998797,
          27.3124391000737
        ]
      },
      "properties": {
        "OBJECTID": 205356,
        "CROSSING": "923779H",
        "EFFDATE": 1772064000000,
        "REASON": "14",
        "StateCode": "48",
        "CountyCode": "48247",
        "STCYFIPS": "48247",
        "CITYCD": "482473080",
        "RAILROAD": "TM",
        "RRDIV": "Border",
        "RRSUBDIV": "Laredo",
        "HIGHWAY": "LS0000",
        "STREET": "NORTH Sigrid Street",
        "TTSTN": "",
        "MILEPOST": "0060.900",
        "TYPEXING": "Public",
        "POSXING": "At Grade",
        "PRVCAT": "14",
        "INIT": "1",
        "LATITUDE": 27.3124391,
        "LONGITUD": -98.692582,
        "LLSOURCE": "1",
        "WHISTBAN": "0",
        "RRCONT": "3186766269",
        "POLCONT": "8775279464",
        "INV_LINK": "https://safetydata.fra.dot.gov/OfficeofSafety/PublicSite/Crossing/Crossing.aspx?phasetype=C&rpttype=I&txtcrossingnum=923779H",
        "ACC_LINK": "https://safetydata.fra.dot.gov/OfficeofSafety/PublicSite/Crossing/Crossing.aspx?phasetype=C&rpttype=A&txtcrossingnum=923779H",
        "TTSTNNAM": "",
        "XPURPOSE": "1",
        "OPERATINGR": "CPKC",
        "OPERATIN_1": "Primary",
        "DAYTHRU": 7,
        "NGHTTHRU": 7,
        "MAINTRK": 1,
        "SIDINGTRK": 0,
        "YARDTRK": 0,
        "TRANSITTRK": 0,
        "INDUSTRYTR": 0,
        "OTHRTRK": 0,
        "WDCODE": "All other Gates",
        "REVISIONDA": "1975/01/01 00:00:00",
        "LASTUPDATE": "2/26/2026",
        "AADT": "504",
        "AADTYEAR": "2024",
        "STATENAME": "TEXAS",
        "STATEAB": "TX",
        "COUNTYNAME": "JIM HOGG",
        "CITYNAME": "HEBBRONVILLE",
        "LATDD": 27.3124391,
        "LONGDD": -98.692582,
        "gridlyProductionCertified": true,
        "gridlyClassification": "PUBLIC_ROADWAY",
        "gridlyDisplayName": "NORTH Sigrid Street",
        "gridlyId": "FRA-923779H"
      }
    },
    {
      "type": "Feature",
      "id": 205512,
      "geometry": {
        "type": "Point",
        "coordinates": [
          -98.6738800000307,
          27.3056489997599
        ]
      },
      "properties": {
        "OBJECTID": 205512,
        "CROSSING": "969769G",
        "EFFDATE": 1772409600000,
        "REASON": "24",
        "StateCode": "48",
        "CountyCode": "48247",
        "STCYFIPS": "48247",
        "CITYCD": "482473080",
        "RAILROAD": "TM",
        "RRDIV": "Border",
        "RRSUBDIV": "laredo",
        "HIGHWAY": "Private",
        "STREET": "KCS Xings",
        "TTSTN": "",
        "MILEPOST": "0062.490",
        "TYPEXING": "Private",
        "POSXING": "At Grade",
        "PRVCAT": "24",
        "INIT": "1",
        "LATITUDE": 27.305649,
        "LONGITUD": -98.67388,
        "LLSOURCE": "1",
        "WHISTBAN": "",
        "RRCONT": "3186766269",
        "POLCONT": "8775279464",
        "INV_LINK": "https://safetydata.fra.dot.gov/OfficeofSafety/PublicSite/Crossing/Crossing.aspx?phasetype=C&rpttype=I&txtcrossingnum=969769G",
        "ACC_LINK": "https://safetydata.fra.dot.gov/OfficeofSafety/PublicSite/Crossing/Crossing.aspx?phasetype=C&rpttype=A&txtcrossingnum=969769G",
        "TTSTNNAM": "hebbronville",
        "XPURPOSE": "1",
        "OPERATINGR": "CPKC",
        "OPERATIN_1": "Primary",
        "DAYTHRU": 0,
        "NGHTTHRU": 0,
        "MAINTRK": 0,
        "SIDINGTRK": 0,
        "YARDTRK": 0,
        "TRANSITTRK": 0,
        "INDUSTRYTR": 1,
        "OTHRTRK": 0,
        "WDCODE": "",
        "REVISIONDA": "1975/01/01 00:00:00",
        "LASTUPDATE": "3/2/2026",
        "AADT": "",
        "AADTYEAR": "",
        "STATENAME": "TEXAS",
        "STATEAB": "TX",
        "COUNTYNAME": "JIM HOGG",
        "CITYNAME": "HEBBRONVILLE",
        "LATDD": 27.305649,
        "LONGDD": -98.67388,
        "gridlyProductionCertified": true,
        "gridlyClassification": "PUBLIC_ROADWAY",
        "gridlyDisplayName": "KCS Xings",
        "gridlyId": "FRA-969769G"
      }
    },
    {
      "type": "Feature",
      "id": 206738,
      "geometry": {
        "type": "Point",
        "coordinates": [
          -98.6516340996735,
          27.3041620002054
        ]
      },
      "properties": {
        "OBJECTID": 206738,
        "CROSSING": "793703R",
        "EFFDATE": 1772409600000,
        "REASON": "14",
        "StateCode": "48",
        "CountyCode": "48247",
        "STCYFIPS": "48247",
        "CITYCD": "482473080",
        "RAILROAD": "TM",
        "RRDIV": "Border",
        "RRSUBDIV": "Laredo",
        "HIGHWAY": "NA",
        "STREET": "PRIVATE ROAD",
        "TTSTN": "699610",
        "MILEPOST": "0063.500",
        "TYPEXING": "Private",
        "POSXING": "At Grade",
        "PRVCAT": "14",
        "INIT": "1",
        "LATITUDE": 27.304162,
        "LONGITUD": -98.6516341,
        "LLSOURCE": "1",
        "WHISTBAN": "0",
        "RRCONT": "3186766269",
        "POLCONT": "8775279464",
        "INV_LINK": "https://safetydata.fra.dot.gov/OfficeofSafety/PublicSite/Crossing/Crossing.aspx?phasetype=C&rpttype=I&txtcrossingnum=793703R",
        "ACC_LINK": "https://safetydata.fra.dot.gov/OfficeofSafety/PublicSite/Crossing/Crossing.aspx?phasetype=C&rpttype=A&txtcrossingnum=793703R",
        "TTSTNNAM": "699610",
        "XPURPOSE": "1",
        "OPERATINGR": "CPKC",
        "OPERATIN_1": "Primary",
        "DAYTHRU": 7,
        "NGHTTHRU": 7,
        "MAINTRK": 1,
        "SIDINGTRK": 1,
        "YARDTRK": 0,
        "TRANSITTRK": 0,
        "INDUSTRYTR": 0,
        "OTHRTRK": 0,
        "WDCODE": "",
        "REVISIONDA": "1975/01/01 00:00:00",
        "LASTUPDATE": "3/2/2026",
        "AADT": "1",
        "AADTYEAR": "1970",
        "STATENAME": "TEXAS",
        "STATEAB": "TX",
        "COUNTYNAME": "JIM HOGG",
        "CITYNAME": "HEBBRONVILLE",
        "LATDD": 27.304162,
        "LONGDD": -98.6516341,
        "gridlyProductionCertified": true,
        "gridlyClassification": "PUBLIC_ROADWAY",
        "gridlyDisplayName": "PRIVATE ROAD",
        "gridlyId": "FRA-793703R"
      }
    },
    {
      "type": "Feature",
      "id": 206964,
      "geometry": {
        "type": "Point",
        "coordinates": [
          -98.6850509997464,
          27.3089289999115
        ]
      },
      "properties": {
        "OBJECTID": 206964,
        "CROSSING": "793698W",
        "EFFDATE": 1773705600000,
        "REASON": "14",
        "StateCode": "48",
        "CountyCode": "48247",
        "STCYFIPS": "48247",
        "CITYCD": "482473080",
        "RAILROAD": "TM",
        "RRDIV": "Border",
        "RRSUBDIV": "Laredo",
        "HIGHWAY": "LS0000",
        "STREET": "NORTH OSCAR STREET",
        "TTSTN": "699610",
        "MILEPOST": "0061.400",
        "TYPEXING": "Public",
        "POSXING": "At Grade",
        "PRVCAT": "14",
        "INIT": "1",
        "LATITUDE": 27.308929,
        "LONGITUD": -98.685051,
        "LLSOURCE": "1",
        "WHISTBAN": "0",
        "RRCONT": "3186766269",
        "POLCONT": "8775279464",
        "INV_LINK": "https://safetydata.fra.dot.gov/OfficeofSafety/PublicSite/Crossing/Crossing.aspx?phasetype=C&rpttype=I&txtcrossingnum=793698W",
        "ACC_LINK": "https://safetydata.fra.dot.gov/OfficeofSafety/PublicSite/Crossing/Crossing.aspx?phasetype=C&rpttype=A&txtcrossingnum=793698W",
        "TTSTNNAM": "699610",
        "XPURPOSE": "1",
        "OPERATINGR": "CPKC",
        "OPERATIN_1": "Primary",
        "DAYTHRU": 7,
        "NGHTTHRU": 7,
        "MAINTRK": 1,
        "SIDINGTRK": 0,
        "YARDTRK": 0,
        "TRANSITTRK": 0,
        "INDUSTRYTR": 0,
        "OTHRTRK": 0,
        "WDCODE": "All other Gates",
        "REVISIONDA": "1975/01/01 00:00:00",
        "LASTUPDATE": "3/17/2026",
        "AADT": "398",
        "AADTYEAR": "2024",
        "STATENAME": "TEXAS",
        "STATEAB": "TX",
        "COUNTYNAME": "JIM HOGG",
        "CITYNAME": "HEBBRONVILLE",
        "LATDD": 27.308929,
        "LONGDD": -98.685051,
        "gridlyProductionCertified": true,
        "gridlyClassification": "PUBLIC_ROADWAY",
        "gridlyDisplayName": "NORTH OSCAR STREET",
        "gridlyId": "FRA-793698W"
      }
    },
    {
      "type": "Feature",
      "id": 211092,
      "geometry": {
        "type": "Point",
        "coordinates": [
          -98.6325620002157,
          27.307368000398
        ]
      },
      "properties": {
        "OBJECTID": 211092,
        "CROSSING": "969649R",
        "EFFDATE": 1772064000000,
        "REASON": "14",
        "StateCode": "48",
        "CountyCode": "48247",
        "STCYFIPS": "48247",
        "CITYCD": "482473080",
        "RAILROAD": "TM",
        "RRDIV": "Border",
        "RRSUBDIV": "Laredo",
        "HIGHWAY": "NA",
        "STREET": "Private",
        "TTSTN": "",
        "MILEPOST": "0064.700",
        "TYPEXING": "Private",
        "POSXING": "At Grade",
        "PRVCAT": "14",
        "INIT": "1",
        "LATITUDE": 27.307368,
        "LONGITUD": -98.632562,
        "LLSOURCE": "1",
        "WHISTBAN": "",
        "RRCONT": "3186766269",
        "POLCONT": "8775279464",
        "INV_LINK": "https://safetydata.fra.dot.gov/OfficeofSafety/PublicSite/Crossing/Crossing.aspx?phasetype=C&rpttype=I&txtcrossingnum=969649R",
        "ACC_LINK": "https://safetydata.fra.dot.gov/OfficeofSafety/PublicSite/Crossing/Crossing.aspx?phasetype=C&rpttype=A&txtcrossingnum=969649R",
        "TTSTNNAM": "",
        "XPURPOSE": "1",
        "OPERATINGR": "CPKC",
        "OPERATIN_1": "Primary",
        "DAYTHRU": 7,
        "NGHTTHRU": 7,
        "MAINTRK": 1,
        "SIDINGTRK": 0,
        "YARDTRK": 0,
        "TRANSITTRK": 0,
        "INDUSTRYTR": 0,
        "OTHRTRK": 0,
        "WDCODE": "",
        "REVISIONDA": "1975/01/01 00:00:00",
        "LASTUPDATE": "2/26/2026",
        "AADT": "",
        "AADTYEAR": "",
        "STATENAME": "TEXAS",
        "STATEAB": "TX",
        "COUNTYNAME": "JIM HOGG",
        "CITYNAME": "HEBBRONVILLE",
        "LATDD": 27.307368,
        "LONGDD": -98.632562,
        "gridlyProductionCertified": true,
        "gridlyClassification": "PUBLIC_ROADWAY",
        "gridlyDisplayName": "Private",
        "gridlyId": "FRA-969649R"
      }
    },
    {
      "type": "Feature",
      "id": 211609,
      "geometry": {
        "type": "Point",
        "coordinates": [
          -98.7067770001329,
          27.3198990002171
        ]
      },
      "properties": {
        "OBJECTID": 211609,
        "CROSSING": "793640N",
        "EFFDATE": 1772064000000,
        "REASON": "14",
        "StateCode": "48",
        "CountyCode": "48247",
        "STCYFIPS": "48247",
        "CITYCD": "482473080",
        "RAILROAD": "TM",
        "RRDIV": "Border",
        "RRSUBDIV": "Laredo",
        "HIGHWAY": "NA",
        "STREET": "PRIVATE ROAD",
        "TTSTN": "699610",
        "MILEPOST": "0059.900",
        "TYPEXING": "Private",
        "POSXING": "At Grade",
        "PRVCAT": "14",
        "INIT": "1",
        "LATITUDE": 27.319899,
        "LONGITUD": -98.706777,
        "LLSOURCE": "1",
        "WHISTBAN": "0",
        "RRCONT": "3186766269",
        "POLCONT": "8775279464",
        "INV_LINK": "https://safetydata.fra.dot.gov/OfficeofSafety/PublicSite/Crossing/Crossing.aspx?phasetype=C&rpttype=I&txtcrossingnum=793640N",
        "ACC_LINK": "https://safetydata.fra.dot.gov/OfficeofSafety/PublicSite/Crossing/Crossing.aspx?phasetype=C&rpttype=A&txtcrossingnum=793640N",
        "TTSTNNAM": "699610",
        "XPURPOSE": "1",
        "OPERATINGR": "CPKC",
        "OPERATIN_1": "Primary",
        "DAYTHRU": 7,
        "NGHTTHRU": 7,
        "MAINTRK": 1,
        "SIDINGTRK": 0,
        "YARDTRK": 0,
        "TRANSITTRK": 0,
        "INDUSTRYTR": 0,
        "OTHRTRK": 0,
        "WDCODE": "",
        "REVISIONDA": "1975/01/01 00:00:00",
        "LASTUPDATE": "2/26/2026",
        "AADT": "1",
        "AADTYEAR": "1970",
        "STATENAME": "TEXAS",
        "STATEAB": "TX",
        "COUNTYNAME": "JIM HOGG",
        "CITYNAME": "HEBBRONVILLE",
        "LATDD": 27.319899,
        "LONGDD": -98.706777,
        "gridlyProductionCertified": true,
        "gridlyClassification": "PUBLIC_ROADWAY",
        "gridlyDisplayName": "PRIVATE ROAD",
        "gridlyId": "FRA-793640N"
      }
    },
    {
      "type": "Feature",
      "id": 211621,
      "geometry": {
        "type": "Point",
        "coordinates": [
          -98.6127330000625,
          27.3261439999949
        ]
      },
      "properties": {
        "OBJECTID": 211621,
        "CROSSING": "793704X",
        "EFFDATE": 1772409600000,
        "REASON": "14",
        "StateCode": "48",
        "CountyCode": "48247",
        "STCYFIPS": "48247",
        "CITYCD": "482473080",
        "RAILROAD": "TM",
        "RRDIV": "Border",
        "RRSUBDIV": "Laredo",
        "HIGHWAY": "NA",
        "STREET": "PRIVATE ROAD",
        "TTSTN": "699610",
        "MILEPOST": "0066.600",
        "TYPEXING": "Private",
        "POSXING": "At Grade",
        "PRVCAT": "14",
        "INIT": "1",
        "LATITUDE": 27.326144,
        "LONGITUD": -98.612733,
        "LLSOURCE": "1",
        "WHISTBAN": "0",
        "RRCONT": "3186766269",
        "POLCONT": "8775279464",
        "INV_LINK": "https://safetydata.fra.dot.gov/OfficeofSafety/PublicSite/Crossing/Crossing.aspx?phasetype=C&rpttype=I&txtcrossingnum=793704X",
        "ACC_LINK": "https://safetydata.fra.dot.gov/OfficeofSafety/PublicSite/Crossing/Crossing.aspx?phasetype=C&rpttype=A&txtcrossingnum=793704X",
        "TTSTNNAM": "699610",
        "XPURPOSE": "1",
        "OPERATINGR": "CPKC",
        "OPERATIN_1": "Primary",
        "DAYTHRU": 7,
        "NGHTTHRU": 7,
        "MAINTRK": 1,
        "SIDINGTRK": 0,
        "YARDTRK": 0,
        "TRANSITTRK": 0,
        "INDUSTRYTR": 0,
        "OTHRTRK": 0,
        "WDCODE": "",
        "REVISIONDA": "1975/01/01 00:00:00",
        "LASTUPDATE": "3/2/2026",
        "AADT": "1",
        "AADTYEAR": "1970",
        "STATENAME": "TEXAS",
        "STATEAB": "TX",
        "COUNTYNAME": "JIM HOGG",
        "CITYNAME": "HEBBRONVILLE",
        "LATDD": 27.326144,
        "LONGDD": -98.612733,
        "gridlyProductionCertified": true,
        "gridlyClassification": "PUBLIC_ROADWAY",
        "gridlyDisplayName": "PRIVATE ROAD",
        "gridlyId": "FRA-793704X"
      }
    },
    {
      "type": "Feature",
      "id": 212038,
      "geometry": {
        "type": "Point",
        "coordinates": [
          -98.6785349997644,
          27.3059679998678
        ]
      },
      "properties": {
        "OBJECTID": 212038,
        "CROSSING": "793696H",
        "EFFDATE": 1772064000000,
        "REASON": "14",
        "StateCode": "48",
        "CountyCode": "48247",
        "STCYFIPS": "48247",
        "CITYCD": "482473080",
        "RAILROAD": "TM",
        "RRDIV": "Border",
        "RRSUBDIV": "Laredo",
        "HIGHWAY": "SH0016",
        "STREET": "SH0016 / SMITH AVENUE",
        "TTSTN": "699610",
        "MILEPOST": "0061.900",
        "TYPEXING": "Public",
        "POSXING": "At Grade",
        "PRVCAT": "14",
        "INIT": "1",
        "LATITUDE": 27.305968,
        "LONGITUD": -98.678535,
        "LLSOURCE": "1",
        "WHISTBAN": "0",
        "RRCONT": "3186766269",
        "POLCONT": "8775279464",
        "INV_LINK": "https://safetydata.fra.dot.gov/OfficeofSafety/PublicSite/Crossing/Crossing.aspx?phasetype=C&rpttype=I&txtcrossingnum=793696H",
        "ACC_LINK": "https://safetydata.fra.dot.gov/OfficeofSafety/PublicSite/Crossing/Crossing.aspx?phasetype=C&rpttype=A&txtcrossingnum=793696H",
        "TTSTNNAM": "699610",
        "XPURPOSE": "1",
        "OPERATINGR": "CPKC",
        "OPERATIN_1": "Primary",
        "DAYTHRU": 7,
        "NGHTTHRU": 7,
        "MAINTRK": 1,
        "SIDINGTRK": 0,
        "YARDTRK": 0,
        "TRANSITTRK": 0,
        "INDUSTRYTR": 0,
        "OTHRTRK": 0,
        "WDCODE": "All other Gates",
        "REVISIONDA": "1975/01/01 00:00:00",
        "LASTUPDATE": "2/26/2026",
        "AADT": "11206",
        "AADTYEAR": "2020",
        "STATENAME": "TEXAS",
        "STATEAB": "TX",
        "COUNTYNAME": "JIM HOGG",
        "CITYNAME": "HEBBRONVILLE",
        "LATDD": 27.305968,
        "LONGDD": -98.678535,
        "gridlyProductionCertified": true,
        "gridlyClassification": "PUBLIC_ROADWAY",
        "gridlyDisplayName": "SH0016 / SMITH AVENUE",
        "gridlyId": "FRA-793696H"
      }
    },
    {
      "type": "Feature",
      "id": 212051,
      "geometry": {
        "type": "Point",
        "coordinates": [
          -98.7586770003829,
          27.3432010002682
        ]
      },
      "properties": {
        "OBJECTID": 212051,
        "CROSSING": "793639U",
        "EFFDATE": 1772064000000,
        "REASON": "14",
        "StateCode": "48",
        "CountyCode": "48247",
        "STCYFIPS": "48247",
        "CITYCD": "482473080",
        "RAILROAD": "TM",
        "RRDIV": "Border",
        "RRSUBDIV": "Laredo",
        "HIGHWAY": "NA",
        "STREET": "Private",
        "TTSTN": "699610",
        "MILEPOST": "0056.350",
        "TYPEXING": "Private",
        "POSXING": "At Grade",
        "PRVCAT": "14",
        "INIT": "1",
        "LATITUDE": 27.343201,
        "LONGITUD": -98.758677,
        "LLSOURCE": "1",
        "WHISTBAN": "0",
        "RRCONT": "3186766269",
        "POLCONT": "8775279464",
        "INV_LINK": "https://safetydata.fra.dot.gov/OfficeofSafety/PublicSite/Crossing/Crossing.aspx?phasetype=C&rpttype=I&txtcrossingnum=793639U",
        "ACC_LINK": "https://safetydata.fra.dot.gov/OfficeofSafety/PublicSite/Crossing/Crossing.aspx?phasetype=C&rpttype=A&txtcrossingnum=793639U",
        "TTSTNNAM": "699610",
        "XPURPOSE": "1",
        "OPERATINGR": "CPKC",
        "OPERATIN_1": "Primary",
        "DAYTHRU": 7,
        "NGHTTHRU": 7,
        "MAINTRK": 1,
        "SIDINGTRK": 0,
        "YARDTRK": 0,
        "TRANSITTRK": 0,
        "INDUSTRYTR": 0,
        "OTHRTRK": 0,
        "WDCODE": "",
        "REVISIONDA": "1975/01/01 00:00:00",
        "LASTUPDATE": "2/26/2026",
        "AADT": "1",
        "AADTYEAR": "1970",
        "STATENAME": "TEXAS",
        "STATEAB": "TX",
        "COUNTYNAME": "JIM HOGG",
        "CITYNAME": "HEBBRONVILLE",
        "LATDD": 27.343201,
        "LONGDD": -98.758677,
        "gridlyProductionCertified": true,
        "gridlyClassification": "PUBLIC_ROADWAY",
        "gridlyDisplayName": "Private",
        "gridlyId": "FRA-793639U"
      }
    },
    {
      "type": "Feature",
      "id": 215955,
      "geometry": {
        "type": "Point",
        "coordinates": [
          -98.6192959999001,
          27.3160469998321
        ]
      },
      "properties": {
        "OBJECTID": 215955,
        "CROSSING": "793702J",
        "EFFDATE": 1772064000000,
        "REASON": "14",
        "StateCode": "48",
        "CountyCode": "48247",
        "STCYFIPS": "48247",
        "CITYCD": "482473080",
        "RAILROAD": "TM",
        "RRDIV": "Border",
        "RRSUBDIV": "Laredo",
        "HIGHWAY": "NA",
        "STREET": "PRIVATE ROAD",
        "TTSTN": "699610",
        "MILEPOST": "0065.800",
        "TYPEXING": "Private",
        "POSXING": "At Grade",
        "PRVCAT": "14",
        "INIT": "1",
        "LATITUDE": 27.316047,
        "LONGITUD": -98.619296,
        "LLSOURCE": "1",
        "WHISTBAN": "0",
        "RRCONT": "3186766269",
        "POLCONT": "8775279464",
        "INV_LINK": "https://safetydata.fra.dot.gov/OfficeofSafety/PublicSite/Crossing/Crossing.aspx?phasetype=C&rpttype=I&txtcrossingnum=793702J",
        "ACC_LINK": "https://safetydata.fra.dot.gov/OfficeofSafety/PublicSite/Crossing/Crossing.aspx?phasetype=C&rpttype=A&txtcrossingnum=793702J",
        "TTSTNNAM": "699610",
        "XPURPOSE": "1",
        "OPERATINGR": "CPKC",
        "OPERATIN_1": "Primary",
        "DAYTHRU": 7,
        "NGHTTHRU": 7,
        "MAINTRK": 1,
        "SIDINGTRK": 0,
        "YARDTRK": 0,
        "TRANSITTRK": 0,
        "INDUSTRYTR": 0,
        "OTHRTRK": 0,
        "WDCODE": "",
        "REVISIONDA": "1975/01/01 00:00:00",
        "LASTUPDATE": "2/26/2026",
        "AADT": "1",
        "AADTYEAR": "1970",
        "STATENAME": "TEXAS",
        "STATEAB": "TX",
        "COUNTYNAME": "JIM HOGG",
        "CITYNAME": "HEBBRONVILLE",
        "LATDD": 27.316047,
        "LONGDD": -98.619296,
        "gridlyProductionCertified": true,
        "gridlyClassification": "PUBLIC_ROADWAY",
        "gridlyDisplayName": "PRIVATE ROAD",
        "gridlyId": "FRA-793702J"
      }
    },
    {
      "type": "Feature",
      "id": 216003,
      "geometry": {
        "type": "Point",
        "coordinates": [
          -98.68046100031,
          27.3067870002944
        ]
      },
      "properties": {
        "OBJECTID": 216003,
        "CROSSING": "793697P",
        "EFFDATE": 1772064000000,
        "REASON": "14",
        "StateCode": "48",
        "CountyCode": "48247",
        "STCYFIPS": "48247",
        "CITYCD": "482473080",
        "RAILROAD": "TM",
        "RRDIV": "Border",
        "RRSUBDIV": "Laredo",
        "HIGHWAY": "LS0000",
        "STREET": "WEST GALBRAITH STREET",
        "TTSTN": "699610",
        "MILEPOST": "0061.800",
        "TYPEXING": "Public",
        "POSXING": "At Grade",
        "PRVCAT": "14",
        "INIT": "1",
        "LATITUDE": 27.306787,
        "LONGITUD": -98.680461,
        "LLSOURCE": "1",
        "WHISTBAN": "0",
        "RRCONT": "3186766269",
        "POLCONT": "8775279464",
        "INV_LINK": "https://safetydata.fra.dot.gov/OfficeofSafety/PublicSite/Crossing/Crossing.aspx?phasetype=C&rpttype=I&txtcrossingnum=793697P",
        "ACC_LINK": "https://safetydata.fra.dot.gov/OfficeofSafety/PublicSite/Crossing/Crossing.aspx?phasetype=C&rpttype=A&txtcrossingnum=793697P",
        "TTSTNNAM": "699610",
        "XPURPOSE": "1",
        "OPERATINGR": "CPKC",
        "OPERATIN_1": "Primary",
        "DAYTHRU": 7,
        "NGHTTHRU": 7,
        "MAINTRK": 1,
        "SIDINGTRK": 0,
        "YARDTRK": 0,
        "TRANSITTRK": 0,
        "INDUSTRYTR": 0,
        "OTHRTRK": 0,
        "WDCODE": "All other Gates",
        "REVISIONDA": "1975/01/01 00:00:00",
        "LASTUPDATE": "2/26/2026",
        "AADT": "586",
        "AADTYEAR": "2024",
        "STATENAME": "TEXAS",
        "STATEAB": "TX",
        "COUNTYNAME": "JIM HOGG",
        "CITYNAME": "HEBBRONVILLE",
        "LATDD": 27.306787,
        "LONGDD": -98.680461,
        "gridlyProductionCertified": true,
        "gridlyClassification": "PUBLIC_ROADWAY",
        "gridlyDisplayName": "WEST GALBRAITH STREET",
        "gridlyId": "FRA-793697P"
      }
    }
  ]
}
