{
  "type": "FeatureCollection",
  "features": [
    {
      "type": "Feature",
      "id": 202013,
      "geometry": {
        "type": "Point",
        "coordinates": [
          -102.636893000326,
          34.668051400265
        ]
      },
      "properties": {
        "OBJECTID": 202013,
        "CROSSING": "014764J",
        "EFFDATE": 1773187200000,
        "REASON": "14",
        "StateCode": "48",
        "CountyCode": "48369",
        "STCYFIPS": "48369",
        "CITYCD": "483692510",
        "RAILROAD": "BNSF",
        "RRDIV": "KANSAS",
        "RRSUBDIV": "HEREFORD",
        "HIGHWAY": "FM3140",
        "STREET": "FM3140",
        "TTSTN": "674610",
        "MILEPOST": "0616.600",
        "TYPEXING": "Public",
        "POSXING": "At Grade",
        "PRVCAT": "14",
        "INIT": "2",
        "LATITUDE": 34.6680514,
        "LONGITUD": -102.636893,
        "LLSOURCE": "1",
        "WHISTBAN": "0",
        "RRCONT": "8173521549",
        "POLCONT": "8008325452",
        "INV_LINK": "https://safetydata.fra.dot.gov/OfficeofSafety/PublicSite/Crossing/Crossing.aspx?phasetype=C&rpttype=I&txtcrossingnum=014764J",
        "ACC_LINK": "https://safetydata.fra.dot.gov/OfficeofSafety/PublicSite/Crossing/Crossing.aspx?phasetype=C&rpttype=A&txtcrossingnum=014764J",
        "TTSTNNAM": "BLACK",
        "XPURPOSE": "1",
        "OPERATINGR": "BNSF",
        "OPERATIN_1": "Primary",
        "DAYTHRU": 33,
        "NGHTTHRU": 32,
        "MAINTRK": 2,
        "SIDINGTRK": 0,
        "YARDTRK": 0,
        "TRANSITTRK": 0,
        "INDUSTRYTR": 0,
        "OTHRTRK": 0,
        "WDCODE": "All other Gates",
        "REVISIONDA": "1996/01/01 00:00:00",
        "LASTUPDATE": "3/11/2026",
        "AADT": "509",
        "AADTYEAR": "2023",
        "STATENAME": "TEXAS",
        "STATEAB": "TX",
        "COUNTYNAME": "PARMER",
        "CITYNAME": "FRIONA",
        "LATDD": 34.6680514,
        "LONGDD": -102.636893,
        "gridlyProductionCertified": true,
        "gridlyClassification": "PUBLIC_ROADWAY",
        "gridlyDisplayName": "FM3140",
        "gridlyId": "FRA-014764J"
      }
    },
    {
      "type": "Feature",
      "id": 202026,
      "geometry": {
        "type": "Point",
        "coordinates": [
          -102.660532600016,
          34.6562773000321
        ]
      },
      "properties": {
        "OBJECTID": 202026,
        "CROSSING": "014766X",
        "EFFDATE": 1773187200000,
        "REASON": "14",
        "StateCode": "48",
        "CountyCode": "48369",
        "STCYFIPS": "48369",
        "CITYCD": "483692510",
        "RAILROAD": "BNSF",
        "RRDIV": "KANSAS",
        "RRSUBDIV": "HEREFORD",
        "HIGHWAY": "CR0316",
        "STREET": "COUNTY ROAD G",
        "TTSTN": "674610",
        "MILEPOST": "0618.170",
        "TYPEXING": "Public",
        "POSXING": "At Grade",
        "PRVCAT": "14",
        "INIT": "2",
        "LATITUDE": 34.6562773,
        "LONGITUD": -102.6605326,
        "LLSOURCE": "1",
        "WHISTBAN": "0",
        "RRCONT": "8173521549",
        "POLCONT": "8008325452",
        "INV_LINK": "https://safetydata.fra.dot.gov/OfficeofSafety/PublicSite/Crossing/Crossing.aspx?phasetype=C&rpttype=I&txtcrossingnum=014766X",
        "ACC_LINK": "https://safetydata.fra.dot.gov/OfficeofSafety/PublicSite/Crossing/Crossing.aspx?phasetype=C&rpttype=A&txtcrossingnum=014766X",
        "TTSTNNAM": "BLACK",
        "XPURPOSE": "1",
        "OPERATINGR": "BNSF",
        "OPERATIN_1": "Primary",
        "DAYTHRU": 33,
        "NGHTTHRU": 32,
        "MAINTRK": 2,
        "SIDINGTRK": 0,
        "YARDTRK": 0,
        "TRANSITTRK": 0,
        "INDUSTRYTR": 0,
        "OTHRTRK": 0,
        "WDCODE": "All other Gates",
        "REVISIONDA": "1996/01/01 00:00:00",
        "LASTUPDATE": "3/11/2026",
        "AADT": "52",
        "AADTYEAR": "2022",
        "STATENAME": "TEXAS",
        "STATEAB": "TX",
        "COUNTYNAME": "PARMER",
        "CITYNAME": "FRIONA",
        "LATDD": 34.6562773,
        "LONGDD": -102.6605326,
        "gridlyProductionCertified": true,
        "gridlyClassification": "PUBLIC_ROADWAY",
        "gridlyDisplayName": "COUNTY ROAD G",
        "gridlyId": "FRA-014766X"
      }
    },
    {
      "type": "Feature",
      "id": 202060,
      "geometry": {
        "type": "Point",
        "coordinates": [
          -102.692200800031,
          34.6451474996723
        ]
      },
      "properties": {
        "OBJECTID": 202060,
        "CROSSING": "014768L",
        "EFFDATE": 1773187200000,
        "REASON": "14",
        "StateCode": "48",
        "CountyCode": "48369",
        "STCYFIPS": "48369",
        "CITYCD": "483692510",
        "RAILROAD": "BNSF",
        "RRDIV": "KANSAS",
        "RRSUBDIV": "HEREFORD",
        "HIGHWAY": "CR0020",
        "STREET": "COUNTY ROAD 20",
        "TTSTN": "674620",
        "MILEPOST": "0620.130",
        "TYPEXING": "Public",
        "POSXING": "At Grade",
        "PRVCAT": "14",
        "INIT": "2",
        "LATITUDE": 34.6451475,
        "LONGITUD": -102.6922008,
        "LLSOURCE": "1",
        "WHISTBAN": "0",
        "RRCONT": "8173521549",
        "POLCONT": "8008325452",
        "INV_LINK": "https://safetydata.fra.dot.gov/OfficeofSafety/PublicSite/Crossing/Crossing.aspx?phasetype=C&rpttype=I&txtcrossingnum=014768L",
        "ACC_LINK": "https://safetydata.fra.dot.gov/OfficeofSafety/PublicSite/Crossing/Crossing.aspx?phasetype=C&rpttype=A&txtcrossingnum=014768L",
        "TTSTNNAM": "FRIONA",
        "XPURPOSE": "1",
        "OPERATINGR": "BNSF",
        "OPERATIN_1": "Primary",
        "DAYTHRU": 32,
        "NGHTTHRU": 32,
        "MAINTRK": 2,
        "SIDINGTRK": 1,
        "YARDTRK": 0,
        "TRANSITTRK": 0,
        "INDUSTRYTR": 0,
        "OTHRTRK": 1,
        "WDCODE": "All other Gates",
        "REVISIONDA": "1996/01/01 00:00:00",
        "LASTUPDATE": "3/11/2026",
        "AADT": "60",
        "AADTYEAR": "2022",
        "STATENAME": "TEXAS",
        "STATEAB": "TX",
        "COUNTYNAME": "PARMER",
        "CITYNAME": "FRIONA",
        "LATDD": 34.6451475,
        "LONGDD": -102.6922008,
        "gridlyProductionCertified": true,
        "gridlyClassification": "PUBLIC_ROADWAY",
        "gridlyDisplayName": "COUNTY ROAD 20",
        "gridlyId": "FRA-014768L"
      }
    },
    {
      "type": "Feature",
      "id": 202074,
      "geometry": {
        "type": "Point",
        "coordinates": [
          -102.674364999796,
          34.6514051002469
        ]
      },
      "properties": {
        "OBJECTID": 202074,
        "CROSSING": "014767E",
        "EFFDATE": 1773187200000,
        "REASON": "14",
        "StateCode": "48",
        "CountyCode": "48369",
        "STCYFIPS": "48369",
        "CITYCD": "483692510",
        "RAILROAD": "BNSF",
        "RRDIV": "KANSAS",
        "RRSUBDIV": "HEREFORD",
        "HIGHWAY": "CR0177",
        "STREET": "RAILROAD ROAD",
        "TTSTN": "674620",
        "MILEPOST": "0619.030",
        "TYPEXING": "Public",
        "POSXING": "At Grade",
        "PRVCAT": "14",
        "INIT": "2",
        "LATITUDE": 34.6514051,
        "LONGITUD": -102.674365,
        "LLSOURCE": "1",
        "WHISTBAN": "0",
        "RRCONT": "8173521549",
        "POLCONT": "8008325452",
        "INV_LINK": "https://safetydata.fra.dot.gov/OfficeofSafety/PublicSite/Crossing/Crossing.aspx?phasetype=C&rpttype=I&txtcrossingnum=014767E",
        "ACC_LINK": "https://safetydata.fra.dot.gov/OfficeofSafety/PublicSite/Crossing/Crossing.aspx?phasetype=C&rpttype=A&txtcrossingnum=014767E",
        "TTSTNNAM": "FRIONA",
        "XPURPOSE": "1",
        "OPERATINGR": "BNSF",
        "OPERATIN_1": "Primary",
        "DAYTHRU": 33,
        "NGHTTHRU": 32,
        "MAINTRK": 2,
        "SIDINGTRK": 0,
        "YARDTRK": 0,
        "TRANSITTRK": 0,
        "INDUSTRYTR": 0,
        "OTHRTRK": 0,
        "WDCODE": "All other Gates",
        "REVISIONDA": "1996/01/01 00:00:00",
        "LASTUPDATE": "3/11/2026",
        "AADT": "70",
        "AADTYEAR": "2022",
        "STATENAME": "TEXAS",
        "STATEAB": "TX",
        "COUNTYNAME": "PARMER",
        "CITYNAME": "FRIONA",
        "LATDD": 34.6514051,
        "LONGDD": -102.674365,
        "gridlyProductionCertified": true,
        "gridlyClassification": "PUBLIC_ROADWAY",
        "gridlyDisplayName": "RAILROAD ROAD",
        "gridlyId": "FRA-014767E"
      }
    },
    {
      "type": "Feature",
      "id": 202134,
      "geometry": {
        "type": "Point",
        "coordinates": [
          -102.803817599671,
          34.5799972999422
        ]
      },
      "properties": {
        "OBJECTID": 202134,
        "CROSSING": "014776D",
        "EFFDATE": 1773964800000,
        "REASON": "14",
        "StateCode": "48",
        "CountyCode": "48369",
        "STCYFIPS": "48369",
        "CITYCD": "483690790",
        "RAILROAD": "BNSF",
        "RRDIV": "KANSAS",
        "RRSUBDIV": "HEREFORD",
        "HIGHWAY": "CR0014",
        "STREET": "COUNTY ROAD 14",
        "TTSTN": "674650",
        "MILEPOST": "0627.946",
        "TYPEXING": "Public",
        "POSXING": "At Grade",
        "PRVCAT": "14",
        "INIT": "2",
        "LATITUDE": 34.5799973,
        "LONGITUD": -102.8038176,
        "LLSOURCE": "1",
        "WHISTBAN": "0",
        "RRCONT": "8173521549",
        "POLCONT": "8008325452",
        "INV_LINK": "https://safetydata.fra.dot.gov/OfficeofSafety/PublicSite/Crossing/Crossing.aspx?phasetype=C&rpttype=I&txtcrossingnum=014776D",
        "ACC_LINK": "https://safetydata.fra.dot.gov/OfficeofSafety/PublicSite/Crossing/Crossing.aspx?phasetype=C&rpttype=A&txtcrossingnum=014776D",
        "TTSTNNAM": "CAMPBELL",
        "XPURPOSE": "1",
        "OPERATINGR": "BNSF",
        "OPERATIN_1": "Primary",
        "DAYTHRU": 32,
        "NGHTTHRU": 32,
        "MAINTRK": 2,
        "SIDINGTRK": 0,
        "YARDTRK": 1,
        "TRANSITTRK": 0,
        "INDUSTRYTR": 0,
        "OTHRTRK": 1,
        "WDCODE": "All other Gates",
        "REVISIONDA": "1996/01/01 00:00:00",
        "LASTUPDATE": "3/20/2026",
        "AADT": "14",
        "AADTYEAR": "2022",
        "STATENAME": "TEXAS",
        "STATEAB": "TX",
        "COUNTYNAME": "PARMER",
        "CITYNAME": "BOVINA",
        "LATDD": 34.5799973,
        "LONGDD": -102.8038176,
        "gridlyProductionCertified": true,
        "gridlyClassification": "PUBLIC_ROADWAY",
        "gridlyDisplayName": "COUNTY ROAD 14",
        "gridlyId": "FRA-014776D"
      }
    },
    {
      "type": "Feature",
      "id": 202145,
      "geometry": {
        "type": "Point",
        "coordinates": [
          -102.886547399587,
          34.5236295999342
        ]
      },
      "properties": {
        "OBJECTID": 202145,
        "CROSSING": "014779Y",
        "EFFDATE": 1773273600000,
        "REASON": "14",
        "StateCode": "48",
        "CountyCode": "48369",
        "STCYFIPS": "48369",
        "CITYCD": "483690790",
        "RAILROAD": "BNSF",
        "RRDIV": "KANSAS",
        "RRSUBDIV": "HEREFORD",
        "HIGHWAY": "LS0000",
        "STREET": "BESTER STREET",
        "TTSTN": "674660",
        "MILEPOST": "0634.060",
        "TYPEXING": "Public",
        "POSXING": "At Grade",
        "PRVCAT": "14",
        "INIT": "2",
        "LATITUDE": 34.5236296,
        "LONGITUD": -102.8865474,
        "LLSOURCE": "1",
        "WHISTBAN": "0",
        "RRCONT": "8173521549",
        "POLCONT": "8008325452",
        "INV_LINK": "https://safetydata.fra.dot.gov/OfficeofSafety/PublicSite/Crossing/Crossing.aspx?phasetype=C&rpttype=I&txtcrossingnum=014779Y",
        "ACC_LINK": "https://safetydata.fra.dot.gov/OfficeofSafety/PublicSite/Crossing/Crossing.aspx?phasetype=C&rpttype=A&txtcrossingnum=014779Y",
        "TTSTNNAM": "BOVINA",
        "XPURPOSE": "1",
        "OPERATINGR": "BNSF",
        "OPERATIN_1": "Primary",
        "DAYTHRU": 32,
        "NGHTTHRU": 31,
        "MAINTRK": 2,
        "SIDINGTRK": 0,
        "YARDTRK": 0,
        "TRANSITTRK": 0,
        "INDUSTRYTR": 1,
        "OTHRTRK": 1,
        "WDCODE": "All other Gates",
        "REVISIONDA": "1996/01/01 00:00:00",
        "LASTUPDATE": "3/12/2026",
        "AADT": "250",
        "AADTYEAR": "2022",
        "STATENAME": "TEXAS",
        "STATEAB": "TX",
        "COUNTYNAME": "PARMER",
        "CITYNAME": "BOVINA",
        "LATDD": 34.5236296,
        "LONGDD": -102.8865474,
        "gridlyProductionCertified": true,
        "gridlyClassification": "PUBLIC_ROADWAY",
        "gridlyDisplayName": "BESTER STREET",
        "gridlyId": "FRA-014779Y"
      }
    },
    {
      "type": "Feature",
      "id": 202146,
      "geometry": {
        "type": "Point",
        "coordinates": [
          -102.850749000119,
          34.5479870998727
        ]
      },
      "properties": {
        "OBJECTID": 202146,
        "CROSSING": "014778S",
        "EFFDATE": 1773273600000,
        "REASON": "14",
        "StateCode": "48",
        "CountyCode": "48369",
        "STCYFIPS": "48369",
        "CITYCD": "483690790",
        "RAILROAD": "BNSF",
        "RRDIV": "KANSAS",
        "RRSUBDIV": "HEREFORD",
        "HIGHWAY": "CR0011",
        "STREET": "COUNTY ROAD 11",
        "TTSTN": "674660",
        "MILEPOST": "0631.420",
        "TYPEXING": "Public",
        "POSXING": "At Grade",
        "PRVCAT": "14",
        "INIT": "2",
        "LATITUDE": 34.5479871,
        "LONGITUD": -102.850749,
        "LLSOURCE": "1",
        "WHISTBAN": "0",
        "RRCONT": "8173521549",
        "POLCONT": "8008325452",
        "INV_LINK": "https://safetydata.fra.dot.gov/OfficeofSafety/PublicSite/Crossing/Crossing.aspx?phasetype=C&rpttype=I&txtcrossingnum=014778S",
        "ACC_LINK": "https://safetydata.fra.dot.gov/OfficeofSafety/PublicSite/Crossing/Crossing.aspx?phasetype=C&rpttype=A&txtcrossingnum=014778S",
        "TTSTNNAM": "BOVINA",
        "XPURPOSE": "1",
        "OPERATINGR": "BNSF",
        "OPERATIN_1": "Primary",
        "DAYTHRU": 32,
        "NGHTTHRU": 32,
        "MAINTRK": 2,
        "SIDINGTRK": 0,
        "YARDTRK": 0,
        "TRANSITTRK": 0,
        "INDUSTRYTR": 0,
        "OTHRTRK": 0,
        "WDCODE": "All other Gates",
        "REVISIONDA": "1996/01/01 00:00:00",
        "LASTUPDATE": "3/12/2026",
        "AADT": "18",
        "AADTYEAR": "2019",
        "STATENAME": "TEXAS",
        "STATEAB": "TX",
        "COUNTYNAME": "PARMER",
        "CITYNAME": "BOVINA",
        "LATDD": 34.5479871,
        "LONGDD": -102.850749,
        "gridlyProductionCertified": true,
        "gridlyClassification": "PUBLIC_ROADWAY",
        "gridlyDisplayName": "COUNTY ROAD 11",
        "gridlyId": "FRA-014778S"
      }
    },
    {
      "type": "Feature",
      "id": 202156,
      "geometry": {
        "type": "Point",
        "coordinates": [
          -102.890616999589,
          34.5207680002727
        ]
      },
      "properties": {
        "OBJECTID": 202156,
        "CROSSING": "014780T",
        "EFFDATE": 1773273600000,
        "REASON": "14",
        "StateCode": "48",
        "CountyCode": "48369",
        "STCYFIPS": "48369",
        "CITYCD": "483690790",
        "RAILROAD": "BNSF",
        "RRDIV": "KANSAS",
        "RRSUBDIV": "HEREFORD",
        "HIGHWAY": "fm1731",
        "STREET": "FM1731 / north third street",
        "TTSTN": "674660",
        "MILEPOST": "0634.346",
        "TYPEXING": "Public",
        "POSXING": "At Grade",
        "PRVCAT": "14",
        "INIT": "2",
        "LATITUDE": 34.520768,
        "LONGITUD": -102.890617,
        "LLSOURCE": "1",
        "WHISTBAN": "0",
        "RRCONT": "8173521549",
        "POLCONT": "8008325452",
        "INV_LINK": "https://safetydata.fra.dot.gov/OfficeofSafety/PublicSite/Crossing/Crossing.aspx?phasetype=C&rpttype=I&txtcrossingnum=014780T",
        "ACC_LINK": "https://safetydata.fra.dot.gov/OfficeofSafety/PublicSite/Crossing/Crossing.aspx?phasetype=C&rpttype=A&txtcrossingnum=014780T",
        "TTSTNNAM": "BOVINA",
        "XPURPOSE": "1",
        "OPERATINGR": "BNSF",
        "OPERATIN_1": "Primary",
        "DAYTHRU": 32,
        "NGHTTHRU": 31,
        "MAINTRK": 2,
        "SIDINGTRK": 0,
        "YARDTRK": 0,
        "TRANSITTRK": 0,
        "INDUSTRYTR": 1,
        "OTHRTRK": 1,
        "WDCODE": "All other Gates",
        "REVISIONDA": "1996/01/01 00:00:00",
        "LASTUPDATE": "3/12/2026",
        "AADT": "2478",
        "AADTYEAR": "2023",
        "STATENAME": "TEXAS",
        "STATEAB": "TX",
        "COUNTYNAME": "PARMER",
        "CITYNAME": "BOVINA",
        "LATDD": 34.520768,
        "LONGDD": -102.890617,
        "gridlyProductionCertified": true,
        "gridlyClassification": "PUBLIC_ROADWAY",
        "gridlyDisplayName": "FM1731 / north third street",
        "gridlyId": "FRA-014780T"
      }
    },
    {
      "type": "Feature",
      "id": 202357,
      "geometry": {
        "type": "Point",
        "coordinates": [
          -102.892848599808,
          34.3191293000532
        ]
      },
      "properties": {
        "OBJECTID": 202357,
        "CROSSING": "014840A",
        "EFFDATE": 1773964800000,
        "REASON": "14",
        "StateCode": "48",
        "CountyCode": "48369",
        "STCYFIPS": "48369",
        "CITYCD": "483692325",
        "RAILROAD": "BNSF",
        "RRDIV": "RED RIVER",
        "RRSUBDIV": "SLATON",
        "HIGHWAY": "FM1731",
        "STREET": "FM1731",
        "TTSTN": "674698",
        "MILEPOST": "0010.476",
        "TYPEXING": "Public",
        "POSXING": "At Grade",
        "PRVCAT": "14",
        "INIT": "2",
        "LATITUDE": 34.3191293,
        "LONGITUD": -102.8928486,
        "LLSOURCE": "1",
        "WHISTBAN": "0",
        "RRCONT": "8173521549",
        "POLCONT": "8008325452",
        "INV_LINK": "https://safetydata.fra.dot.gov/OfficeofSafety/PublicSite/Crossing/Crossing.aspx?phasetype=C&rpttype=I&txtcrossingnum=014840A",
        "ACC_LINK": "https://safetydata.fra.dot.gov/OfficeofSafety/PublicSite/Crossing/Crossing.aspx?phasetype=C&rpttype=A&txtcrossingnum=014840A",
        "TTSTNNAM": "LARIAT",
        "XPURPOSE": "1",
        "OPERATINGR": "BNSF",
        "OPERATIN_1": "Primary",
        "DAYTHRU": 2,
        "NGHTTHRU": 2,
        "MAINTRK": 1,
        "SIDINGTRK": 0,
        "YARDTRK": 0,
        "TRANSITTRK": 0,
        "INDUSTRYTR": 0,
        "OTHRTRK": 0,
        "WDCODE": "All other Gates",
        "REVISIONDA": "1996/01/01 00:00:00",
        "LASTUPDATE": "3/20/2026",
        "AADT": "810",
        "AADTYEAR": "2023",
        "STATENAME": "TEXAS",
        "STATEAB": "TX",
        "COUNTYNAME": "PARMER",
        "CITYNAME": "FARWELL",
        "LATDD": 34.3191293,
        "LONGDD": -102.8928486,
        "gridlyProductionCertified": true,
        "gridlyClassification": "PUBLIC_ROADWAY",
        "gridlyDisplayName": "FM1731",
        "gridlyId": "FRA-014840A"
      }
    },
    {
      "type": "Feature",
      "id": 202438,
      "geometry": {
        "type": "Point",
        "coordinates": [
          -103.000461600143,
          34.3781524000947
        ]
      },
      "properties": {
        "OBJECTID": 202438,
        "CROSSING": "014833P",
        "EFFDATE": 1774483200000,
        "REASON": "14",
        "StateCode": "48",
        "CountyCode": "48369",
        "STCYFIPS": "48369",
        "CITYCD": "483692325",
        "RAILROAD": "BNSF",
        "RRDIV": "RED RIVER",
        "RRSUBDIV": "SLATON",
        "HIGHWAY": "CR0355",
        "STREET": "HELENA AGRI ENTERPRISES",
        "TTSTN": "773463",
        "MILEPOST": "0003.068",
        "TYPEXING": "Public",
        "POSXING": "At Grade",
        "PRVCAT": "14",
        "INIT": "2",
        "LATITUDE": 34.3781524,
        "LONGITUD": -103.0004616,
        "LLSOURCE": "1",
        "WHISTBAN": "0",
        "RRCONT": "8173521549",
        "POLCONT": "8008325452",
        "INV_LINK": "https://safetydata.fra.dot.gov/OfficeofSafety/PublicSite/Crossing/Crossing.aspx?phasetype=C&rpttype=I&txtcrossingnum=014833P",
        "ACC_LINK": "https://safetydata.fra.dot.gov/OfficeofSafety/PublicSite/Crossing/Crossing.aspx?phasetype=C&rpttype=A&txtcrossingnum=014833P",
        "TTSTNNAM": "TEXICO",
        "XPURPOSE": "1",
        "OPERATINGR": "BNSF",
        "OPERATIN_1": "Primary",
        "DAYTHRU": 2,
        "NGHTTHRU": 2,
        "MAINTRK": 1,
        "SIDINGTRK": 0,
        "YARDTRK": 0,
        "TRANSITTRK": 0,
        "INDUSTRYTR": 0,
        "OTHRTRK": 0,
        "WDCODE": "All other Gates",
        "REVISIONDA": "1996/01/01 00:00:00",
        "LASTUPDATE": "3/26/2026",
        "AADT": "524",
        "AADTYEAR": "2024",
        "STATENAME": "TEXAS",
        "STATEAB": "TX",
        "COUNTYNAME": "PARMER",
        "CITYNAME": "FARWELL",
        "LATDD": 34.3781524,
        "LONGDD": -103.0004616,
        "gridlyProductionCertified": true,
        "gridlyClassification": "PUBLIC_ROADWAY",
        "gridlyDisplayName": "HELENA AGRI ENTERPRISES",
        "gridlyId": "FRA-014833P"
      }
    },
    {
      "type": "Feature",
      "id": 202439,
      "geometry": {
        "type": "Point",
        "coordinates": [
          -103.026146599954,
          34.3895011996507
        ]
      },
      "properties": {
        "OBJECTID": 202439,
        "CROSSING": "014832H",
        "EFFDATE": 1774483200000,
        "REASON": "14",
        "StateCode": "48",
        "CountyCode": "48369",
        "STCYFIPS": "48369",
        "CITYCD": "483692325",
        "RAILROAD": "BNSF",
        "RRDIV": "RED RIVER",
        "RRSUBDIV": "SLATON",
        "HIGHWAY": "CR0001",
        "STREET": "COUNTY ROAD 1",
        "TTSTN": "773463",
        "MILEPOST": "0001.381",
        "TYPEXING": "Public",
        "POSXING": "At Grade",
        "PRVCAT": "14",
        "INIT": "2",
        "LATITUDE": 34.3895012,
        "LONGITUD": -103.0261466,
        "LLSOURCE": "1",
        "WHISTBAN": "0",
        "RRCONT": "8173521549",
        "POLCONT": "8008325452",
        "INV_LINK": "https://safetydata.fra.dot.gov/OfficeofSafety/PublicSite/Crossing/Crossing.aspx?phasetype=C&rpttype=I&txtcrossingnum=014832H",
        "ACC_LINK": "https://safetydata.fra.dot.gov/OfficeofSafety/PublicSite/Crossing/Crossing.aspx?phasetype=C&rpttype=A&txtcrossingnum=014832H",
        "TTSTNNAM": "TEXICO",
        "XPURPOSE": "1",
        "OPERATINGR": "BNSF",
        "OPERATIN_1": "Primary",
        "DAYTHRU": 2,
        "NGHTTHRU": 2,
        "MAINTRK": 1,
        "SIDINGTRK": 0,
        "YARDTRK": 0,
        "TRANSITTRK": 0,
        "INDUSTRYTR": 0,
        "OTHRTRK": 0,
        "WDCODE": "Special Active Warning Devices",
        "REVISIONDA": "1996/01/01 00:00:00",
        "LASTUPDATE": "3/26/2026",
        "AADT": "83",
        "AADTYEAR": "2022",
        "STATENAME": "TEXAS",
        "STATEAB": "TX",
        "COUNTYNAME": "PARMER",
        "CITYNAME": "FARWELL",
        "LATDD": 34.3895012,
        "LONGDD": -103.0261466,
        "gridlyProductionCertified": true,
        "gridlyClassification": "PUBLIC_ROADWAY",
        "gridlyDisplayName": "COUNTY ROAD 1",
        "gridlyId": "FRA-014832H"
      }
    },
    {
      "type": "Feature",
      "id": 202442,
      "geometry": {
        "type": "Point",
        "coordinates": [
          -102.921336000149,
          34.3380280002083
        ]
      },
      "properties": {
        "OBJECTID": 202442,
        "CROSSING": "014841G",
        "EFFDATE": 1774483200000,
        "REASON": "14",
        "StateCode": "48",
        "CountyCode": "48369",
        "STCYFIPS": "48369",
        "CITYCD": "483692325",
        "RAILROAD": "BNSF",
        "RRDIV": "RED RIVER",
        "RRSUBDIV": "SLATON",
        "HIGHWAY": "CR0007",
        "STREET": "COUNTY ROAD 7",
        "TTSTN": "674698",
        "MILEPOST": "0008.375",
        "TYPEXING": "Public",
        "POSXING": "At Grade",
        "PRVCAT": "14",
        "INIT": "2",
        "LATITUDE": 34.338028,
        "LONGITUD": -102.921336,
        "LLSOURCE": "1",
        "WHISTBAN": "0",
        "RRCONT": "8173521549",
        "POLCONT": "8008325452",
        "INV_LINK": "https://safetydata.fra.dot.gov/OfficeofSafety/PublicSite/Crossing/Crossing.aspx?phasetype=C&rpttype=I&txtcrossingnum=014841G",
        "ACC_LINK": "https://safetydata.fra.dot.gov/OfficeofSafety/PublicSite/Crossing/Crossing.aspx?phasetype=C&rpttype=A&txtcrossingnum=014841G",
        "TTSTNNAM": "LARIAT",
        "XPURPOSE": "1",
        "OPERATINGR": "BNSF",
        "OPERATIN_1": "Primary",
        "DAYTHRU": 3,
        "NGHTTHRU": 2,
        "MAINTRK": 1,
        "SIDINGTRK": 1,
        "YARDTRK": 0,
        "TRANSITTRK": 0,
        "INDUSTRYTR": 0,
        "OTHRTRK": 1,
        "WDCODE": "All other Gates",
        "REVISIONDA": "1996/01/01 00:00:00",
        "LASTUPDATE": "3/26/2026",
        "AADT": "16",
        "AADTYEAR": "2022",
        "STATENAME": "TEXAS",
        "STATEAB": "TX",
        "COUNTYNAME": "PARMER",
        "CITYNAME": "FARWELL",
        "LATDD": 34.338028,
        "LONGDD": -102.921336,
        "gridlyProductionCertified": true,
        "gridlyClassification": "PUBLIC_ROADWAY",
        "gridlyDisplayName": "COUNTY ROAD 7",
        "gridlyId": "FRA-014841G"
      }
    },
    {
      "type": "Feature",
      "id": 203653,
      "geometry": {
        "type": "Point",
        "coordinates": [
          -103.032570800198,
          34.3897973000863
        ]
      },
      "properties": {
        "OBJECTID": 203653,
        "CROSSING": "014831B",
        "EFFDATE": 1774396800000,
        "REASON": "14",
        "StateCode": "48",
        "CountyCode": "48369",
        "STCYFIPS": "48369",
        "CITYCD": "483692325",
        "RAILROAD": "BNSF",
        "RRDIV": "RED RIVER",
        "RRSUBDIV": "SLATON",
        "HIGHWAY": "FM0292",
        "STREET": "FM0292 / NINTH STREET",
        "TTSTN": "773463",
        "MILEPOST": "0001.007",
        "TYPEXING": "Public",
        "POSXING": "At Grade",
        "PRVCAT": "14",
        "INIT": "2",
        "LATITUDE": 34.3897973,
        "LONGITUD": -103.0325708,
        "LLSOURCE": "1",
        "WHISTBAN": "0",
        "RRCONT": "8173521549",
        "POLCONT": "8008325452",
        "INV_LINK": "https://safetydata.fra.dot.gov/OfficeofSafety/PublicSite/Crossing/Crossing.aspx?phasetype=C&rpttype=I&txtcrossingnum=014831B",
        "ACC_LINK": "https://safetydata.fra.dot.gov/OfficeofSafety/PublicSite/Crossing/Crossing.aspx?phasetype=C&rpttype=A&txtcrossingnum=014831B",
        "TTSTNNAM": "TEXICO",
        "XPURPOSE": "1",
        "OPERATINGR": "BNSF",
        "OPERATIN_1": "Primary",
        "DAYTHRU": 2,
        "NGHTTHRU": 2,
        "MAINTRK": 1,
        "SIDINGTRK": 0,
        "YARDTRK": 0,
        "TRANSITTRK": 0,
        "INDUSTRYTR": 0,
        "OTHRTRK": 0,
        "WDCODE": "All other Gates",
        "REVISIONDA": "1996/01/01 00:00:00",
        "LASTUPDATE": "3/25/2026",
        "AADT": "1018",
        "AADTYEAR": "2019",
        "STATENAME": "TEXAS",
        "STATEAB": "TX",
        "COUNTYNAME": "PARMER",
        "CITYNAME": "FARWELL",
        "LATDD": 34.3897973,
        "LONGDD": -103.0325708,
        "gridlyProductionCertified": true,
        "gridlyClassification": "PUBLIC_ROADWAY",
        "gridlyDisplayName": "FM0292 / NINTH STREET",
        "gridlyId": "FRA-014831B"
      }
    },
    {
      "type": "Feature",
      "id": 203859,
      "geometry": {
        "type": "Point",
        "coordinates": [
          -102.54299890033,
          34.718935799969
        ]
      },
      "properties": {
        "OBJECTID": 203859,
        "CROSSING": "014757Y",
        "EFFDATE": 1772064000000,
        "REASON": "14",
        "StateCode": "48",
        "CountyCode": "48369",
        "STCYFIPS": "48369",
        "CITYCD": "481173140",
        "RAILROAD": "BNSF",
        "RRDIV": "KANSAS",
        "RRSUBDIV": "HEREFORD",
        "HIGHWAY": "CR0028",
        "STREET": "COUNTY ROAD 28",
        "TTSTN": "674530",
        "MILEPOST": "0610.209",
        "TYPEXING": "Public",
        "POSXING": "At Grade",
        "PRVCAT": "14",
        "INIT": "2",
        "LATITUDE": 34.7189358,
        "LONGITUD": -102.5429989,
        "LLSOURCE": "1",
        "WHISTBAN": "0",
        "RRCONT": "8173521549",
        "POLCONT": "8008325452",
        "INV_LINK": "https://safetydata.fra.dot.gov/OfficeofSafety/PublicSite/Crossing/Crossing.aspx?phasetype=C&rpttype=I&txtcrossingnum=014757Y",
        "ACC_LINK": "https://safetydata.fra.dot.gov/OfficeofSafety/PublicSite/Crossing/Crossing.aspx?phasetype=C&rpttype=A&txtcrossingnum=014757Y",
        "TTSTNNAM": "SUMMERFIELD",
        "XPURPOSE": "1",
        "OPERATINGR": "BNSF",
        "OPERATIN_1": "Primary",
        "DAYTHRU": 37,
        "NGHTTHRU": 37,
        "MAINTRK": 2,
        "SIDINGTRK": 0,
        "YARDTRK": 0,
        "TRANSITTRK": 0,
        "INDUSTRYTR": 0,
        "OTHRTRK": 0,
        "WDCODE": "All other Gates",
        "REVISIONDA": "1996/01/01 00:00:00",
        "LASTUPDATE": "2/26/2026",
        "AADT": "18",
        "AADTYEAR": "2000",
        "STATENAME": "TEXAS",
        "STATEAB": "TX",
        "COUNTYNAME": "PARMER",
        "CITYNAME": "HEREFORD",
        "LATDD": 34.7189358,
        "LONGDD": -102.5429989,
        "gridlyProductionCertified": true,
        "gridlyClassification": "PUBLIC_ROADWAY",
        "gridlyDisplayName": "COUNTY ROAD 28",
        "gridlyId": "FRA-014757Y"
      }
    },
    {
      "type": "Feature",
      "id": 204453,
      "geometry": {
        "type": "Point",
        "coordinates": [
          -102.56046099961,
          34.7095322998955
        ]
      },
      "properties": {
        "OBJECTID": 204453,
        "CROSSING": "014759M",
        "EFFDATE": 1734393600000,
        "REASON": "14",
        "StateCode": "48",
        "CountyCode": "48369",
        "STCYFIPS": "48369",
        "CITYCD": "483692510",
        "RAILROAD": "BNSF",
        "RRDIV": "KANSAS",
        "RRSUBDIV": "HEREFORD",
        "HIGHWAY": "ST 0000",
        "STREET": "PRIVATE",
        "TTSTN": "674610",
        "MILEPOST": "0611.390",
        "TYPEXING": "Private",
        "POSXING": "At Grade",
        "PRVCAT": "14",
        "INIT": "1",
        "LATITUDE": 34.7095323,
        "LONGITUD": -102.560461,
        "LLSOURCE": "1",
        "WHISTBAN": "0",
        "RRCONT": "8173521549",
        "POLCONT": "8008325452",
        "INV_LINK": "https://safetydata.fra.dot.gov/OfficeofSafety/PublicSite/Crossing/Crossing.aspx?phasetype=C&rpttype=I&txtcrossingnum=014759M",
        "ACC_LINK": "https://safetydata.fra.dot.gov/OfficeofSafety/PublicSite/Crossing/Crossing.aspx?phasetype=C&rpttype=A&txtcrossingnum=014759M",
        "TTSTNNAM": "BLACK",
        "XPURPOSE": "1",
        "OPERATINGR": "BNSF",
        "OPERATIN_1": "Primary",
        "DAYTHRU": 33,
        "NGHTTHRU": 32,
        "MAINTRK": 2,
        "SIDINGTRK": 0,
        "YARDTRK": 0,
        "TRANSITTRK": 0,
        "INDUSTRYTR": 0,
        "OTHRTRK": 0,
        "WDCODE": "",
        "REVISIONDA": "1996/01/01 00:00:00",
        "LASTUPDATE": "12/17/2024",
        "AADT": "000010",
        "AADTYEAR": "1991",
        "STATENAME": "TEXAS",
        "STATEAB": "TX",
        "COUNTYNAME": "PARMER",
        "CITYNAME": "FRIONA",
        "LATDD": 34.7095323,
        "LONGDD": -102.560461,
        "gridlyProductionCertified": true,
        "gridlyClassification": "PUBLIC_ROADWAY",
        "gridlyDisplayName": "PRIVATE",
        "gridlyId": "FRA-014759M"
      }
    },
    {
      "type": "Feature",
      "id": 204463,
      "geometry": {
        "type": "Point",
        "coordinates": [
          -102.992678999865,
          34.4248866996755
        ]
      },
      "properties": {
        "OBJECTID": 204463,
        "CROSSING": "014784V",
        "EFFDATE": 1734393600000,
        "REASON": "14",
        "StateCode": "48",
        "CountyCode": "48369",
        "STCYFIPS": "48369",
        "CITYCD": "483692325",
        "RAILROAD": "BNSF",
        "RRDIV": "KANSAS",
        "RRSUBDIV": "HEREFORD",
        "HIGHWAY": "Not Yet Reported by State",
        "STREET": "PRIVATE",
        "TTSTN": "674692",
        "MILEPOST": "0643.440",
        "TYPEXING": "Private",
        "POSXING": "At Grade",
        "PRVCAT": "14",
        "INIT": "1",
        "LATITUDE": 34.4248867,
        "LONGITUD": -102.992679,
        "LLSOURCE": "1",
        "WHISTBAN": "0",
        "RRCONT": "8173521549",
        "POLCONT": "8008325452",
        "INV_LINK": "https://safetydata.fra.dot.gov/OfficeofSafety/PublicSite/Crossing/Crossing.aspx?phasetype=C&rpttype=I&txtcrossingnum=014784V",
        "ACC_LINK": "https://safetydata.fra.dot.gov/OfficeofSafety/PublicSite/Crossing/Crossing.aspx?phasetype=C&rpttype=A&txtcrossingnum=014784V",
        "TTSTNNAM": "WILSEY",
        "XPURPOSE": "1",
        "OPERATINGR": "BNSF",
        "OPERATIN_1": "Primary",
        "DAYTHRU": 32,
        "NGHTTHRU": 31,
        "MAINTRK": 2,
        "SIDINGTRK": 0,
        "YARDTRK": 0,
        "TRANSITTRK": 0,
        "INDUSTRYTR": 0,
        "OTHRTRK": 0,
        "WDCODE": "",
        "REVISIONDA": "1996/01/01 00:00:00",
        "LASTUPDATE": "12/17/2024",
        "AADT": "",
        "AADTYEAR": "1970",
        "STATENAME": "TEXAS",
        "STATEAB": "TX",
        "COUNTYNAME": "PARMER",
        "CITYNAME": "FARWELL",
        "LATDD": 34.4248867,
        "LONGDD": -102.992679,
        "gridlyProductionCertified": true,
        "gridlyClassification": "PUBLIC_ROADWAY",
        "gridlyDisplayName": "PRIVATE",
        "gridlyId": "FRA-014784V"
      }
    },
    {
      "type": "Feature",
      "id": 204466,
      "geometry": {
        "type": "Point",
        "coordinates": [
          -102.775852000136,
          34.5993871003084
        ]
      },
      "properties": {
        "OBJECTID": 204466,
        "CROSSING": "014774P",
        "EFFDATE": 1734393600000,
        "REASON": "14",
        "StateCode": "48",
        "CountyCode": "48369",
        "STCYFIPS": "48369",
        "CITYCD": "483692510",
        "RAILROAD": "BNSF",
        "RRDIV": "KANSAS",
        "RRSUBDIV": "HEREFORD",
        "HIGHWAY": "Not Yet Reported by State",
        "STREET": "EXCEL PACKING",
        "TTSTN": "674650",
        "MILEPOST": "0625.870",
        "TYPEXING": "Private",
        "POSXING": "At Grade",
        "PRVCAT": "14",
        "INIT": "1",
        "LATITUDE": 34.5993871,
        "LONGITUD": -102.775852,
        "LLSOURCE": "1",
        "WHISTBAN": "0",
        "RRCONT": "8173521549",
        "POLCONT": "8008325452",
        "INV_LINK": "https://safetydata.fra.dot.gov/OfficeofSafety/PublicSite/Crossing/Crossing.aspx?phasetype=C&rpttype=I&txtcrossingnum=014774P",
        "ACC_LINK": "https://safetydata.fra.dot.gov/OfficeofSafety/PublicSite/Crossing/Crossing.aspx?phasetype=C&rpttype=A&txtcrossingnum=014774P",
        "TTSTNNAM": "CAMPBELL",
        "XPURPOSE": "1",
        "OPERATINGR": "BNSF",
        "OPERATIN_1": "Primary",
        "DAYTHRU": 32,
        "NGHTTHRU": 32,
        "MAINTRK": 2,
        "SIDINGTRK": 0,
        "YARDTRK": 0,
        "TRANSITTRK": 0,
        "INDUSTRYTR": 0,
        "OTHRTRK": 0,
        "WDCODE": "",
        "REVISIONDA": "1996/01/01 00:00:00",
        "LASTUPDATE": "12/17/2024",
        "AADT": "",
        "AADTYEAR": "1970",
        "STATENAME": "TEXAS",
        "STATEAB": "TX",
        "COUNTYNAME": "PARMER",
        "CITYNAME": "FRIONA",
        "LATDD": 34.5993871,
        "LONGDD": -102.775852,
        "gridlyProductionCertified": true,
        "gridlyClassification": "PUBLIC_ROADWAY",
        "gridlyDisplayName": "EXCEL PACKING",
        "gridlyId": "FRA-014774P"
      }
    },
    {
      "type": "Feature",
      "id": 204474,
      "geometry": {
        "type": "Point",
        "coordinates": [
          -102.973762999755,
          34.3628556003683
        ]
      },
      "properties": {
        "OBJECTID": 204474,
        "CROSSING": "014836K",
        "EFFDATE": 1734393600000,
        "REASON": "14",
        "StateCode": "48",
        "CountyCode": "48369",
        "STCYFIPS": "48369",
        "CITYCD": "483692325",
        "RAILROAD": "BNSF",
        "RRDIV": "RED RIVER",
        "RRSUBDIV": "SLATON",
        "HIGHWAY": "Not Yet Reported by State",
        "STREET": "PRIVATE",
        "TTSTN": "773463",
        "MILEPOST": "0004.922",
        "TYPEXING": "Private",
        "POSXING": "At Grade",
        "PRVCAT": "14",
        "INIT": "1",
        "LATITUDE": 34.3628556,
        "LONGITUD": -102.973763,
        "LLSOURCE": "1",
        "WHISTBAN": "0",
        "RRCONT": "8173521549",
        "POLCONT": "8008325452",
        "INV_LINK": "https://safetydata.fra.dot.gov/OfficeofSafety/PublicSite/Crossing/Crossing.aspx?phasetype=C&rpttype=I&txtcrossingnum=014836K",
        "ACC_LINK": "https://safetydata.fra.dot.gov/OfficeofSafety/PublicSite/Crossing/Crossing.aspx?phasetype=C&rpttype=A&txtcrossingnum=014836K",
        "TTSTNNAM": "TEXICO",
        "XPURPOSE": "1",
        "OPERATINGR": "BNSF",
        "OPERATIN_1": "Primary",
        "DAYTHRU": 2,
        "NGHTTHRU": 2,
        "MAINTRK": 1,
        "SIDINGTRK": 0,
        "YARDTRK": 0,
        "TRANSITTRK": 0,
        "INDUSTRYTR": 0,
        "OTHRTRK": 0,
        "WDCODE": "",
        "REVISIONDA": "1996/01/01 00:00:00",
        "LASTUPDATE": "12/17/2024",
        "AADT": "",
        "AADTYEAR": "1970",
        "STATENAME": "TEXAS",
        "STATEAB": "TX",
        "COUNTYNAME": "PARMER",
        "CITYNAME": "FARWELL",
        "LATDD": 34.3628556,
        "LONGDD": -102.973763,
        "gridlyProductionCertified": true,
        "gridlyClassification": "PUBLIC_ROADWAY",
        "gridlyDisplayName": "PRIVATE",
        "gridlyId": "FRA-014836K"
      }
    },
    {
      "type": "Feature",
      "id": 204515,
      "geometry": {
        "type": "Point",
        "coordinates": [
          -102.952622000248,
          34.3518959002558
        ]
      },
      "properties": {
        "OBJECTID": 204515,
        "CROSSING": "014837S",
        "EFFDATE": 1734393600000,
        "REASON": "14",
        "StateCode": "48",
        "CountyCode": "48369",
        "STCYFIPS": "48369",
        "CITYCD": "483692325",
        "RAILROAD": "BNSF",
        "RRDIV": "RED RIVER",
        "RRSUBDIV": "SLATON",
        "HIGHWAY": "Not Yet Reported by State",
        "STREET": "PRIVATE",
        "TTSTN": "674698",
        "MILEPOST": "0006.350",
        "TYPEXING": "Private",
        "POSXING": "At Grade",
        "PRVCAT": "14",
        "INIT": "1",
        "LATITUDE": 34.3518959,
        "LONGITUD": -102.952622,
        "LLSOURCE": "1",
        "WHISTBAN": "0",
        "RRCONT": "8173521549",
        "POLCONT": "8008325452",
        "INV_LINK": "https://safetydata.fra.dot.gov/OfficeofSafety/PublicSite/Crossing/Crossing.aspx?phasetype=C&rpttype=I&txtcrossingnum=014837S",
        "ACC_LINK": "https://safetydata.fra.dot.gov/OfficeofSafety/PublicSite/Crossing/Crossing.aspx?phasetype=C&rpttype=A&txtcrossingnum=014837S",
        "TTSTNNAM": "LARIAT",
        "XPURPOSE": "1",
        "OPERATINGR": "BNSF",
        "OPERATIN_1": "Primary",
        "DAYTHRU": 2,
        "NGHTTHRU": 2,
        "MAINTRK": 1,
        "SIDINGTRK": 0,
        "YARDTRK": 0,
        "TRANSITTRK": 0,
        "INDUSTRYTR": 0,
        "OTHRTRK": 0,
        "WDCODE": "",
        "REVISIONDA": "1996/01/01 00:00:00",
        "LASTUPDATE": "12/17/2024",
        "AADT": "",
        "AADTYEAR": "1970",
        "STATENAME": "TEXAS",
        "STATEAB": "TX",
        "COUNTYNAME": "PARMER",
        "CITYNAME": "FARWELL",
        "LATDD": 34.3518959,
        "LONGDD": -102.952622,
        "gridlyProductionCertified": true,
        "gridlyClassification": "PUBLIC_ROADWAY",
        "gridlyDisplayName": "PRIVATE",
        "gridlyId": "FRA-014837S"
      }
    },
    {
      "type": "Feature",
      "id": 204918,
      "geometry": {
        "type": "Point",
        "coordinates": [
          -102.781063000437,
          34.5957837003604
        ]
      },
      "properties": {
        "OBJECTID": 204918,
        "CROSSING": "014775W",
        "EFFDATE": 1734393600000,
        "REASON": "14",
        "StateCode": "48",
        "CountyCode": "48369",
        "STCYFIPS": "48369",
        "CITYCD": "483692510",
        "RAILROAD": "BNSF",
        "RRDIV": "KANSAS",
        "RRSUBDIV": "HEREFORD",
        "HIGHWAY": "CO 0314",
        "STREET": "CR 0314",
        "TTSTN": "674650",
        "MILEPOST": "0626.260",
        "TYPEXING": "Public",
        "POSXING": "At Grade",
        "PRVCAT": "14",
        "INIT": "1",
        "LATITUDE": 34.5957837,
        "LONGITUD": -102.781063,
        "LLSOURCE": "1",
        "WHISTBAN": "0",
        "RRCONT": "8173521549",
        "POLCONT": "8008325452",
        "INV_LINK": "https://safetydata.fra.dot.gov/OfficeofSafety/PublicSite/Crossing/Crossing.aspx?phasetype=C&rpttype=I&txtcrossingnum=014775W",
        "ACC_LINK": "https://safetydata.fra.dot.gov/OfficeofSafety/PublicSite/Crossing/Crossing.aspx?phasetype=C&rpttype=A&txtcrossingnum=014775W",
        "TTSTNNAM": "CAMPBELL",
        "XPURPOSE": "1",
        "OPERATINGR": "BNSF",
        "OPERATIN_1": "Primary",
        "DAYTHRU": 32,
        "NGHTTHRU": 32,
        "MAINTRK": 2,
        "SIDINGTRK": 0,
        "YARDTRK": 0,
        "TRANSITTRK": 0,
        "INDUSTRYTR": 0,
        "OTHRTRK": 0,
        "WDCODE": "All other Gates",
        "REVISIONDA": "1996/01/01 00:00:00",
        "LASTUPDATE": "12/17/2024",
        "AADT": "14",
        "AADTYEAR": "2019",
        "STATENAME": "TEXAS",
        "STATEAB": "TX",
        "COUNTYNAME": "PARMER",
        "CITYNAME": "FRIONA",
        "LATDD": 34.5957837,
        "LONGDD": -102.781063,
        "gridlyProductionCertified": true,
        "gridlyClassification": "PUBLIC_ROADWAY",
        "gridlyDisplayName": "CR 0314",
        "gridlyId": "FRA-014775W"
      }
    },
    {
      "type": "Feature",
      "id": 205413,
      "geometry": {
        "type": "Point",
        "coordinates": [
          -102.904410000159,
          34.5026300002795
        ]
      },
      "properties": {
        "OBJECTID": 205413,
        "CROSSING": "980788K",
        "EFFDATE": 1736985600000,
        "REASON": "14",
        "StateCode": "48",
        "CountyCode": "48369",
        "STCYFIPS": "48369",
        "CITYCD": "483690790",
        "RAILROAD": "BNSF",
        "RRDIV": "KANSAS",
        "RRSUBDIV": "HEREFORD",
        "HIGHWAY": "PRIVATE",
        "STREET": "CARGILL INDUSTRY",
        "TTSTN": "",
        "MILEPOST": "0635.857",
        "TYPEXING": "Private",
        "POSXING": "At Grade",
        "PRVCAT": "14",
        "INIT": "1",
        "LATITUDE": 34.50263,
        "LONGITUD": -102.90441,
        "LLSOURCE": "1",
        "WHISTBAN": "",
        "RRCONT": "8173521549",
        "POLCONT": "8008325452",
        "INV_LINK": "https://safetydata.fra.dot.gov/OfficeofSafety/PublicSite/Crossing/Crossing.aspx?phasetype=C&rpttype=I&txtcrossingnum=980788K",
        "ACC_LINK": "https://safetydata.fra.dot.gov/OfficeofSafety/PublicSite/Crossing/Crossing.aspx?phasetype=C&rpttype=A&txtcrossingnum=980788K",
        "TTSTNNAM": "",
        "XPURPOSE": "1",
        "OPERATINGR": "BNSF",
        "OPERATIN_1": "Primary",
        "DAYTHRU": 0,
        "NGHTTHRU": 0,
        "MAINTRK": 0,
        "SIDINGTRK": 0,
        "YARDTRK": 0,
        "TRANSITTRK": 0,
        "INDUSTRYTR": 1,
        "OTHRTRK": 0,
        "WDCODE": "",
        "REVISIONDA": "1996/01/01 00:00:00",
        "LASTUPDATE": "1/16/2025",
        "AADT": "",
        "AADTYEAR": "",
        "STATENAME": "TEXAS",
        "STATEAB": "TX",
        "COUNTYNAME": "PARMER",
        "CITYNAME": "BOVINA",
        "LATDD": 34.50263,
        "LONGDD": -102.90441,
        "gridlyProductionCertified": true,
        "gridlyClassification": "PUBLIC_ROADWAY",
        "gridlyDisplayName": "CARGILL INDUSTRY",
        "gridlyId": "FRA-980788K"
      }
    },
    {
      "type": "Feature",
      "id": 205968,
      "geometry": {
        "type": "Point",
        "coordinates": [
          -103.040377000117,
          34.3899721998334
        ]
      },
      "properties": {
        "OBJECTID": 205968,
        "CROSSING": "014829A",
        "EFFDATE": 1774396800000,
        "REASON": "14",
        "StateCode": "48",
        "CountyCode": "48369",
        "STCYFIPS": "48369",
        "CITYCD": "483692325",
        "RAILROAD": "BNSF",
        "RRDIV": "RED RIVER",
        "RRSUBDIV": "SLATON",
        "HIGHWAY": "LS0000",
        "STREET": "THIRD STREET",
        "TTSTN": "773463",
        "MILEPOST": "0000.590",
        "TYPEXING": "Public",
        "POSXING": "At Grade",
        "PRVCAT": "14",
        "INIT": "2",
        "LATITUDE": 34.3899722,
        "LONGITUD": -103.040377,
        "LLSOURCE": "1",
        "WHISTBAN": "0",
        "RRCONT": "8173521549",
        "POLCONT": "8008325452",
        "INV_LINK": "https://safetydata.fra.dot.gov/OfficeofSafety/PublicSite/Crossing/Crossing.aspx?phasetype=C&rpttype=I&txtcrossingnum=014829A",
        "ACC_LINK": "https://safetydata.fra.dot.gov/OfficeofSafety/PublicSite/Crossing/Crossing.aspx?phasetype=C&rpttype=A&txtcrossingnum=014829A",
        "TTSTNNAM": "TEXICO",
        "XPURPOSE": "1",
        "OPERATINGR": "BNSF",
        "OPERATIN_1": "Primary",
        "DAYTHRU": 2,
        "NGHTTHRU": 1,
        "MAINTRK": 1,
        "SIDINGTRK": 0,
        "YARDTRK": 0,
        "TRANSITTRK": 0,
        "INDUSTRYTR": 2,
        "OTHRTRK": 2,
        "WDCODE": "Crossbucks",
        "REVISIONDA": "1996/01/01 00:00:00",
        "LASTUPDATE": "3/25/2026",
        "AADT": "1156",
        "AADTYEAR": "2024",
        "STATENAME": "TEXAS",
        "STATEAB": "TX",
        "COUNTYNAME": "PARMER",
        "CITYNAME": "FARWELL",
        "LATDD": 34.3899722,
        "LONGDD": -103.040377,
        "gridlyProductionCertified": true,
        "gridlyClassification": "PUBLIC_ROADWAY",
        "gridlyDisplayName": "THIRD STREET",
        "gridlyId": "FRA-014829A"
      }
    },
    {
      "type": "Feature",
      "id": 207855,
      "geometry": {
        "type": "Point",
        "coordinates": [
          -102.744910800392,
          34.6195841999548
        ]
      },
      "properties": {
        "OBJECTID": 207855,
        "CROSSING": "014771U",
        "EFFDATE": 1773273600000,
        "REASON": "14",
        "StateCode": "48",
        "CountyCode": "48369",
        "STCYFIPS": "48369",
        "CITYCD": "483692510",
        "RAILROAD": "BNSF",
        "RRDIV": "KANSAS",
        "RRSUBDIV": "HEREFORD",
        "HIGHWAY": "CR0017",
        "STREET": "COUNTY ROAD 17",
        "TTSTN": "674620",
        "MILEPOST": "0623.618",
        "TYPEXING": "Public",
        "POSXING": "At Grade",
        "PRVCAT": "14",
        "INIT": "2",
        "LATITUDE": 34.6195842,
        "LONGITUD": -102.7449108,
        "LLSOURCE": "1",
        "WHISTBAN": "0",
        "RRCONT": "8173521549",
        "POLCONT": "8008325452",
        "INV_LINK": "https://safetydata.fra.dot.gov/OfficeofSafety/PublicSite/Crossing/Crossing.aspx?phasetype=C&rpttype=I&txtcrossingnum=014771U",
        "ACC_LINK": "https://safetydata.fra.dot.gov/OfficeofSafety/PublicSite/Crossing/Crossing.aspx?phasetype=C&rpttype=A&txtcrossingnum=014771U",
        "TTSTNNAM": "FRIONA",
        "XPURPOSE": "1",
        "OPERATINGR": "BNSF",
        "OPERATIN_1": "Primary",
        "DAYTHRU": 32,
        "NGHTTHRU": 32,
        "MAINTRK": 2,
        "SIDINGTRK": 0,
        "YARDTRK": 0,
        "TRANSITTRK": 0,
        "INDUSTRYTR": 0,
        "OTHRTRK": 0,
        "WDCODE": "All other Gates",
        "REVISIONDA": "1996/01/01 00:00:00",
        "LASTUPDATE": "3/12/2026",
        "AADT": "15",
        "AADTYEAR": "2019",
        "STATENAME": "TEXAS",
        "STATEAB": "TX",
        "COUNTYNAME": "PARMER",
        "CITYNAME": "FRIONA",
        "LATDD": 34.6195842,
        "LONGDD": -102.7449108,
        "gridlyProductionCertified": true,
        "gridlyClassification": "PUBLIC_ROADWAY",
        "gridlyDisplayName": "COUNTY ROAD 17",
        "gridlyId": "FRA-014771U"
      }
    },
    {
      "type": "Feature",
      "id": 207935,
      "geometry": {
        "type": "Point",
        "coordinates": [
          -102.718412599772,
          34.6340719002763
        ]
      },
      "properties": {
        "OBJECTID": 207935,
        "CROSSING": "014769T",
        "EFFDATE": 1773187200000,
        "REASON": "14",
        "StateCode": "48",
        "CountyCode": "48369",
        "STCYFIPS": "48369",
        "CITYCD": "483692510",
        "RAILROAD": "BNSF",
        "RRDIV": "KANSAS",
        "RRSUBDIV": "HEREFORD",
        "HIGHWAY": "FM2397",
        "STREET": "FM2397 / MAIN STREET",
        "TTSTN": "674620",
        "MILEPOST": "0621.806",
        "TYPEXING": "Public",
        "POSXING": "At Grade",
        "PRVCAT": "14",
        "INIT": "2",
        "LATITUDE": 34.6340719,
        "LONGITUD": -102.7184126,
        "LLSOURCE": "1",
        "WHISTBAN": "0",
        "RRCONT": "8173521549",
        "POLCONT": "8008325452",
        "INV_LINK": "https://safetydata.fra.dot.gov/OfficeofSafety/PublicSite/Crossing/Crossing.aspx?phasetype=C&rpttype=I&txtcrossingnum=014769T",
        "ACC_LINK": "https://safetydata.fra.dot.gov/OfficeofSafety/PublicSite/Crossing/Crossing.aspx?phasetype=C&rpttype=A&txtcrossingnum=014769T",
        "TTSTNNAM": "FRIONA",
        "XPURPOSE": "1",
        "OPERATINGR": "BNSF",
        "OPERATIN_1": "Primary",
        "DAYTHRU": 32,
        "NGHTTHRU": 32,
        "MAINTRK": 2,
        "SIDINGTRK": 1,
        "YARDTRK": 0,
        "TRANSITTRK": 0,
        "INDUSTRYTR": 1,
        "OTHRTRK": 2,
        "WDCODE": "All other Gates",
        "REVISIONDA": "1996/01/01 00:00:00",
        "LASTUPDATE": "3/11/2026",
        "AADT": "888",
        "AADTYEAR": "2023",
        "STATENAME": "TEXAS",
        "STATEAB": "TX",
        "COUNTYNAME": "PARMER",
        "CITYNAME": "FRIONA",
        "LATDD": 34.6340719,
        "LONGDD": -102.7184126,
        "gridlyProductionCertified": true,
        "gridlyClassification": "PUBLIC_ROADWAY",
        "gridlyDisplayName": "FM2397 / MAIN STREET",
        "gridlyId": "FRA-014769T"
      }
    },
    {
      "type": "Feature",
      "id": 211365,
      "geometry": {
        "type": "Point",
        "coordinates": [
          -102.551870699806,
          34.7141413998978
        ]
      },
      "properties": {
        "OBJECTID": 211365,
        "CROSSING": "014758F",
        "EFFDATE": 1772064000000,
        "REASON": "14",
        "StateCode": "48",
        "CountyCode": "48369",
        "STCYFIPS": "48369",
        "CITYCD": "481173140",
        "RAILROAD": "BNSF",
        "RRDIV": "KANSAS",
        "RRSUBDIV": "HEREFORD",
        "HIGHWAY": "CR0271",
        "STREET": "COUNTY ROAD 271",
        "TTSTN": "674530",
        "MILEPOST": "0610.800",
        "TYPEXING": "Public",
        "POSXING": "At Grade",
        "PRVCAT": "14",
        "INIT": "2",
        "LATITUDE": 34.7141414,
        "LONGITUD": -102.5518707,
        "LLSOURCE": "1",
        "WHISTBAN": "0",
        "RRCONT": "8173521549",
        "POLCONT": "8008325452",
        "INV_LINK": "https://safetydata.fra.dot.gov/OfficeofSafety/PublicSite/Crossing/Crossing.aspx?phasetype=C&rpttype=I&txtcrossingnum=014758F",
        "ACC_LINK": "https://safetydata.fra.dot.gov/OfficeofSafety/PublicSite/Crossing/Crossing.aspx?phasetype=C&rpttype=A&txtcrossingnum=014758F",
        "TTSTNNAM": "SUMMERFIELD",
        "XPURPOSE": "1",
        "OPERATINGR": "BNSF",
        "OPERATIN_1": "Primary",
        "DAYTHRU": 33,
        "NGHTTHRU": 32,
        "MAINTRK": 2,
        "SIDINGTRK": 0,
        "YARDTRK": 0,
        "TRANSITTRK": 0,
        "INDUSTRYTR": 0,
        "OTHRTRK": 0,
        "WDCODE": "All other Gates",
        "REVISIONDA": "1996/01/01 00:00:00",
        "LASTUPDATE": "2/26/2026",
        "AADT": "18",
        "AADTYEAR": "2022",
        "STATENAME": "TEXAS",
        "STATEAB": "TX",
        "COUNTYNAME": "PARMER",
        "CITYNAME": "HEREFORD",
        "LATDD": 34.7141414,
        "LONGDD": -102.5518707,
        "gridlyProductionCertified": true,
        "gridlyClassification": "PUBLIC_ROADWAY",
        "gridlyDisplayName": "COUNTY ROAD 271",
        "gridlyId": "FRA-014758F"
      }
    },
    {
      "type": "Feature",
      "id": 214464,
      "geometry": {
        "type": "Point",
        "coordinates": [
          -102.938740500351,
          34.3457344998945
        ]
      },
      "properties": {
        "OBJECTID": 214464,
        "CROSSING": "014838Y",
        "EFFDATE": 1774483200000,
        "REASON": "14",
        "StateCode": "48",
        "CountyCode": "48369",
        "STCYFIPS": "48369",
        "CITYCD": "483692325",
        "RAILROAD": "BNSF",
        "RRDIV": "RED RIVER",
        "RRSUBDIV": "SLATON",
        "HIGHWAY": "CR0006",
        "STREET": "COUNTY ROAD 6",
        "TTSTN": "674698",
        "MILEPOST": "0007.249",
        "TYPEXING": "Public",
        "POSXING": "At Grade",
        "PRVCAT": "14",
        "INIT": "2",
        "LATITUDE": 34.3457345,
        "LONGITUD": -102.9387405,
        "LLSOURCE": "1",
        "WHISTBAN": "0",
        "RRCONT": "8173521549",
        "POLCONT": "8008325452",
        "INV_LINK": "https://safetydata.fra.dot.gov/OfficeofSafety/PublicSite/Crossing/Crossing.aspx?phasetype=C&rpttype=I&txtcrossingnum=014838Y",
        "ACC_LINK": "https://safetydata.fra.dot.gov/OfficeofSafety/PublicSite/Crossing/Crossing.aspx?phasetype=C&rpttype=A&txtcrossingnum=014838Y",
        "TTSTNNAM": "LARIAT",
        "XPURPOSE": "1",
        "OPERATINGR": "BNSF",
        "OPERATIN_1": "Primary",
        "DAYTHRU": 2,
        "NGHTTHRU": 2,
        "MAINTRK": 1,
        "SIDINGTRK": 0,
        "YARDTRK": 0,
        "TRANSITTRK": 0,
        "INDUSTRYTR": 0,
        "OTHRTRK": 0,
        "WDCODE": "Other signs or signals",
        "REVISIONDA": "1996/01/01 00:00:00",
        "LASTUPDATE": "3/26/2026",
        "AADT": "18",
        "AADTYEAR": "2019",
        "STATENAME": "TEXAS",
        "STATEAB": "TX",
        "COUNTYNAME": "PARMER",
        "CITYNAME": "FARWELL",
        "LATDD": 34.3457345,
        "LONGDD": -102.9387405,
        "gridlyProductionCertified": true,
        "gridlyClassification": "PUBLIC_ROADWAY",
        "gridlyDisplayName": "COUNTY ROAD 6",
        "gridlyId": "FRA-014838Y"
      }
    },
    {
      "type": "Feature",
      "id": 214845,
      "geometry": {
        "type": "Point",
        "coordinates": [
          -102.955676600099,
          34.4511749997781
        ]
      },
      "properties": {
        "OBJECTID": 214845,
        "CROSSING": "014782G",
        "EFFDATE": 1773964800000,
        "REASON": "14",
        "StateCode": "48",
        "CountyCode": "48369",
        "STCYFIPS": "48369",
        "CITYCD": "483692325",
        "RAILROAD": "BNSF",
        "RRDIV": "KANSAS",
        "RRSUBDIV": "HEREFORD",
        "HIGHWAY": "CR0175",
        "STREET": "COUNTY ROAD 175",
        "TTSTN": "585453",
        "MILEPOST": "0640.659",
        "TYPEXING": "Public",
        "POSXING": "At Grade",
        "PRVCAT": "14",
        "INIT": "2",
        "LATITUDE": 34.451175,
        "LONGITUD": -102.9556766,
        "LLSOURCE": "1",
        "WHISTBAN": "0",
        "RRCONT": "8173521549",
        "POLCONT": "8008325452",
        "INV_LINK": "https://safetydata.fra.dot.gov/OfficeofSafety/PublicSite/Crossing/Crossing.aspx?phasetype=C&rpttype=I&txtcrossingnum=014782G",
        "ACC_LINK": "https://safetydata.fra.dot.gov/OfficeofSafety/PublicSite/Crossing/Crossing.aspx?phasetype=C&rpttype=A&txtcrossingnum=014782G",
        "TTSTNNAM": "",
        "XPURPOSE": "1",
        "OPERATINGR": "BNSF",
        "OPERATIN_1": "Primary",
        "DAYTHRU": 32,
        "NGHTTHRU": 31,
        "MAINTRK": 2,
        "SIDINGTRK": 0,
        "YARDTRK": 0,
        "TRANSITTRK": 0,
        "INDUSTRYTR": 0,
        "OTHRTRK": 0,
        "WDCODE": "All other Gates",
        "REVISIONDA": "1996/01/01 00:00:00",
        "LASTUPDATE": "3/20/2026",
        "AADT": "18",
        "AADTYEAR": "2019",
        "STATENAME": "TEXAS",
        "STATEAB": "TX",
        "COUNTYNAME": "PARMER",
        "CITYNAME": "FARWELL",
        "LATDD": 34.451175,
        "LONGDD": -102.9556766,
        "gridlyProductionCertified": true,
        "gridlyClassification": "PUBLIC_ROADWAY",
        "gridlyDisplayName": "COUNTY ROAD 175",
        "gridlyId": "FRA-014782G"
      }
    },
    {
      "type": "Feature",
      "id": 214846,
      "geometry": {
        "type": "Point",
        "coordinates": [
          -103.015175300217,
          34.4088936997106
        ]
      },
      "properties": {
        "OBJECTID": 214846,
        "CROSSING": "014785C",
        "EFFDATE": 1773964800000,
        "REASON": "14",
        "StateCode": "48",
        "CountyCode": "48369",
        "STCYFIPS": "48369",
        "CITYCD": "483692325",
        "RAILROAD": "BNSF",
        "RRDIV": "KANSAS",
        "RRSUBDIV": "HEREFORD",
        "HIGHWAY": "CR0413",
        "STREET": "COUNTY ROAD X",
        "TTSTN": "674660",
        "MILEPOST": "0645.130",
        "TYPEXING": "Public",
        "POSXING": "At Grade",
        "PRVCAT": "14",
        "INIT": "2",
        "LATITUDE": 34.4088937,
        "LONGITUD": -103.0151753,
        "LLSOURCE": "1",
        "WHISTBAN": "0",
        "RRCONT": "8173521549",
        "POLCONT": "8008325452",
        "INV_LINK": "https://safetydata.fra.dot.gov/OfficeofSafety/PublicSite/Crossing/Crossing.aspx?phasetype=C&rpttype=I&txtcrossingnum=014785C",
        "ACC_LINK": "https://safetydata.fra.dot.gov/OfficeofSafety/PublicSite/Crossing/Crossing.aspx?phasetype=C&rpttype=A&txtcrossingnum=014785C",
        "TTSTNNAM": "BOVINA",
        "XPURPOSE": "1",
        "OPERATINGR": "BNSF",
        "OPERATIN_1": "Primary",
        "DAYTHRU": 32,
        "NGHTTHRU": 31,
        "MAINTRK": 2,
        "SIDINGTRK": 0,
        "YARDTRK": 0,
        "TRANSITTRK": 0,
        "INDUSTRYTR": 0,
        "OTHRTRK": 0,
        "WDCODE": "All other Gates",
        "REVISIONDA": "1996/01/01 00:00:00",
        "LASTUPDATE": "3/20/2026",
        "AADT": "169",
        "AADTYEAR": "2024",
        "STATENAME": "TEXAS",
        "STATEAB": "TX",
        "COUNTYNAME": "PARMER",
        "CITYNAME": "FARWELL",
        "LATDD": 34.4088937,
        "LONGDD": -103.0151753,
        "gridlyProductionCertified": true,
        "gridlyClassification": "PUBLIC_ROADWAY",
        "gridlyDisplayName": "COUNTY ROAD X",
        "gridlyId": "FRA-014785C"
      }
    },
    {
      "type": "Feature",
      "id": 215608,
      "geometry": {
        "type": "Point",
        "coordinates": [
          -102.898100099755,
          34.5079380001984
        ]
      },
      "properties": {
        "OBJECTID": 215608,
        "CROSSING": "014781A",
        "EFFDATE": 1769731200000,
        "REASON": "14",
        "StateCode": "48",
        "CountyCode": "48369",
        "STCYFIPS": "48369",
        "CITYCD": "483690790",
        "RAILROAD": "BNSF",
        "RRDIV": "KANSAS",
        "RRSUBDIV": "HEREFORD",
        "HIGHWAY": "SH0086",
        "STREET": "SH0086",
        "TTSTN": "674660",
        "MILEPOST": "0635.350",
        "TYPEXING": "Public",
        "POSXING": "RR Over",
        "PRVCAT": "14",
        "INIT": "2",
        "LATITUDE": 34.507938,
        "LONGITUD": -102.8981001,
        "LLSOURCE": "1",
        "WHISTBAN": "0",
        "RRCONT": "8173521549",
        "POLCONT": "8008325452",
        "INV_LINK": "https://safetydata.fra.dot.gov/OfficeofSafety/PublicSite/Crossing/Crossing.aspx?phasetype=C&rpttype=I&txtcrossingnum=014781A",
        "ACC_LINK": "https://safetydata.fra.dot.gov/OfficeofSafety/PublicSite/Crossing/Crossing.aspx?phasetype=C&rpttype=A&txtcrossingnum=014781A",
        "TTSTNNAM": "BOVINA",
        "XPURPOSE": "1",
        "OPERATINGR": "BNSF",
        "OPERATIN_1": "Primary",
        "DAYTHRU": 32,
        "NGHTTHRU": 31,
        "MAINTRK": 1,
        "SIDINGTRK": 0,
        "YARDTRK": 0,
        "TRANSITTRK": 0,
        "INDUSTRYTR": 0,
        "OTHRTRK": 0,
        "WDCODE": "",
        "REVISIONDA": "1996/01/01 00:00:00",
        "LASTUPDATE": "1/30/2026",
        "AADT": "1312",
        "AADTYEAR": "2024",
        "STATENAME": "TEXAS",
        "STATEAB": "TX",
        "COUNTYNAME": "PARMER",
        "CITYNAME": "BOVINA",
        "LATDD": 34.507938,
        "LONGDD": -102.8981001,
        "gridlyProductionCertified": true,
        "gridlyClassification": "PUBLIC_ROADWAY",
        "gridlyDisplayName": "SH0086",
        "gridlyId": "FRA-014781A"
      }
    },
    {
      "type": "Feature",
      "id": 215609,
      "geometry": {
        "type": "Point",
        "coordinates": [
          -102.727357900302,
          34.6294853003058
        ]
      },
      "properties": {
        "OBJECTID": 215609,
        "CROSSING": "014799K",
        "EFFDATE": 1769731200000,
        "REASON": "14",
        "StateCode": "48",
        "CountyCode": "48369",
        "STCYFIPS": "48369",
        "CITYCD": "483692510",
        "RAILROAD": "BNSF",
        "RRDIV": "KANSAS",
        "RRSUBDIV": "HEREFORD",
        "HIGHWAY": "SH0214",
        "STREET": "SH0214 / GRAND AVENUE",
        "TTSTN": "674620",
        "MILEPOST": "0622.410",
        "TYPEXING": "Public",
        "POSXING": "RR Under",
        "PRVCAT": "14",
        "INIT": "2",
        "LATITUDE": 34.6294853,
        "LONGITUD": -102.7273579,
        "LLSOURCE": "1",
        "WHISTBAN": "0",
        "RRCONT": "8173521549",
        "POLCONT": "8008325452",
        "INV_LINK": "https://safetydata.fra.dot.gov/OfficeofSafety/PublicSite/Crossing/Crossing.aspx?phasetype=C&rpttype=I&txtcrossingnum=014799K",
        "ACC_LINK": "https://safetydata.fra.dot.gov/OfficeofSafety/PublicSite/Crossing/Crossing.aspx?phasetype=C&rpttype=A&txtcrossingnum=014799K",
        "TTSTNNAM": "FRIONA",
        "XPURPOSE": "1",
        "OPERATINGR": "BNSF",
        "OPERATIN_1": "Primary",
        "DAYTHRU": 17,
        "NGHTTHRU": 16,
        "MAINTRK": 1,
        "SIDINGTRK": 0,
        "YARDTRK": 0,
        "TRANSITTRK": 0,
        "INDUSTRYTR": 0,
        "OTHRTRK": 0,
        "WDCODE": "",
        "REVISIONDA": "1996/01/01 00:00:00",
        "LASTUPDATE": "1/30/2026",
        "AADT": "2515",
        "AADTYEAR": "2024",
        "STATENAME": "TEXAS",
        "STATEAB": "TX",
        "COUNTYNAME": "PARMER",
        "CITYNAME": "FRIONA",
        "LATDD": 34.6294853,
        "LONGDD": -102.7273579,
        "gridlyProductionCertified": true,
        "gridlyClassification": "PUBLIC_ROADWAY",
        "gridlyDisplayName": "SH0214 / GRAND AVENUE",
        "gridlyId": "FRA-014799K"
      }
    },
    {
      "type": "Feature",
      "id": 215833,
      "geometry": {
        "type": "Point",
        "coordinates": [
          -102.602283099827,
          34.6868865997749
        ]
      },
      "properties": {
        "OBJECTID": 215833,
        "CROSSING": "014761N",
        "EFFDATE": 1772064000000,
        "REASON": "14",
        "StateCode": "48",
        "CountyCode": "48369",
        "STCYFIPS": "48369",
        "CITYCD": "483692510",
        "RAILROAD": "BNSF",
        "RRDIV": "KANSAS",
        "RRSUBDIV": "HEREFORD",
        "HIGHWAY": "FM1172",
        "STREET": "FM1172",
        "TTSTN": "674610",
        "MILEPOST": "0614.240",
        "TYPEXING": "Public",
        "POSXING": "At Grade",
        "PRVCAT": "14",
        "INIT": "2",
        "LATITUDE": 34.6868866,
        "LONGITUD": -102.6022831,
        "LLSOURCE": "1",
        "WHISTBAN": "0",
        "RRCONT": "8173521549",
        "POLCONT": "8008325452",
        "INV_LINK": "https://safetydata.fra.dot.gov/OfficeofSafety/PublicSite/Crossing/Crossing.aspx?phasetype=C&rpttype=I&txtcrossingnum=014761N",
        "ACC_LINK": "https://safetydata.fra.dot.gov/OfficeofSafety/PublicSite/Crossing/Crossing.aspx?phasetype=C&rpttype=A&txtcrossingnum=014761N",
        "TTSTNNAM": "BLACK",
        "XPURPOSE": "1",
        "OPERATINGR": "BNSF",
        "OPERATIN_1": "Primary",
        "DAYTHRU": 32,
        "NGHTTHRU": 32,
        "MAINTRK": 2,
        "SIDINGTRK": 1,
        "YARDTRK": 0,
        "TRANSITTRK": 0,
        "INDUSTRYTR": 0,
        "OTHRTRK": 1,
        "WDCODE": "All other Gates",
        "REVISIONDA": "1996/01/01 00:00:00",
        "LASTUPDATE": "2/26/2026",
        "AADT": "271",
        "AADTYEAR": "2023",
        "STATENAME": "TEXAS",
        "STATEAB": "TX",
        "COUNTYNAME": "PARMER",
        "CITYNAME": "FRIONA",
        "LATDD": 34.6868866,
        "LONGDD": -102.6022831,
        "gridlyProductionCertified": true,
        "gridlyClassification": "PUBLIC_ROADWAY",
        "gridlyDisplayName": "FM1172",
        "gridlyId": "FRA-014761N"
      }
    },
    {
      "type": "Feature",
      "id": 215911,
      "geometry": {
        "type": "Point",
        "coordinates": [
          -102.577312799656,
          34.7003875003583
        ]
      },
      "properties": {
        "OBJECTID": 215911,
        "CROSSING": "014760G",
        "EFFDATE": 1772064000000,
        "REASON": "14",
        "StateCode": "48",
        "CountyCode": "48369",
        "STCYFIPS": "48369",
        "CITYCD": "483692510",
        "RAILROAD": "BNSF",
        "RRDIV": "KANSAS",
        "RRSUBDIV": "HEREFORD",
        "HIGHWAY": "CR0027",
        "STREET": "COUNTY ROAD 27",
        "TTSTN": "674610",
        "MILEPOST": "0612.540",
        "TYPEXING": "Public",
        "POSXING": "At Grade",
        "PRVCAT": "14",
        "INIT": "2",
        "LATITUDE": 34.7003875,
        "LONGITUD": -102.5773128,
        "LLSOURCE": "1",
        "WHISTBAN": "0",
        "RRCONT": "8173521549",
        "POLCONT": "8008325452",
        "INV_LINK": "https://safetydata.fra.dot.gov/OfficeofSafety/PublicSite/Crossing/Crossing.aspx?phasetype=C&rpttype=I&txtcrossingnum=014760G",
        "ACC_LINK": "https://safetydata.fra.dot.gov/OfficeofSafety/PublicSite/Crossing/Crossing.aspx?phasetype=C&rpttype=A&txtcrossingnum=014760G",
        "TTSTNNAM": "BLACK",
        "XPURPOSE": "1",
        "OPERATINGR": "BNSF",
        "OPERATIN_1": "Primary",
        "DAYTHRU": 33,
        "NGHTTHRU": 32,
        "MAINTRK": 2,
        "SIDINGTRK": 0,
        "YARDTRK": 0,
        "TRANSITTRK": 0,
        "INDUSTRYTR": 0,
        "OTHRTRK": 0,
        "WDCODE": "All other Gates",
        "REVISIONDA": "1996/01/01 00:00:00",
        "LASTUPDATE": "2/26/2026",
        "AADT": "276",
        "AADTYEAR": "2024",
        "STATENAME": "TEXAS",
        "STATEAB": "TX",
        "COUNTYNAME": "PARMER",
        "CITYNAME": "FRIONA",
        "LATDD": 34.7003875,
        "LONGDD": -102.5773128,
        "gridlyProductionCertified": true,
        "gridlyClassification": "PUBLIC_ROADWAY",
        "gridlyDisplayName": "COUNTY ROAD 27",
        "gridlyId": "FRA-014760G"
      }
    },
    {
      "type": "Feature",
      "id": 216325,
      "geometry": {
        "type": "Point",
        "coordinates": [
          -103.031608199676,
          34.397232299945
        ]
      },
      "properties": {
        "OBJECTID": 216325,
        "CROSSING": "014786J",
        "EFFDATE": 1774396800000,
        "REASON": "14",
        "StateCode": "48",
        "CountyCode": "48369",
        "STCYFIPS": "48369",
        "CITYCD": "483692325",
        "RAILROAD": "BNSF",
        "RRDIV": "KANSAS",
        "RRSUBDIV": "HEREFORD",
        "HIGHWAY": "fm0292",
        "STREET": "FM0292",
        "TTSTN": "773463",
        "MILEPOST": "0646.399",
        "TYPEXING": "Public",
        "POSXING": "At Grade",
        "PRVCAT": "14",
        "INIT": "2",
        "LATITUDE": 34.3972323,
        "LONGITUD": -103.0316082,
        "LLSOURCE": "1",
        "WHISTBAN": "0",
        "RRCONT": "8173521549",
        "POLCONT": "8008325452",
        "INV_LINK": "https://safetydata.fra.dot.gov/OfficeofSafety/PublicSite/Crossing/Crossing.aspx?phasetype=C&rpttype=I&txtcrossingnum=014786J",
        "ACC_LINK": "https://safetydata.fra.dot.gov/OfficeofSafety/PublicSite/Crossing/Crossing.aspx?phasetype=C&rpttype=A&txtcrossingnum=014786J",
        "TTSTNNAM": "TEXICO",
        "XPURPOSE": "1",
        "OPERATINGR": "BNSF",
        "OPERATIN_1": "Primary",
        "DAYTHRU": 32,
        "NGHTTHRU": 31,
        "MAINTRK": 2,
        "SIDINGTRK": 0,
        "YARDTRK": 0,
        "TRANSITTRK": 0,
        "INDUSTRYTR": 0,
        "OTHRTRK": 0,
        "WDCODE": "All other Gates",
        "REVISIONDA": "1996/01/01 00:00:00",
        "LASTUPDATE": "3/25/2026",
        "AADT": "1139",
        "AADTYEAR": "2023",
        "STATENAME": "TEXAS",
        "STATEAB": "TX",
        "COUNTYNAME": "PARMER",
        "CITYNAME": "FARWELL",
        "LATDD": 34.3972323,
        "LONGDD": -103.0316082,
        "gridlyProductionCertified": true,
        "gridlyClassification": "PUBLIC_ROADWAY",
        "gridlyDisplayName": "FM0292",
        "gridlyId": "FRA-014786J"
      }
    },
    {
      "type": "Feature",
      "id": 216329,
      "geometry": {
        "type": "Point",
        "coordinates": [
          -103.043528399728,
          34.3887428997119
        ]
      },
      "properties": {
        "OBJECTID": 216329,
        "CROSSING": "014787R",
        "EFFDATE": 1774396800000,
        "REASON": "14",
        "StateCode": "48",
        "CountyCode": "48369",
        "STCYFIPS": "48369",
        "CITYCD": "483692325",
        "RAILROAD": "BNSF",
        "RRDIV": "KANSAS",
        "RRSUBDIV": "HEREFORD",
        "HIGHWAY": "US0070",
        "STREET": "US0070 / US0084",
        "TTSTN": "773463",
        "MILEPOST": "0647.272",
        "TYPEXING": "Public",
        "POSXING": "At Grade",
        "PRVCAT": "14",
        "INIT": "2",
        "LATITUDE": 34.3887429,
        "LONGITUD": -103.0435284,
        "LLSOURCE": "1",
        "WHISTBAN": "0",
        "RRCONT": "8173521549",
        "POLCONT": "8008325452",
        "INV_LINK": "https://safetydata.fra.dot.gov/OfficeofSafety/PublicSite/Crossing/Crossing.aspx?phasetype=C&rpttype=I&txtcrossingnum=014787R",
        "ACC_LINK": "https://safetydata.fra.dot.gov/OfficeofSafety/PublicSite/Crossing/Crossing.aspx?phasetype=C&rpttype=A&txtcrossingnum=014787R",
        "TTSTNNAM": "TEXICO",
        "XPURPOSE": "1",
        "OPERATINGR": "BNSF",
        "OPERATIN_1": "Primary",
        "DAYTHRU": 33,
        "NGHTTHRU": 32,
        "MAINTRK": 3,
        "SIDINGTRK": 0,
        "YARDTRK": 0,
        "TRANSITTRK": 0,
        "INDUSTRYTR": 0,
        "OTHRTRK": 0,
        "WDCODE": "All other Gates",
        "REVISIONDA": "1996/01/01 00:00:00",
        "LASTUPDATE": "3/25/2026",
        "AADT": "8824",
        "AADTYEAR": "2023",
        "STATENAME": "TEXAS",
        "STATEAB": "TX",
        "COUNTYNAME": "PARMER",
        "CITYNAME": "FARWELL",
        "LATDD": 34.3887429,
        "LONGDD": -103.0435284,
        "gridlyProductionCertified": true,
        "gridlyClassification": "PUBLIC_ROADWAY",
        "gridlyDisplayName": "US0070 / US0084",
        "gridlyId": "FRA-014787R"
      }
    },
    {
      "type": "Feature",
      "id": 216354,
      "geometry": {
        "type": "Point",
        "coordinates": [
          -102.977395699628,
          34.4357072998845
        ]
      },
      "properties": {
        "OBJECTID": 216354,
        "CROSSING": "014783N",
        "EFFDATE": 1773964800000,
        "REASON": "14",
        "StateCode": "48",
        "CountyCode": "48369",
        "STCYFIPS": "48369",
        "CITYCD": "483692325",
        "RAILROAD": "BNSF",
        "RRDIV": "KANSAS",
        "RRSUBDIV": "HEREFORD",
        "HIGHWAY": "FM3333",
        "STREET": "FM3333",
        "TTSTN": "674692",
        "MILEPOST": "0642.300",
        "TYPEXING": "Public",
        "POSXING": "At Grade",
        "PRVCAT": "14",
        "INIT": "2",
        "LATITUDE": 34.4357073,
        "LONGITUD": -102.9773957,
        "LLSOURCE": "1",
        "WHISTBAN": "0",
        "RRCONT": "8173521549",
        "POLCONT": "8008325452",
        "INV_LINK": "https://safetydata.fra.dot.gov/OfficeofSafety/PublicSite/Crossing/Crossing.aspx?phasetype=C&rpttype=I&txtcrossingnum=014783N",
        "ACC_LINK": "https://safetydata.fra.dot.gov/OfficeofSafety/PublicSite/Crossing/Crossing.aspx?phasetype=C&rpttype=A&txtcrossingnum=014783N",
        "TTSTNNAM": "WILSEY",
        "XPURPOSE": "1",
        "OPERATINGR": "BNSF",
        "OPERATIN_1": "Primary",
        "DAYTHRU": 32,
        "NGHTTHRU": 31,
        "MAINTRK": 2,
        "SIDINGTRK": 0,
        "YARDTRK": 0,
        "TRANSITTRK": 0,
        "INDUSTRYTR": 0,
        "OTHRTRK": 0,
        "WDCODE": "All other Gates",
        "REVISIONDA": "1996/01/01 00:00:00",
        "LASTUPDATE": "3/20/2026",
        "AADT": "337",
        "AADTYEAR": "2023",
        "STATENAME": "TEXAS",
        "STATEAB": "TX",
        "COUNTYNAME": "PARMER",
        "CITYNAME": "FARWELL",
        "LATDD": 34.4357073,
        "LONGDD": -102.9773957,
        "gridlyProductionCertified": true,
        "gridlyClassification": "PUBLIC_ROADWAY",
        "gridlyDisplayName": "FM3333",
        "gridlyId": "FRA-014783N"
      }
    },
    {
      "type": "Feature",
      "id": 216355,
      "geometry": {
        "type": "Point",
        "coordinates": [
          -102.90867759963,
          34.3315250002254
        ]
      },
      "properties": {
        "OBJECTID": 216355,
        "CROSSING": "014839F",
        "EFFDATE": 1773964800000,
        "REASON": "14",
        "StateCode": "48",
        "CountyCode": "48369",
        "STCYFIPS": "48369",
        "CITYCD": "483692325",
        "RAILROAD": "BNSF",
        "RRDIV": "RED RIVER",
        "RRSUBDIV": "SLATON",
        "HIGHWAY": "CR0199",
        "STREET": "COUNTY ROAD DD",
        "TTSTN": "674698",
        "MILEPOST": "0009.239",
        "TYPEXING": "Public",
        "POSXING": "At Grade",
        "PRVCAT": "14",
        "INIT": "2",
        "LATITUDE": 34.331525,
        "LONGITUD": -102.9086776,
        "LLSOURCE": "1",
        "WHISTBAN": "0",
        "RRCONT": "8173521549",
        "POLCONT": "8008325452",
        "INV_LINK": "https://safetydata.fra.dot.gov/OfficeofSafety/PublicSite/Crossing/Crossing.aspx?phasetype=C&rpttype=I&txtcrossingnum=014839F",
        "ACC_LINK": "https://safetydata.fra.dot.gov/OfficeofSafety/PublicSite/Crossing/Crossing.aspx?phasetype=C&rpttype=A&txtcrossingnum=014839F",
        "TTSTNNAM": "LARIAT",
        "XPURPOSE": "1",
        "OPERATINGR": "BNSF",
        "OPERATIN_1": "Primary",
        "DAYTHRU": 3,
        "NGHTTHRU": 2,
        "MAINTRK": 1,
        "SIDINGTRK": 1,
        "YARDTRK": 0,
        "TRANSITTRK": 0,
        "INDUSTRYTR": 2,
        "OTHRTRK": 3,
        "WDCODE": "All other Gates",
        "REVISIONDA": "1996/01/01 00:00:00",
        "LASTUPDATE": "3/20/2026",
        "AADT": "182",
        "AADTYEAR": "2022",
        "STATENAME": "TEXAS",
        "STATEAB": "TX",
        "COUNTYNAME": "PARMER",
        "CITYNAME": "FARWELL",
        "LATDD": 34.331525,
        "LONGDD": -102.9086776,
        "gridlyProductionCertified": true,
        "gridlyClassification": "PUBLIC_ROADWAY",
        "gridlyDisplayName": "COUNTY ROAD DD",
        "gridlyId": "FRA-014839F"
      }
    },
    {
      "type": "Feature",
      "id": 216376,
      "geometry": {
        "type": "Point",
        "coordinates": [
          -102.991889999669,
          34.3732300003303
        ]
      },
      "properties": {
        "OBJECTID": 216376,
        "CROSSING": "018271K",
        "EFFDATE": 1774569600000,
        "REASON": "14",
        "StateCode": "48",
        "CountyCode": "48369",
        "STCYFIPS": "48369",
        "CITYCD": "483692325",
        "RAILROAD": "BNSF",
        "RRDIV": "RED RIVER",
        "RRSUBDIV": "SLATON",
        "HIGHWAY": "FM0145",
        "STREET": "FM0145",
        "TTSTN": "",
        "MILEPOST": "0003.654",
        "TYPEXING": "Public",
        "POSXING": "At Grade",
        "PRVCAT": "14",
        "INIT": "2",
        "LATITUDE": 34.37323,
        "LONGITUD": -102.99189,
        "LLSOURCE": "1",
        "WHISTBAN": "",
        "RRCONT": "8173521549",
        "POLCONT": "8008325452",
        "INV_LINK": "https://safetydata.fra.dot.gov/OfficeofSafety/PublicSite/Crossing/Crossing.aspx?phasetype=C&rpttype=I&txtcrossingnum=018271K",
        "ACC_LINK": "https://safetydata.fra.dot.gov/OfficeofSafety/PublicSite/Crossing/Crossing.aspx?phasetype=C&rpttype=A&txtcrossingnum=018271K",
        "TTSTNNAM": "",
        "XPURPOSE": "1",
        "OPERATINGR": "BNSF",
        "OPERATIN_1": "Primary",
        "DAYTHRU": 2,
        "NGHTTHRU": 2,
        "MAINTRK": 1,
        "SIDINGTRK": 0,
        "YARDTRK": 0,
        "TRANSITTRK": 0,
        "INDUSTRYTR": 0,
        "OTHRTRK": 0,
        "WDCODE": "All other Gates",
        "REVISIONDA": "1996/01/01 00:00:00",
        "LASTUPDATE": "3/27/2026",
        "AADT": "525",
        "AADTYEAR": "2024",
        "STATENAME": "TEXAS",
        "STATEAB": "TX",
        "COUNTYNAME": "PARMER",
        "CITYNAME": "FARWELL",
        "LATDD": 34.37323,
        "LONGDD": -102.99189,
        "gridlyProductionCertified": true,
        "gridlyClassification": "PUBLIC_ROADWAY",
        "gridlyDisplayName": "FM0145",
        "gridlyId": "FRA-018271K"
      }
    }
  ]
}
