{"type":"FeatureCollection","bbox":[-94.915,30.03,-94.865,30.065],"attribution":"© OpenStreetMap contributors","license":"https://opendatacommons.org/licenses/odbl/1-0/","features":[{"type":"Feature","properties":{"osmId":"node/151341549","layer":"locality","name":"Dayton","railway":"","waterway":""},"geometry":{"type":"Point","coordinates":[-94.8873913,30.0473202]}},{"type":"Feature","properties":{"osmId":"node/226566550","layer":"crossing","name":"","railway":"level_crossing","waterway":""},"geometry":{"type":"Point","coordinates":[-94.919908,30.0233986]}},{"type":"Feature","properties":{"osmId":"node/226617603","layer":"crossing","name":"","railway":"level_crossing","waterway":""},"geometry":{"type":"Point","coordinates":[-94.8974732,30.0400588]}},{"type":"Feature","properties":{"osmId":"node/226638325","layer":"crossing","name":"","railway":"level_crossing","waterway":""},"geometry":{"type":"Point","coordinates":[-94.8972017,30.0400634]}},{"type":"Feature","properties":{"osmId":"node/3756869551","layer":"crossing","name":"","railway":"level_crossing","waterway":""},"geometry":{"type":"Point","coordinates":[-94.8892145,30.0469049]}},{"type":"Feature","properties":{"osmId":"node/3756869552","layer":"crossing","name":"","railway":"level_crossing","waterway":""},"geometry":{"type":"Point","coordinates":[-94.8874288,30.0482734]}},{"type":"Feature","properties":{"osmId":"node/3756875409","layer":"crossing","name":"","railway":"level_crossing","waterway":""},"geometry":{"type":"Point","coordinates":[-94.8977542,30.0403351]}},{"type":"Feature","properties":{"osmId":"node/3756875410","layer":"crossing","name":"","railway":"level_crossing","waterway":""},"geometry":{"type":"Point","coordinates":[-94.8977823,30.0403628]}},{"type":"Feature","properties":{"osmId":"node/3868383473","layer":"crossing","name":"","railway":"level_crossing","waterway":""},"geometry":{"type":"Point","coordinates":[-94.9199042,30.0233357]}},{"type":"Feature","properties":{"osmId":"node/3868383474","layer":"crossing","name":"","railway":"level_crossing","waterway":""},"geometry":{"type":"Point","coordinates":[-94.9199109,30.0234509]}},{"type":"Feature","properties":{"osmId":"node/4764966391","layer":"crossing","name":"","railway":"level_crossing","waterway":""},"geometry":{"type":"Point","coordinates":[-94.9285696,30.0167175]}},{"type":"Feature","properties":{"osmId":"node/6847369434","layer":"crossing","name":"","railway":"level_crossing","waterway":""},"geometry":{"type":"Point","coordinates":[-94.8838002,30.0517552]}},{"type":"Feature","properties":{"osmId":"node/13513535576","layer":"crossing","name":"","railway":"level_crossing","waterway":""},"geometry":{"type":"Point","coordinates":[-94.9045491,30.0132988]}},{"type":"Feature","properties":{"osmId":"way/21078814","layer":"rail","name":"UP Baytown Subdivision","railway":"rail","waterway":""},"geometry":{"type":"LineString","coordinates":[[-94.8989417,30.0394355],[-94.8985747,30.0396709],[-94.8983498,30.0398012],[-94.8981937,30.0398706],[-94.8980534,30.0399253],[-94.8978471,30.0399936],[-94.8976687,30.0400339],[-94.8974732,30.0400588],[-94.8972017,30.0400634],[-94.8970356,30.0400479],[-94.8968495,30.0400277],[-94.896654,30.039975],[-94.8965028,30.0399104],[-94.8963284,30.039833],[-94.8961089,30.0396982],[-94.895925,30.0395464],[-94.8958052,30.039416],[-94.8957188,30.0393114],[-94.8956112,30.0391689],[-94.8955247,30.0389884],[-94.8954686,30.0388398]]}},{"type":"Feature","properties":{"osmId":"way/259923537","layer":"rail","name":"UP Baytown Subdivision","railway":"rail","waterway":""},"geometry":{"type":"LineString","coordinates":[[-94.9076135,29.9923389],[-94.9063568,29.9970077],[-94.9013454,30.0156238],[-94.9006944,30.0180419],[-94.89607,30.0351943],[-94.8957963,30.0362094],[-94.8955444,30.0372355],[-94.8954716,30.0375449],[-94.8954246,30.0378633],[-94.8954004,30.0381074],[-94.8953883,30.0383606],[-94.8954095,30.038582],[-94.8954686,30.0388398]]}},{"type":"Feature","properties":{"osmId":"way/350700879","layer":"rail","name":"UP Houston Subdivision","railway":"rail","waterway":""},"geometry":{"type":"LineString","coordinates":[[-94.889658,30.0465721],[-94.8892145,30.0469049],[-94.8890121,30.0470609],[-94.8874288,30.0482734],[-94.8871419,30.0484931],[-94.8863282,30.049119],[-94.885538,30.0497319],[-94.8851781,30.0500501],[-94.8849199,30.0502979],[-94.8846643,30.0505848],[-94.884393,30.0508952],[-94.8840696,30.0513307],[-94.8839157,30.0515759],[-94.8838002,30.0517552],[-94.8837175,30.0518836],[-94.8835767,30.0521835],[-94.883428,30.0524757],[-94.8832794,30.0528512],[-94.8831568,30.0531642],[-94.8830394,30.0534772],[-94.8829534,30.0538136],[-94.882823,30.0542518],[-94.8826352,30.0548803],[-94.8824291,30.0555323],[-94.8822883,30.0559496],[-94.8820275,30.056526],[-94.8817641,30.0570294],[-94.8814459,30.0575119],[-94.8811251,30.0579239],[-94.8808252,30.0582708],[-94.8804131,30.0586829],[-94.8800219,30.0590663],[-94.8790777,30.0599478],[-94.8786552,30.060326],[-94.8782373,30.0606416],[-94.8778493,30.0609441],[-94.8773251,30.0612962],[-94.8768296,30.0615674],[-94.8762715,30.0618178],[-94.8757446,30.0620265],[-94.875163,30.0622325],[-94.8745945,30.0623759],[-94.8742215,30.0624594],[-94.8738459,30.0625246],[-94.8735304,30.0625742],[-94.8730609,30.0626237],[-94.8726384,30.0626498],[-94.8721872,30.0626524],[-94.8714569,30.0626263],[-94.8707449,30.0625898],[-94.8636874,30.0620864]]}},{"type":"Feature","properties":{"osmId":"way/350700888","layer":"rail","name":"UP Houston Subdivision","railway":"rail","waterway":""},"geometry":{"type":"LineString","coordinates":[[-94.889658,30.0465721],[-94.8913438,30.0452848],[-94.893438,30.0436782],[-94.8962,30.0415735],[-94.8977823,30.0403628],[-94.8986203,30.0397217],[-94.8999844,30.0386824],[-94.900965,30.0379352],[-94.9043059,30.0353766],[-94.908012,30.0325521],[-94.9121354,30.0293911],[-94.916723,30.0258858],[-94.9199109,30.0234509],[-94.9200796,30.0233221],[-94.9206308,30.0228948],[-94.9213201,30.0223369]]}},{"type":"Feature","properties":{"osmId":"way/350700892","layer":"rail","name":"","railway":"rail","waterway":""},"geometry":{"type":"LineString","coordinates":[[-94.9321809,30.0140131],[-94.9314013,30.0145485],[-94.9310258,30.0148328],[-94.9288115,30.0165332],[-94.9285696,30.0167175],[-94.9265555,30.018252],[-94.9228181,30.0211078],[-94.9199042,30.0233357],[-94.9193116,30.0237888],[-94.9188747,30.0241228],[-94.9169082,30.0256302],[-94.91309,30.0285487],[-94.90935,30.0314071],[-94.9051953,30.034589],[-94.9011136,30.0377031],[-94.8994697,30.0389605]]}},{"type":"Feature","properties":{"osmId":"way/888775512","layer":"rail","name":"","railway":"rail","waterway":""},"geometry":{"type":"LineString","coordinates":[[-94.8994697,30.0389605],[-94.8990668,30.039258],[-94.8985291,30.0396458]]}},{"type":"Feature","properties":{"osmId":"way/888775513","layer":"rail","name":"","railway":"rail","waterway":""},"geometry":{"type":"LineString","coordinates":[[-94.8994697,30.0389605],[-94.8992426,30.0391542],[-94.898995,30.0393886]]}},{"type":"Feature","properties":{"osmId":"way/888775514","layer":"rail","name":"","railway":"rail","waterway":""},"geometry":{"type":"LineString","coordinates":[[-94.8999844,30.0386824],[-94.8994575,30.0390336]]}},{"type":"Feature","properties":{"osmId":"way/888775515","layer":"rail","name":"Union Pacific Railroad","railway":"rail","waterway":""},"geometry":{"type":"LineString","coordinates":[[-94.9213201,30.0223369],[-94.9206036,30.0228568],[-94.919908,30.0233986],[-94.9188346,30.0242157],[-94.9181163,30.0247626],[-94.9157247,30.0265935],[-94.9123712,30.0291631],[-94.907142,30.0331613],[-94.9036106,30.0358529],[-94.9017771,30.0372612],[-94.9002853,30.0383984],[-94.8994575,30.0390336],[-94.898995,30.0393886],[-94.8989417,30.0394355],[-94.897783,30.0403132],[-94.8977542,30.0403351],[-94.8950203,30.0424168],[-94.8908247,30.0456212],[-94.8902303,30.046082],[-94.889658,30.0465721]]}},{"type":"Feature","properties":{"osmId":"way/1035256918","layer":"rail","name":"","railway":"rail","waterway":""},"geometry":{"type":"LineString","coordinates":[[-94.903561,29.9978206],[-94.9018756,30.0040822],[-94.901728,30.0046254],[-94.901531,30.005362],[-94.9015,30.005504],[-94.9014744,30.0056516],[-94.9013935,30.0061995],[-94.9013822,30.0063114],[-94.9013768,30.0064201],[-94.9013601,30.0068814],[-94.9013447,30.0072989],[-94.9013322,30.0077128],[-94.9013149,30.0082102],[-94.9012848,30.0090431],[-94.901272,30.0094554],[-94.9012566,30.0098744],[-94.9012411,30.0102893],[-94.9012262,30.0107609],[-94.9011893,30.011851],[-94.9011856,30.0120355],[-94.9011881,30.01222],[-94.9011994,30.0124422],[-94.901228,30.0127839],[-94.901347,30.0142713],[-94.9013682,30.0145581],[-94.9013802,30.0147347],[-94.9013867,30.0148548],[-94.9013863,30.0149751],[-94.9013792,30.0150939],[-94.9013682,30.0152126],[-94.9013447,30.0153868],[-94.9012931,30.0156231],[-94.9012493,30.0157988],[-94.8976729,30.0290678],[-94.8962907,30.0341699],[-94.8962358,30.0343871],[-94.8961993,30.0345553],[-94.896168,30.0347243],[-94.896121,30.0349596],[-94.89607,30.0351943]]}},{"type":"Feature","properties":{"osmId":"way/1035256928","layer":"rail","name":"","railway":"rail","waterway":""},"geometry":{"type":"LineString","coordinates":[[-94.8957963,30.0362094],[-94.8958502,30.036037],[-94.8959075,30.0358654],[-94.8959647,30.0357045],[-94.8960248,30.0355444],[-94.8960916,30.0353496],[-94.8961522,30.0351533],[-94.8985485,30.0262581],[-94.9009241,30.0174388],[-94.9010209,30.0170795],[-94.9014827,30.0153556],[-94.907549,29.9928193],[-94.9076784,29.9923512]]}},{"type":"Feature","properties":{"osmId":"way/1273395623","layer":"waterway","name":"","railway":"","waterway":"stream"},"geometry":{"type":"LineString","coordinates":[[-94.9087913,30.0475597],[-94.9088208,30.0463547],[-94.9088235,30.0462084],[-94.9088047,30.0461666],[-94.9085,30.0461742],[-94.9082119,30.0461689],[-94.9058006,30.0461712],[-94.9057899,30.0403922],[-94.9058033,30.0402714],[-94.9058087,30.0364309],[-94.9057979,30.0349262],[-94.9058569,30.0346453],[-94.9059213,30.0346406],[-94.9061386,30.0343248],[-94.9063773,30.0340415],[-94.9073,30.0333658],[-94.907359,30.0332752],[-94.9073563,30.0332149],[-94.9073107,30.0331708]]}},{"type":"Feature","properties":{"osmId":"way/1273395624","layer":"waterway","name":"","railway":"","waterway":"stream"},"geometry":{"type":"LineString","coordinates":[[-94.9073107,30.0331708],[-94.9070811,30.0329322]]}},{"type":"Feature","properties":{"osmId":"way/1372686252","layer":"water","name":"","railway":"","waterway":""},"geometry":{"type":"Polygon","coordinates":[[[-94.8967798,30.0363252],[-94.8967529,30.0363591],[-94.8967165,30.0363835],[-94.8966878,30.0363936],[-94.8966788,30.0363973],[-94.8966671,30.0364356],[-94.8965264,30.0364086],[-94.8965359,30.0363724],[-94.8965175,30.0363518],[-94.8964968,30.0363292],[-94.8964888,30.0363026],[-94.8964828,30.0362636],[-94.8964891,30.0362307],[-94.8965027,30.0361806],[-94.8965557,30.0359849],[-94.8966568,30.0356164],[-94.8966764,30.035573],[-94.8967011,30.0355462],[-94.8967397,30.0355247],[-94.896788,30.0355103],[-94.8968313,30.0355126],[-94.8968774,30.0355237],[-94.8969226,30.0355508],[-94.8969467,30.0355901],[-94.896963,30.0356446],[-94.8969541,30.0356972],[-94.896928,30.0357928],[-94.8968831,30.0359521],[-94.8967798,30.0363252]]]}},{"type":"Feature","properties":{"osmId":"way/1372686253","layer":"water","name":"","railway":"","waterway":""},"geometry":{"type":"Polygon","coordinates":[[[-94.8968194,30.0366565],[-94.8967837,30.0366745],[-94.8967432,30.0366818],[-94.8967022,30.0366776],[-94.896663,30.0366613],[-94.8966323,30.0366346],[-94.8966136,30.0366006],[-94.8966091,30.0365632],[-94.8966193,30.0365266],[-94.8966429,30.036495],[-94.8966774,30.036472],[-94.8967187,30.0364603],[-94.8967622,30.0364612],[-94.896801,30.0364736],[-94.8968332,30.036496],[-94.8968556,30.0365261],[-94.8968657,30.0365608],[-94.8968627,30.0365965],[-94.8968467,30.0366295],[-94.8968194,30.0366565]]]}},{"type":"Feature","properties":{"osmId":"way/1372686254","layer":"water","name":"","railway":"","waterway":""},"geometry":{"type":"Polygon","coordinates":[[[-94.896445,30.036392],[-94.8964819,30.0364094],[-94.8965106,30.0364359],[-94.8965282,30.0364689],[-94.8965327,30.036505],[-94.8965239,30.0365405],[-94.8965005,30.036574],[-94.8964653,30.0365985],[-94.8964226,30.0366113],[-94.8963774,30.0366107],[-94.8963352,30.0365969],[-94.8963008,30.0365715],[-94.8962784,30.0365375],[-94.8962708,30.0365018],[-94.8962765,30.0364658],[-94.8962952,30.0364332],[-94.8963247,30.0364074],[-94.8963622,30.036391],[-94.8964037,30.0363857],[-94.896445,30.036392]]]}},{"type":"Feature","properties":{"osmId":"way/1372686255","layer":"water","name":"","railway":"","waterway":""},"geometry":{"type":"Polygon","coordinates":[[[-94.8972764,30.0359991],[-94.8970669,30.035999],[-94.897067,30.0355804],[-94.8972766,30.0355805],[-94.8972764,30.0359991]]]}},{"type":"Feature","properties":{"osmId":"way/1472854785","layer":"waterway","name":"","railway":"","waterway":"stream"},"geometry":{"type":"LineString","coordinates":[[-94.9070425,30.0328898],[-94.9066763,30.0325415]]}},{"type":"Feature","properties":{"osmId":"way/1472854786","layer":"waterway","name":"","railway":"","waterway":"stream"},"geometry":{"type":"LineString","coordinates":[[-94.9070811,30.0329322],[-94.9070425,30.0328898]]}},{"type":"Feature","properties":{"osmId":"way/1472878887","layer":"waterway","name":"","railway":"","waterway":"stream"},"geometry":{"type":"LineString","coordinates":[[-94.9066763,30.0325415],[-94.9065623,30.0324381],[-94.906549,30.032424],[-94.9065435,30.0324063],[-94.9065451,30.0323929],[-94.9065513,30.0323805],[-94.9065616,30.0323703],[-94.9066059,30.0323274],[-94.9066177,30.0323209],[-94.9066307,30.0323163],[-94.906644,30.0323167],[-94.9066568,30.0323134],[-94.9066662,30.032308],[-94.9066736,30.0323007],[-94.9067654,30.0322252],[-94.9067889,30.0322113],[-94.9068157,30.0322049],[-94.9068335,30.032196],[-94.9068486,30.032184],[-94.9069445,30.0321033],[-94.9069619,30.0320824],[-94.9069679,30.0320697],[-94.9069713,30.0320563],[-94.9069818,30.0320388],[-94.9069978,30.032025],[-94.907018,30.032016],[-94.9070404,30.0320127],[-94.9070697,30.032002],[-94.9070947,30.0319849],[-94.9072234,30.0318879],[-94.9072529,30.0318595],[-94.9072918,30.0318252],[-94.9073172,30.0318074],[-94.9073441,30.0317915],[-94.9073846,30.0317655],[-94.9074226,30.031737],[-94.9074615,30.0317026],[-94.907497,30.0316656],[-94.9076184,30.0315181],[-94.9076355,30.0314944],[-94.9076499,30.0314693],[-94.9076648,30.0314335],[-94.907674,30.0313962],[-94.9076866,30.0313265],[-94.9077036,30.0312575],[-94.9077254,30.0311878],[-94.9077402,30.031154],[-94.9077518,30.0311193],[-94.9077602,30.0310835],[-94.9077652,30.0310473],[-94.90778,30.0309834],[-94.9077955,30.030937],[-94.9078149,30.0308917],[-94.9078381,30.0308188],[-94.9078524,30.0307443],[-94.90786,30.0306952],[-94.9078712,30.0306467],[-94.9078921,30.0305814],[-94.9079195,30.0305179],[-94.9079446,30.0304473],[-94.9079647,30.0303757],[-94.9079798,30.0303031],[-94.908016,30.0301498],[-94.9080268,30.0301184],[-94.9080308,30.0300964],[-94.9080402,30.0300743],[-94.9080589,30.0299594],[-94.9080817,30.0299153],[-94.9080898,30.02987],[-94.9081421,30.0297097],[-94.9081528,30.0296389],[-94.9081783,30.0295693],[-94.908185,30.0295228],[-94.9081944,30.0295007],[-94.9083486,30.028969],[-94.9083607,30.0288993],[-94.9083902,30.0288494],[-94.9084023,30.0288006],[-94.9084023,30.0287751],[-94.9084184,30.0287275],[-94.9085619,30.0282247]]}}]}
